<?xml version="1.0" encoding="UTF-8"?>
<gpx version="1.1" creator="tcap-parcours" xmlns="http://www.topografix.com/GPX/1/1">
  <metadata><name>A/R Minou – L'indémodable – Aller-retour 20 km</name></metadata>
  <trk><name>A/R Minou – L'indémodable – Aller-retour 20 km</name><trkseg>
    <trkpt lat="48.370173" lon="-4.640151"><ele>60.0</ele></trkpt>
    <trkpt lat="48.370080" lon="-4.640146"><ele>60.0</ele></trkpt>
    <trkpt lat="48.370051" lon="-4.640230"><ele>60.0</ele></trkpt>
    <trkpt lat="48.370042" lon="-4.640779"><ele>60.0</ele></trkpt>
    <trkpt lat="48.369887" lon="-4.641188"><ele>60.0</ele></trkpt>
    <trkpt lat="48.369839" lon="-4.641563"><ele>60.2</ele></trkpt>
    <trkpt lat="48.369765" lon="-4.641639"><ele>60.3</ele></trkpt>
    <trkpt lat="48.369617" lon="-4.642143"><ele>60.4</ele></trkpt>
    <trkpt lat="48.369687" lon="-4.642481"><ele>60.7</ele></trkpt>
    <trkpt lat="48.369713" lon="-4.642868"><ele>60.0</ele></trkpt>
    <trkpt lat="48.369648" lon="-4.643161"><ele>59.5</ele></trkpt>
    <trkpt lat="48.369637" lon="-4.643531"><ele>58.4</ele></trkpt>
    <trkpt lat="48.369492" lon="-4.644248"><ele>57.8</ele></trkpt>
    <trkpt lat="48.369400" lon="-4.644461"><ele>58.1</ele></trkpt>
    <trkpt lat="48.369257" lon="-4.645093"><ele>57.5</ele></trkpt>
    <trkpt lat="48.369283" lon="-4.645384"><ele>57.2</ele></trkpt>
    <trkpt lat="48.369272" lon="-4.645672"><ele>57.3</ele></trkpt>
    <trkpt lat="48.369229" lon="-4.646111"><ele>57.9</ele></trkpt>
    <trkpt lat="48.369088" lon="-4.646531"><ele>59.0</ele></trkpt>
    <trkpt lat="48.369071" lon="-4.647072"><ele>60.0</ele></trkpt>
    <trkpt lat="48.368949" lon="-4.647405"><ele>61.3</ele></trkpt>
    <trkpt lat="48.368654" lon="-4.647620"><ele>63.0</ele></trkpt>
    <trkpt lat="48.368589" lon="-4.647725"><ele>63.3</ele></trkpt>
    <trkpt lat="48.368589" lon="-4.647839"><ele>63.8</ele></trkpt>
    <trkpt lat="48.368838" lon="-4.648639"><ele>64.1</ele></trkpt>
    <trkpt lat="48.368875" lon="-4.648893"><ele>64.7</ele></trkpt>
    <trkpt lat="48.368920" lon="-4.649442"><ele>74.8</ele></trkpt>
    <trkpt lat="48.368872" lon="-4.649570"><ele>74.6</ele></trkpt>
    <trkpt lat="48.368825" lon="-4.650125"><ele>75.0</ele></trkpt>
    <trkpt lat="48.368765" lon="-4.650323"><ele>75.6</ele></trkpt>
    <trkpt lat="48.368613" lon="-4.650600"><ele>76.0</ele></trkpt>
    <trkpt lat="48.367930" lon="-4.651335"><ele>77.0</ele></trkpt>
    <trkpt lat="48.367827" lon="-4.651488"><ele>77.4</ele></trkpt>
    <trkpt lat="48.367688" lon="-4.651813"><ele>77.4</ele></trkpt>
    <trkpt lat="48.367503" lon="-4.652505"><ele>77.8</ele></trkpt>
    <trkpt lat="48.367385" lon="-4.652787"><ele>77.6</ele></trkpt>
    <trkpt lat="48.367275" lon="-4.652877"><ele>77.4</ele></trkpt>
    <trkpt lat="48.367043" lon="-4.652898"><ele>78.2</ele></trkpt>
    <trkpt lat="48.366935" lon="-4.652958"><ele>78.4</ele></trkpt>
    <trkpt lat="48.366710" lon="-4.653255"><ele>78.6</ele></trkpt>
    <trkpt lat="48.366612" lon="-4.653332"><ele>78.8</ele></trkpt>
    <trkpt lat="48.366430" lon="-4.653378"><ele>79.2</ele></trkpt>
    <trkpt lat="48.366210" lon="-4.653363"><ele>79.4</ele></trkpt>
    <trkpt lat="48.365903" lon="-4.653438"><ele>79.6</ele></trkpt>
    <trkpt lat="48.365598" lon="-4.653778"><ele>79.8</ele></trkpt>
    <trkpt lat="48.365200" lon="-4.654085"><ele>80.0</ele></trkpt>
    <trkpt lat="48.364170" lon="-4.654710"><ele>80.4</ele></trkpt>
    <trkpt lat="48.363762" lon="-4.654862"><ele>80.8</ele></trkpt>
    <trkpt lat="48.363395" lon="-4.654920"><ele>81.0</ele></trkpt>
    <trkpt lat="48.362878" lon="-4.655118"><ele>80.6</ele></trkpt>
    <trkpt lat="48.362750" lon="-4.655268"><ele>80.4</ele></trkpt>
    <trkpt lat="48.362608" lon="-4.655988"><ele>79.2</ele></trkpt>
    <trkpt lat="48.362528" lon="-4.656182"><ele>79.2</ele></trkpt>
    <trkpt lat="48.362438" lon="-4.656287"><ele>79.4</ele></trkpt>
    <trkpt lat="48.362322" lon="-4.656327"><ele>79.2</ele></trkpt>
    <trkpt lat="48.361802" lon="-4.656353"><ele>78.2</ele></trkpt>
    <trkpt lat="48.361452" lon="-4.656462"><ele>77.6</ele></trkpt>
    <trkpt lat="48.361043" lon="-4.656690"><ele>76.6</ele></trkpt>
    <trkpt lat="48.360603" lon="-4.657083"><ele>75.0</ele></trkpt>
    <trkpt lat="48.360535" lon="-4.657368"><ele>74.2</ele></trkpt>
    <trkpt lat="48.360622" lon="-4.657870"><ele>74.0</ele></trkpt>
    <trkpt lat="48.361100" lon="-4.658710"><ele>73.4</ele></trkpt>
    <trkpt lat="48.361310" lon="-4.659142"><ele>73.4</ele></trkpt>
    <trkpt lat="48.361592" lon="-4.659928"><ele>72.0</ele></trkpt>
    <trkpt lat="48.361595" lon="-4.660038"><ele>72.0</ele></trkpt>
    <trkpt lat="48.361527" lon="-4.660183"><ele>71.6</ele></trkpt>
    <trkpt lat="48.361105" lon="-4.660558"><ele>71.2</ele></trkpt>
    <trkpt lat="48.360717" lon="-4.660842"><ele>71.2</ele></trkpt>
    <trkpt lat="48.360487" lon="-4.661075"><ele>70.8</ele></trkpt>
    <trkpt lat="48.360142" lon="-4.661638"><ele>69.6</ele></trkpt>
    <trkpt lat="48.360122" lon="-4.661817"><ele>69.4</ele></trkpt>
    <trkpt lat="48.360175" lon="-4.662055"><ele>68.4</ele></trkpt>
    <trkpt lat="48.360118" lon="-4.662228"><ele>67.6</ele></trkpt>
    <trkpt lat="48.359425" lon="-4.663217"><ele>62.0</ele></trkpt>
    <trkpt lat="48.358972" lon="-4.663932"><ele>59.0</ele></trkpt>
    <trkpt lat="48.358138" lon="-4.664330"><ele>57.4</ele></trkpt>
    <trkpt lat="48.357807" lon="-4.664280"><ele>57.2</ele></trkpt>
    <trkpt lat="48.357230" lon="-4.664520"><ele>56.0</ele></trkpt>
    <trkpt lat="48.357013" lon="-4.664715"><ele>55.2</ele></trkpt>
    <trkpt lat="48.356950" lon="-4.665183"><ele>53.8</ele></trkpt>
    <trkpt lat="48.356812" lon="-4.665565"><ele>52.8</ele></trkpt>
    <trkpt lat="48.356752" lon="-4.665647"><ele>52.6</ele></trkpt>
    <trkpt lat="48.356152" lon="-4.665727"><ele>50.0</ele></trkpt>
    <trkpt lat="48.355847" lon="-4.665867"><ele>48.8</ele></trkpt>
    <trkpt lat="48.355562" lon="-4.665872"><ele>47.2</ele></trkpt>
    <trkpt lat="48.355430" lon="-4.666038"><ele>46.4</ele></trkpt>
    <trkpt lat="48.355185" lon="-4.666220"><ele>45.0</ele></trkpt>
    <trkpt lat="48.355050" lon="-4.666465"><ele>43.4</ele></trkpt>
    <trkpt lat="48.354947" lon="-4.666572"><ele>42.2</ele></trkpt>
    <trkpt lat="48.354467" lon="-4.666642"><ele>38.4</ele></trkpt>
    <trkpt lat="48.353850" lon="-4.666525"><ele>30.6</ele></trkpt>
    <trkpt lat="48.353243" lon="-4.666735"><ele>18.8</ele></trkpt>
    <trkpt lat="48.353165" lon="-4.666725"><ele>16.8</ele></trkpt>
    <trkpt lat="48.353125" lon="-4.666603"><ele>15.8</ele></trkpt>
    <trkpt lat="48.353310" lon="-4.664858"><ele>22.8</ele></trkpt>
    <trkpt lat="48.353402" lon="-4.664482"><ele>26.2</ele></trkpt>
    <trkpt lat="48.353832" lon="-4.663208"><ele>31.6</ele></trkpt>
    <trkpt lat="48.353948" lon="-4.662732"><ele>33.0</ele></trkpt>
    <trkpt lat="48.353830" lon="-4.662650"><ele>33.4</ele></trkpt>
    <trkpt lat="48.353613" lon="-4.662632"><ele>34.8</ele></trkpt>
    <trkpt lat="48.353213" lon="-4.662745"><ele>36.0</ele></trkpt>
    <trkpt lat="48.352527" lon="-4.662848"><ele>30.2</ele></trkpt>
    <trkpt lat="48.351822" lon="-4.662723"><ele>27.6</ele></trkpt>
    <trkpt lat="48.351707" lon="-4.662658"><ele>27.0</ele></trkpt>
    <trkpt lat="48.351608" lon="-4.662533"><ele>26.2</ele></trkpt>
    <trkpt lat="48.351500" lon="-4.662307"><ele>26.2</ele></trkpt>
    <trkpt lat="48.351263" lon="-4.661982"><ele>25.6</ele></trkpt>
    <trkpt lat="48.351083" lon="-4.661468"><ele>25.2</ele></trkpt>
    <trkpt lat="48.350973" lon="-4.661475"><ele>24.4</ele></trkpt>
    <trkpt lat="48.350952" lon="-4.661437"><ele>23.4</ele></trkpt>
    <trkpt lat="48.350982" lon="-4.661033"><ele>21.6</ele></trkpt>
    <trkpt lat="48.351035" lon="-4.660750"><ele>20.6</ele></trkpt>
    <trkpt lat="48.351000" lon="-4.660648"><ele>20.8</ele></trkpt>
    <trkpt lat="48.350803" lon="-4.660385"><ele>19.4</ele></trkpt>
    <trkpt lat="48.350745" lon="-4.660010"><ele>17.6</ele></trkpt>
    <trkpt lat="48.350440" lon="-4.659563"><ele>15.4</ele></trkpt>
    <trkpt lat="48.350420" lon="-4.659457"><ele>15.2</ele></trkpt>
    <trkpt lat="48.350473" lon="-4.659260"><ele>15.4</ele></trkpt>
    <trkpt lat="48.350478" lon="-4.659115"><ele>16.0</ele></trkpt>
    <trkpt lat="48.350383" lon="-4.658748"><ele>18.2</ele></trkpt>
    <trkpt lat="48.350130" lon="-4.658288"><ele>19.6</ele></trkpt>
    <trkpt lat="48.350020" lon="-4.658155"><ele>20.6</ele></trkpt>
    <trkpt lat="48.349828" lon="-4.658020"><ele>23.0</ele></trkpt>
    <trkpt lat="48.349705" lon="-4.657778"><ele>23.8</ele></trkpt>
    <trkpt lat="48.349513" lon="-4.657590"><ele>24.8</ele></trkpt>
    <trkpt lat="48.349380" lon="-4.656690"><ele>34.2</ele></trkpt>
    <trkpt lat="48.349307" lon="-4.656507"><ele>36.2</ele></trkpt>
    <trkpt lat="48.349222" lon="-4.656418"><ele>36.4</ele></trkpt>
    <trkpt lat="48.349025" lon="-4.656380"><ele>35.8</ele></trkpt>
    <trkpt lat="48.348920" lon="-4.656258"><ele>34.4</ele></trkpt>
    <trkpt lat="48.348880" lon="-4.656098"><ele>34.0</ele></trkpt>
    <trkpt lat="48.348877" lon="-4.655872"><ele>33.6</ele></trkpt>
    <trkpt lat="48.348992" lon="-4.655368"><ele>32.0</ele></trkpt>
    <trkpt lat="48.348868" lon="-4.654885"><ele>27.8</ele></trkpt>
    <trkpt lat="48.348622" lon="-4.654570"><ele>29.0</ele></trkpt>
    <trkpt lat="48.348458" lon="-4.654047"><ele>31.4</ele></trkpt>
    <trkpt lat="48.348210" lon="-4.653692"><ele>33.2</ele></trkpt>
    <trkpt lat="48.348142" lon="-4.653675"><ele>34.4</ele></trkpt>
    <trkpt lat="48.347968" lon="-4.653798"><ele>36.8</ele></trkpt>
    <trkpt lat="48.347697" lon="-4.653770"><ele>38.8</ele></trkpt>
    <trkpt lat="48.347528" lon="-4.653685"><ele>40.2</ele></trkpt>
    <trkpt lat="48.347275" lon="-4.653443"><ele>41.6</ele></trkpt>
    <trkpt lat="48.347030" lon="-4.653123"><ele>42.0</ele></trkpt>
    <trkpt lat="48.346897" lon="-4.652680"><ele>42.2</ele></trkpt>
    <trkpt lat="48.346795" lon="-4.652547"><ele>41.6</ele></trkpt>
    <trkpt lat="48.346550" lon="-4.652340"><ele>39.4</ele></trkpt>
    <trkpt lat="48.346422" lon="-4.652133"><ele>38.6</ele></trkpt>
    <trkpt lat="48.346338" lon="-4.651878"><ele>37.8</ele></trkpt>
    <trkpt lat="48.346355" lon="-4.651663"><ele>37.4</ele></trkpt>
    <trkpt lat="48.346327" lon="-4.651568"><ele>37.0</ele></trkpt>
    <trkpt lat="48.346192" lon="-4.651452"><ele>35.6</ele></trkpt>
    <trkpt lat="48.346002" lon="-4.651207"><ele>33.6</ele></trkpt>
    <trkpt lat="48.345948" lon="-4.650860"><ele>32.4</ele></trkpt>
    <trkpt lat="48.345785" lon="-4.650622"><ele>31.4</ele></trkpt>
    <trkpt lat="48.345772" lon="-4.650452"><ele>31.4</ele></trkpt>
    <trkpt lat="48.345805" lon="-4.650287"><ele>31.8</ele></trkpt>
    <trkpt lat="48.346015" lon="-4.649912"><ele>34.4</ele></trkpt>
    <trkpt lat="48.346153" lon="-4.649563"><ele>39.8</ele></trkpt>
    <trkpt lat="48.346180" lon="-4.649390"><ele>41.4</ele></trkpt>
    <trkpt lat="48.345993" lon="-4.648770"><ele>41.2</ele></trkpt>
    <trkpt lat="48.345818" lon="-4.648420"><ele>39.6</ele></trkpt>
    <trkpt lat="48.345698" lon="-4.648290"><ele>38.8</ele></trkpt>
    <trkpt lat="48.345622" lon="-4.647747"><ele>37.0</ele></trkpt>
    <trkpt lat="48.345648" lon="-4.647540"><ele>37.4</ele></trkpt>
    <trkpt lat="48.345873" lon="-4.647125"><ele>39.8</ele></trkpt>
    <trkpt lat="48.345915" lon="-4.646957"><ele>42.0</ele></trkpt>
    <trkpt lat="48.345892" lon="-4.646750"><ele>43.6</ele></trkpt>
    <trkpt lat="48.345672" lon="-4.646097"><ele>44.0</ele></trkpt>
    <trkpt lat="48.345753" lon="-4.645738"><ele>45.8</ele></trkpt>
    <trkpt lat="48.345610" lon="-4.645400"><ele>48.0</ele></trkpt>
    <trkpt lat="48.345710" lon="-4.644963"><ele>48.0</ele></trkpt>
    <trkpt lat="48.345670" lon="-4.644275"><ele>44.6</ele></trkpt>
    <trkpt lat="48.345778" lon="-4.644072"><ele>44.0</ele></trkpt>
    <trkpt lat="48.346273" lon="-4.643840"><ele>45.6</ele></trkpt>
    <trkpt lat="48.346302" lon="-4.643632"><ele>45.2</ele></trkpt>
    <trkpt lat="48.346272" lon="-4.643240"><ele>44.6</ele></trkpt>
    <trkpt lat="48.345768" lon="-4.642723"><ele>37.6</ele></trkpt>
    <trkpt lat="48.345615" lon="-4.642775"><ele>34.2</ele></trkpt>
    <trkpt lat="48.345530" lon="-4.642742"><ele>32.6</ele></trkpt>
    <trkpt lat="48.345505" lon="-4.642658"><ele>31.2</ele></trkpt>
    <trkpt lat="48.345545" lon="-4.642188"><ele>26.0</ele></trkpt>
    <trkpt lat="48.345683" lon="-4.641823"><ele>22.4</ele></trkpt>
    <trkpt lat="48.346197" lon="-4.641078"><ele>15.6</ele></trkpt>
    <trkpt lat="48.346397" lon="-4.640870"><ele>13.8</ele></trkpt>
    <trkpt lat="48.346875" lon="-4.640500"><ele>10.2</ele></trkpt>
    <trkpt lat="48.347165" lon="-4.640403"><ele>9.4</ele></trkpt>
    <trkpt lat="48.347270" lon="-4.640327"><ele>9.8</ele></trkpt>
    <trkpt lat="48.347368" lon="-4.640210"><ele>10.0</ele></trkpt>
    <trkpt lat="48.347535" lon="-4.639897"><ele>9.0</ele></trkpt>
    <trkpt lat="48.347690" lon="-4.639735"><ele>8.0</ele></trkpt>
    <trkpt lat="48.347695" lon="-4.639663"><ele>7.8</ele></trkpt>
    <trkpt lat="48.347660" lon="-4.639580"><ele>8.0</ele></trkpt>
    <trkpt lat="48.347593" lon="-4.639540"><ele>8.0</ele></trkpt>
    <trkpt lat="48.347318" lon="-4.639698"><ele>8.4</ele></trkpt>
    <trkpt lat="48.346902" lon="-4.639717"><ele>9.2</ele></trkpt>
    <trkpt lat="48.346712" lon="-4.639817"><ele>9.6</ele></trkpt>
    <trkpt lat="48.346383" lon="-4.639880"><ele>12.6</ele></trkpt>
    <trkpt lat="48.345980" lon="-4.639853"><ele>17.6</ele></trkpt>
    <trkpt lat="48.345888" lon="-4.639787"><ele>18.6</ele></trkpt>
    <trkpt lat="48.345782" lon="-4.639477"><ele>21.4</ele></trkpt>
    <trkpt lat="48.345783" lon="-4.638927"><ele>25.0</ele></trkpt>
    <trkpt lat="48.345760" lon="-4.638788"><ele>26.6</ele></trkpt>
    <trkpt lat="48.345468" lon="-4.638603"><ele>29.8</ele></trkpt>
    <trkpt lat="48.345327" lon="-4.638625"><ele>30.6</ele></trkpt>
    <trkpt lat="48.345195" lon="-4.638572"><ele>30.8</ele></trkpt>
    <trkpt lat="48.345112" lon="-4.638488"><ele>31.2</ele></trkpt>
    <trkpt lat="48.344997" lon="-4.638268"><ele>32.8</ele></trkpt>
    <trkpt lat="48.344952" lon="-4.637705"><ele>34.0</ele></trkpt>
    <trkpt lat="48.344820" lon="-4.637315"><ele>34.0</ele></trkpt>
    <trkpt lat="48.344740" lon="-4.636748"><ele>35.2</ele></trkpt>
    <trkpt lat="48.344675" lon="-4.636535"><ele>35.8</ele></trkpt>
    <trkpt lat="48.344578" lon="-4.636365"><ele>34.8</ele></trkpt>
    <trkpt lat="48.344523" lon="-4.636332"><ele>34.4</ele></trkpt>
    <trkpt lat="48.344243" lon="-4.636510"><ele>33.0</ele></trkpt>
    <trkpt lat="48.344167" lon="-4.636520"><ele>32.6</ele></trkpt>
    <trkpt lat="48.344133" lon="-4.636432"><ele>31.8</ele></trkpt>
    <trkpt lat="48.344188" lon="-4.636087"><ele>32.2</ele></trkpt>
    <trkpt lat="48.344158" lon="-4.635943"><ele>33.4</ele></trkpt>
    <trkpt lat="48.344043" lon="-4.635802"><ele>35.4</ele></trkpt>
    <trkpt lat="48.343898" lon="-4.635802"><ele>35.6</ele></trkpt>
    <trkpt lat="48.343827" lon="-4.635750"><ele>35.6</ele></trkpt>
    <trkpt lat="48.343623" lon="-4.635427"><ele>36.0</ele></trkpt>
    <trkpt lat="48.343550" lon="-4.635408"><ele>36.0</ele></trkpt>
    <trkpt lat="48.343407" lon="-4.635485"><ele>36.0</ele></trkpt>
    <trkpt lat="48.343348" lon="-4.635450"><ele>36.0</ele></trkpt>
    <trkpt lat="48.343252" lon="-4.635153"><ele>36.2</ele></trkpt>
    <trkpt lat="48.343078" lon="-4.634930"><ele>37.8</ele></trkpt>
    <trkpt lat="48.342998" lon="-4.634480"><ele>39.4</ele></trkpt>
    <trkpt lat="48.342898" lon="-4.634233"><ele>36.2</ele></trkpt>
    <trkpt lat="48.342965" lon="-4.633855"><ele>31.8</ele></trkpt>
    <trkpt lat="48.343425" lon="-4.633537"><ele>25.4</ele></trkpt>
    <trkpt lat="48.343617" lon="-4.633353"><ele>24.8</ele></trkpt>
    <trkpt lat="48.343917" lon="-4.632783"><ele>17.8</ele></trkpt>
    <trkpt lat="48.344142" lon="-4.632595"><ele>12.4</ele></trkpt>
    <trkpt lat="48.344167" lon="-4.632470"><ele>10.8</ele></trkpt>
    <trkpt lat="48.344125" lon="-4.632365"><ele>10.0</ele></trkpt>
    <trkpt lat="48.343937" lon="-4.632280"><ele>10.4</ele></trkpt>
    <trkpt lat="48.343680" lon="-4.632303"><ele>13.2</ele></trkpt>
    <trkpt lat="48.343520" lon="-4.632032"><ele>18.0</ele></trkpt>
    <trkpt lat="48.343147" lon="-4.631915"><ele>22.8</ele></trkpt>
    <trkpt lat="48.343018" lon="-4.631915"><ele>23.4</ele></trkpt>
    <trkpt lat="48.342738" lon="-4.631643"><ele>32.0</ele></trkpt>
    <trkpt lat="48.342503" lon="-4.631512"><ele>37.8</ele></trkpt>
    <trkpt lat="48.342378" lon="-4.631380"><ele>41.0</ele></trkpt>
    <trkpt lat="48.342283" lon="-4.631205"><ele>43.6</ele></trkpt>
    <trkpt lat="48.342247" lon="-4.631097"><ele>44.4</ele></trkpt>
    <trkpt lat="48.342250" lon="-4.630907"><ele>45.6</ele></trkpt>
    <trkpt lat="48.342188" lon="-4.630805"><ele>45.8</ele></trkpt>
    <trkpt lat="48.341820" lon="-4.630742"><ele>46.2</ele></trkpt>
    <trkpt lat="48.341367" lon="-4.630927"><ele>51.6</ele></trkpt>
    <trkpt lat="48.341130" lon="-4.630777"><ele>53.0</ele></trkpt>
    <trkpt lat="48.341112" lon="-4.630692"><ele>53.2</ele></trkpt>
    <trkpt lat="48.341177" lon="-4.630563"><ele>52.6</ele></trkpt>
    <trkpt lat="48.341243" lon="-4.630528"><ele>52.2</ele></trkpt>
    <trkpt lat="48.341423" lon="-4.630542"><ele>51.2</ele></trkpt>
    <trkpt lat="48.341473" lon="-4.630460"><ele>51.0</ele></trkpt>
    <trkpt lat="48.341478" lon="-4.630358"><ele>50.8</ele></trkpt>
    <trkpt lat="48.340850" lon="-4.629333"><ele>52.2</ele></trkpt>
    <trkpt lat="48.340763" lon="-4.629047"><ele>52.0</ele></trkpt>
    <trkpt lat="48.340763" lon="-4.628922"><ele>53.0</ele></trkpt>
    <trkpt lat="48.340875" lon="-4.628737"><ele>54.6</ele></trkpt>
    <trkpt lat="48.340997" lon="-4.628752"><ele>55.6</ele></trkpt>
    <trkpt lat="48.341057" lon="-4.628598"><ele>57.6</ele></trkpt>
    <trkpt lat="48.341145" lon="-4.628535"><ele>58.2</ele></trkpt>
    <trkpt lat="48.341200" lon="-4.628105"><ele>57.8</ele></trkpt>
    <trkpt lat="48.341212" lon="-4.627713"><ele>57.0</ele></trkpt>
    <trkpt lat="48.341275" lon="-4.627590"><ele>56.4</ele></trkpt>
    <trkpt lat="48.341333" lon="-4.627592"><ele>56.0</ele></trkpt>
    <trkpt lat="48.341570" lon="-4.627768"><ele>55.4</ele></trkpt>
    <trkpt lat="48.342148" lon="-4.627568"><ele>53.2</ele></trkpt>
    <trkpt lat="48.342195" lon="-4.627422"><ele>52.4</ele></trkpt>
    <trkpt lat="48.342147" lon="-4.626947"><ele>51.0</ele></trkpt>
    <trkpt lat="48.342108" lon="-4.626855"><ele>50.6</ele></trkpt>
    <trkpt lat="48.342003" lon="-4.626772"><ele>50.2</ele></trkpt>
    <trkpt lat="48.341402" lon="-4.626502"><ele>51.0</ele></trkpt>
    <trkpt lat="48.341192" lon="-4.626212"><ele>50.0</ele></trkpt>
    <trkpt lat="48.341038" lon="-4.625758"><ele>48.0</ele></trkpt>
    <trkpt lat="48.340950" lon="-4.625025"><ele>44.0</ele></trkpt>
    <trkpt lat="48.340830" lon="-4.624643"><ele>40.8</ele></trkpt>
    <trkpt lat="48.340822" lon="-4.624367"><ele>39.0</ele></trkpt>
    <trkpt lat="48.340708" lon="-4.624212"><ele>38.6</ele></trkpt>
    <trkpt lat="48.340643" lon="-4.624153"><ele>38.0</ele></trkpt>
    <trkpt lat="48.340342" lon="-4.624057"><ele>36.2</ele></trkpt>
    <trkpt lat="48.339928" lon="-4.624065"><ele>33.8</ele></trkpt>
    <trkpt lat="48.339602" lon="-4.624018"><ele>31.4</ele></trkpt>
    <trkpt lat="48.339395" lon="-4.623948"><ele>29.8</ele></trkpt>
    <trkpt lat="48.339345" lon="-4.623887"><ele>29.2</ele></trkpt>
    <trkpt lat="48.339347" lon="-4.623730"><ele>28.0</ele></trkpt>
    <trkpt lat="48.339495" lon="-4.623452"><ele>27.8</ele></trkpt>
    <trkpt lat="48.339515" lon="-4.622882"><ele>34.0</ele></trkpt>
    <trkpt lat="48.339463" lon="-4.622345"><ele>36.0</ele></trkpt>
    <trkpt lat="48.339335" lon="-4.621993"><ele>35.2</ele></trkpt>
    <trkpt lat="48.339258" lon="-4.621390"><ele>31.6</ele></trkpt>
    <trkpt lat="48.339300" lon="-4.620860"><ele>32.8</ele></trkpt>
    <trkpt lat="48.339352" lon="-4.620605"><ele>31.8</ele></trkpt>
    <trkpt lat="48.339345" lon="-4.620122"><ele>26.6</ele></trkpt>
    <trkpt lat="48.339458" lon="-4.619530"><ele>22.2</ele></trkpt>
    <trkpt lat="48.339455" lon="-4.619175"><ele>20.8</ele></trkpt>
    <trkpt lat="48.339500" lon="-4.618972"><ele>24.4</ele></trkpt>
    <trkpt lat="48.339397" lon="-4.618613"><ele>26.8</ele></trkpt>
    <trkpt lat="48.339373" lon="-4.618333"><ele>26.4</ele></trkpt>
    <trkpt lat="48.339377" lon="-4.617877"><ele>25.4</ele></trkpt>
    <trkpt lat="48.339432" lon="-4.617523"><ele>25.6</ele></trkpt>
    <trkpt lat="48.339647" lon="-4.616840"><ele>31.4</ele></trkpt>
    <trkpt lat="48.339887" lon="-4.616583"><ele>36.0</ele></trkpt>
    <trkpt lat="48.340278" lon="-4.615888"><ele>34.0</ele></trkpt>
    <trkpt lat="48.340485" lon="-4.615720"><ele>32.8</ele></trkpt>
    <trkpt lat="48.340627" lon="-4.615675"><ele>31.2</ele></trkpt>
    <trkpt lat="48.340850" lon="-4.615508"><ele>26.4</ele></trkpt>
    <trkpt lat="48.340862" lon="-4.615242"><ele>19.6</ele></trkpt>
    <trkpt lat="48.340825" lon="-4.615167"><ele>18.2</ele></trkpt>
    <trkpt lat="48.340747" lon="-4.615157"><ele>17.0</ele></trkpt>
    <trkpt lat="48.340217" lon="-4.615317"><ele>14.4</ele></trkpt>
    <trkpt lat="48.340000" lon="-4.615285"><ele>11.8</ele></trkpt>
    <trkpt lat="48.339885" lon="-4.615325"><ele>10.2</ele></trkpt>
    <trkpt lat="48.339487" lon="-4.615340"><ele>10.0</ele></trkpt>
    <trkpt lat="48.339098" lon="-4.615208"><ele>15.8</ele></trkpt>
    <trkpt lat="48.338717" lon="-4.614768"><ele>19.8</ele></trkpt>
    <trkpt lat="48.338715" lon="-4.614632"><ele>21.2</ele></trkpt>
    <trkpt lat="48.338867" lon="-4.614447"><ele>24.8</ele></trkpt>
    <trkpt lat="48.338943" lon="-4.614217"><ele>29.6</ele></trkpt>
    <trkpt lat="48.338905" lon="-4.614020"><ele>30.8</ele></trkpt>
    <trkpt lat="48.338702" lon="-4.613620"><ele>30.0</ele></trkpt>
    <trkpt lat="48.338665" lon="-4.613490"><ele>29.4</ele></trkpt>
    <trkpt lat="48.338700" lon="-4.612842"><ele>27.4</ele></trkpt>
    <trkpt lat="48.338822" lon="-4.612397"><ele>26.2</ele></trkpt>
    <trkpt lat="48.339028" lon="-4.612148"><ele>26.2</ele></trkpt>
    <trkpt lat="48.339232" lon="-4.611737"><ele>26.8</ele></trkpt>
    <trkpt lat="48.339237" lon="-4.611793"><ele>26.8</ele></trkpt>
    <trkpt lat="48.339150" lon="-4.611955"><ele>27.0</ele></trkpt>
    <trkpt lat="48.338900" lon="-4.612257"><ele>27.0</ele></trkpt>
    <trkpt lat="48.338788" lon="-4.612498"><ele>26.6</ele></trkpt>
    <trkpt lat="48.338698" lon="-4.613003"><ele>26.0</ele></trkpt>
    <trkpt lat="48.338673" lon="-4.613797"><ele>28.2</ele></trkpt>
    <trkpt lat="48.338610" lon="-4.614028"><ele>27.4</ele></trkpt>
    <trkpt lat="48.338480" lon="-4.614248"><ele>25.0</ele></trkpt>
    <trkpt lat="48.338243" lon="-4.614492"><ele>23.2</ele></trkpt>
    <trkpt lat="48.338057" lon="-4.614523"><ele>22.8</ele></trkpt>
    <trkpt lat="48.338032" lon="-4.614382"><ele>22.6</ele></trkpt>
    <trkpt lat="48.338048" lon="-4.614335"><ele>22.6</ele></trkpt>
    <trkpt lat="48.338103" lon="-4.614282"><ele>22.4</ele></trkpt>
    <trkpt lat="48.338293" lon="-4.614302"><ele>22.4</ele></trkpt>
    <trkpt lat="48.338457" lon="-4.614225"><ele>22.0</ele></trkpt>
    <trkpt lat="48.338693" lon="-4.613778"><ele>23.8</ele></trkpt>
    <trkpt lat="48.338752" lon="-4.613757"><ele>24.8</ele></trkpt>
    <trkpt lat="48.338880" lon="-4.613982"><ele>28.2</ele></trkpt>
    <trkpt lat="48.338945" lon="-4.614312"><ele>31.2</ele></trkpt>
    <trkpt lat="48.338887" lon="-4.614458"><ele>30.2</ele></trkpt>
    <trkpt lat="48.338733" lon="-4.614645"><ele>26.8</ele></trkpt>
    <trkpt lat="48.338707" lon="-4.614778"><ele>25.0</ele></trkpt>
    <trkpt lat="48.338743" lon="-4.614858"><ele>24.4</ele></trkpt>
    <trkpt lat="48.339092" lon="-4.615220"><ele>19.6</ele></trkpt>
    <trkpt lat="48.339522" lon="-4.615312"><ele>13.6</ele></trkpt>
    <trkpt lat="48.339957" lon="-4.615290"><ele>8.0</ele></trkpt>
    <trkpt lat="48.340200" lon="-4.615343"><ele>6.8</ele></trkpt>
    <trkpt lat="48.340553" lon="-4.615285"><ele>9.6</ele></trkpt>
    <trkpt lat="48.340787" lon="-4.615190"><ele>11.4</ele></trkpt>
    <trkpt lat="48.340837" lon="-4.615210"><ele>11.8</ele></trkpt>
    <trkpt lat="48.340920" lon="-4.615362"><ele>14.0</ele></trkpt>
    <trkpt lat="48.340935" lon="-4.615465"><ele>16.4</ele></trkpt>
    <trkpt lat="48.340825" lon="-4.615570"><ele>20.8</ele></trkpt>
    <trkpt lat="48.340502" lon="-4.615695"><ele>28.6</ele></trkpt>
    <trkpt lat="48.340285" lon="-4.615893"><ele>32.8</ele></trkpt>
    <trkpt lat="48.339922" lon="-4.616557"><ele>37.6</ele></trkpt>
    <trkpt lat="48.339675" lon="-4.616825"><ele>38.2</ele></trkpt>
    <trkpt lat="48.339592" lon="-4.617055"><ele>35.6</ele></trkpt>
    <trkpt lat="48.339398" lon="-4.617932"><ele>28.2</ele></trkpt>
    <trkpt lat="48.339417" lon="-4.618585"><ele>26.8</ele></trkpt>
    <trkpt lat="48.339523" lon="-4.619030"><ele>27.4</ele></trkpt>
    <trkpt lat="48.339470" lon="-4.619207"><ele>26.2</ele></trkpt>
    <trkpt lat="48.339475" lon="-4.619637"><ele>22.0</ele></trkpt>
    <trkpt lat="48.339362" lon="-4.620210"><ele>23.0</ele></trkpt>
    <trkpt lat="48.339358" lon="-4.620738"><ele>27.6</ele></trkpt>
    <trkpt lat="48.339263" lon="-4.621345"><ele>33.4</ele></trkpt>
    <trkpt lat="48.339330" lon="-4.622013"><ele>29.8</ele></trkpt>
    <trkpt lat="48.339452" lon="-4.622352"><ele>32.0</ele></trkpt>
    <trkpt lat="48.339523" lon="-4.623020"><ele>33.4</ele></trkpt>
    <trkpt lat="48.339502" lon="-4.623547"><ele>30.0</ele></trkpt>
    <trkpt lat="48.339358" lon="-4.623813"><ele>25.0</ele></trkpt>
    <trkpt lat="48.339387" lon="-4.623953"><ele>24.0</ele></trkpt>
    <trkpt lat="48.339708" lon="-4.624063"><ele>25.8</ele></trkpt>
    <trkpt lat="48.340373" lon="-4.624115"><ele>30.6</ele></trkpt>
    <trkpt lat="48.340728" lon="-4.624320"><ele>33.2</ele></trkpt>
    <trkpt lat="48.340818" lon="-4.624460"><ele>34.4</ele></trkpt>
    <trkpt lat="48.340847" lon="-4.624815"><ele>36.0</ele></trkpt>
    <trkpt lat="48.340987" lon="-4.625147"><ele>36.8</ele></trkpt>
    <trkpt lat="48.341077" lon="-4.625767"><ele>41.2</ele></trkpt>
    <trkpt lat="48.341243" lon="-4.626287"><ele>45.0</ele></trkpt>
    <trkpt lat="48.341340" lon="-4.626428"><ele>46.0</ele></trkpt>
    <trkpt lat="48.341447" lon="-4.626510"><ele>46.6</ele></trkpt>
    <trkpt lat="48.342077" lon="-4.626840"><ele>48.0</ele></trkpt>
    <trkpt lat="48.342178" lon="-4.627043"><ele>48.0</ele></trkpt>
    <trkpt lat="48.342210" lon="-4.627463"><ele>49.4</ele></trkpt>
    <trkpt lat="48.342190" lon="-4.627557"><ele>49.8</ele></trkpt>
    <trkpt lat="48.342137" lon="-4.627623"><ele>50.2</ele></trkpt>
    <trkpt lat="48.341553" lon="-4.627800"><ele>53.8</ele></trkpt>
    <trkpt lat="48.341307" lon="-4.627640"><ele>54.2</ele></trkpt>
    <trkpt lat="48.341248" lon="-4.627648"><ele>54.0</ele></trkpt>
    <trkpt lat="48.341200" lon="-4.627807"><ele>53.6</ele></trkpt>
    <trkpt lat="48.341157" lon="-4.628553"><ele>56.2</ele></trkpt>
    <trkpt lat="48.341070" lon="-4.628627"><ele>56.6</ele></trkpt>
    <trkpt lat="48.341008" lon="-4.628755"><ele>56.8</ele></trkpt>
    <trkpt lat="48.340865" lon="-4.628727"><ele>56.2</ele></trkpt>
    <trkpt lat="48.340760" lon="-4.628932"><ele>55.2</ele></trkpt>
    <trkpt lat="48.340772" lon="-4.629103"><ele>55.0</ele></trkpt>
    <trkpt lat="48.340862" lon="-4.629397"><ele>52.6</ele></trkpt>
    <trkpt lat="48.341420" lon="-4.630327"><ele>49.8</ele></trkpt>
    <trkpt lat="48.341482" lon="-4.630477"><ele>49.6</ele></trkpt>
    <trkpt lat="48.341457" lon="-4.630625"><ele>49.2</ele></trkpt>
    <trkpt lat="48.341377" lon="-4.630663"><ele>49.0</ele></trkpt>
    <trkpt lat="48.341197" lon="-4.630602"><ele>49.0</ele></trkpt>
    <trkpt lat="48.341148" lon="-4.630657"><ele>49.0</ele></trkpt>
    <trkpt lat="48.341123" lon="-4.630788"><ele>49.4</ele></trkpt>
    <trkpt lat="48.341203" lon="-4.630902"><ele>51.2</ele></trkpt>
    <trkpt lat="48.341307" lon="-4.630943"><ele>51.6</ele></trkpt>
    <trkpt lat="48.341820" lon="-4.630778"><ele>49.4</ele></trkpt>
    <trkpt lat="48.342157" lon="-4.630837"><ele>46.2</ele></trkpt>
    <trkpt lat="48.342237" lon="-4.630952"><ele>45.6</ele></trkpt>
    <trkpt lat="48.342240" lon="-4.631152"><ele>45.2</ele></trkpt>
    <trkpt lat="48.342297" lon="-4.631297"><ele>45.4</ele></trkpt>
    <trkpt lat="48.342505" lon="-4.631555"><ele>44.2</ele></trkpt>
    <trkpt lat="48.342780" lon="-4.631700"><ele>38.4</ele></trkpt>
    <trkpt lat="48.343015" lon="-4.631915"><ele>30.4</ele></trkpt>
    <trkpt lat="48.343527" lon="-4.632057"><ele>21.8</ele></trkpt>
    <trkpt lat="48.343683" lon="-4.632342"><ele>19.0</ele></trkpt>
    <trkpt lat="48.343920" lon="-4.632353"><ele>14.4</ele></trkpt>
    <trkpt lat="48.344107" lon="-4.632457"><ele>10.8</ele></trkpt>
    <trkpt lat="48.344157" lon="-4.632647"><ele>8.4</ele></trkpt>
    <trkpt lat="48.343925" lon="-4.632847"><ele>9.6</ele></trkpt>
    <trkpt lat="48.343672" lon="-4.633300"><ele>18.2</ele></trkpt>
    <trkpt lat="48.343408" lon="-4.633588"><ele>22.8</ele></trkpt>
    <trkpt lat="48.342937" lon="-4.633950"><ele>23.8</ele></trkpt>
    <trkpt lat="48.342897" lon="-4.634273"><ele>28.0</ele></trkpt>
    <trkpt lat="48.342990" lon="-4.634572"><ele>32.0</ele></trkpt>
    <trkpt lat="48.343038" lon="-4.634878"><ele>36.6</ele></trkpt>
    <trkpt lat="48.343372" lon="-4.635513"><ele>36.8</ele></trkpt>
    <trkpt lat="48.343613" lon="-4.635470"><ele>34.4</ele></trkpt>
    <trkpt lat="48.343862" lon="-4.635817"><ele>33.4</ele></trkpt>
    <trkpt lat="48.344032" lon="-4.635850"><ele>33.0</ele></trkpt>
    <trkpt lat="48.344112" lon="-4.635943"><ele>34.0</ele></trkpt>
    <trkpt lat="48.344183" lon="-4.636117"><ele>34.4</ele></trkpt>
    <trkpt lat="48.344153" lon="-4.636455"><ele>33.8</ele></trkpt>
    <trkpt lat="48.344183" lon="-4.636570"><ele>32.2</ele></trkpt>
    <trkpt lat="48.344467" lon="-4.636382"><ele>30.4</ele></trkpt>
    <trkpt lat="48.344572" lon="-4.636402"><ele>31.0</ele></trkpt>
    <trkpt lat="48.344717" lon="-4.636742"><ele>32.0</ele></trkpt>
    <trkpt lat="48.344802" lon="-4.637407"><ele>34.0</ele></trkpt>
    <trkpt lat="48.344932" lon="-4.637750"><ele>33.2</ele></trkpt>
    <trkpt lat="48.344995" lon="-4.638315"><ele>34.2</ele></trkpt>
    <trkpt lat="48.345087" lon="-4.638502"><ele>32.8</ele></trkpt>
    <trkpt lat="48.345175" lon="-4.638598"><ele>32.2</ele></trkpt>
    <trkpt lat="48.345318" lon="-4.638658"><ele>31.4</ele></trkpt>
    <trkpt lat="48.345502" lon="-4.638660"><ele>29.6</ele></trkpt>
    <trkpt lat="48.345752" lon="-4.638827"><ele>29.4</ele></trkpt>
    <trkpt lat="48.345777" lon="-4.638927"><ele>29.4</ele></trkpt>
    <trkpt lat="48.345790" lon="-4.639570"><ele>24.4</ele></trkpt>
    <trkpt lat="48.345885" lon="-4.639803"><ele>22.2</ele></trkpt>
    <trkpt lat="48.345978" lon="-4.639878"><ele>20.8</ele></trkpt>
    <trkpt lat="48.346355" lon="-4.639900"><ele>15.6</ele></trkpt>
    <trkpt lat="48.346983" lon="-4.639728"><ele>8.0</ele></trkpt>
    <trkpt lat="48.347347" lon="-4.639728"><ele>5.6</ele></trkpt>
    <trkpt lat="48.347607" lon="-4.639567"><ele>5.2</ele></trkpt>
    <trkpt lat="48.347687" lon="-4.639627"><ele>5.4</ele></trkpt>
    <trkpt lat="48.347680" lon="-4.639763"><ele>5.6</ele></trkpt>
    <trkpt lat="48.347522" lon="-4.639960"><ele>5.2</ele></trkpt>
    <trkpt lat="48.347325" lon="-4.640315"><ele>6.0</ele></trkpt>
    <trkpt lat="48.347178" lon="-4.640430"><ele>7.2</ele></trkpt>
    <trkpt lat="48.346833" lon="-4.640563"><ele>8.6</ele></trkpt>
    <trkpt lat="48.346215" lon="-4.641105"><ele>11.8</ele></trkpt>
    <trkpt lat="48.345718" lon="-4.641823"><ele>16.0</ele></trkpt>
    <trkpt lat="48.345638" lon="-4.641997"><ele>17.2</ele></trkpt>
    <trkpt lat="48.345578" lon="-4.642243"><ele>18.8</ele></trkpt>
    <trkpt lat="48.345552" lon="-4.642727"><ele>23.2</ele></trkpt>
    <trkpt lat="48.345810" lon="-4.642762"><ele>28.8</ele></trkpt>
    <trkpt lat="48.346215" lon="-4.643233"><ele>38.2</ele></trkpt>
    <trkpt lat="48.346255" lon="-4.643603"><ele>41.0</ele></trkpt>
    <trkpt lat="48.346247" lon="-4.643820"><ele>42.4</ele></trkpt>
    <trkpt lat="48.346218" lon="-4.643888"><ele>43.0</ele></trkpt>
    <trkpt lat="48.345783" lon="-4.644087"><ele>43.8</ele></trkpt>
    <trkpt lat="48.345708" lon="-4.644193"><ele>43.2</ele></trkpt>
    <trkpt lat="48.345672" lon="-4.644343"><ele>43.4</ele></trkpt>
    <trkpt lat="48.345718" lon="-4.645032"><ele>44.4</ele></trkpt>
    <trkpt lat="48.345613" lon="-4.645517"><ele>46.0</ele></trkpt>
    <trkpt lat="48.345727" lon="-4.645807"><ele>47.6</ele></trkpt>
    <trkpt lat="48.345672" lon="-4.646107"><ele>47.6</ele></trkpt>
    <trkpt lat="48.345680" lon="-4.646215"><ele>46.8</ele></trkpt>
    <trkpt lat="48.345875" lon="-4.646842"><ele>44.2</ele></trkpt>
    <trkpt lat="48.345893" lon="-4.646997"><ele>44.4</ele></trkpt>
    <trkpt lat="48.345850" lon="-4.647190"><ele>44.4</ele></trkpt>
    <trkpt lat="48.345752" lon="-4.647350"><ele>44.6</ele></trkpt>
    <trkpt lat="48.345657" lon="-4.647597"><ele>41.4</ele></trkpt>
    <trkpt lat="48.345645" lon="-4.647815"><ele>39.8</ele></trkpt>
    <trkpt lat="48.345733" lon="-4.648352"><ele>37.2</ele></trkpt>
    <trkpt lat="48.345978" lon="-4.648772"><ele>38.4</ele></trkpt>
    <trkpt lat="48.346173" lon="-4.649437"><ele>42.0</ele></trkpt>
    <trkpt lat="48.346133" lon="-4.649667"><ele>43.0</ele></trkpt>
    <trkpt lat="48.346002" lon="-4.650000"><ele>41.0</ele></trkpt>
    <trkpt lat="48.345825" lon="-4.650335"><ele>35.0</ele></trkpt>
    <trkpt lat="48.345808" lon="-4.650647"><ele>33.0</ele></trkpt>
    <trkpt lat="48.345972" lon="-4.650907"><ele>31.8</ele></trkpt>
    <trkpt lat="48.346050" lon="-4.651282"><ele>32.0</ele></trkpt>
    <trkpt lat="48.346353" lon="-4.651665"><ele>32.8</ele></trkpt>
    <trkpt lat="48.346357" lon="-4.651935"><ele>34.8</ele></trkpt>
    <trkpt lat="48.346453" lon="-4.652202"><ele>36.2</ele></trkpt>
    <trkpt lat="48.346580" lon="-4.652393"><ele>37.2</ele></trkpt>
    <trkpt lat="48.346875" lon="-4.652653"><ele>38.6</ele></trkpt>
    <trkpt lat="48.347020" lon="-4.653145"><ele>42.2</ele></trkpt>
    <trkpt lat="48.347210" lon="-4.653405"><ele>42.0</ele></trkpt>
    <trkpt lat="48.347525" lon="-4.653703"><ele>41.4</ele></trkpt>
    <trkpt lat="48.347737" lon="-4.653783"><ele>39.8</ele></trkpt>
    <trkpt lat="48.347925" lon="-4.653793"><ele>38.6</ele></trkpt>
    <trkpt lat="48.348143" lon="-4.653663"><ele>37.0</ele></trkpt>
    <trkpt lat="48.348218" lon="-4.653663"><ele>36.8</ele></trkpt>
    <trkpt lat="48.348468" lon="-4.654055"><ele>33.2</ele></trkpt>
    <trkpt lat="48.348615" lon="-4.654558"><ele>31.6</ele></trkpt>
    <trkpt lat="48.348827" lon="-4.654840"><ele>30.0</ele></trkpt>
    <trkpt lat="48.348940" lon="-4.655143"><ele>26.2</ele></trkpt>
    <trkpt lat="48.348980" lon="-4.655425"><ele>28.6</ele></trkpt>
    <trkpt lat="48.348882" lon="-4.655910"><ele>32.8</ele></trkpt>
    <trkpt lat="48.348892" lon="-4.656173"><ele>34.0</ele></trkpt>
    <trkpt lat="48.348928" lon="-4.656315"><ele>34.6</ele></trkpt>
    <trkpt lat="48.349018" lon="-4.656417"><ele>34.6</ele></trkpt>
    <trkpt lat="48.349198" lon="-4.656460"><ele>35.2</ele></trkpt>
    <trkpt lat="48.349280" lon="-4.656555"><ele>36.0</ele></trkpt>
    <trkpt lat="48.349367" lon="-4.656775"><ele>37.8</ele></trkpt>
    <trkpt lat="48.349520" lon="-4.657640"><ele>31.6</ele></trkpt>
    <trkpt lat="48.349733" lon="-4.657863"><ele>28.0</ele></trkpt>
    <trkpt lat="48.349813" lon="-4.658037"><ele>27.0</ele></trkpt>
    <trkpt lat="48.349963" lon="-4.658147"><ele>25.8</ele></trkpt>
    <trkpt lat="48.350140" lon="-4.658372"><ele>23.4</ele></trkpt>
    <trkpt lat="48.350415" lon="-4.658873"><ele>22.6</ele></trkpt>
    <trkpt lat="48.350492" lon="-4.659242"><ele>20.2</ele></trkpt>
    <trkpt lat="48.350442" lon="-4.659517"><ele>18.0</ele></trkpt>
    <trkpt lat="48.350457" lon="-4.659615"><ele>17.2</ele></trkpt>
    <trkpt lat="48.350747" lon="-4.660057"><ele>15.4</ele></trkpt>
    <trkpt lat="48.350803" lon="-4.660185"><ele>16.0</ele></trkpt>
    <trkpt lat="48.350803" lon="-4.660458"><ele>17.0</ele></trkpt>
    <trkpt lat="48.350855" lon="-4.660582"><ele>16.4</ele></trkpt>
    <trkpt lat="48.350965" lon="-4.660693"><ele>17.0</ele></trkpt>
    <trkpt lat="48.350997" lon="-4.660800"><ele>18.4</ele></trkpt>
    <trkpt lat="48.350955" lon="-4.661485"><ele>20.4</ele></trkpt>
    <trkpt lat="48.351000" lon="-4.661525"><ele>20.2</ele></trkpt>
    <trkpt lat="48.351087" lon="-4.661507"><ele>21.0</ele></trkpt>
    <trkpt lat="48.351122" lon="-4.661550"><ele>21.6</ele></trkpt>
    <trkpt lat="48.351308" lon="-4.662040"><ele>23.0</ele></trkpt>
    <trkpt lat="48.351678" lon="-4.662603"><ele>24.6</ele></trkpt>
    <trkpt lat="48.351838" lon="-4.662702"><ele>24.4</ele></trkpt>
    <trkpt lat="48.352265" lon="-4.662782"><ele>25.4</ele></trkpt>
    <trkpt lat="48.352820" lon="-4.662800"><ele>25.6</ele></trkpt>
    <trkpt lat="48.353545" lon="-4.662705"><ele>31.2</ele></trkpt>
    <trkpt lat="48.353782" lon="-4.662707"><ele>32.4</ele></trkpt>
    <trkpt lat="48.353863" lon="-4.662762"><ele>32.0</ele></trkpt>
    <trkpt lat="48.353883" lon="-4.662842"><ele>31.6</ele></trkpt>
    <trkpt lat="48.353755" lon="-4.663172"><ele>30.8</ele></trkpt>
    <trkpt lat="48.353332" lon="-4.664660"><ele>28.2</ele></trkpt>
    <trkpt lat="48.353225" lon="-4.665633"><ele>22.6</ele></trkpt>
    <trkpt lat="48.353217" lon="-4.665997"><ele>20.2</ele></trkpt>
    <trkpt lat="48.353150" lon="-4.666632"><ele>15.6</ele></trkpt>
    <trkpt lat="48.353168" lon="-4.666770"><ele>14.6</ele></trkpt>
    <trkpt lat="48.353827" lon="-4.666510"><ele>21.8</ele></trkpt>
    <trkpt lat="48.354053" lon="-4.666608"><ele>25.8</ele></trkpt>
    <trkpt lat="48.354538" lon="-4.666667"><ele>32.4</ele></trkpt>
    <trkpt lat="48.354918" lon="-4.666598"><ele>34.4</ele></trkpt>
    <trkpt lat="48.355180" lon="-4.666267"><ele>37.6</ele></trkpt>
    <trkpt lat="48.355322" lon="-4.666183"><ele>39.2</ele></trkpt>
    <trkpt lat="48.355582" lon="-4.665900"><ele>41.6</ele></trkpt>
    <trkpt lat="48.355848" lon="-4.665915"><ele>43.0</ele></trkpt>
    <trkpt lat="48.356298" lon="-4.665750"><ele>46.6</ele></trkpt>
    <trkpt lat="48.356710" lon="-4.665708"><ele>48.8</ele></trkpt>
    <trkpt lat="48.356852" lon="-4.665600"><ele>49.2</ele></trkpt>
    <trkpt lat="48.356972" lon="-4.665382"><ele>49.4</ele></trkpt>
    <trkpt lat="48.357010" lon="-4.664777"><ele>50.4</ele></trkpt>
    <trkpt lat="48.357088" lon="-4.664632"><ele>51.0</ele></trkpt>
    <trkpt lat="48.357795" lon="-4.664322"><ele>52.6</ele></trkpt>
    <trkpt lat="48.358062" lon="-4.664413"><ele>53.0</ele></trkpt>
    <trkpt lat="48.358698" lon="-4.664173"><ele>52.6</ele></trkpt>
    <trkpt lat="48.359052" lon="-4.663932"><ele>53.2</ele></trkpt>
    <trkpt lat="48.359185" lon="-4.663688"><ele>54.0</ele></trkpt>
    <trkpt lat="48.359423" lon="-4.663368"><ele>56.0</ele></trkpt>
    <trkpt lat="48.359443" lon="-4.663267"><ele>56.2</ele></trkpt>
    <trkpt lat="48.359597" lon="-4.662960"><ele>57.2</ele></trkpt>
    <trkpt lat="48.360023" lon="-4.662358"><ele>59.8</ele></trkpt>
    <trkpt lat="48.360143" lon="-4.661948"><ele>61.0</ele></trkpt>
    <trkpt lat="48.360123" lon="-4.661637"><ele>62.2</ele></trkpt>
    <trkpt lat="48.360190" lon="-4.661457"><ele>63.0</ele></trkpt>
    <trkpt lat="48.360607" lon="-4.660868"><ele>64.6</ele></trkpt>
    <trkpt lat="48.361138" lon="-4.660482"><ele>65.6</ele></trkpt>
    <trkpt lat="48.361512" lon="-4.660118"><ele>65.6</ele></trkpt>
    <trkpt lat="48.361555" lon="-4.660037"><ele>65.6</ele></trkpt>
    <trkpt lat="48.361535" lon="-4.659893"><ele>65.8</ele></trkpt>
    <trkpt lat="48.361173" lon="-4.658903"><ele>67.6</ele></trkpt>
    <trkpt lat="48.360625" lon="-4.657813"><ele>68.4</ele></trkpt>
    <trkpt lat="48.360550" lon="-4.657290"><ele>68.2</ele></trkpt>
    <trkpt lat="48.360585" lon="-4.657050"><ele>67.8</ele></trkpt>
    <trkpt lat="48.360635" lon="-4.656960"><ele>68.0</ele></trkpt>
    <trkpt lat="48.361088" lon="-4.656585"><ele>68.4</ele></trkpt>
    <trkpt lat="48.361298" lon="-4.656488"><ele>68.2</ele></trkpt>
    <trkpt lat="48.361625" lon="-4.656383"><ele>68.8</ele></trkpt>
    <trkpt lat="48.362402" lon="-4.656308"><ele>70.4</ele></trkpt>
    <trkpt lat="48.362528" lon="-4.656142"><ele>70.4</ele></trkpt>
    <trkpt lat="48.362583" lon="-4.655988"><ele>70.4</ele></trkpt>
    <trkpt lat="48.362747" lon="-4.655110"><ele>71.0</ele></trkpt>
    <trkpt lat="48.362787" lon="-4.655037"><ele>71.4</ele></trkpt>
    <trkpt lat="48.363002" lon="-4.655042"><ele>71.6</ele></trkpt>
    <trkpt lat="48.363855" lon="-4.654838"><ele>72.0</ele></trkpt>
    <trkpt lat="48.364070" lon="-4.654752"><ele>71.8</ele></trkpt>
    <trkpt lat="48.365027" lon="-4.654190"><ele>71.0</ele></trkpt>
    <trkpt lat="48.365438" lon="-4.653897"><ele>70.0</ele></trkpt>
    <trkpt lat="48.365620" lon="-4.653743"><ele>69.8</ele></trkpt>
    <trkpt lat="48.365908" lon="-4.653397"><ele>69.6</ele></trkpt>
    <trkpt lat="48.366067" lon="-4.653360"><ele>69.4</ele></trkpt>
    <trkpt lat="48.366610" lon="-4.653377"><ele>68.8</ele></trkpt>
    <trkpt lat="48.366952" lon="-4.653013"><ele>68.8</ele></trkpt>
    <trkpt lat="48.367303" lon="-4.652925"><ele>68.8</ele></trkpt>
    <trkpt lat="48.367390" lon="-4.652855"><ele>68.6</ele></trkpt>
    <trkpt lat="48.367482" lon="-4.652663"><ele>68.0</ele></trkpt>
    <trkpt lat="48.367510" lon="-4.652457"><ele>68.2</ele></trkpt>
    <trkpt lat="48.367838" lon="-4.651468"><ele>68.0</ele></trkpt>
    <trkpt lat="48.368538" lon="-4.650680"><ele>66.6</ele></trkpt>
    <trkpt lat="48.368792" lon="-4.650242"><ele>66.2</ele></trkpt>
    <trkpt lat="48.368895" lon="-4.649495"><ele>65.0</ele></trkpt>
    <trkpt lat="48.368940" lon="-4.649413"><ele>65.0</ele></trkpt>
    <trkpt lat="48.368916" lon="-4.649426"><ele>65.4</ele></trkpt>
    <trkpt lat="48.368895" lon="-4.649293"><ele>65.1</ele></trkpt>
    <trkpt lat="48.368838" lon="-4.648639"><ele>64.1</ele></trkpt>
    <trkpt lat="48.368580" lon="-4.647765"><ele>63.5</ele></trkpt>
    <trkpt lat="48.368638" lon="-4.647616"><ele>63.0</ele></trkpt>
    <trkpt lat="48.368949" lon="-4.647405"><ele>61.3</ele></trkpt>
    <trkpt lat="48.369046" lon="-4.647190"><ele>60.3</ele></trkpt>
    <trkpt lat="48.369078" lon="-4.646644"><ele>59.0</ele></trkpt>
    <trkpt lat="48.369229" lon="-4.646111"><ele>57.9</ele></trkpt>
    <trkpt lat="48.369272" lon="-4.645672"><ele>57.3</ele></trkpt>
    <trkpt lat="48.369283" lon="-4.645384"><ele>57.2</ele></trkpt>
    <trkpt lat="48.369240" lon="-4.645100"><ele>57.6</ele></trkpt>
    <trkpt lat="48.369400" lon="-4.644461"><ele>58.1</ele></trkpt>
    <trkpt lat="48.369492" lon="-4.644248"><ele>57.8</ele></trkpt>
    <trkpt lat="48.369637" lon="-4.643531"><ele>58.4</ele></trkpt>
    <trkpt lat="48.369648" lon="-4.643161"><ele>59.5</ele></trkpt>
    <trkpt lat="48.369713" lon="-4.642868"><ele>60.0</ele></trkpt>
    <trkpt lat="48.369687" lon="-4.642481"><ele>60.7</ele></trkpt>
    <trkpt lat="48.369617" lon="-4.642143"><ele>60.4</ele></trkpt>
    <trkpt lat="48.369765" lon="-4.641639"><ele>60.3</ele></trkpt>
    <trkpt lat="48.369839" lon="-4.641563"><ele>60.2</ele></trkpt>
    <trkpt lat="48.369887" lon="-4.641188"><ele>60.0</ele></trkpt>
    <trkpt lat="48.370042" lon="-4.640779"><ele>60.0</ele></trkpt>
    <trkpt lat="48.370051" lon="-4.640230"><ele>60.0</ele></trkpt>
    <trkpt lat="48.370080" lon="-4.640146"><ele>60.0</ele></trkpt>
    <trkpt lat="48.370208" lon="-4.640153"><ele>60.0</ele></trkpt>
  </trkseg></trk>
</gpx>
