<?xml version="1.0" encoding="UTF-8"?>
<gpx version="1.1" creator="tcap-parcours" xmlns="http://www.topografix.com/GPX/1/1">
  <metadata><name>ar-minou-indemodable-2</name></metadata>
  <trk><name>ar-minou-indemodable-2</name><trkseg>
    <trkpt lat="48.370173" lon="-4.640151"><ele>60.0</ele></trkpt>
    <trkpt lat="48.370080" lon="-4.640146"><ele>60.0</ele></trkpt>
    <trkpt lat="48.370051" lon="-4.640230"><ele>60.0</ele></trkpt>
    <trkpt lat="48.370042" lon="-4.640779"><ele>60.0</ele></trkpt>
    <trkpt lat="48.369887" lon="-4.641188"><ele>60.0</ele></trkpt>
    <trkpt lat="48.369839" lon="-4.641563"><ele>60.2</ele></trkpt>
    <trkpt lat="48.369765" lon="-4.641639"><ele>60.3</ele></trkpt>
    <trkpt lat="48.369617" lon="-4.642143"><ele>60.4</ele></trkpt>
    <trkpt lat="48.369687" lon="-4.642481"><ele>60.7</ele></trkpt>
    <trkpt lat="48.369713" lon="-4.642868"><ele>60.0</ele></trkpt>
    <trkpt lat="48.369648" lon="-4.643161"><ele>59.5</ele></trkpt>
    <trkpt lat="48.369637" lon="-4.643531"><ele>58.4</ele></trkpt>
    <trkpt lat="48.369492" lon="-4.644248"><ele>57.8</ele></trkpt>
    <trkpt lat="48.369400" lon="-4.644461"><ele>58.1</ele></trkpt>
    <trkpt lat="48.369257" lon="-4.645093"><ele>57.5</ele></trkpt>
    <trkpt lat="48.369283" lon="-4.645384"><ele>57.2</ele></trkpt>
    <trkpt lat="48.369272" lon="-4.645672"><ele>57.3</ele></trkpt>
    <trkpt lat="48.369229" lon="-4.646111"><ele>57.9</ele></trkpt>
    <trkpt lat="48.369088" lon="-4.646531"><ele>59.0</ele></trkpt>
    <trkpt lat="48.369071" lon="-4.647072"><ele>60.0</ele></trkpt>
    <trkpt lat="48.368949" lon="-4.647405"><ele>61.3</ele></trkpt>
    <trkpt lat="48.368654" lon="-4.647620"><ele>63.0</ele></trkpt>
    <trkpt lat="48.368589" lon="-4.647725"><ele>63.3</ele></trkpt>
    <trkpt lat="48.368589" lon="-4.647839"><ele>63.8</ele></trkpt>
    <trkpt lat="48.368838" lon="-4.648639"><ele>64.1</ele></trkpt>
    <trkpt lat="48.368875" lon="-4.648893"><ele>64.7</ele></trkpt>
    <trkpt lat="48.368920" lon="-4.649442"><ele>74.8</ele></trkpt>
    <trkpt lat="48.368872" lon="-4.649570"><ele>74.6</ele></trkpt>
    <trkpt lat="48.368825" lon="-4.650125"><ele>75.0</ele></trkpt>
    <trkpt lat="48.368765" lon="-4.650323"><ele>75.6</ele></trkpt>
    <trkpt lat="48.368613" lon="-4.650600"><ele>76.0</ele></trkpt>
    <trkpt lat="48.367930" lon="-4.651335"><ele>77.0</ele></trkpt>
    <trkpt lat="48.367827" lon="-4.651488"><ele>77.4</ele></trkpt>
    <trkpt lat="48.367688" lon="-4.651813"><ele>77.4</ele></trkpt>
    <trkpt lat="48.367503" lon="-4.652505"><ele>77.8</ele></trkpt>
    <trkpt lat="48.367385" lon="-4.652787"><ele>77.6</ele></trkpt>
    <trkpt lat="48.367275" lon="-4.652877"><ele>77.4</ele></trkpt>
    <trkpt lat="48.367043" lon="-4.652898"><ele>78.2</ele></trkpt>
    <trkpt lat="48.366935" lon="-4.652958"><ele>78.4</ele></trkpt>
    <trkpt lat="48.366710" lon="-4.653255"><ele>78.6</ele></trkpt>
    <trkpt lat="48.366612" lon="-4.653332"><ele>78.8</ele></trkpt>
    <trkpt lat="48.366430" lon="-4.653378"><ele>79.2</ele></trkpt>
    <trkpt lat="48.366210" lon="-4.653363"><ele>79.4</ele></trkpt>
    <trkpt lat="48.365903" lon="-4.653438"><ele>79.6</ele></trkpt>
    <trkpt lat="48.365598" lon="-4.653778"><ele>79.8</ele></trkpt>
    <trkpt lat="48.365200" lon="-4.654085"><ele>80.0</ele></trkpt>
    <trkpt lat="48.364170" lon="-4.654710"><ele>80.4</ele></trkpt>
    <trkpt lat="48.363762" lon="-4.654862"><ele>80.8</ele></trkpt>
    <trkpt lat="48.363395" lon="-4.654920"><ele>81.0</ele></trkpt>
    <trkpt lat="48.362878" lon="-4.655118"><ele>80.6</ele></trkpt>
    <trkpt lat="48.362750" lon="-4.655268"><ele>80.4</ele></trkpt>
    <trkpt lat="48.362608" lon="-4.655988"><ele>79.2</ele></trkpt>
    <trkpt lat="48.362528" lon="-4.656182"><ele>79.2</ele></trkpt>
    <trkpt lat="48.362438" lon="-4.656287"><ele>79.4</ele></trkpt>
    <trkpt lat="48.362322" lon="-4.656327"><ele>79.2</ele></trkpt>
    <trkpt lat="48.361802" lon="-4.656353"><ele>78.2</ele></trkpt>
    <trkpt lat="48.361452" lon="-4.656462"><ele>77.6</ele></trkpt>
    <trkpt lat="48.361043" lon="-4.656690"><ele>76.6</ele></trkpt>
    <trkpt lat="48.360603" lon="-4.657083"><ele>75.0</ele></trkpt>
    <trkpt lat="48.360535" lon="-4.657368"><ele>74.2</ele></trkpt>
    <trkpt lat="48.360622" lon="-4.657870"><ele>74.0</ele></trkpt>
    <trkpt lat="48.361100" lon="-4.658710"><ele>73.4</ele></trkpt>
    <trkpt lat="48.361310" lon="-4.659142"><ele>73.4</ele></trkpt>
    <trkpt lat="48.361592" lon="-4.659928"><ele>72.0</ele></trkpt>
    <trkpt lat="48.361595" lon="-4.660038"><ele>72.0</ele></trkpt>
    <trkpt lat="48.361527" lon="-4.660183"><ele>71.6</ele></trkpt>
    <trkpt lat="48.361105" lon="-4.660558"><ele>71.2</ele></trkpt>
    <trkpt lat="48.360717" lon="-4.660842"><ele>71.2</ele></trkpt>
    <trkpt lat="48.360487" lon="-4.661075"><ele>70.8</ele></trkpt>
    <trkpt lat="48.360142" lon="-4.661638"><ele>69.6</ele></trkpt>
    <trkpt lat="48.360122" lon="-4.661817"><ele>69.4</ele></trkpt>
    <trkpt lat="48.360175" lon="-4.662055"><ele>68.4</ele></trkpt>
    <trkpt lat="48.360118" lon="-4.662228"><ele>67.6</ele></trkpt>
    <trkpt lat="48.359425" lon="-4.663217"><ele>62.0</ele></trkpt>
    <trkpt lat="48.358972" lon="-4.663932"><ele>59.0</ele></trkpt>
    <trkpt lat="48.358138" lon="-4.664330"><ele>57.4</ele></trkpt>
    <trkpt lat="48.357807" lon="-4.664280"><ele>57.2</ele></trkpt>
    <trkpt lat="48.357230" lon="-4.664520"><ele>56.0</ele></trkpt>
    <trkpt lat="48.357013" lon="-4.664715"><ele>55.2</ele></trkpt>
    <trkpt lat="48.356950" lon="-4.665183"><ele>53.8</ele></trkpt>
    <trkpt lat="48.356812" lon="-4.665565"><ele>52.8</ele></trkpt>
    <trkpt lat="48.356752" lon="-4.665647"><ele>52.6</ele></trkpt>
    <trkpt lat="48.356152" lon="-4.665727"><ele>50.0</ele></trkpt>
    <trkpt lat="48.355847" lon="-4.665867"><ele>48.8</ele></trkpt>
    <trkpt lat="48.355562" lon="-4.665872"><ele>47.2</ele></trkpt>
    <trkpt lat="48.355430" lon="-4.666038"><ele>46.4</ele></trkpt>
    <trkpt lat="48.355185" lon="-4.666220"><ele>45.0</ele></trkpt>
    <trkpt lat="48.355050" lon="-4.666465"><ele>43.4</ele></trkpt>
    <trkpt lat="48.354947" lon="-4.666572"><ele>42.2</ele></trkpt>
    <trkpt lat="48.354467" lon="-4.666642"><ele>38.4</ele></trkpt>
    <trkpt lat="48.353850" lon="-4.666525"><ele>30.6</ele></trkpt>
    <trkpt lat="48.353243" lon="-4.666735"><ele>18.8</ele></trkpt>
    <trkpt lat="48.353165" lon="-4.666725"><ele>16.8</ele></trkpt>
    <trkpt lat="48.353125" lon="-4.666603"><ele>15.8</ele></trkpt>
    <trkpt lat="48.353310" lon="-4.664858"><ele>22.8</ele></trkpt>
    <trkpt lat="48.353402" lon="-4.664482"><ele>26.2</ele></trkpt>
    <trkpt lat="48.353832" lon="-4.663208"><ele>31.6</ele></trkpt>
    <trkpt lat="48.353948" lon="-4.662732"><ele>33.0</ele></trkpt>
    <trkpt lat="48.353830" lon="-4.662650"><ele>33.4</ele></trkpt>
    <trkpt lat="48.353613" lon="-4.662632"><ele>34.8</ele></trkpt>
    <trkpt lat="48.353213" lon="-4.662745"><ele>36.0</ele></trkpt>
    <trkpt lat="48.352527" lon="-4.662848"><ele>30.2</ele></trkpt>
    <trkpt lat="48.351822" lon="-4.662723"><ele>27.6</ele></trkpt>
    <trkpt lat="48.351707" lon="-4.662658"><ele>27.0</ele></trkpt>
    <trkpt lat="48.351608" lon="-4.662533"><ele>26.2</ele></trkpt>
    <trkpt lat="48.351500" lon="-4.662307"><ele>26.2</ele></trkpt>
    <trkpt lat="48.351263" lon="-4.661982"><ele>25.6</ele></trkpt>
    <trkpt lat="48.351083" lon="-4.661468"><ele>25.2</ele></trkpt>
    <trkpt lat="48.350973" lon="-4.661475"><ele>24.4</ele></trkpt>
    <trkpt lat="48.350952" lon="-4.661437"><ele>23.4</ele></trkpt>
    <trkpt lat="48.350982" lon="-4.661033"><ele>21.6</ele></trkpt>
    <trkpt lat="48.351035" lon="-4.660750"><ele>20.6</ele></trkpt>
    <trkpt lat="48.351000" lon="-4.660648"><ele>20.8</ele></trkpt>
    <trkpt lat="48.350803" lon="-4.660385"><ele>19.4</ele></trkpt>
    <trkpt lat="48.350745" lon="-4.660010"><ele>17.6</ele></trkpt>
    <trkpt lat="48.350440" lon="-4.659563"><ele>15.4</ele></trkpt>
    <trkpt lat="48.350420" lon="-4.659457"><ele>15.2</ele></trkpt>
    <trkpt lat="48.350473" lon="-4.659260"><ele>15.4</ele></trkpt>
    <trkpt lat="48.350478" lon="-4.659115"><ele>16.0</ele></trkpt>
    <trkpt lat="48.350383" lon="-4.658748"><ele>18.2</ele></trkpt>
    <trkpt lat="48.350130" lon="-4.658288"><ele>19.6</ele></trkpt>
    <trkpt lat="48.350020" lon="-4.658155"><ele>20.6</ele></trkpt>
    <trkpt lat="48.349828" lon="-4.658020"><ele>23.0</ele></trkpt>
    <trkpt lat="48.349705" lon="-4.657778"><ele>23.8</ele></trkpt>
    <trkpt lat="48.349513" lon="-4.657590"><ele>24.8</ele></trkpt>
    <trkpt lat="48.349380" lon="-4.656690"><ele>34.2</ele></trkpt>
    <trkpt lat="48.349307" lon="-4.656507"><ele>36.2</ele></trkpt>
    <trkpt lat="48.349222" lon="-4.656418"><ele>36.4</ele></trkpt>
    <trkpt lat="48.349025" lon="-4.656380"><ele>35.8</ele></trkpt>
    <trkpt lat="48.348920" lon="-4.656258"><ele>34.4</ele></trkpt>
    <trkpt lat="48.348880" lon="-4.656098"><ele>34.0</ele></trkpt>
    <trkpt lat="48.348877" lon="-4.655872"><ele>33.6</ele></trkpt>
    <trkpt lat="48.348992" lon="-4.655368"><ele>32.0</ele></trkpt>
    <trkpt lat="48.348868" lon="-4.654885"><ele>27.8</ele></trkpt>
    <trkpt lat="48.348622" lon="-4.654570"><ele>29.0</ele></trkpt>
    <trkpt lat="48.348458" lon="-4.654047"><ele>31.4</ele></trkpt>
    <trkpt lat="48.348210" lon="-4.653692"><ele>33.2</ele></trkpt>
    <trkpt lat="48.348142" lon="-4.653675"><ele>34.4</ele></trkpt>
    <trkpt lat="48.347968" lon="-4.653798"><ele>36.8</ele></trkpt>
    <trkpt lat="48.347697" lon="-4.653770"><ele>38.8</ele></trkpt>
    <trkpt lat="48.347528" lon="-4.653685"><ele>40.2</ele></trkpt>
    <trkpt lat="48.347275" lon="-4.653443"><ele>41.6</ele></trkpt>
    <trkpt lat="48.347030" lon="-4.653123"><ele>42.0</ele></trkpt>
    <trkpt lat="48.346897" lon="-4.652680"><ele>42.2</ele></trkpt>
    <trkpt lat="48.346795" lon="-4.652547"><ele>41.6</ele></trkpt>
    <trkpt lat="48.346550" lon="-4.652340"><ele>39.4</ele></trkpt>
    <trkpt lat="48.346422" lon="-4.652133"><ele>38.6</ele></trkpt>
    <trkpt lat="48.346338" lon="-4.651878"><ele>37.8</ele></trkpt>
    <trkpt lat="48.346355" lon="-4.651663"><ele>37.4</ele></trkpt>
    <trkpt lat="48.346327" lon="-4.651568"><ele>37.0</ele></trkpt>
    <trkpt lat="48.346192" lon="-4.651452"><ele>35.6</ele></trkpt>
    <trkpt lat="48.346002" lon="-4.651207"><ele>33.6</ele></trkpt>
    <trkpt lat="48.345948" lon="-4.650860"><ele>32.4</ele></trkpt>
    <trkpt lat="48.345785" lon="-4.650622"><ele>31.4</ele></trkpt>
    <trkpt lat="48.345772" lon="-4.650452"><ele>31.4</ele></trkpt>
    <trkpt lat="48.345805" lon="-4.650287"><ele>31.8</ele></trkpt>
    <trkpt lat="48.346015" lon="-4.649912"><ele>34.4</ele></trkpt>
    <trkpt lat="48.346153" lon="-4.649563"><ele>39.8</ele></trkpt>
    <trkpt lat="48.346180" lon="-4.649390"><ele>41.4</ele></trkpt>
    <trkpt lat="48.345993" lon="-4.648770"><ele>41.2</ele></trkpt>
    <trkpt lat="48.345818" lon="-4.648420"><ele>39.6</ele></trkpt>
    <trkpt lat="48.345706" lon="-4.648322"><ele>38.4</ele></trkpt>
    <trkpt lat="48.345598" lon="-4.647835"><ele>38.8</ele></trkpt>
    <trkpt lat="48.345706" lon="-4.647349"><ele>40.4</ele></trkpt>
    <trkpt lat="48.345814" lon="-4.647186"><ele>44.4</ele></trkpt>
    <trkpt lat="48.345850" lon="-4.647190"><ele>44.4</ele></trkpt>
    <trkpt lat="48.345752" lon="-4.647350"><ele>44.6</ele></trkpt>
    <trkpt lat="48.345657" lon="-4.647597"><ele>41.4</ele></trkpt>
    <trkpt lat="48.345645" lon="-4.647815"><ele>39.8</ele></trkpt>
    <trkpt lat="48.345733" lon="-4.648352"><ele>37.2</ele></trkpt>
    <trkpt lat="48.345978" lon="-4.648772"><ele>38.4</ele></trkpt>
    <trkpt lat="48.346173" lon="-4.649437"><ele>42.0</ele></trkpt>
    <trkpt lat="48.346133" lon="-4.649667"><ele>43.0</ele></trkpt>
    <trkpt lat="48.346002" lon="-4.650000"><ele>41.0</ele></trkpt>
    <trkpt lat="48.345825" lon="-4.650335"><ele>35.0</ele></trkpt>
    <trkpt lat="48.345808" lon="-4.650647"><ele>33.0</ele></trkpt>
    <trkpt lat="48.345972" lon="-4.650907"><ele>31.8</ele></trkpt>
    <trkpt lat="48.346050" lon="-4.651282"><ele>32.0</ele></trkpt>
    <trkpt lat="48.346353" lon="-4.651665"><ele>32.8</ele></trkpt>
    <trkpt lat="48.346357" lon="-4.651935"><ele>34.8</ele></trkpt>
    <trkpt lat="48.346453" lon="-4.652202"><ele>36.2</ele></trkpt>
    <trkpt lat="48.346580" lon="-4.652393"><ele>37.2</ele></trkpt>
    <trkpt lat="48.346875" lon="-4.652653"><ele>38.6</ele></trkpt>
    <trkpt lat="48.347020" lon="-4.653145"><ele>42.2</ele></trkpt>
    <trkpt lat="48.347210" lon="-4.653405"><ele>42.0</ele></trkpt>
    <trkpt lat="48.347525" lon="-4.653703"><ele>41.4</ele></trkpt>
    <trkpt lat="48.347737" lon="-4.653783"><ele>39.8</ele></trkpt>
    <trkpt lat="48.347925" lon="-4.653793"><ele>38.6</ele></trkpt>
    <trkpt lat="48.348143" lon="-4.653663"><ele>37.0</ele></trkpt>
    <trkpt lat="48.348218" lon="-4.653663"><ele>36.8</ele></trkpt>
    <trkpt lat="48.348468" lon="-4.654055"><ele>33.2</ele></trkpt>
    <trkpt lat="48.348615" lon="-4.654558"><ele>31.6</ele></trkpt>
    <trkpt lat="48.348827" lon="-4.654840"><ele>30.0</ele></trkpt>
    <trkpt lat="48.348940" lon="-4.655143"><ele>26.2</ele></trkpt>
    <trkpt lat="48.348980" lon="-4.655425"><ele>28.6</ele></trkpt>
    <trkpt lat="48.348882" lon="-4.655910"><ele>32.8</ele></trkpt>
    <trkpt lat="48.348892" lon="-4.656173"><ele>34.0</ele></trkpt>
    <trkpt lat="48.348928" lon="-4.656315"><ele>34.6</ele></trkpt>
    <trkpt lat="48.349018" lon="-4.656417"><ele>34.6</ele></trkpt>
    <trkpt lat="48.349198" lon="-4.656460"><ele>35.2</ele></trkpt>
    <trkpt lat="48.349280" lon="-4.656555"><ele>36.0</ele></trkpt>
    <trkpt lat="48.349367" lon="-4.656775"><ele>37.8</ele></trkpt>
    <trkpt lat="48.349520" lon="-4.657640"><ele>31.6</ele></trkpt>
    <trkpt lat="48.349733" lon="-4.657863"><ele>28.0</ele></trkpt>
    <trkpt lat="48.349813" lon="-4.658037"><ele>27.0</ele></trkpt>
    <trkpt lat="48.349963" lon="-4.658147"><ele>25.8</ele></trkpt>
    <trkpt lat="48.350140" lon="-4.658372"><ele>23.4</ele></trkpt>
    <trkpt lat="48.350415" lon="-4.658873"><ele>22.6</ele></trkpt>
    <trkpt lat="48.350492" lon="-4.659242"><ele>20.2</ele></trkpt>
    <trkpt lat="48.350442" lon="-4.659517"><ele>18.0</ele></trkpt>
    <trkpt lat="48.350457" lon="-4.659615"><ele>17.2</ele></trkpt>
    <trkpt lat="48.350747" lon="-4.660057"><ele>15.4</ele></trkpt>
    <trkpt lat="48.350803" lon="-4.660185"><ele>16.0</ele></trkpt>
    <trkpt lat="48.350803" lon="-4.660458"><ele>17.0</ele></trkpt>
    <trkpt lat="48.350855" lon="-4.660582"><ele>16.4</ele></trkpt>
    <trkpt lat="48.350965" lon="-4.660693"><ele>17.0</ele></trkpt>
    <trkpt lat="48.350997" lon="-4.660800"><ele>18.4</ele></trkpt>
    <trkpt lat="48.350955" lon="-4.661485"><ele>20.4</ele></trkpt>
    <trkpt lat="48.351000" lon="-4.661525"><ele>20.2</ele></trkpt>
    <trkpt lat="48.351087" lon="-4.661507"><ele>21.0</ele></trkpt>
    <trkpt lat="48.351122" lon="-4.661550"><ele>21.6</ele></trkpt>
    <trkpt lat="48.351308" lon="-4.662040"><ele>23.0</ele></trkpt>
    <trkpt lat="48.351678" lon="-4.662603"><ele>24.6</ele></trkpt>
    <trkpt lat="48.351838" lon="-4.662702"><ele>24.4</ele></trkpt>
    <trkpt lat="48.352265" lon="-4.662782"><ele>25.4</ele></trkpt>
    <trkpt lat="48.352820" lon="-4.662800"><ele>25.6</ele></trkpt>
    <trkpt lat="48.353545" lon="-4.662705"><ele>31.2</ele></trkpt>
    <trkpt lat="48.353782" lon="-4.662707"><ele>32.4</ele></trkpt>
    <trkpt lat="48.353863" lon="-4.662762"><ele>32.0</ele></trkpt>
    <trkpt lat="48.353883" lon="-4.662842"><ele>31.6</ele></trkpt>
    <trkpt lat="48.353755" lon="-4.663172"><ele>30.8</ele></trkpt>
    <trkpt lat="48.353332" lon="-4.664660"><ele>28.2</ele></trkpt>
    <trkpt lat="48.353225" lon="-4.665633"><ele>22.6</ele></trkpt>
    <trkpt lat="48.353217" lon="-4.665997"><ele>20.2</ele></trkpt>
    <trkpt lat="48.353150" lon="-4.666632"><ele>15.6</ele></trkpt>
    <trkpt lat="48.353168" lon="-4.666770"><ele>14.6</ele></trkpt>
    <trkpt lat="48.353827" lon="-4.666510"><ele>21.8</ele></trkpt>
    <trkpt lat="48.354053" lon="-4.666608"><ele>25.8</ele></trkpt>
    <trkpt lat="48.354538" lon="-4.666667"><ele>32.4</ele></trkpt>
    <trkpt lat="48.354918" lon="-4.666598"><ele>34.4</ele></trkpt>
    <trkpt lat="48.355180" lon="-4.666267"><ele>37.6</ele></trkpt>
    <trkpt lat="48.355322" lon="-4.666183"><ele>39.2</ele></trkpt>
    <trkpt lat="48.355582" lon="-4.665900"><ele>41.6</ele></trkpt>
    <trkpt lat="48.355848" lon="-4.665915"><ele>43.0</ele></trkpt>
    <trkpt lat="48.356298" lon="-4.665750"><ele>46.6</ele></trkpt>
    <trkpt lat="48.356710" lon="-4.665708"><ele>48.8</ele></trkpt>
    <trkpt lat="48.356852" lon="-4.665600"><ele>49.2</ele></trkpt>
    <trkpt lat="48.356972" lon="-4.665382"><ele>49.4</ele></trkpt>
    <trkpt lat="48.357010" lon="-4.664777"><ele>50.4</ele></trkpt>
    <trkpt lat="48.357088" lon="-4.664632"><ele>51.0</ele></trkpt>
    <trkpt lat="48.357795" lon="-4.664322"><ele>52.6</ele></trkpt>
    <trkpt lat="48.358062" lon="-4.664413"><ele>53.0</ele></trkpt>
    <trkpt lat="48.358698" lon="-4.664173"><ele>52.6</ele></trkpt>
    <trkpt lat="48.359052" lon="-4.663932"><ele>53.2</ele></trkpt>
    <trkpt lat="48.359185" lon="-4.663688"><ele>54.0</ele></trkpt>
    <trkpt lat="48.359423" lon="-4.663368"><ele>56.0</ele></trkpt>
    <trkpt lat="48.359443" lon="-4.663267"><ele>56.2</ele></trkpt>
    <trkpt lat="48.359597" lon="-4.662960"><ele>57.2</ele></trkpt>
    <trkpt lat="48.360023" lon="-4.662358"><ele>59.8</ele></trkpt>
    <trkpt lat="48.360143" lon="-4.661948"><ele>61.0</ele></trkpt>
    <trkpt lat="48.360123" lon="-4.661637"><ele>62.2</ele></trkpt>
    <trkpt lat="48.360190" lon="-4.661457"><ele>63.0</ele></trkpt>
    <trkpt lat="48.360607" lon="-4.660868"><ele>64.6</ele></trkpt>
    <trkpt lat="48.361138" lon="-4.660482"><ele>65.6</ele></trkpt>
    <trkpt lat="48.361512" lon="-4.660118"><ele>65.6</ele></trkpt>
    <trkpt lat="48.361555" lon="-4.660037"><ele>65.6</ele></trkpt>
    <trkpt lat="48.361535" lon="-4.659893"><ele>65.8</ele></trkpt>
    <trkpt lat="48.361173" lon="-4.658903"><ele>67.6</ele></trkpt>
    <trkpt lat="48.360625" lon="-4.657813"><ele>68.4</ele></trkpt>
    <trkpt lat="48.360550" lon="-4.657290"><ele>68.2</ele></trkpt>
    <trkpt lat="48.360585" lon="-4.657050"><ele>67.8</ele></trkpt>
    <trkpt lat="48.360635" lon="-4.656960"><ele>68.0</ele></trkpt>
    <trkpt lat="48.361088" lon="-4.656585"><ele>68.4</ele></trkpt>
    <trkpt lat="48.361298" lon="-4.656488"><ele>68.2</ele></trkpt>
    <trkpt lat="48.361625" lon="-4.656383"><ele>68.8</ele></trkpt>
    <trkpt lat="48.362402" lon="-4.656308"><ele>70.4</ele></trkpt>
    <trkpt lat="48.362528" lon="-4.656142"><ele>70.4</ele></trkpt>
    <trkpt lat="48.362583" lon="-4.655988"><ele>70.4</ele></trkpt>
    <trkpt lat="48.362747" lon="-4.655110"><ele>71.0</ele></trkpt>
    <trkpt lat="48.362787" lon="-4.655037"><ele>71.4</ele></trkpt>
    <trkpt lat="48.363002" lon="-4.655042"><ele>71.6</ele></trkpt>
    <trkpt lat="48.363855" lon="-4.654838"><ele>72.0</ele></trkpt>
    <trkpt lat="48.364070" lon="-4.654752"><ele>71.8</ele></trkpt>
    <trkpt lat="48.365027" lon="-4.654190"><ele>71.0</ele></trkpt>
    <trkpt lat="48.365438" lon="-4.653897"><ele>70.0</ele></trkpt>
    <trkpt lat="48.365620" lon="-4.653743"><ele>69.8</ele></trkpt>
    <trkpt lat="48.365908" lon="-4.653397"><ele>69.6</ele></trkpt>
    <trkpt lat="48.366067" lon="-4.653360"><ele>69.4</ele></trkpt>
    <trkpt lat="48.366610" lon="-4.653377"><ele>68.8</ele></trkpt>
    <trkpt lat="48.366952" lon="-4.653013"><ele>68.8</ele></trkpt>
    <trkpt lat="48.367303" lon="-4.652925"><ele>68.8</ele></trkpt>
    <trkpt lat="48.367390" lon="-4.652855"><ele>68.6</ele></trkpt>
    <trkpt lat="48.367482" lon="-4.652663"><ele>68.0</ele></trkpt>
    <trkpt lat="48.367510" lon="-4.652457"><ele>68.2</ele></trkpt>
    <trkpt lat="48.367838" lon="-4.651468"><ele>68.0</ele></trkpt>
    <trkpt lat="48.368538" lon="-4.650680"><ele>66.6</ele></trkpt>
    <trkpt lat="48.368792" lon="-4.650242"><ele>66.2</ele></trkpt>
    <trkpt lat="48.368895" lon="-4.649495"><ele>65.0</ele></trkpt>
    <trkpt lat="48.368940" lon="-4.649413"><ele>65.0</ele></trkpt>
    <trkpt lat="48.368916" lon="-4.649426"><ele>65.4</ele></trkpt>
    <trkpt lat="48.368895" lon="-4.649293"><ele>65.1</ele></trkpt>
    <trkpt lat="48.368838" lon="-4.648639"><ele>64.1</ele></trkpt>
    <trkpt lat="48.368580" lon="-4.647765"><ele>63.5</ele></trkpt>
    <trkpt lat="48.368638" lon="-4.647616"><ele>63.0</ele></trkpt>
    <trkpt lat="48.368949" lon="-4.647405"><ele>61.3</ele></trkpt>
    <trkpt lat="48.369046" lon="-4.647190"><ele>60.3</ele></trkpt>
    <trkpt lat="48.369078" lon="-4.646644"><ele>59.0</ele></trkpt>
    <trkpt lat="48.369229" lon="-4.646111"><ele>57.9</ele></trkpt>
    <trkpt lat="48.369272" lon="-4.645672"><ele>57.3</ele></trkpt>
    <trkpt lat="48.369283" lon="-4.645384"><ele>57.2</ele></trkpt>
    <trkpt lat="48.369240" lon="-4.645100"><ele>57.6</ele></trkpt>
    <trkpt lat="48.369400" lon="-4.644461"><ele>58.1</ele></trkpt>
    <trkpt lat="48.369492" lon="-4.644248"><ele>57.8</ele></trkpt>
    <trkpt lat="48.369637" lon="-4.643531"><ele>58.4</ele></trkpt>
    <trkpt lat="48.369648" lon="-4.643161"><ele>59.5</ele></trkpt>
    <trkpt lat="48.369713" lon="-4.642868"><ele>60.0</ele></trkpt>
    <trkpt lat="48.369687" lon="-4.642481"><ele>60.7</ele></trkpt>
    <trkpt lat="48.369617" lon="-4.642143"><ele>60.4</ele></trkpt>
    <trkpt lat="48.369765" lon="-4.641639"><ele>60.3</ele></trkpt>
    <trkpt lat="48.369839" lon="-4.641563"><ele>60.2</ele></trkpt>
    <trkpt lat="48.369887" lon="-4.641188"><ele>60.0</ele></trkpt>
    <trkpt lat="48.370042" lon="-4.640779"><ele>60.0</ele></trkpt>
    <trkpt lat="48.370051" lon="-4.640230"><ele>60.0</ele></trkpt>
    <trkpt lat="48.370080" lon="-4.640146"><ele>60.0</ele></trkpt>
    <trkpt lat="48.370208" lon="-4.640153"><ele>60.0</ele></trkpt>
  </trkseg></trk>
</gpx>
