<?xml version="1.0" encoding="UTF-8"?>
<gpx version="1.1" creator="tcap-parcours" xmlns="http://www.topografix.com/GPX/1/1">
  <metadata><name>A/R Saint-Mathieu – La classique – Aller-retour 34 km</name></metadata>
  <trk><name>A/R Saint-Mathieu – La classique – Aller-retour 34 km</name><trkseg>
    <trkpt lat="48.370044" lon="-4.640701"><ele>60.0</ele></trkpt>
    <trkpt lat="48.370042" lon="-4.640779"><ele>60.0</ele></trkpt>
    <trkpt lat="48.369887" lon="-4.641188"><ele>60.0</ele></trkpt>
    <trkpt lat="48.369870" lon="-4.641462"><ele>60.0</ele></trkpt>
    <trkpt lat="48.369839" lon="-4.641563"><ele>60.2</ele></trkpt>
    <trkpt lat="48.369765" lon="-4.641639"><ele>60.3</ele></trkpt>
    <trkpt lat="48.369617" lon="-4.642143"><ele>60.4</ele></trkpt>
    <trkpt lat="48.369687" lon="-4.642481"><ele>60.7</ele></trkpt>
    <trkpt lat="48.369713" lon="-4.642868"><ele>60.0</ele></trkpt>
    <trkpt lat="48.369648" lon="-4.643161"><ele>59.5</ele></trkpt>
    <trkpt lat="48.369637" lon="-4.643531"><ele>58.4</ele></trkpt>
    <trkpt lat="48.369492" lon="-4.644248"><ele>57.8</ele></trkpt>
    <trkpt lat="48.369400" lon="-4.644461"><ele>58.1</ele></trkpt>
    <trkpt lat="48.369240" lon="-4.645100"><ele>57.6</ele></trkpt>
    <trkpt lat="48.369283" lon="-4.645384"><ele>57.2</ele></trkpt>
    <trkpt lat="48.369272" lon="-4.645672"><ele>57.3</ele></trkpt>
    <trkpt lat="48.369229" lon="-4.646111"><ele>57.9</ele></trkpt>
    <trkpt lat="48.369078" lon="-4.646644"><ele>59.0</ele></trkpt>
    <trkpt lat="48.369046" lon="-4.647190"><ele>60.3</ele></trkpt>
    <trkpt lat="48.368949" lon="-4.647405"><ele>61.3</ele></trkpt>
    <trkpt lat="48.368638" lon="-4.647616"><ele>63.0</ele></trkpt>
    <trkpt lat="48.368580" lon="-4.647765"><ele>63.5</ele></trkpt>
    <trkpt lat="48.368838" lon="-4.648639"><ele>64.1</ele></trkpt>
    <trkpt lat="48.368895" lon="-4.649293"><ele>65.1</ele></trkpt>
    <trkpt lat="48.368990" lon="-4.649350"><ele>67.6</ele></trkpt>
    <trkpt lat="48.368893" lon="-4.649468"><ele>67.6</ele></trkpt>
    <trkpt lat="48.368807" lon="-4.650022"><ele>68.0</ele></trkpt>
    <trkpt lat="48.368735" lon="-4.650268"><ele>69.8</ele></trkpt>
    <trkpt lat="48.368367" lon="-4.650900"><ele>71.8</ele></trkpt>
    <trkpt lat="48.367975" lon="-4.651307"><ele>71.0</ele></trkpt>
    <trkpt lat="48.367847" lon="-4.651498"><ele>70.6</ele></trkpt>
    <trkpt lat="48.367385" lon="-4.652818"><ele>69.6</ele></trkpt>
    <trkpt lat="48.367272" lon="-4.652915"><ele>70.0</ele></trkpt>
    <trkpt lat="48.366930" lon="-4.652942"><ele>70.2</ele></trkpt>
    <trkpt lat="48.366653" lon="-4.653303"><ele>70.2</ele></trkpt>
    <trkpt lat="48.366583" lon="-4.653347"><ele>69.8</ele></trkpt>
    <trkpt lat="48.365963" lon="-4.653297"><ele>69.2</ele></trkpt>
    <trkpt lat="48.365868" lon="-4.653377"><ele>69.2</ele></trkpt>
    <trkpt lat="48.365632" lon="-4.653707"><ele>70.6</ele></trkpt>
    <trkpt lat="48.365410" lon="-4.653895"><ele>70.2</ele></trkpt>
    <trkpt lat="48.364483" lon="-4.654412"><ele>70.4</ele></trkpt>
    <trkpt lat="48.364107" lon="-4.654667"><ele>71.0</ele></trkpt>
    <trkpt lat="48.363763" lon="-4.654773"><ele>70.4</ele></trkpt>
    <trkpt lat="48.363417" lon="-4.654820"><ele>69.2</ele></trkpt>
    <trkpt lat="48.363323" lon="-4.654893"><ele>68.4</ele></trkpt>
    <trkpt lat="48.362878" lon="-4.655032"><ele>67.2</ele></trkpt>
    <trkpt lat="48.362772" lon="-4.655167"><ele>67.2</ele></trkpt>
    <trkpt lat="48.362542" lon="-4.656002"><ele>67.8</ele></trkpt>
    <trkpt lat="48.362385" lon="-4.656302"><ele>68.4</ele></trkpt>
    <trkpt lat="48.362278" lon="-4.656343"><ele>68.4</ele></trkpt>
    <trkpt lat="48.361822" lon="-4.656328"><ele>66.6</ele></trkpt>
    <trkpt lat="48.361345" lon="-4.656428"><ele>63.8</ele></trkpt>
    <trkpt lat="48.361075" lon="-4.656588"><ele>62.8</ele></trkpt>
    <trkpt lat="48.360822" lon="-4.656875"><ele>62.2</ele></trkpt>
    <trkpt lat="48.360617" lon="-4.657032"><ele>61.4</ele></trkpt>
    <trkpt lat="48.360570" lon="-4.657143"><ele>61.0</ele></trkpt>
    <trkpt lat="48.360548" lon="-4.657308"><ele>61.4</ele></trkpt>
    <trkpt lat="48.360597" lon="-4.657810"><ele>62.0</ele></trkpt>
    <trkpt lat="48.361283" lon="-4.659163"><ele>61.8</ele></trkpt>
    <trkpt lat="48.361512" lon="-4.659862"><ele>60.6</ele></trkpt>
    <trkpt lat="48.361545" lon="-4.660060"><ele>60.6</ele></trkpt>
    <trkpt lat="48.361527" lon="-4.660132"><ele>60.4</ele></trkpt>
    <trkpt lat="48.360967" lon="-4.660633"><ele>59.8</ele></trkpt>
    <trkpt lat="48.360575" lon="-4.660927"><ele>59.2</ele></trkpt>
    <trkpt lat="48.360310" lon="-4.661300"><ele>58.2</ele></trkpt>
    <trkpt lat="48.360137" lon="-4.661643"><ele>58.6</ele></trkpt>
    <trkpt lat="48.360123" lon="-4.661773"><ele>58.2</ele></trkpt>
    <trkpt lat="48.360163" lon="-4.662035"><ele>58.6</ele></trkpt>
    <trkpt lat="48.360103" lon="-4.662243"><ele>57.8</ele></trkpt>
    <trkpt lat="48.359892" lon="-4.662588"><ele>56.0</ele></trkpt>
    <trkpt lat="48.359477" lon="-4.663147"><ele>52.8</ele></trkpt>
    <trkpt lat="48.359343" lon="-4.663410"><ele>52.0</ele></trkpt>
    <trkpt lat="48.359155" lon="-4.663630"><ele>50.4</ele></trkpt>
    <trkpt lat="48.359025" lon="-4.663898"><ele>49.4</ele></trkpt>
    <trkpt lat="48.358557" lon="-4.664207"><ele>48.4</ele></trkpt>
    <trkpt lat="48.358182" lon="-4.664363"><ele>46.2</ele></trkpt>
    <trkpt lat="48.358035" lon="-4.664382"><ele>45.4</ele></trkpt>
    <trkpt lat="48.357950" lon="-4.664332"><ele>45.4</ele></trkpt>
    <trkpt lat="48.357738" lon="-4.664325"><ele>45.0</ele></trkpt>
    <trkpt lat="48.357453" lon="-4.664465"><ele>44.8</ele></trkpt>
    <trkpt lat="48.357310" lon="-4.664592"><ele>44.2</ele></trkpt>
    <trkpt lat="48.357077" lon="-4.664673"><ele>44.2</ele></trkpt>
    <trkpt lat="48.357008" lon="-4.664762"><ele>44.0</ele></trkpt>
    <trkpt lat="48.356960" lon="-4.665350"><ele>43.2</ele></trkpt>
    <trkpt lat="48.356732" lon="-4.665907"><ele>41.0</ele></trkpt>
    <trkpt lat="48.356602" lon="-4.666330"><ele>40.0</ele></trkpt>
    <trkpt lat="48.356493" lon="-4.667008"><ele>39.6</ele></trkpt>
    <trkpt lat="48.356342" lon="-4.667397"><ele>38.6</ele></trkpt>
    <trkpt lat="48.356363" lon="-4.667825"><ele>37.0</ele></trkpt>
    <trkpt lat="48.356415" lon="-4.668127"><ele>35.6</ele></trkpt>
    <trkpt lat="48.356495" lon="-4.668255"><ele>35.2</ele></trkpt>
    <trkpt lat="48.356857" lon="-4.668320"><ele>35.2</ele></trkpt>
    <trkpt lat="48.357273" lon="-4.668463"><ele>33.6</ele></trkpt>
    <trkpt lat="48.357517" lon="-4.668303"><ele>32.6</ele></trkpt>
    <trkpt lat="48.357818" lon="-4.668258"><ele>32.2</ele></trkpt>
    <trkpt lat="48.357908" lon="-4.668320"><ele>32.4</ele></trkpt>
    <trkpt lat="48.357973" lon="-4.668425"><ele>31.8</ele></trkpt>
    <trkpt lat="48.358000" lon="-4.668560"><ele>30.6</ele></trkpt>
    <trkpt lat="48.357992" lon="-4.668723"><ele>28.4</ele></trkpt>
    <trkpt lat="48.357895" lon="-4.668910"><ele>26.8</ele></trkpt>
    <trkpt lat="48.357678" lon="-4.669105"><ele>23.2</ele></trkpt>
    <trkpt lat="48.357655" lon="-4.669522"><ele>18.4</ele></trkpt>
    <trkpt lat="48.357532" lon="-4.669627"><ele>16.6</ele></trkpt>
    <trkpt lat="48.357432" lon="-4.669783"><ele>15.2</ele></trkpt>
    <trkpt lat="48.356918" lon="-4.670208"><ele>15.4</ele></trkpt>
    <trkpt lat="48.356890" lon="-4.670477"><ele>14.6</ele></trkpt>
    <trkpt lat="48.356975" lon="-4.670768"><ele>11.8</ele></trkpt>
    <trkpt lat="48.356967" lon="-4.670930"><ele>9.8</ele></trkpt>
    <trkpt lat="48.356917" lon="-4.671027"><ele>8.6</ele></trkpt>
    <trkpt lat="48.356552" lon="-4.671422"><ele>6.8</ele></trkpt>
    <trkpt lat="48.356093" lon="-4.672073"><ele>6.0</ele></trkpt>
    <trkpt lat="48.356035" lon="-4.672207"><ele>6.2</ele></trkpt>
    <trkpt lat="48.356002" lon="-4.672667"><ele>4.0</ele></trkpt>
    <trkpt lat="48.355878" lon="-4.672902"><ele>2.6</ele></trkpt>
    <trkpt lat="48.355705" lon="-4.673070"><ele>2.0</ele></trkpt>
    <trkpt lat="48.355267" lon="-4.673322"><ele>1.0</ele></trkpt>
    <trkpt lat="48.354788" lon="-4.673765"><ele>0.0</ele></trkpt>
    <trkpt lat="48.354677" lon="-4.673690"><ele>0.0</ele></trkpt>
    <trkpt lat="48.354618" lon="-4.673738"><ele>0.0</ele></trkpt>
    <trkpt lat="48.354627" lon="-4.674178"><ele>0.0</ele></trkpt>
    <trkpt lat="48.354762" lon="-4.675102"><ele>0.0</ele></trkpt>
    <trkpt lat="48.354858" lon="-4.676042"><ele>1.0</ele></trkpt>
    <trkpt lat="48.354908" lon="-4.676245"><ele>2.8</ele></trkpt>
    <trkpt lat="48.355008" lon="-4.676425"><ele>3.8</ele></trkpt>
    <trkpt lat="48.355140" lon="-4.676902"><ele>6.6</ele></trkpt>
    <trkpt lat="48.355162" lon="-4.677355"><ele>6.6</ele></trkpt>
    <trkpt lat="48.355207" lon="-4.677592"><ele>7.0</ele></trkpt>
    <trkpt lat="48.355353" lon="-4.677983"><ele>6.2</ele></trkpt>
    <trkpt lat="48.355458" lon="-4.678157"><ele>6.6</ele></trkpt>
    <trkpt lat="48.355693" lon="-4.678318"><ele>4.6</ele></trkpt>
    <trkpt lat="48.355852" lon="-4.678483"><ele>2.0</ele></trkpt>
    <trkpt lat="48.355990" lon="-4.678857"><ele>0.6</ele></trkpt>
    <trkpt lat="48.356160" lon="-4.678892"><ele>0.0</ele></trkpt>
    <trkpt lat="48.356252" lon="-4.678977"><ele>0.0</ele></trkpt>
    <trkpt lat="48.356298" lon="-4.679623"><ele>0.0</ele></trkpt>
    <trkpt lat="48.356215" lon="-4.680035"><ele>0.0</ele></trkpt>
    <trkpt lat="48.356093" lon="-4.680290"><ele>0.0</ele></trkpt>
    <trkpt lat="48.356052" lon="-4.680613"><ele>0.2</ele></trkpt>
    <trkpt lat="48.356065" lon="-4.680743"><ele>1.8</ele></trkpt>
    <trkpt lat="48.356008" lon="-4.680932"><ele>3.6</ele></trkpt>
    <trkpt lat="48.355905" lon="-4.680995"><ele>5.6</ele></trkpt>
    <trkpt lat="48.355762" lon="-4.681200"><ele>8.2</ele></trkpt>
    <trkpt lat="48.355668" lon="-4.681272"><ele>9.4</ele></trkpt>
    <trkpt lat="48.355600" lon="-4.681433"><ele>10.0</ele></trkpt>
    <trkpt lat="48.355418" lon="-4.681577"><ele>10.6</ele></trkpt>
    <trkpt lat="48.355350" lon="-4.681785"><ele>11.6</ele></trkpt>
    <trkpt lat="48.355313" lon="-4.682045"><ele>13.2</ele></trkpt>
    <trkpt lat="48.355038" lon="-4.682328"><ele>15.6</ele></trkpt>
    <trkpt lat="48.354953" lon="-4.682308"><ele>16.0</ele></trkpt>
    <trkpt lat="48.354763" lon="-4.682155"><ele>15.8</ele></trkpt>
    <trkpt lat="48.354643" lon="-4.682160"><ele>14.6</ele></trkpt>
    <trkpt lat="48.354378" lon="-4.682495"><ele>15.0</ele></trkpt>
    <trkpt lat="48.354398" lon="-4.682710"><ele>15.2</ele></trkpt>
    <trkpt lat="48.354352" lon="-4.682832"><ele>15.4</ele></trkpt>
    <trkpt lat="48.354113" lon="-4.682972"><ele>13.8</ele></trkpt>
    <trkpt lat="48.354045" lon="-4.683058"><ele>12.4</ele></trkpt>
    <trkpt lat="48.353908" lon="-4.683648"><ele>9.2</ele></trkpt>
    <trkpt lat="48.353935" lon="-4.684107"><ele>12.0</ele></trkpt>
    <trkpt lat="48.353878" lon="-4.684228"><ele>12.8</ele></trkpt>
    <trkpt lat="48.353755" lon="-4.684315"><ele>11.8</ele></trkpt>
    <trkpt lat="48.353638" lon="-4.684627"><ele>10.2</ele></trkpt>
    <trkpt lat="48.353633" lon="-4.684777"><ele>10.8</ele></trkpt>
    <trkpt lat="48.353687" lon="-4.685012"><ele>13.2</ele></trkpt>
    <trkpt lat="48.353750" lon="-4.685142"><ele>13.6</ele></trkpt>
    <trkpt lat="48.354040" lon="-4.685230"><ele>13.4</ele></trkpt>
    <trkpt lat="48.354265" lon="-4.685188"><ele>14.8</ele></trkpt>
    <trkpt lat="48.354577" lon="-4.685203"><ele>17.8</ele></trkpt>
    <trkpt lat="48.354633" lon="-4.685317"><ele>18.2</ele></trkpt>
    <trkpt lat="48.354540" lon="-4.687207"><ele>20.4</ele></trkpt>
    <trkpt lat="48.354778" lon="-4.688238"><ele>13.6</ele></trkpt>
    <trkpt lat="48.354748" lon="-4.688900"><ele>12.8</ele></trkpt>
    <trkpt lat="48.354850" lon="-4.689268"><ele>11.8</ele></trkpt>
    <trkpt lat="48.354838" lon="-4.689357"><ele>11.2</ele></trkpt>
    <trkpt lat="48.354655" lon="-4.689635"><ele>9.2</ele></trkpt>
    <trkpt lat="48.354635" lon="-4.689852"><ele>7.6</ele></trkpt>
    <trkpt lat="48.354675" lon="-4.690030"><ele>5.0</ele></trkpt>
    <trkpt lat="48.354857" lon="-4.690392"><ele>3.4</ele></trkpt>
    <trkpt lat="48.354882" lon="-4.691107"><ele>4.6</ele></trkpt>
    <trkpt lat="48.354960" lon="-4.691157"><ele>5.2</ele></trkpt>
    <trkpt lat="48.354823" lon="-4.691340"><ele>6.4</ele></trkpt>
    <trkpt lat="48.354748" lon="-4.691512"><ele>8.4</ele></trkpt>
    <trkpt lat="48.354593" lon="-4.691600"><ele>9.4</ele></trkpt>
    <trkpt lat="48.354585" lon="-4.691705"><ele>10.6</ele></trkpt>
    <trkpt lat="48.354447" lon="-4.691963"><ele>12.4</ele></trkpt>
    <trkpt lat="48.354307" lon="-4.692052"><ele>12.4</ele></trkpt>
    <trkpt lat="48.354112" lon="-4.692083"><ele>11.0</ele></trkpt>
    <trkpt lat="48.354012" lon="-4.692147"><ele>10.6</ele></trkpt>
    <trkpt lat="48.353883" lon="-4.692292"><ele>10.4</ele></trkpt>
    <trkpt lat="48.353798" lon="-4.692463"><ele>11.2</ele></trkpt>
    <trkpt lat="48.353678" lon="-4.692927"><ele>12.2</ele></trkpt>
    <trkpt lat="48.353613" lon="-4.693320"><ele>12.8</ele></trkpt>
    <trkpt lat="48.353662" lon="-4.694165"><ele>12.4</ele></trkpt>
    <trkpt lat="48.353603" lon="-4.694623"><ele>10.0</ele></trkpt>
    <trkpt lat="48.353538" lon="-4.694848"><ele>9.8</ele></trkpt>
    <trkpt lat="48.353393" lon="-4.695152"><ele>9.6</ele></trkpt>
    <trkpt lat="48.353368" lon="-4.695413"><ele>12.2</ele></trkpt>
    <trkpt lat="48.353228" lon="-4.695622"><ele>13.6</ele></trkpt>
    <trkpt lat="48.352943" lon="-4.695882"><ele>12.6</ele></trkpt>
    <trkpt lat="48.352735" lon="-4.696285"><ele>11.8</ele></trkpt>
    <trkpt lat="48.352522" lon="-4.696463"><ele>11.4</ele></trkpt>
    <trkpt lat="48.352442" lon="-4.696620"><ele>10.6</ele></trkpt>
    <trkpt lat="48.352418" lon="-4.696855"><ele>10.4</ele></trkpt>
    <trkpt lat="48.352793" lon="-4.697343"><ele>15.0</ele></trkpt>
    <trkpt lat="48.352395" lon="-4.698203"><ele>16.0</ele></trkpt>
    <trkpt lat="48.352420" lon="-4.698562"><ele>15.4</ele></trkpt>
    <trkpt lat="48.352507" lon="-4.698828"><ele>18.8</ele></trkpt>
    <trkpt lat="48.352558" lon="-4.699152"><ele>20.4</ele></trkpt>
    <trkpt lat="48.352507" lon="-4.699503"><ele>20.8</ele></trkpt>
    <trkpt lat="48.352393" lon="-4.699615"><ele>19.4</ele></trkpt>
    <trkpt lat="48.352162" lon="-4.699563"><ele>16.0</ele></trkpt>
    <trkpt lat="48.351838" lon="-4.699580"><ele>12.6</ele></trkpt>
    <trkpt lat="48.351387" lon="-4.699705"><ele>8.2</ele></trkpt>
    <trkpt lat="48.351063" lon="-4.699677"><ele>4.8</ele></trkpt>
    <trkpt lat="48.350880" lon="-4.699757"><ele>3.2</ele></trkpt>
    <trkpt lat="48.350137" lon="-4.701088"><ele>3.4</ele></trkpt>
    <trkpt lat="48.349755" lon="-4.701478"><ele>4.8</ele></trkpt>
    <trkpt lat="48.349233" lon="-4.702145"><ele>4.4</ele></trkpt>
    <trkpt lat="48.348730" lon="-4.702695"><ele>4.4</ele></trkpt>
    <trkpt lat="48.348673" lon="-4.702683"><ele>4.4</ele></trkpt>
    <trkpt lat="48.348590" lon="-4.702490"><ele>4.6</ele></trkpt>
    <trkpt lat="48.348462" lon="-4.702547"><ele>3.4</ele></trkpt>
    <trkpt lat="48.348347" lon="-4.702372"><ele>0.4</ele></trkpt>
    <trkpt lat="48.348123" lon="-4.702490"><ele>0.0</ele></trkpt>
    <trkpt lat="48.347580" lon="-4.702908"><ele>0.0</ele></trkpt>
    <trkpt lat="48.347225" lon="-4.703060"><ele>0.0</ele></trkpt>
    <trkpt lat="48.346587" lon="-4.703235"><ele>0.0</ele></trkpt>
    <trkpt lat="48.346272" lon="-4.703238"><ele>0.0</ele></trkpt>
    <trkpt lat="48.345912" lon="-4.703148"><ele>0.0</ele></trkpt>
    <trkpt lat="48.345450" lon="-4.703315"><ele>0.0</ele></trkpt>
    <trkpt lat="48.345410" lon="-4.703287"><ele>0.0</ele></trkpt>
    <trkpt lat="48.345320" lon="-4.703088"><ele>0.0</ele></trkpt>
    <trkpt lat="48.345287" lon="-4.702648"><ele>0.0</ele></trkpt>
    <trkpt lat="48.345255" lon="-4.702558"><ele>0.0</ele></trkpt>
    <trkpt lat="48.345192" lon="-4.702568"><ele>0.0</ele></trkpt>
    <trkpt lat="48.344947" lon="-4.702805"><ele>0.0</ele></trkpt>
    <trkpt lat="48.344890" lon="-4.702560"><ele>0.2</ele></trkpt>
    <trkpt lat="48.344903" lon="-4.701992"><ele>0.4</ele></trkpt>
    <trkpt lat="48.344873" lon="-4.701855"><ele>0.2</ele></trkpt>
    <trkpt lat="48.344777" lon="-4.701740"><ele>0.2</ele></trkpt>
    <trkpt lat="48.344238" lon="-4.701360"><ele>3.8</ele></trkpt>
    <trkpt lat="48.343982" lon="-4.701297"><ele>4.4</ele></trkpt>
    <trkpt lat="48.343683" lon="-4.701395"><ele>5.4</ele></trkpt>
    <trkpt lat="48.343332" lon="-4.701368"><ele>6.2</ele></trkpt>
    <trkpt lat="48.343222" lon="-4.701410"><ele>5.8</ele></trkpt>
    <trkpt lat="48.342997" lon="-4.701603"><ele>5.6</ele></trkpt>
    <trkpt lat="48.342838" lon="-4.701617"><ele>6.0</ele></trkpt>
    <trkpt lat="48.342698" lon="-4.701507"><ele>7.4</ele></trkpt>
    <trkpt lat="48.342460" lon="-4.701167"><ele>8.6</ele></trkpt>
    <trkpt lat="48.341970" lon="-4.700925"><ele>12.8</ele></trkpt>
    <trkpt lat="48.341777" lon="-4.700753"><ele>18.2</ele></trkpt>
    <trkpt lat="48.341575" lon="-4.700642"><ele>20.4</ele></trkpt>
    <trkpt lat="48.341410" lon="-4.700592"><ele>22.0</ele></trkpt>
    <trkpt lat="48.340723" lon="-4.700635"><ele>14.8</ele></trkpt>
    <trkpt lat="48.340345" lon="-4.700987"><ele>9.4</ele></trkpt>
    <trkpt lat="48.340043" lon="-4.701138"><ele>7.0</ele></trkpt>
    <trkpt lat="48.339898" lon="-4.701403"><ele>4.4</ele></trkpt>
    <trkpt lat="48.339777" lon="-4.701768"><ele>2.4</ele></trkpt>
    <trkpt lat="48.339733" lon="-4.702073"><ele>0.8</ele></trkpt>
    <trkpt lat="48.339740" lon="-4.702573"><ele>0.0</ele></trkpt>
    <trkpt lat="48.339717" lon="-4.702650"><ele>0.0</ele></trkpt>
    <trkpt lat="48.339672" lon="-4.702658"><ele>0.0</ele></trkpt>
    <trkpt lat="48.339593" lon="-4.702487"><ele>0.0</ele></trkpt>
    <trkpt lat="48.339608" lon="-4.702193"><ele>0.0</ele></trkpt>
    <trkpt lat="48.339563" lon="-4.701938"><ele>0.0</ele></trkpt>
    <trkpt lat="48.339375" lon="-4.701850"><ele>0.0</ele></trkpt>
    <trkpt lat="48.339317" lon="-4.701755"><ele>0.0</ele></trkpt>
    <trkpt lat="48.339355" lon="-4.701493"><ele>0.0</ele></trkpt>
    <trkpt lat="48.339323" lon="-4.701297"><ele>0.0</ele></trkpt>
    <trkpt lat="48.339048" lon="-4.700772"><ele>0.0</ele></trkpt>
    <trkpt lat="48.338980" lon="-4.700530"><ele>2.4</ele></trkpt>
    <trkpt lat="48.338720" lon="-4.700335"><ele>7.2</ele></trkpt>
    <trkpt lat="48.338698" lon="-4.700258"><ele>8.0</ele></trkpt>
    <trkpt lat="48.338737" lon="-4.700067"><ele>9.0</ele></trkpt>
    <trkpt lat="48.338950" lon="-4.699675"><ele>9.2</ele></trkpt>
    <trkpt lat="48.338960" lon="-4.699485"><ele>8.6</ele></trkpt>
    <trkpt lat="48.338933" lon="-4.699348"><ele>8.2</ele></trkpt>
    <trkpt lat="48.338640" lon="-4.698807"><ele>6.8</ele></trkpt>
    <trkpt lat="48.338463" lon="-4.698665"><ele>7.0</ele></trkpt>
    <trkpt lat="48.338287" lon="-4.698423"><ele>7.8</ele></trkpt>
    <trkpt lat="48.338180" lon="-4.698413"><ele>7.6</ele></trkpt>
    <trkpt lat="48.337752" lon="-4.698927"><ele>10.4</ele></trkpt>
    <trkpt lat="48.337705" lon="-4.699342"><ele>18.4</ele></trkpt>
    <trkpt lat="48.337567" lon="-4.699560"><ele>21.2</ele></trkpt>
    <trkpt lat="48.337485" lon="-4.699618"><ele>21.4</ele></trkpt>
    <trkpt lat="48.337335" lon="-4.699603"><ele>21.0</ele></trkpt>
    <trkpt lat="48.337267" lon="-4.699695"><ele>20.6</ele></trkpt>
    <trkpt lat="48.337073" lon="-4.700648"><ele>20.2</ele></trkpt>
    <trkpt lat="48.337163" lon="-4.701180"><ele>20.0</ele></trkpt>
    <trkpt lat="48.337153" lon="-4.701660"><ele>21.8</ele></trkpt>
    <trkpt lat="48.337065" lon="-4.701850"><ele>22.2</ele></trkpt>
    <trkpt lat="48.336747" lon="-4.702265"><ele>23.0</ele></trkpt>
    <trkpt lat="48.336667" lon="-4.702465"><ele>22.8</ele></trkpt>
    <trkpt lat="48.336492" lon="-4.703637"><ele>25.8</ele></trkpt>
    <trkpt lat="48.336547" lon="-4.703907"><ele>26.6</ele></trkpt>
    <trkpt lat="48.336533" lon="-4.704392"><ele>26.2</ele></trkpt>
    <trkpt lat="48.336600" lon="-4.705762"><ele>30.0</ele></trkpt>
    <trkpt lat="48.336400" lon="-4.707283"><ele>33.2</ele></trkpt>
    <trkpt lat="48.336213" lon="-4.708145"><ele>36.4</ele></trkpt>
    <trkpt lat="48.336132" lon="-4.708820"><ele>37.4</ele></trkpt>
    <trkpt lat="48.335968" lon="-4.709638"><ele>39.2</ele></trkpt>
    <trkpt lat="48.335873" lon="-4.709695"><ele>39.8</ele></trkpt>
    <trkpt lat="48.335263" lon="-4.709583"><ele>37.8</ele></trkpt>
    <trkpt lat="48.334840" lon="-4.709488"><ele>36.4</ele></trkpt>
    <trkpt lat="48.334468" lon="-4.709335"><ele>35.4</ele></trkpt>
    <trkpt lat="48.334447" lon="-4.709242"><ele>35.6</ele></trkpt>
    <trkpt lat="48.334545" lon="-4.708688"><ele>34.4</ele></trkpt>
    <trkpt lat="48.334678" lon="-4.708198"><ele>30.2</ele></trkpt>
    <trkpt lat="48.334658" lon="-4.707743"><ele>26.4</ele></trkpt>
    <trkpt lat="48.334520" lon="-4.707393"><ele>22.6</ele></trkpt>
    <trkpt lat="48.334275" lon="-4.707060"><ele>16.8</ele></trkpt>
    <trkpt lat="48.334217" lon="-4.707093"><ele>15.6</ele></trkpt>
    <trkpt lat="48.334185" lon="-4.707173"><ele>14.6</ele></trkpt>
    <trkpt lat="48.334138" lon="-4.707657"><ele>14.8</ele></trkpt>
    <trkpt lat="48.334072" lon="-4.707812"><ele>19.8</ele></trkpt>
    <trkpt lat="48.333958" lon="-4.707837"><ele>20.8</ele></trkpt>
    <trkpt lat="48.333840" lon="-4.707733"><ele>20.6</ele></trkpt>
    <trkpt lat="48.333257" lon="-4.708125"><ele>21.6</ele></trkpt>
    <trkpt lat="48.332523" lon="-4.708123"><ele>21.6</ele></trkpt>
    <trkpt lat="48.332272" lon="-4.708223"><ele>24.0</ele></trkpt>
    <trkpt lat="48.332122" lon="-4.708465"><ele>31.4</ele></trkpt>
    <trkpt lat="48.332042" lon="-4.709083"><ele>31.4</ele></trkpt>
    <trkpt lat="48.331973" lon="-4.709277"><ele>35.6</ele></trkpt>
    <trkpt lat="48.331878" lon="-4.709398"><ele>34.4</ele></trkpt>
    <trkpt lat="48.331652" lon="-4.709535"><ele>36.0</ele></trkpt>
    <trkpt lat="48.331498" lon="-4.709837"><ele>40.2</ele></trkpt>
    <trkpt lat="48.331460" lon="-4.710635"><ele>48.4</ele></trkpt>
    <trkpt lat="48.331598" lon="-4.711060"><ele>51.8</ele></trkpt>
    <trkpt lat="48.331627" lon="-4.711362"><ele>50.8</ele></trkpt>
    <trkpt lat="48.331693" lon="-4.711610"><ele>54.8</ele></trkpt>
    <trkpt lat="48.331745" lon="-4.712675"><ele>46.6</ele></trkpt>
    <trkpt lat="48.331792" lon="-4.712817"><ele>45.6</ele></trkpt>
    <trkpt lat="48.332013" lon="-4.712873"><ele>47.4</ele></trkpt>
    <trkpt lat="48.332113" lon="-4.712985"><ele>49.2</ele></trkpt>
    <trkpt lat="48.332192" lon="-4.713240"><ele>48.0</ele></trkpt>
    <trkpt lat="48.332202" lon="-4.713518"><ele>47.0</ele></trkpt>
    <trkpt lat="48.332095" lon="-4.713675"><ele>46.0</ele></trkpt>
    <trkpt lat="48.331960" lon="-4.713765"><ele>45.2</ele></trkpt>
    <trkpt lat="48.331072" lon="-4.713923"><ele>38.2</ele></trkpt>
    <trkpt lat="48.330805" lon="-4.714047"><ele>35.8</ele></trkpt>
    <trkpt lat="48.330660" lon="-4.714167"><ele>33.4</ele></trkpt>
    <trkpt lat="48.330618" lon="-4.714357"><ele>32.0</ele></trkpt>
    <trkpt lat="48.330695" lon="-4.714720"><ele>30.2</ele></trkpt>
    <trkpt lat="48.330807" lon="-4.715033"><ele>31.8</ele></trkpt>
    <trkpt lat="48.330803" lon="-4.715245"><ele>31.6</ele></trkpt>
    <trkpt lat="48.330628" lon="-4.715630"><ele>32.0</ele></trkpt>
    <trkpt lat="48.330165" lon="-4.716317"><ele>28.8</ele></trkpt>
    <trkpt lat="48.330087" lon="-4.716510"><ele>30.2</ele></trkpt>
    <trkpt lat="48.330112" lon="-4.716633"><ele>30.6</ele></trkpt>
    <trkpt lat="48.330560" lon="-4.717512"><ele>32.6</ele></trkpt>
    <trkpt lat="48.330650" lon="-4.717492"><ele>33.0</ele></trkpt>
    <trkpt lat="48.330815" lon="-4.717345"><ele>37.0</ele></trkpt>
    <trkpt lat="48.330980" lon="-4.717057"><ele>43.4</ele></trkpt>
    <trkpt lat="48.331082" lon="-4.716950"><ele>45.8</ele></trkpt>
    <trkpt lat="48.331308" lon="-4.716970"><ele>46.4</ele></trkpt>
    <trkpt lat="48.331357" lon="-4.717077"><ele>43.0</ele></trkpt>
    <trkpt lat="48.331362" lon="-4.717440"><ele>33.6</ele></trkpt>
    <trkpt lat="48.331207" lon="-4.717858"><ele>24.8</ele></trkpt>
    <trkpt lat="48.331223" lon="-4.718072"><ele>22.8</ele></trkpt>
    <trkpt lat="48.330957" lon="-4.718487"><ele>15.4</ele></trkpt>
    <trkpt lat="48.330933" lon="-4.718928"><ele>19.8</ele></trkpt>
    <trkpt lat="48.330878" lon="-4.719027"><ele>21.6</ele></trkpt>
    <trkpt lat="48.330808" lon="-4.719285"><ele>18.0</ele></trkpt>
    <trkpt lat="48.330742" lon="-4.719788"><ele>18.0</ele></trkpt>
    <trkpt lat="48.330895" lon="-4.719945"><ele>18.8</ele></trkpt>
    <trkpt lat="48.330927" lon="-4.720072"><ele>18.8</ele></trkpt>
    <trkpt lat="48.330817" lon="-4.720412"><ele>19.8</ele></trkpt>
    <trkpt lat="48.330505" lon="-4.721098"><ele>20.8</ele></trkpt>
    <trkpt lat="48.330492" lon="-4.721490"><ele>22.4</ele></trkpt>
    <trkpt lat="48.330585" lon="-4.721662"><ele>24.0</ele></trkpt>
    <trkpt lat="48.330597" lon="-4.721767"><ele>24.8</ele></trkpt>
    <trkpt lat="48.330448" lon="-4.722478"><ele>22.6</ele></trkpt>
    <trkpt lat="48.330315" lon="-4.722915"><ele>27.2</ele></trkpt>
    <trkpt lat="48.330295" lon="-4.723153"><ele>27.6</ele></trkpt>
    <trkpt lat="48.330310" lon="-4.723368"><ele>25.4</ele></trkpt>
    <trkpt lat="48.330367" lon="-4.723500"><ele>25.4</ele></trkpt>
    <trkpt lat="48.330652" lon="-4.723842"><ele>21.8</ele></trkpt>
    <trkpt lat="48.330538" lon="-4.724045"><ele>17.4</ele></trkpt>
    <trkpt lat="48.330517" lon="-4.724190"><ele>15.2</ele></trkpt>
    <trkpt lat="48.330703" lon="-4.724727"><ele>24.8</ele></trkpt>
    <trkpt lat="48.330698" lon="-4.724838"><ele>28.2</ele></trkpt>
    <trkpt lat="48.330740" lon="-4.725027"><ele>29.6</ele></trkpt>
    <trkpt lat="48.330622" lon="-4.725655"><ele>25.0</ele></trkpt>
    <trkpt lat="48.330493" lon="-4.725780"><ele>24.0</ele></trkpt>
    <trkpt lat="48.330483" lon="-4.725847"><ele>24.8</ele></trkpt>
    <trkpt lat="48.330507" lon="-4.725958"><ele>25.8</ele></trkpt>
    <trkpt lat="48.330678" lon="-4.726212"><ele>18.6</ele></trkpt>
    <trkpt lat="48.330747" lon="-4.726810"><ele>19.0</ele></trkpt>
    <trkpt lat="48.330700" lon="-4.727225"><ele>22.0</ele></trkpt>
    <trkpt lat="48.330527" lon="-4.727747"><ele>22.2</ele></trkpt>
    <trkpt lat="48.330518" lon="-4.727975"><ele>24.8</ele></trkpt>
    <trkpt lat="48.330553" lon="-4.728372"><ele>24.4</ele></trkpt>
    <trkpt lat="48.330613" lon="-4.728717"><ele>23.8</ele></trkpt>
    <trkpt lat="48.330933" lon="-4.729237"><ele>30.0</ele></trkpt>
    <trkpt lat="48.331158" lon="-4.729677"><ele>30.2</ele></trkpt>
    <trkpt lat="48.331252" lon="-4.729747"><ele>32.2</ele></trkpt>
    <trkpt lat="48.331310" lon="-4.729708"><ele>32.8</ele></trkpt>
    <trkpt lat="48.331352" lon="-4.729552"><ele>33.2</ele></trkpt>
    <trkpt lat="48.331362" lon="-4.729157"><ele>32.0</ele></trkpt>
    <trkpt lat="48.331293" lon="-4.728873"><ele>36.8</ele></trkpt>
    <trkpt lat="48.331270" lon="-4.728580"><ele>38.6</ele></trkpt>
    <trkpt lat="48.331360" lon="-4.728418"><ele>38.8</ele></trkpt>
    <trkpt lat="48.332227" lon="-4.728333"><ele>43.4</ele></trkpt>
    <trkpt lat="48.332817" lon="-4.728350"><ele>50.2</ele></trkpt>
    <trkpt lat="48.333157" lon="-4.728418"><ele>52.0</ele></trkpt>
    <trkpt lat="48.335302" lon="-4.729435"><ele>50.6</ele></trkpt>
    <trkpt lat="48.336058" lon="-4.729652"><ele>46.6</ele></trkpt>
    <trkpt lat="48.336108" lon="-4.729710"><ele>46.2</ele></trkpt>
    <trkpt lat="48.336160" lon="-4.729870"><ele>45.6</ele></trkpt>
    <trkpt lat="48.336218" lon="-4.730720"><ele>44.6</ele></trkpt>
    <trkpt lat="48.336188" lon="-4.730990"><ele>44.0</ele></trkpt>
    <trkpt lat="48.335902" lon="-4.732323"><ele>37.2</ele></trkpt>
    <trkpt lat="48.335445" lon="-4.733450"><ele>30.0</ele></trkpt>
    <trkpt lat="48.334168" lon="-4.735210"><ele>20.0</ele></trkpt>
    <trkpt lat="48.333703" lon="-4.735643"><ele>15.6</ele></trkpt>
    <trkpt lat="48.333663" lon="-4.735768"><ele>14.8</ele></trkpt>
    <trkpt lat="48.333643" lon="-4.736077"><ele>13.4</ele></trkpt>
    <trkpt lat="48.333333" lon="-4.736678"><ele>10.2</ele></trkpt>
    <trkpt lat="48.333313" lon="-4.736755"><ele>9.8</ele></trkpt>
    <trkpt lat="48.333332" lon="-4.736933"><ele>9.4</ele></trkpt>
    <trkpt lat="48.333272" lon="-4.737097"><ele>10.0</ele></trkpt>
    <trkpt lat="48.333275" lon="-4.737167"><ele>10.4</ele></trkpt>
    <trkpt lat="48.333327" lon="-4.737218"><ele>11.2</ele></trkpt>
    <trkpt lat="48.333160" lon="-4.737453"><ele>19.6</ele></trkpt>
    <trkpt lat="48.333097" lon="-4.737647"><ele>21.6</ele></trkpt>
    <trkpt lat="48.333287" lon="-4.737867"><ele>25.6</ele></trkpt>
    <trkpt lat="48.333600" lon="-4.738010"><ele>24.4</ele></trkpt>
    <trkpt lat="48.333772" lon="-4.738223"><ele>20.8</ele></trkpt>
    <trkpt lat="48.333785" lon="-4.738280"><ele>20.6</ele></trkpt>
    <trkpt lat="48.333692" lon="-4.738378"><ele>20.2</ele></trkpt>
    <trkpt lat="48.333697" lon="-4.738597"><ele>21.8</ele></trkpt>
    <trkpt lat="48.333657" lon="-4.738630"><ele>22.6</ele></trkpt>
    <trkpt lat="48.333372" lon="-4.738573"><ele>23.4</ele></trkpt>
    <trkpt lat="48.333290" lon="-4.738875"><ele>24.8</ele></trkpt>
    <trkpt lat="48.332512" lon="-4.739238"><ele>27.2</ele></trkpt>
    <trkpt lat="48.332375" lon="-4.739493"><ele>26.2</ele></trkpt>
    <trkpt lat="48.332270" lon="-4.739982"><ele>25.6</ele></trkpt>
    <trkpt lat="48.332285" lon="-4.740358"><ele>27.4</ele></trkpt>
    <trkpt lat="48.332227" lon="-4.740773"><ele>27.4</ele></trkpt>
    <trkpt lat="48.332057" lon="-4.741460"><ele>27.6</ele></trkpt>
    <trkpt lat="48.332122" lon="-4.741808"><ele>30.2</ele></trkpt>
    <trkpt lat="48.332098" lon="-4.742133"><ele>28.6</ele></trkpt>
    <trkpt lat="48.331830" lon="-4.742565"><ele>24.4</ele></trkpt>
    <trkpt lat="48.331682" lon="-4.742900"><ele>23.6</ele></trkpt>
    <trkpt lat="48.331608" lon="-4.743168"><ele>21.8</ele></trkpt>
    <trkpt lat="48.331540" lon="-4.743672"><ele>18.2</ele></trkpt>
    <trkpt lat="48.331540" lon="-4.743995"><ele>13.8</ele></trkpt>
    <trkpt lat="48.331695" lon="-4.744562"><ele>3.8</ele></trkpt>
    <trkpt lat="48.331265" lon="-4.744667"><ele>4.6</ele></trkpt>
    <trkpt lat="48.331108" lon="-4.744593"><ele>4.8</ele></trkpt>
    <trkpt lat="48.330848" lon="-4.744350"><ele>6.8</ele></trkpt>
    <trkpt lat="48.330717" lon="-4.744350"><ele>9.0</ele></trkpt>
    <trkpt lat="48.330553" lon="-4.745022"><ele>23.2</ele></trkpt>
    <trkpt lat="48.330433" lon="-4.745353"><ele>28.2</ele></trkpt>
    <trkpt lat="48.330402" lon="-4.745775"><ele>37.4</ele></trkpt>
    <trkpt lat="48.330197" lon="-4.746157"><ele>38.6</ele></trkpt>
    <trkpt lat="48.329982" lon="-4.746712"><ele>33.0</ele></trkpt>
    <trkpt lat="48.329928" lon="-4.747070"><ele>29.2</ele></trkpt>
    <trkpt lat="48.329932" lon="-4.747510"><ele>28.8</ele></trkpt>
    <trkpt lat="48.329795" lon="-4.748502"><ele>27.0</ele></trkpt>
    <trkpt lat="48.329813" lon="-4.748672"><ele>27.4</ele></trkpt>
    <trkpt lat="48.329928" lon="-4.748978"><ele>25.6</ele></trkpt>
    <trkpt lat="48.329990" lon="-4.749252"><ele>25.8</ele></trkpt>
    <trkpt lat="48.330060" lon="-4.749920"><ele>24.6</ele></trkpt>
    <trkpt lat="48.330062" lon="-4.750662"><ele>18.4</ele></trkpt>
    <trkpt lat="48.329987" lon="-4.751197"><ele>16.0</ele></trkpt>
    <trkpt lat="48.330072" lon="-4.751467"><ele>15.2</ele></trkpt>
    <trkpt lat="48.330040" lon="-4.751782"><ele>13.0</ele></trkpt>
    <trkpt lat="48.330040" lon="-4.752253"><ele>10.8</ele></trkpt>
    <trkpt lat="48.330098" lon="-4.752438"><ele>10.8</ele></trkpt>
    <trkpt lat="48.330513" lon="-4.752727"><ele>10.4</ele></trkpt>
    <trkpt lat="48.330535" lon="-4.752790"><ele>10.0</ele></trkpt>
    <trkpt lat="48.330348" lon="-4.752990"><ele>6.2</ele></trkpt>
    <trkpt lat="48.330300" lon="-4.753120"><ele>3.8</ele></trkpt>
    <trkpt lat="48.330288" lon="-4.753348"><ele>1.0</ele></trkpt>
    <trkpt lat="48.330358" lon="-4.753518"><ele>0.2</ele></trkpt>
    <trkpt lat="48.330420" lon="-4.753580"><ele>0.2</ele></trkpt>
    <trkpt lat="48.330362" lon="-4.753727"><ele>3.8</ele></trkpt>
    <trkpt lat="48.330325" lon="-4.753775"><ele>5.2</ele></trkpt>
    <trkpt lat="48.330202" lon="-4.753782"><ele>6.8</ele></trkpt>
    <trkpt lat="48.329853" lon="-4.753687"><ele>6.6</ele></trkpt>
    <trkpt lat="48.329657" lon="-4.753753"><ele>8.2</ele></trkpt>
    <trkpt lat="48.329565" lon="-4.754240"><ele>14.0</ele></trkpt>
    <trkpt lat="48.329490" lon="-4.754477"><ele>17.2</ele></trkpt>
    <trkpt lat="48.329327" lon="-4.754770"><ele>20.4</ele></trkpt>
    <trkpt lat="48.329125" lon="-4.755038"><ele>23.2</ele></trkpt>
    <trkpt lat="48.329067" lon="-4.755177"><ele>23.4</ele></trkpt>
    <trkpt lat="48.328940" lon="-4.756120"><ele>26.8</ele></trkpt>
    <trkpt lat="48.328998" lon="-4.756707"><ele>27.2</ele></trkpt>
    <trkpt lat="48.328915" lon="-4.757862"><ele>27.2</ele></trkpt>
    <trkpt lat="48.328820" lon="-4.758510"><ele>28.0</ele></trkpt>
    <trkpt lat="48.328813" lon="-4.759475"><ele>25.0</ele></trkpt>
    <trkpt lat="48.328653" lon="-4.760452"><ele>21.4</ele></trkpt>
    <trkpt lat="48.328548" lon="-4.760810"><ele>21.0</ele></trkpt>
    <trkpt lat="48.328402" lon="-4.761090"><ele>20.4</ele></trkpt>
    <trkpt lat="48.328343" lon="-4.761630"><ele>23.8</ele></trkpt>
    <trkpt lat="48.328262" lon="-4.761898"><ele>24.6</ele></trkpt>
    <trkpt lat="48.328237" lon="-4.762107"><ele>23.6</ele></trkpt>
    <trkpt lat="48.328368" lon="-4.762673"><ele>19.0</ele></trkpt>
    <trkpt lat="48.328358" lon="-4.762963"><ele>18.2</ele></trkpt>
    <trkpt lat="48.328395" lon="-4.763148"><ele>19.6</ele></trkpt>
    <trkpt lat="48.328398" lon="-4.763427"><ele>21.2</ele></trkpt>
    <trkpt lat="48.328367" lon="-4.763850"><ele>19.4</ele></trkpt>
    <trkpt lat="48.328382" lon="-4.764363"><ele>15.8</ele></trkpt>
    <trkpt lat="48.328412" lon="-4.764497"><ele>16.8</ele></trkpt>
    <trkpt lat="48.328592" lon="-4.764728"><ele>14.8</ele></trkpt>
    <trkpt lat="48.328473" lon="-4.764990"><ele>10.2</ele></trkpt>
    <trkpt lat="48.328513" lon="-4.765173"><ele>14.0</ele></trkpt>
    <trkpt lat="48.328530" lon="-4.765473"><ele>16.8</ele></trkpt>
    <trkpt lat="48.328518" lon="-4.765937"><ele>19.2</ele></trkpt>
    <trkpt lat="48.328615" lon="-4.766713"><ele>20.8</ele></trkpt>
    <trkpt lat="48.328653" lon="-4.766817"><ele>19.2</ele></trkpt>
    <trkpt lat="48.328700" lon="-4.766827"><ele>20.0</ele></trkpt>
    <trkpt lat="48.329077" lon="-4.766553"><ele>22.2</ele></trkpt>
    <trkpt lat="48.329247" lon="-4.766475"><ele>20.6</ele></trkpt>
    <trkpt lat="48.329330" lon="-4.766548"><ele>21.4</ele></trkpt>
    <trkpt lat="48.329362" lon="-4.766642"><ele>21.0</ele></trkpt>
    <trkpt lat="48.329368" lon="-4.766813"><ele>19.8</ele></trkpt>
    <trkpt lat="48.329333" lon="-4.766988"><ele>18.8</ele></trkpt>
    <trkpt lat="48.328997" lon="-4.767547"><ele>16.4</ele></trkpt>
    <trkpt lat="48.328905" lon="-4.767967"><ele>16.8</ele></trkpt>
    <trkpt lat="48.328902" lon="-4.768128"><ele>17.6</ele></trkpt>
    <trkpt lat="48.328985" lon="-4.768445"><ele>19.0</ele></trkpt>
    <trkpt lat="48.329275" lon="-4.768803"><ele>21.8</ele></trkpt>
    <trkpt lat="48.329647" lon="-4.769175"><ele>25.8</ele></trkpt>
    <trkpt lat="48.329782" lon="-4.769387"><ele>25.0</ele></trkpt>
    <trkpt lat="48.329760" lon="-4.769723"><ele>23.8</ele></trkpt>
    <trkpt lat="48.329588" lon="-4.770672"><ele>21.0</ele></trkpt>
    <trkpt lat="48.329678" lon="-4.771067"><ele>25.2</ele></trkpt>
    <trkpt lat="48.329665" lon="-4.771530"><ele>25.8</ele></trkpt>
    <trkpt lat="48.329632" lon="-4.771740"><ele>25.6</ele></trkpt>
    <trkpt lat="48.329863" lon="-4.772040"><ele>20.6</ele></trkpt>
    <trkpt lat="48.329945" lon="-4.772053"><ele>20.4</ele></trkpt>
    <trkpt lat="48.330230" lon="-4.771960"><ele>21.4</ele></trkpt>
    <trkpt lat="48.330375" lon="-4.771755"><ele>19.8</ele></trkpt>
    <trkpt lat="48.330715" lon="-4.771547"><ele>16.2</ele></trkpt>
    <trkpt lat="48.330807" lon="-4.770793"><ele>18.2</ele></trkpt>
    <trkpt lat="48.330877" lon="-4.770492"><ele>17.2</ele></trkpt>
    <trkpt lat="48.330835" lon="-4.770330"><ele>18.0</ele></trkpt>
    <trkpt lat="48.330762" lon="-4.770270"><ele>18.4</ele></trkpt>
    <trkpt lat="48.330160" lon="-4.770327"><ele>23.0</ele></trkpt>
    <trkpt lat="48.329648" lon="-4.770555"><ele>19.6</ele></trkpt>
    <trkpt lat="48.329583" lon="-4.770523"><ele>18.4</ele></trkpt>
    <trkpt lat="48.329777" lon="-4.769703"><ele>19.6</ele></trkpt>
    <trkpt lat="48.329792" lon="-4.769360"><ele>19.6</ele></trkpt>
    <trkpt lat="48.329668" lon="-4.769175"><ele>20.6</ele></trkpt>
    <trkpt lat="48.329292" lon="-4.768825"><ele>17.2</ele></trkpt>
    <trkpt lat="48.329007" lon="-4.768472"><ele>16.4</ele></trkpt>
    <trkpt lat="48.328927" lon="-4.768318"><ele>15.2</ele></trkpt>
    <trkpt lat="48.328892" lon="-4.768132"><ele>14.6</ele></trkpt>
    <trkpt lat="48.328908" lon="-4.767943"><ele>14.2</ele></trkpt>
    <trkpt lat="48.329025" lon="-4.767515"><ele>13.4</ele></trkpt>
    <trkpt lat="48.329267" lon="-4.767132"><ele>10.6</ele></trkpt>
    <trkpt lat="48.329345" lon="-4.766948"><ele>10.2</ele></trkpt>
    <trkpt lat="48.329355" lon="-4.766607"><ele>11.4</ele></trkpt>
    <trkpt lat="48.329298" lon="-4.766512"><ele>12.2</ele></trkpt>
    <trkpt lat="48.329193" lon="-4.766467"><ele>12.8</ele></trkpt>
    <trkpt lat="48.328997" lon="-4.766562"><ele>12.8</ele></trkpt>
    <trkpt lat="48.328700" lon="-4.766817"><ele>14.6</ele></trkpt>
    <trkpt lat="48.328633" lon="-4.766817"><ele>13.6</ele></trkpt>
    <trkpt lat="48.328590" lon="-4.766737"><ele>12.6</ele></trkpt>
    <trkpt lat="48.328577" lon="-4.766300"><ele>16.6</ele></trkpt>
    <trkpt lat="48.328510" lon="-4.765817"><ele>15.4</ele></trkpt>
    <trkpt lat="48.328510" lon="-4.765193"><ele>12.0</ele></trkpt>
    <trkpt lat="48.328472" lon="-4.764967"><ele>7.6</ele></trkpt>
    <trkpt lat="48.328483" lon="-4.764868"><ele>6.0</ele></trkpt>
    <trkpt lat="48.328573" lon="-4.764680"><ele>1.6</ele></trkpt>
    <trkpt lat="48.328552" lon="-4.764622"><ele>0.6</ele></trkpt>
    <trkpt lat="48.328428" lon="-4.764517"><ele>1.0</ele></trkpt>
    <trkpt lat="48.328365" lon="-4.764368"><ele>5.2</ele></trkpt>
    <trkpt lat="48.328398" lon="-4.763358"><ele>8.8</ele></trkpt>
    <trkpt lat="48.328357" lon="-4.763020"><ele>9.8</ele></trkpt>
    <trkpt lat="48.328352" lon="-4.762582"><ele>8.0</ele></trkpt>
    <trkpt lat="48.328250" lon="-4.762240"><ele>7.8</ele></trkpt>
    <trkpt lat="48.328243" lon="-4.762060"><ele>9.8</ele></trkpt>
    <trkpt lat="48.328365" lon="-4.761450"><ele>16.4</ele></trkpt>
    <trkpt lat="48.328402" lon="-4.761087"><ele>14.8</ele></trkpt>
    <trkpt lat="48.328567" lon="-4.760740"><ele>11.2</ele></trkpt>
    <trkpt lat="48.328778" lon="-4.759797"><ele>12.2</ele></trkpt>
    <trkpt lat="48.328828" lon="-4.759262"><ele>13.6</ele></trkpt>
    <trkpt lat="48.328827" lon="-4.758538"><ele>18.6</ele></trkpt>
    <trkpt lat="48.328928" lon="-4.757752"><ele>19.8</ele></trkpt>
    <trkpt lat="48.328938" lon="-4.757297"><ele>19.6</ele></trkpt>
    <trkpt lat="48.328997" lon="-4.756805"><ele>18.4</ele></trkpt>
    <trkpt lat="48.328950" lon="-4.755935"><ele>15.8</ele></trkpt>
    <trkpt lat="48.329082" lon="-4.755118"><ele>18.6</ele></trkpt>
    <trkpt lat="48.329145" lon="-4.754965"><ele>18.2</ele></trkpt>
    <trkpt lat="48.329367" lon="-4.754675"><ele>16.6</ele></trkpt>
    <trkpt lat="48.329503" lon="-4.754422"><ele>15.2</ele></trkpt>
    <trkpt lat="48.329562" lon="-4.754267"><ele>14.4</ele></trkpt>
    <trkpt lat="48.329640" lon="-4.753812"><ele>13.2</ele></trkpt>
    <trkpt lat="48.329700" lon="-4.753702"><ele>12.6</ele></trkpt>
    <trkpt lat="48.329880" lon="-4.753668"><ele>10.8</ele></trkpt>
    <trkpt lat="48.330163" lon="-4.753772"><ele>8.4</ele></trkpt>
    <trkpt lat="48.330348" lon="-4.753708"><ele>8.8</ele></trkpt>
    <trkpt lat="48.330397" lon="-4.753560"><ele>5.6</ele></trkpt>
    <trkpt lat="48.330298" lon="-4.753350"><ele>1.2</ele></trkpt>
    <trkpt lat="48.330310" lon="-4.753073"><ele>0.0</ele></trkpt>
    <trkpt lat="48.330353" lon="-4.752958"><ele>1.0</ele></trkpt>
    <trkpt lat="48.330522" lon="-4.752750"><ele>8.6</ele></trkpt>
    <trkpt lat="48.330495" lon="-4.752697"><ele>9.2</ele></trkpt>
    <trkpt lat="48.330350" lon="-4.752622"><ele>10.8</ele></trkpt>
    <trkpt lat="48.330278" lon="-4.752518"><ele>10.4</ele></trkpt>
    <trkpt lat="48.330103" lon="-4.752420"><ele>7.8</ele></trkpt>
    <trkpt lat="48.330043" lon="-4.752267"><ele>7.0</ele></trkpt>
    <trkpt lat="48.330098" lon="-4.751442"><ele>8.8</ele></trkpt>
    <trkpt lat="48.329998" lon="-4.751125"><ele>12.0</ele></trkpt>
    <trkpt lat="48.330068" lon="-4.750760"><ele>14.4</ele></trkpt>
    <trkpt lat="48.330060" lon="-4.749987"><ele>20.0</ele></trkpt>
    <trkpt lat="48.329950" lon="-4.749160"><ele>24.0</ele></trkpt>
    <trkpt lat="48.329822" lon="-4.748682"><ele>26.4</ele></trkpt>
    <trkpt lat="48.329797" lon="-4.748468"><ele>28.6</ele></trkpt>
    <trkpt lat="48.329938" lon="-4.747425"><ele>29.0</ele></trkpt>
    <trkpt lat="48.329945" lon="-4.747010"><ele>28.4</ele></trkpt>
    <trkpt lat="48.329990" lon="-4.746678"><ele>26.8</ele></trkpt>
    <trkpt lat="48.330223" lon="-4.746068"><ele>30.2</ele></trkpt>
    <trkpt lat="48.330393" lon="-4.745757"><ele>32.0</ele></trkpt>
    <trkpt lat="48.330430" lon="-4.745290"><ele>24.6</ele></trkpt>
    <trkpt lat="48.330575" lon="-4.744955"><ele>20.0</ele></trkpt>
    <trkpt lat="48.330738" lon="-4.744332"><ele>9.8</ele></trkpt>
    <trkpt lat="48.330792" lon="-4.744293"><ele>8.8</ele></trkpt>
    <trkpt lat="48.330878" lon="-4.744317"><ele>7.8</ele></trkpt>
    <trkpt lat="48.331108" lon="-4.744545"><ele>6.0</ele></trkpt>
    <trkpt lat="48.331297" lon="-4.744645"><ele>4.2</ele></trkpt>
    <trkpt lat="48.331697" lon="-4.744502"><ele>4.8</ele></trkpt>
    <trkpt lat="48.331685" lon="-4.744430"><ele>4.8</ele></trkpt>
    <trkpt lat="48.331605" lon="-4.744310"><ele>5.4</ele></trkpt>
    <trkpt lat="48.331555" lon="-4.744103"><ele>7.4</ele></trkpt>
    <trkpt lat="48.331530" lon="-4.743938"><ele>9.8</ele></trkpt>
    <trkpt lat="48.331543" lon="-4.743668"><ele>13.6</ele></trkpt>
    <trkpt lat="48.331625" lon="-4.743103"><ele>20.4</ele></trkpt>
    <trkpt lat="48.331725" lon="-4.742768"><ele>23.4</ele></trkpt>
    <trkpt lat="48.332100" lon="-4.742103"><ele>27.6</ele></trkpt>
    <trkpt lat="48.332117" lon="-4.741850"><ele>30.0</ele></trkpt>
    <trkpt lat="48.332063" lon="-4.741402"><ele>35.2</ele></trkpt>
    <trkpt lat="48.332282" lon="-4.740433"><ele>30.8</ele></trkpt>
    <trkpt lat="48.332305" lon="-4.739898"><ele>30.4</ele></trkpt>
    <trkpt lat="48.332382" lon="-4.739523"><ele>29.2</ele></trkpt>
    <trkpt lat="48.332535" lon="-4.739205"><ele>30.4</ele></trkpt>
    <trkpt lat="48.333298" lon="-4.738853"><ele>30.0</ele></trkpt>
    <trkpt lat="48.333335" lon="-4.738803"><ele>30.4</ele></trkpt>
    <trkpt lat="48.333360" lon="-4.738588"><ele>24.6</ele></trkpt>
    <trkpt lat="48.333637" lon="-4.738580"><ele>25.2</ele></trkpt>
    <trkpt lat="48.333707" lon="-4.738495"><ele>25.0</ele></trkpt>
    <trkpt lat="48.333705" lon="-4.738340"><ele>22.6</ele></trkpt>
    <trkpt lat="48.333762" lon="-4.738220"><ele>20.4</ele></trkpt>
    <trkpt lat="48.333727" lon="-4.738147"><ele>20.2</ele></trkpt>
    <trkpt lat="48.333572" lon="-4.737992"><ele>18.4</ele></trkpt>
    <trkpt lat="48.333455" lon="-4.737992"><ele>21.4</ele></trkpt>
    <trkpt lat="48.333277" lon="-4.737872"><ele>23.2</ele></trkpt>
    <trkpt lat="48.333100" lon="-4.737643"><ele>22.4</ele></trkpt>
    <trkpt lat="48.333135" lon="-4.737508"><ele>21.0</ele></trkpt>
    <trkpt lat="48.333342" lon="-4.737168"><ele>13.0</ele></trkpt>
    <trkpt lat="48.333290" lon="-4.737060"><ele>9.6</ele></trkpt>
    <trkpt lat="48.333348" lon="-4.736892"><ele>6.8</ele></trkpt>
    <trkpt lat="48.333333" lon="-4.736700"><ele>5.6</ele></trkpt>
    <trkpt lat="48.333353" lon="-4.736607"><ele>5.2</ele></trkpt>
    <trkpt lat="48.333552" lon="-4.736210"><ele>4.6</ele></trkpt>
    <trkpt lat="48.333685" lon="-4.736018"><ele>5.8</ele></trkpt>
    <trkpt lat="48.333688" lon="-4.735735"><ele>6.4</ele></trkpt>
    <trkpt lat="48.333732" lon="-4.735587"><ele>7.0</ele></trkpt>
    <trkpt lat="48.334107" lon="-4.735222"><ele>9.8</ele></trkpt>
    <trkpt lat="48.334562" lon="-4.734655"><ele>13.0</ele></trkpt>
    <trkpt lat="48.334860" lon="-4.734183"><ele>14.0</ele></trkpt>
    <trkpt lat="48.335265" lon="-4.733682"><ele>19.2</ele></trkpt>
    <trkpt lat="48.335477" lon="-4.733327"><ele>20.6</ele></trkpt>
    <trkpt lat="48.335887" lon="-4.732365"><ele>27.6</ele></trkpt>
    <trkpt lat="48.336177" lon="-4.730983"><ele>33.4</ele></trkpt>
    <trkpt lat="48.336203" lon="-4.730738"><ele>34.8</ele></trkpt>
    <trkpt lat="48.336155" lon="-4.729918"><ele>36.2</ele></trkpt>
    <trkpt lat="48.336120" lon="-4.729725"><ele>37.0</ele></trkpt>
    <trkpt lat="48.336057" lon="-4.729613"><ele>36.8</ele></trkpt>
    <trkpt lat="48.335723" lon="-4.729577"><ele>40.8</ele></trkpt>
    <trkpt lat="48.335315" lon="-4.729458"><ele>45.6</ele></trkpt>
    <trkpt lat="48.334732" lon="-4.729202"><ele>45.8</ele></trkpt>
    <trkpt lat="48.333897" lon="-4.728743"><ele>47.2</ele></trkpt>
    <trkpt lat="48.333085" lon="-4.728392"><ele>51.6</ele></trkpt>
    <trkpt lat="48.332477" lon="-4.728303"><ele>56.0</ele></trkpt>
    <trkpt lat="48.331540" lon="-4.728390"><ele>49.0</ele></trkpt>
    <trkpt lat="48.331357" lon="-4.728440"><ele>48.0</ele></trkpt>
    <trkpt lat="48.331258" lon="-4.728642"><ele>48.0</ele></trkpt>
    <trkpt lat="48.331353" lon="-4.729332"><ele>43.0</ele></trkpt>
    <trkpt lat="48.331330" lon="-4.729632"><ele>40.0</ele></trkpt>
    <trkpt lat="48.331260" lon="-4.729763"><ele>39.6</ele></trkpt>
    <trkpt lat="48.331155" lon="-4.729678"><ele>39.2</ele></trkpt>
    <trkpt lat="48.330603" lon="-4.728677"><ele>36.0</ele></trkpt>
    <trkpt lat="48.330533" lon="-4.727742"><ele>36.4</ele></trkpt>
    <trkpt lat="48.330758" lon="-4.727038"><ele>33.6</ele></trkpt>
    <trkpt lat="48.330770" lon="-4.726803"><ele>34.6</ele></trkpt>
    <trkpt lat="48.330703" lon="-4.726188"><ele>30.4</ele></trkpt>
    <trkpt lat="48.330528" lon="-4.725917"><ele>25.4</ele></trkpt>
    <trkpt lat="48.330500" lon="-4.725762"><ele>31.0</ele></trkpt>
    <trkpt lat="48.330623" lon="-4.725607"><ele>35.2</ele></trkpt>
    <trkpt lat="48.330757" lon="-4.724983"><ele>38.0</ele></trkpt>
    <trkpt lat="48.330720" lon="-4.724670"><ele>37.0</ele></trkpt>
    <trkpt lat="48.330527" lon="-4.724140"><ele>25.4</ele></trkpt>
    <trkpt lat="48.330548" lon="-4.723995"><ele>23.0</ele></trkpt>
    <trkpt lat="48.330647" lon="-4.723797"><ele>20.6</ele></trkpt>
    <trkpt lat="48.330352" lon="-4.723423"><ele>29.0</ele></trkpt>
    <trkpt lat="48.330323" lon="-4.723347"><ele>29.8</ele></trkpt>
    <trkpt lat="48.330310" lon="-4.723025"><ele>28.6</ele></trkpt>
    <trkpt lat="48.330508" lon="-4.722300"><ele>28.2</ele></trkpt>
    <trkpt lat="48.330610" lon="-4.721805"><ele>22.6</ele></trkpt>
    <trkpt lat="48.330603" lon="-4.721642"><ele>24.4</ele></trkpt>
    <trkpt lat="48.330498" lon="-4.721467"><ele>26.4</ele></trkpt>
    <trkpt lat="48.330525" lon="-4.721078"><ele>24.0</ele></trkpt>
    <trkpt lat="48.330815" lon="-4.720420"><ele>26.0</ele></trkpt>
    <trkpt lat="48.330935" lon="-4.720050"><ele>27.4</ele></trkpt>
    <trkpt lat="48.330922" lon="-4.719935"><ele>28.2</ele></trkpt>
    <trkpt lat="48.330752" lon="-4.719782"><ele>27.6</ele></trkpt>
    <trkpt lat="48.330740" lon="-4.719675"><ele>27.8</ele></trkpt>
    <trkpt lat="48.330848" lon="-4.719123"><ele>24.4</ele></trkpt>
    <trkpt lat="48.330940" lon="-4.718893"><ele>20.2</ele></trkpt>
    <trkpt lat="48.330977" lon="-4.718623"><ele>16.4</ele></trkpt>
    <trkpt lat="48.330973" lon="-4.718420"><ele>10.8</ele></trkpt>
    <trkpt lat="48.331138" lon="-4.718235"><ele>10.8</ele></trkpt>
    <trkpt lat="48.331235" lon="-4.717998"><ele>14.4</ele></trkpt>
    <trkpt lat="48.331208" lon="-4.717818"><ele>16.4</ele></trkpt>
    <trkpt lat="48.331317" lon="-4.717548"><ele>18.6</ele></trkpt>
    <trkpt lat="48.331353" lon="-4.717362"><ele>22.2</ele></trkpt>
    <trkpt lat="48.331357" lon="-4.717070"><ele>29.0</ele></trkpt>
    <trkpt lat="48.331297" lon="-4.716958"><ele>33.8</ele></trkpt>
    <trkpt lat="48.331170" lon="-4.716918"><ele>38.2</ele></trkpt>
    <trkpt lat="48.331092" lon="-4.716953"><ele>38.2</ele></trkpt>
    <trkpt lat="48.330958" lon="-4.717120"><ele>40.2</ele></trkpt>
    <trkpt lat="48.330853" lon="-4.717335"><ele>45.0</ele></trkpt>
    <trkpt lat="48.330687" lon="-4.717485"><ele>45.0</ele></trkpt>
    <trkpt lat="48.330568" lon="-4.717527"><ele>46.0</ele></trkpt>
    <trkpt lat="48.330488" lon="-4.717432"><ele>45.8</ele></trkpt>
    <trkpt lat="48.330155" lon="-4.716687"><ele>43.4</ele></trkpt>
    <trkpt lat="48.330100" lon="-4.716488"><ele>44.0</ele></trkpt>
    <trkpt lat="48.330153" lon="-4.716335"><ele>44.8</ele></trkpt>
    <trkpt lat="48.330635" lon="-4.715613"><ele>46.4</ele></trkpt>
    <trkpt lat="48.330788" lon="-4.715218"><ele>47.6</ele></trkpt>
    <trkpt lat="48.330793" lon="-4.714970"><ele>46.0</ele></trkpt>
    <trkpt lat="48.330633" lon="-4.714370"><ele>42.8</ele></trkpt>
    <trkpt lat="48.330635" lon="-4.714235"><ele>43.8</ele></trkpt>
    <trkpt lat="48.330678" lon="-4.714123"><ele>44.2</ele></trkpt>
    <trkpt lat="48.330750" lon="-4.714055"><ele>43.6</ele></trkpt>
    <trkpt lat="48.331052" lon="-4.713930"><ele>39.8</ele></trkpt>
    <trkpt lat="48.332018" lon="-4.713722"><ele>49.4</ele></trkpt>
    <trkpt lat="48.332145" lon="-4.713608"><ele>50.0</ele></trkpt>
    <trkpt lat="48.332208" lon="-4.713440"><ele>50.0</ele></trkpt>
    <trkpt lat="48.332192" lon="-4.713167"><ele>50.8</ele></trkpt>
    <trkpt lat="48.332103" lon="-4.712922"><ele>49.4</ele></trkpt>
    <trkpt lat="48.332002" lon="-4.712842"><ele>48.6</ele></trkpt>
    <trkpt lat="48.331793" lon="-4.712795"><ele>46.0</ele></trkpt>
    <trkpt lat="48.331738" lon="-4.712687"><ele>47.2</ele></trkpt>
    <trkpt lat="48.331713" lon="-4.711618"><ele>52.4</ele></trkpt>
    <trkpt lat="48.331638" lon="-4.711315"><ele>51.8</ele></trkpt>
    <trkpt lat="48.331625" lon="-4.711033"><ele>49.4</ele></trkpt>
    <trkpt lat="48.331532" lon="-4.710788"><ele>47.8</ele></trkpt>
    <trkpt lat="48.331507" lon="-4.710587"><ele>47.8</ele></trkpt>
    <trkpt lat="48.331550" lon="-4.709813"><ele>42.8</ele></trkpt>
    <trkpt lat="48.331657" lon="-4.709568"><ele>42.6</ele></trkpt>
    <trkpt lat="48.331915" lon="-4.709382"><ele>38.6</ele></trkpt>
    <trkpt lat="48.332005" lon="-4.709268"><ele>37.0</ele></trkpt>
    <trkpt lat="48.332062" lon="-4.709043"><ele>34.6</ele></trkpt>
    <trkpt lat="48.332137" lon="-4.708417"><ele>27.8</ele></trkpt>
    <trkpt lat="48.332283" lon="-4.708183"><ele>25.8</ele></trkpt>
    <trkpt lat="48.332520" lon="-4.708075"><ele>18.4</ele></trkpt>
    <trkpt lat="48.333265" lon="-4.708087"><ele>13.0</ele></trkpt>
    <trkpt lat="48.333850" lon="-4.707705"><ele>16.2</ele></trkpt>
    <trkpt lat="48.333902" lon="-4.707710"><ele>17.6</ele></trkpt>
    <trkpt lat="48.333982" lon="-4.707827"><ele>19.8</ele></trkpt>
    <trkpt lat="48.334040" lon="-4.707827"><ele>20.4</ele></trkpt>
    <trkpt lat="48.334130" lon="-4.707682"><ele>19.8</ele></trkpt>
    <trkpt lat="48.334233" lon="-4.707197"><ele>12.2</ele></trkpt>
    <trkpt lat="48.334315" lon="-4.707070"><ele>10.2</ele></trkpt>
    <trkpt lat="48.334500" lon="-4.707327"><ele>14.8</ele></trkpt>
    <trkpt lat="48.334638" lon="-4.707663"><ele>20.4</ele></trkpt>
    <trkpt lat="48.334653" lon="-4.707788"><ele>22.8</ele></trkpt>
    <trkpt lat="48.334668" lon="-4.708237"><ele>25.8</ele></trkpt>
    <trkpt lat="48.334548" lon="-4.708612"><ele>28.2</ele></trkpt>
    <trkpt lat="48.334550" lon="-4.708802"><ele>28.4</ele></trkpt>
    <trkpt lat="48.334462" lon="-4.709150"><ele>29.4</ele></trkpt>
    <trkpt lat="48.334490" lon="-4.709352"><ele>31.6</ele></trkpt>
    <trkpt lat="48.334868" lon="-4.709515"><ele>35.2</ele></trkpt>
    <trkpt lat="48.335970" lon="-4.709662"><ele>42.6</ele></trkpt>
    <trkpt lat="48.336050" lon="-4.709367"><ele>42.2</ele></trkpt>
    <trkpt lat="48.336277" lon="-4.707808"><ele>34.6</ele></trkpt>
    <trkpt lat="48.336397" lon="-4.707302"><ele>31.6</ele></trkpt>
    <trkpt lat="48.336592" lon="-4.705683"><ele>26.0</ele></trkpt>
    <trkpt lat="48.336602" lon="-4.705422"><ele>24.6</ele></trkpt>
    <trkpt lat="48.336508" lon="-4.704307"><ele>25.0</ele></trkpt>
    <trkpt lat="48.336530" lon="-4.703777"><ele>23.4</ele></trkpt>
    <trkpt lat="48.336495" lon="-4.703595"><ele>22.4</ele></trkpt>
    <trkpt lat="48.336638" lon="-4.702515"><ele>16.2</ele></trkpt>
    <trkpt lat="48.336720" lon="-4.702252"><ele>15.8</ele></trkpt>
    <trkpt lat="48.337040" lon="-4.701863"><ele>17.6</ele></trkpt>
    <trkpt lat="48.337140" lon="-4.701658"><ele>18.4</ele></trkpt>
    <trkpt lat="48.337162" lon="-4.701120"><ele>18.2</ele></trkpt>
    <trkpt lat="48.337073" lon="-4.700570"><ele>17.2</ele></trkpt>
    <trkpt lat="48.337247" lon="-4.699710"><ele>18.8</ele></trkpt>
    <trkpt lat="48.337333" lon="-4.699568"><ele>18.2</ele></trkpt>
    <trkpt lat="48.337415" lon="-4.699530"><ele>17.2</ele></trkpt>
    <trkpt lat="48.337490" lon="-4.699550"><ele>16.6</ele></trkpt>
    <trkpt lat="48.337623" lon="-4.699422"><ele>17.4</ele></trkpt>
    <trkpt lat="48.337720" lon="-4.699222"><ele>16.0</ele></trkpt>
    <trkpt lat="48.337745" lon="-4.698998"><ele>13.0</ele></trkpt>
    <trkpt lat="48.337792" lon="-4.698873"><ele>10.8</ele></trkpt>
    <trkpt lat="48.337937" lon="-4.698643"><ele>6.2</ele></trkpt>
    <trkpt lat="48.338227" lon="-4.698362"><ele>3.6</ele></trkpt>
    <trkpt lat="48.338287" lon="-4.698380"><ele>3.4</ele></trkpt>
    <trkpt lat="48.338413" lon="-4.698613"><ele>4.8</ele></trkpt>
    <trkpt lat="48.338722" lon="-4.698955"><ele>8.4</ele></trkpt>
    <trkpt lat="48.338945" lon="-4.699412"><ele>15.0</ele></trkpt>
    <trkpt lat="48.338942" lon="-4.699647"><ele>15.8</ele></trkpt>
    <trkpt lat="48.338870" lon="-4.699847"><ele>18.0</ele></trkpt>
    <trkpt lat="48.338732" lon="-4.700092"><ele>17.0</ele></trkpt>
    <trkpt lat="48.338695" lon="-4.700273"><ele>16.6</ele></trkpt>
    <trkpt lat="48.338725" lon="-4.700357"><ele>16.0</ele></trkpt>
    <trkpt lat="48.338960" lon="-4.700500"><ele>13.2</ele></trkpt>
    <trkpt lat="48.339343" lon="-4.701400"><ele>7.8</ele></trkpt>
    <trkpt lat="48.339317" lon="-4.701668"><ele>6.8</ele></trkpt>
    <trkpt lat="48.339147" lon="-4.702227"><ele>11.4</ele></trkpt>
    <trkpt lat="48.339140" lon="-4.702380"><ele>11.6</ele></trkpt>
    <trkpt lat="48.339307" lon="-4.702507"><ele>12.8</ele></trkpt>
    <trkpt lat="48.339690" lon="-4.702625"><ele>14.0</ele></trkpt>
    <trkpt lat="48.339740" lon="-4.702605"><ele>13.6</ele></trkpt>
    <trkpt lat="48.339762" lon="-4.702542"><ele>13.6</ele></trkpt>
    <trkpt lat="48.339708" lon="-4.702083"><ele>12.0</ele></trkpt>
    <trkpt lat="48.339778" lon="-4.701717"><ele>10.8</ele></trkpt>
    <trkpt lat="48.339878" lon="-4.701422"><ele>10.6</ele></trkpt>
    <trkpt lat="48.340072" lon="-4.701083"><ele>10.8</ele></trkpt>
    <trkpt lat="48.340373" lon="-4.700957"><ele>20.4</ele></trkpt>
    <trkpt lat="48.340668" lon="-4.700663"><ele>22.8</ele></trkpt>
    <trkpt lat="48.341063" lon="-4.700620"><ele>28.2</ele></trkpt>
    <trkpt lat="48.341197" lon="-4.700568"><ele>30.4</ele></trkpt>
    <trkpt lat="48.341582" lon="-4.700663"><ele>32.8</ele></trkpt>
    <trkpt lat="48.342433" lon="-4.701085"><ele>18.8</ele></trkpt>
    <trkpt lat="48.342575" lon="-4.701210"><ele>16.6</ele></trkpt>
    <trkpt lat="48.342733" lon="-4.701488"><ele>15.6</ele></trkpt>
    <trkpt lat="48.342853" lon="-4.701565"><ele>14.8</ele></trkpt>
    <trkpt lat="48.342953" lon="-4.701555"><ele>14.0</ele></trkpt>
    <trkpt lat="48.343290" lon="-4.701292"><ele>12.2</ele></trkpt>
    <trkpt lat="48.343538" lon="-4.701280"><ele>13.0</ele></trkpt>
    <trkpt lat="48.343717" lon="-4.701323"><ele>14.8</ele></trkpt>
    <trkpt lat="48.344027" lon="-4.701238"><ele>13.2</ele></trkpt>
    <trkpt lat="48.344217" lon="-4.701288"><ele>12.6</ele></trkpt>
    <trkpt lat="48.344823" lon="-4.701757"><ele>10.6</ele></trkpt>
    <trkpt lat="48.344897" lon="-4.701853"><ele>10.8</ele></trkpt>
    <trkpt lat="48.344948" lon="-4.702157"><ele>11.2</ele></trkpt>
    <trkpt lat="48.344902" lon="-4.702698"><ele>12.6</ele></trkpt>
    <trkpt lat="48.344958" lon="-4.702830"><ele>13.8</ele></trkpt>
    <trkpt lat="48.345268" lon="-4.702542"><ele>5.6</ele></trkpt>
    <trkpt lat="48.345313" lon="-4.702665"><ele>2.0</ele></trkpt>
    <trkpt lat="48.345522" lon="-4.702633"><ele>0.0</ele></trkpt>
    <trkpt lat="48.346543" lon="-4.702845"><ele>2.6</ele></trkpt>
    <trkpt lat="48.346862" lon="-4.702818"><ele>3.0</ele></trkpt>
    <trkpt lat="48.348165" lon="-4.702177"><ele>6.4</ele></trkpt>
    <trkpt lat="48.348877" lon="-4.701672"><ele>0.6</ele></trkpt>
    <trkpt lat="48.349505" lon="-4.701032"><ele>0.0</ele></trkpt>
    <trkpt lat="48.350075" lon="-4.700625"><ele>0.0</ele></trkpt>
    <trkpt lat="48.350208" lon="-4.700423"><ele>0.0</ele></trkpt>
    <trkpt lat="48.350377" lon="-4.700032"><ele>0.0</ele></trkpt>
    <trkpt lat="48.350483" lon="-4.699907"><ele>0.0</ele></trkpt>
    <trkpt lat="48.350600" lon="-4.699908"><ele>0.0</ele></trkpt>
    <trkpt lat="48.350693" lon="-4.700070"><ele>2.4</ele></trkpt>
    <trkpt lat="48.350877" lon="-4.699755"><ele>3.6</ele></trkpt>
    <trkpt lat="48.350985" lon="-4.699677"><ele>3.8</ele></trkpt>
    <trkpt lat="48.351275" lon="-4.699708"><ele>4.6</ele></trkpt>
    <trkpt lat="48.352200" lon="-4.699605"><ele>13.8</ele></trkpt>
    <trkpt lat="48.352407" lon="-4.699642"><ele>16.4</ele></trkpt>
    <trkpt lat="48.352505" lon="-4.699533"><ele>19.8</ele></trkpt>
    <trkpt lat="48.352558" lon="-4.699320"><ele>22.4</ele></trkpt>
    <trkpt lat="48.352553" lon="-4.699048"><ele>24.8</ele></trkpt>
    <trkpt lat="48.352420" lon="-4.698367"><ele>24.6</ele></trkpt>
    <trkpt lat="48.352402" lon="-4.698143"><ele>22.8</ele></trkpt>
    <trkpt lat="48.352785" lon="-4.697352"><ele>23.8</ele></trkpt>
    <trkpt lat="48.352747" lon="-4.697240"><ele>23.6</ele></trkpt>
    <trkpt lat="48.352443" lon="-4.696858"><ele>20.8</ele></trkpt>
    <trkpt lat="48.352438" lon="-4.696687"><ele>19.6</ele></trkpt>
    <trkpt lat="48.352467" lon="-4.696558"><ele>19.8</ele></trkpt>
    <trkpt lat="48.352742" lon="-4.696300"><ele>20.4</ele></trkpt>
    <trkpt lat="48.352832" lon="-4.696038"><ele>21.2</ele></trkpt>
    <trkpt lat="48.353067" lon="-4.695662"><ele>23.8</ele></trkpt>
    <trkpt lat="48.353235" lon="-4.695553"><ele>25.2</ele></trkpt>
    <trkpt lat="48.353403" lon="-4.695325"><ele>24.8</ele></trkpt>
    <trkpt lat="48.353433" lon="-4.695070"><ele>22.8</ele></trkpt>
    <trkpt lat="48.353612" lon="-4.694602"><ele>16.8</ele></trkpt>
    <trkpt lat="48.353653" lon="-4.693998"><ele>16.0</ele></trkpt>
    <trkpt lat="48.353602" lon="-4.693272"><ele>13.0</ele></trkpt>
    <trkpt lat="48.353632" lon="-4.693048"><ele>12.4</ele></trkpt>
    <trkpt lat="48.353812" lon="-4.692437"><ele>10.8</ele></trkpt>
    <trkpt lat="48.353970" lon="-4.692192"><ele>10.2</ele></trkpt>
    <trkpt lat="48.354408" lon="-4.691968"><ele>11.2</ele></trkpt>
    <trkpt lat="48.354498" lon="-4.691812"><ele>11.6</ele></trkpt>
    <trkpt lat="48.354578" lon="-4.691568"><ele>10.4</ele></trkpt>
    <trkpt lat="48.354767" lon="-4.691388"><ele>7.2</ele></trkpt>
    <trkpt lat="48.354937" lon="-4.691153"><ele>1.8</ele></trkpt>
    <trkpt lat="48.354895" lon="-4.691035"><ele>0.0</ele></trkpt>
    <trkpt lat="48.354873" lon="-4.690393"><ele>0.0</ele></trkpt>
    <trkpt lat="48.354823" lon="-4.690250"><ele>0.0</ele></trkpt>
    <trkpt lat="48.354673" lon="-4.690022"><ele>0.0</ele></trkpt>
    <trkpt lat="48.354638" lon="-4.689867"><ele>0.0</ele></trkpt>
    <trkpt lat="48.354668" lon="-4.689605"><ele>0.0</ele></trkpt>
    <trkpt lat="48.354847" lon="-4.689375"><ele>1.0</ele></trkpt>
    <trkpt lat="48.354872" lon="-4.689247"><ele>2.6</ele></trkpt>
    <trkpt lat="48.354790" lon="-4.689008"><ele>4.4</ele></trkpt>
    <trkpt lat="48.354770" lon="-4.688790"><ele>6.2</ele></trkpt>
    <trkpt lat="48.354800" lon="-4.688198"><ele>9.0</ele></trkpt>
    <trkpt lat="48.354587" lon="-4.687335"><ele>8.2</ele></trkpt>
    <trkpt lat="48.354572" lon="-4.687128"><ele>9.8</ele></trkpt>
    <trkpt lat="48.354607" lon="-4.685288"><ele>17.4</ele></trkpt>
    <trkpt lat="48.354563" lon="-4.685205"><ele>17.6</ele></trkpt>
    <trkpt lat="48.354453" lon="-4.685175"><ele>16.8</ele></trkpt>
    <trkpt lat="48.354047" lon="-4.685237"><ele>14.0</ele></trkpt>
    <trkpt lat="48.353787" lon="-4.685138"><ele>12.2</ele></trkpt>
    <trkpt lat="48.353708" lon="-4.684988"><ele>10.6</ele></trkpt>
    <trkpt lat="48.353635" lon="-4.684670"><ele>8.6</ele></trkpt>
    <trkpt lat="48.353747" lon="-4.684310"><ele>8.4</ele></trkpt>
    <trkpt lat="48.353880" lon="-4.684205"><ele>9.6</ele></trkpt>
    <trkpt lat="48.353940" lon="-4.684077"><ele>10.2</ele></trkpt>
    <trkpt lat="48.353955" lon="-4.683948"><ele>10.2</ele></trkpt>
    <trkpt lat="48.353917" lon="-4.683648"><ele>10.4</ele></trkpt>
    <trkpt lat="48.354035" lon="-4.683085"><ele>8.8</ele></trkpt>
    <trkpt lat="48.354117" lon="-4.682970"><ele>9.4</ele></trkpt>
    <trkpt lat="48.354327" lon="-4.682867"><ele>14.0</ele></trkpt>
    <trkpt lat="48.354405" lon="-4.682662"><ele>17.2</ele></trkpt>
    <trkpt lat="48.354392" lon="-4.682448"><ele>17.6</ele></trkpt>
    <trkpt lat="48.354567" lon="-4.682302"><ele>15.0</ele></trkpt>
    <trkpt lat="48.354660" lon="-4.682163"><ele>14.2</ele></trkpt>
    <trkpt lat="48.354738" lon="-4.682153"><ele>13.0</ele></trkpt>
    <trkpt lat="48.354943" lon="-4.682320"><ele>15.4</ele></trkpt>
    <trkpt lat="48.355077" lon="-4.682302"><ele>13.0</ele></trkpt>
    <trkpt lat="48.355313" lon="-4.682010"><ele>13.2</ele></trkpt>
    <trkpt lat="48.355363" lon="-4.681702"><ele>16.6</ele></trkpt>
    <trkpt lat="48.355430" lon="-4.681553"><ele>16.4</ele></trkpt>
    <trkpt lat="48.355787" lon="-4.681140"><ele>11.8</ele></trkpt>
    <trkpt lat="48.356067" lon="-4.680698"><ele>4.0</ele></trkpt>
    <trkpt lat="48.356110" lon="-4.680243"><ele>0.0</ele></trkpt>
    <trkpt lat="48.356228" lon="-4.679980"><ele>0.0</ele></trkpt>
    <trkpt lat="48.356278" lon="-4.679745"><ele>0.0</ele></trkpt>
    <trkpt lat="48.356282" lon="-4.679302"><ele>0.8</ele></trkpt>
    <trkpt lat="48.356210" lon="-4.678905"><ele>1.4</ele></trkpt>
    <trkpt lat="48.355975" lon="-4.678833"><ele>0.0</ele></trkpt>
    <trkpt lat="48.355675" lon="-4.678347"><ele>0.4</ele></trkpt>
    <trkpt lat="48.355403" lon="-4.678052"><ele>6.2</ele></trkpt>
    <trkpt lat="48.355213" lon="-4.677597"><ele>12.8</ele></trkpt>
    <trkpt lat="48.355180" lon="-4.677437"><ele>13.0</ele></trkpt>
    <trkpt lat="48.355150" lon="-4.676908"><ele>11.8</ele></trkpt>
    <trkpt lat="48.355055" lon="-4.676545"><ele>10.4</ele></trkpt>
    <trkpt lat="48.354882" lon="-4.676138"><ele>7.8</ele></trkpt>
    <trkpt lat="48.354693" lon="-4.674772"><ele>1.0</ele></trkpt>
    <trkpt lat="48.354670" lon="-4.674373"><ele>5.2</ele></trkpt>
    <trkpt lat="48.354690" lon="-4.674122"><ele>7.2</ele></trkpt>
    <trkpt lat="48.354750" lon="-4.673902"><ele>8.2</ele></trkpt>
    <trkpt lat="48.355062" lon="-4.673480"><ele>10.0</ele></trkpt>
    <trkpt lat="48.355348" lon="-4.673222"><ele>12.6</ele></trkpt>
    <trkpt lat="48.355843" lon="-4.672950"><ele>12.2</ele></trkpt>
    <trkpt lat="48.355935" lon="-4.672840"><ele>12.0</ele></trkpt>
    <trkpt lat="48.356017" lon="-4.672625"><ele>12.2</ele></trkpt>
    <trkpt lat="48.356052" lon="-4.672168"><ele>12.0</ele></trkpt>
    <trkpt lat="48.356902" lon="-4.671002"><ele>18.4</ele></trkpt>
    <trkpt lat="48.356927" lon="-4.670777"><ele>20.0</ele></trkpt>
    <trkpt lat="48.356863" lon="-4.670472"><ele>24.8</ele></trkpt>
    <trkpt lat="48.356925" lon="-4.670265"><ele>27.4</ele></trkpt>
    <trkpt lat="48.357070" lon="-4.670158"><ele>28.6</ele></trkpt>
    <trkpt lat="48.357417" lon="-4.669792"><ele>30.6</ele></trkpt>
    <trkpt lat="48.357595" lon="-4.669533"><ele>32.6</ele></trkpt>
    <trkpt lat="48.357632" lon="-4.669388"><ele>32.2</ele></trkpt>
    <trkpt lat="48.357595" lon="-4.669168"><ele>29.8</ele></trkpt>
    <trkpt lat="48.357878" lon="-4.668920"><ele>30.0</ele></trkpt>
    <trkpt lat="48.357947" lon="-4.668770"><ele>33.8</ele></trkpt>
    <trkpt lat="48.357977" lon="-4.668593"><ele>36.8</ele></trkpt>
    <trkpt lat="48.357948" lon="-4.668368"><ele>40.2</ele></trkpt>
    <trkpt lat="48.357883" lon="-4.668303"><ele>42.4</ele></trkpt>
    <trkpt lat="48.357563" lon="-4.668295"><ele>43.0</ele></trkpt>
    <trkpt lat="48.357212" lon="-4.668432"><ele>44.4</ele></trkpt>
    <trkpt lat="48.356970" lon="-4.668338"><ele>48.4</ele></trkpt>
    <trkpt lat="48.356472" lon="-4.668277"><ele>49.4</ele></trkpt>
    <trkpt lat="48.356380" lon="-4.668098"><ele>49.8</ele></trkpt>
    <trkpt lat="48.356345" lon="-4.667890"><ele>49.4</ele></trkpt>
    <trkpt lat="48.356332" lon="-4.667445"><ele>48.8</ele></trkpt>
    <trkpt lat="48.356375" lon="-4.667248"><ele>49.8</ele></trkpt>
    <trkpt lat="48.356505" lon="-4.666930"><ele>51.8</ele></trkpt>
    <trkpt lat="48.356537" lon="-4.666565"><ele>53.6</ele></trkpt>
    <trkpt lat="48.356963" lon="-4.665193"><ele>56.8</ele></trkpt>
    <trkpt lat="48.357000" lon="-4.664962"><ele>56.6</ele></trkpt>
    <trkpt lat="48.356998" lon="-4.664728"><ele>55.6</ele></trkpt>
    <trkpt lat="48.357762" lon="-4.664322"><ele>59.2</ele></trkpt>
    <trkpt lat="48.357875" lon="-4.664300"><ele>59.2</ele></trkpt>
    <trkpt lat="48.358088" lon="-4.664385"><ele>58.8</ele></trkpt>
    <trkpt lat="48.358300" lon="-4.664252"><ele>58.4</ele></trkpt>
    <trkpt lat="48.358995" lon="-4.663955"><ele>55.6</ele></trkpt>
    <trkpt lat="48.359220" lon="-4.663528"><ele>58.8</ele></trkpt>
    <trkpt lat="48.359992" lon="-4.662420"><ele>64.6</ele></trkpt>
    <trkpt lat="48.360152" lon="-4.662020"><ele>65.6</ele></trkpt>
    <trkpt lat="48.360112" lon="-4.661723"><ele>65.6</ele></trkpt>
    <trkpt lat="48.360127" lon="-4.661633"><ele>65.2</ele></trkpt>
    <trkpt lat="48.360342" lon="-4.661247"><ele>66.6</ele></trkpt>
    <trkpt lat="48.360673" lon="-4.660838"><ele>65.0</ele></trkpt>
    <trkpt lat="48.361170" lon="-4.660457"><ele>64.2</ele></trkpt>
    <trkpt lat="48.361530" lon="-4.660065"><ele>65.2</ele></trkpt>
    <trkpt lat="48.361545" lon="-4.659992"><ele>65.0</ele></trkpt>
    <trkpt lat="48.361520" lon="-4.659878"><ele>65.4</ele></trkpt>
    <trkpt lat="48.361205" lon="-4.658997"><ele>65.0</ele></trkpt>
    <trkpt lat="48.360612" lon="-4.657828"><ele>63.0</ele></trkpt>
    <trkpt lat="48.360543" lon="-4.657308"><ele>65.2</ele></trkpt>
    <trkpt lat="48.360578" lon="-4.657087"><ele>64.6</ele></trkpt>
    <trkpt lat="48.360643" lon="-4.656948"><ele>64.6</ele></trkpt>
    <trkpt lat="48.361102" lon="-4.656558"><ele>66.0</ele></trkpt>
    <trkpt lat="48.361368" lon="-4.656442"><ele>67.0</ele></trkpt>
    <trkpt lat="48.361907" lon="-4.656325"><ele>68.4</ele></trkpt>
    <trkpt lat="48.362273" lon="-4.656330"><ele>68.4</ele></trkpt>
    <trkpt lat="48.362435" lon="-4.656265"><ele>69.8</ele></trkpt>
    <trkpt lat="48.362573" lon="-4.655992"><ele>70.8</ele></trkpt>
    <trkpt lat="48.362727" lon="-4.655217"><ele>72.2</ele></trkpt>
    <trkpt lat="48.362833" lon="-4.655077"><ele>72.4</ele></trkpt>
    <trkpt lat="48.363310" lon="-4.654912"><ele>76.0</ele></trkpt>
    <trkpt lat="48.363785" lon="-4.654818"><ele>75.8</ele></trkpt>
    <trkpt lat="48.364272" lon="-4.654613"><ele>74.6</ele></trkpt>
    <trkpt lat="48.365167" lon="-4.654057"><ele>71.4</ele></trkpt>
    <trkpt lat="48.365625" lon="-4.653702"><ele>71.6</ele></trkpt>
    <trkpt lat="48.365890" lon="-4.653390"><ele>70.6</ele></trkpt>
    <trkpt lat="48.366087" lon="-4.653333"><ele>70.0</ele></trkpt>
    <trkpt lat="48.366585" lon="-4.653367"><ele>68.4</ele></trkpt>
    <trkpt lat="48.366930" lon="-4.652980"><ele>69.6</ele></trkpt>
    <trkpt lat="48.367305" lon="-4.652895"><ele>71.0</ele></trkpt>
    <trkpt lat="48.367428" lon="-4.652718"><ele>70.4</ele></trkpt>
    <trkpt lat="48.367660" lon="-4.651922"><ele>68.2</ele></trkpt>
    <trkpt lat="48.367890" lon="-4.651442"><ele>67.4</ele></trkpt>
    <trkpt lat="48.368560" lon="-4.650695"><ele>66.0</ele></trkpt>
    <trkpt lat="48.368705" lon="-4.650487"><ele>65.8</ele></trkpt>
    <trkpt lat="48.368832" lon="-4.650088"><ele>63.2</ele></trkpt>
    <trkpt lat="48.368842" lon="-4.649742"><ele>62.4</ele></trkpt>
    <trkpt lat="48.368900" lon="-4.649375"><ele>61.2</ele></trkpt>
    <trkpt lat="48.368897" lon="-4.648965"><ele>60.0</ele></trkpt>
    <trkpt lat="48.368828" lon="-4.648535"><ele>58.4</ele></trkpt>
    <trkpt lat="48.368652" lon="-4.647963"><ele>55.8</ele></trkpt>
    <trkpt lat="48.368618" lon="-4.647703"><ele>55.8</ele></trkpt>
    <trkpt lat="48.368700" lon="-4.647582"><ele>55.0</ele></trkpt>
    <trkpt lat="48.368923" lon="-4.647442"><ele>54.4</ele></trkpt>
    <trkpt lat="48.369062" lon="-4.647108"><ele>51.0</ele></trkpt>
    <trkpt lat="48.369115" lon="-4.646452"><ele>47.0</ele></trkpt>
    <trkpt lat="48.369275" lon="-4.645865"><ele>44.4</ele></trkpt>
    <trkpt lat="48.369305" lon="-4.645002"><ele>43.0</ele></trkpt>
    <trkpt lat="48.369593" lon="-4.643773"><ele>50.6</ele></trkpt>
    <trkpt lat="48.369675" lon="-4.643108"><ele>53.2</ele></trkpt>
    <trkpt lat="48.369733" lon="-4.642963"><ele>52.6</ele></trkpt>
    <trkpt lat="48.369808" lon="-4.642933"><ele>51.6</ele></trkpt>
    <trkpt lat="48.369713" lon="-4.642868"><ele>60.0</ele></trkpt>
    <trkpt lat="48.369687" lon="-4.642481"><ele>60.7</ele></trkpt>
    <trkpt lat="48.369617" lon="-4.642143"><ele>60.4</ele></trkpt>
    <trkpt lat="48.369765" lon="-4.641639"><ele>60.3</ele></trkpt>
    <trkpt lat="48.369839" lon="-4.641563"><ele>60.2</ele></trkpt>
    <trkpt lat="48.369870" lon="-4.641462"><ele>60.0</ele></trkpt>
    <trkpt lat="48.369887" lon="-4.641188"><ele>60.0</ele></trkpt>
    <trkpt lat="48.370042" lon="-4.640779"><ele>60.0</ele></trkpt>
    <trkpt lat="48.370047" lon="-4.640476"><ele>60.0</ele></trkpt>
  </trkseg></trk>
</gpx>
