<?xml version="1.0" encoding="UTF-8"?>
<gpx version="1.1" creator="tcap-parcours" xmlns="http://www.topografix.com/GPX/1/1">
  <metadata><name>A/R Sainte-Anne du Portzic – Aller-retour 33 km</name></metadata>
  <trk><name>A/R Sainte-Anne du Portzic – Aller-retour 33 km</name><trkseg>
    <trkpt lat="48.370044" lon="-4.640701"><ele>60.0</ele></trkpt>
    <trkpt lat="48.370042" lon="-4.640779"><ele>60.0</ele></trkpt>
    <trkpt lat="48.369887" lon="-4.641188"><ele>60.0</ele></trkpt>
    <trkpt lat="48.369870" lon="-4.641462"><ele>60.0</ele></trkpt>
    <trkpt lat="48.369839" lon="-4.641563"><ele>60.2</ele></trkpt>
    <trkpt lat="48.369765" lon="-4.641639"><ele>60.3</ele></trkpt>
    <trkpt lat="48.369617" lon="-4.642143"><ele>60.4</ele></trkpt>
    <trkpt lat="48.369687" lon="-4.642481"><ele>60.7</ele></trkpt>
    <trkpt lat="48.369713" lon="-4.642868"><ele>60.0</ele></trkpt>
    <trkpt lat="48.369648" lon="-4.643161"><ele>59.5</ele></trkpt>
    <trkpt lat="48.369637" lon="-4.643531"><ele>58.4</ele></trkpt>
    <trkpt lat="48.369492" lon="-4.644248"><ele>57.8</ele></trkpt>
    <trkpt lat="48.369400" lon="-4.644461"><ele>58.1</ele></trkpt>
    <trkpt lat="48.369240" lon="-4.645100"><ele>57.6</ele></trkpt>
    <trkpt lat="48.369283" lon="-4.645384"><ele>57.2</ele></trkpt>
    <trkpt lat="48.369272" lon="-4.645672"><ele>57.3</ele></trkpt>
    <trkpt lat="48.369229" lon="-4.646111"><ele>57.9</ele></trkpt>
    <trkpt lat="48.369078" lon="-4.646644"><ele>59.0</ele></trkpt>
    <trkpt lat="48.369046" lon="-4.647190"><ele>60.3</ele></trkpt>
    <trkpt lat="48.368949" lon="-4.647405"><ele>61.3</ele></trkpt>
    <trkpt lat="48.368638" lon="-4.647616"><ele>63.0</ele></trkpt>
    <trkpt lat="48.368580" lon="-4.647765"><ele>63.5</ele></trkpt>
    <trkpt lat="48.368838" lon="-4.648639"><ele>64.1</ele></trkpt>
    <trkpt lat="48.368895" lon="-4.649293"><ele>65.1</ele></trkpt>
    <trkpt lat="48.368940" lon="-4.649452"><ele>68.2</ele></trkpt>
    <trkpt lat="48.368877" lon="-4.649538"><ele>67.6</ele></trkpt>
    <trkpt lat="48.368818" lon="-4.650158"><ele>67.0</ele></trkpt>
    <trkpt lat="48.368575" lon="-4.650660"><ele>68.2</ele></trkpt>
    <trkpt lat="48.367893" lon="-4.651427"><ele>70.2</ele></trkpt>
    <trkpt lat="48.367798" lon="-4.651590"><ele>70.4</ele></trkpt>
    <trkpt lat="48.367533" lon="-4.652450"><ele>70.4</ele></trkpt>
    <trkpt lat="48.367352" lon="-4.652860"><ele>71.0</ele></trkpt>
    <trkpt lat="48.367273" lon="-4.652938"><ele>71.2</ele></trkpt>
    <trkpt lat="48.367048" lon="-4.652965"><ele>72.6</ele></trkpt>
    <trkpt lat="48.366905" lon="-4.653030"><ele>73.2</ele></trkpt>
    <trkpt lat="48.366602" lon="-4.653393"><ele>73.4</ele></trkpt>
    <trkpt lat="48.365933" lon="-4.653448"><ele>73.6</ele></trkpt>
    <trkpt lat="48.365483" lon="-4.653915"><ele>74.2</ele></trkpt>
    <trkpt lat="48.364178" lon="-4.654747"><ele>75.8</ele></trkpt>
    <trkpt lat="48.363753" lon="-4.654918"><ele>75.4</ele></trkpt>
    <trkpt lat="48.363360" lon="-4.654987"><ele>75.0</ele></trkpt>
    <trkpt lat="48.362862" lon="-4.655145"><ele>76.0</ele></trkpt>
    <trkpt lat="48.362757" lon="-4.655267"><ele>75.8</ele></trkpt>
    <trkpt lat="48.362578" lon="-4.656060"><ele>73.8</ele></trkpt>
    <trkpt lat="48.362440" lon="-4.656297"><ele>73.2</ele></trkpt>
    <trkpt lat="48.362295" lon="-4.656370"><ele>73.2</ele></trkpt>
    <trkpt lat="48.361867" lon="-4.656392"><ele>73.0</ele></trkpt>
    <trkpt lat="48.361332" lon="-4.656540"><ele>73.0</ele></trkpt>
    <trkpt lat="48.361030" lon="-4.656712"><ele>73.4</ele></trkpt>
    <trkpt lat="48.360608" lon="-4.657058"><ele>72.6</ele></trkpt>
    <trkpt lat="48.360560" lon="-4.657192"><ele>72.2</ele></trkpt>
    <trkpt lat="48.360543" lon="-4.657385"><ele>72.0</ele></trkpt>
    <trkpt lat="48.360628" lon="-4.657867"><ele>72.2</ele></trkpt>
    <trkpt lat="48.361202" lon="-4.659020"><ele>72.4</ele></trkpt>
    <trkpt lat="48.361542" lon="-4.660000"><ele>71.6</ele></trkpt>
    <trkpt lat="48.361545" lon="-4.660137"><ele>71.4</ele></trkpt>
    <trkpt lat="48.360980" lon="-4.660660"><ele>70.2</ele></trkpt>
    <trkpt lat="48.360677" lon="-4.660860"><ele>70.0</ele></trkpt>
    <trkpt lat="48.360305" lon="-4.661350"><ele>68.2</ele></trkpt>
    <trkpt lat="48.360147" lon="-4.661635"><ele>67.2</ele></trkpt>
    <trkpt lat="48.360130" lon="-4.661788"><ele>66.8</ele></trkpt>
    <trkpt lat="48.360173" lon="-4.662087"><ele>66.2</ele></trkpt>
    <trkpt lat="48.360117" lon="-4.662273"><ele>65.4</ele></trkpt>
    <trkpt lat="48.359920" lon="-4.662587"><ele>64.2</ele></trkpt>
    <trkpt lat="48.359662" lon="-4.662902"><ele>62.8</ele></trkpt>
    <trkpt lat="48.358937" lon="-4.664020"><ele>58.2</ele></trkpt>
    <trkpt lat="48.358107" lon="-4.664435"><ele>57.0</ele></trkpt>
    <trkpt lat="48.358018" lon="-4.664428"><ele>57.0</ele></trkpt>
    <trkpt lat="48.357877" lon="-4.664332"><ele>56.8</ele></trkpt>
    <trkpt lat="48.357793" lon="-4.664333"><ele>56.8</ele></trkpt>
    <trkpt lat="48.357205" lon="-4.664598"><ele>55.6</ele></trkpt>
    <trkpt lat="48.357057" lon="-4.664702"><ele>55.2</ele></trkpt>
    <trkpt lat="48.356983" lon="-4.664803"><ele>54.8</ele></trkpt>
    <trkpt lat="48.356947" lon="-4.665288"><ele>53.0</ele></trkpt>
    <trkpt lat="48.356813" lon="-4.665652"><ele>52.4</ele></trkpt>
    <trkpt lat="48.356297" lon="-4.665727"><ele>52.0</ele></trkpt>
    <trkpt lat="48.355860" lon="-4.665907"><ele>50.2</ele></trkpt>
    <trkpt lat="48.355553" lon="-4.665927"><ele>48.6</ele></trkpt>
    <trkpt lat="48.355418" lon="-4.666087"><ele>47.8</ele></trkpt>
    <trkpt lat="48.355197" lon="-4.666243"><ele>47.4</ele></trkpt>
    <trkpt lat="48.355032" lon="-4.666527"><ele>46.0</ele></trkpt>
    <trkpt lat="48.354912" lon="-4.666632"><ele>44.8</ele></trkpt>
    <trkpt lat="48.354490" lon="-4.666707"><ele>41.2</ele></trkpt>
    <trkpt lat="48.354235" lon="-4.666672"><ele>39.0</ele></trkpt>
    <trkpt lat="48.354092" lon="-4.666593"><ele>37.6</ele></trkpt>
    <trkpt lat="48.353877" lon="-4.666552"><ele>34.4</ele></trkpt>
    <trkpt lat="48.353582" lon="-4.666677"><ele>29.0</ele></trkpt>
    <trkpt lat="48.353208" lon="-4.666768"><ele>21.0</ele></trkpt>
    <trkpt lat="48.353165" lon="-4.666723"><ele>20.0</ele></trkpt>
    <trkpt lat="48.353153" lon="-4.666593"><ele>19.4</ele></trkpt>
    <trkpt lat="48.353310" lon="-4.664715"><ele>30.2</ele></trkpt>
    <trkpt lat="48.353555" lon="-4.663887"><ele>36.0</ele></trkpt>
    <trkpt lat="48.353850" lon="-4.663037"><ele>39.2</ele></trkpt>
    <trkpt lat="48.353910" lon="-4.662687"><ele>40.2</ele></trkpt>
    <trkpt lat="48.353712" lon="-4.662667"><ele>41.0</ele></trkpt>
    <trkpt lat="48.352757" lon="-4.662875"><ele>35.2</ele></trkpt>
    <trkpt lat="48.352558" lon="-4.662880"><ele>33.4</ele></trkpt>
    <trkpt lat="48.351843" lon="-4.662748"><ele>31.4</ele></trkpt>
    <trkpt lat="48.351678" lon="-4.662615"><ele>30.4</ele></trkpt>
    <trkpt lat="48.351548" lon="-4.662333"><ele>30.0</ele></trkpt>
    <trkpt lat="48.351302" lon="-4.662000"><ele>28.6</ele></trkpt>
    <trkpt lat="48.351127" lon="-4.661523"><ele>28.6</ele></trkpt>
    <trkpt lat="48.351093" lon="-4.661488"><ele>28.4</ele></trkpt>
    <trkpt lat="48.351023" lon="-4.661520"><ele>28.0</ele></trkpt>
    <trkpt lat="48.350960" lon="-4.661492"><ele>26.2</ele></trkpt>
    <trkpt lat="48.350978" lon="-4.661038"><ele>24.0</ele></trkpt>
    <trkpt lat="48.351035" lon="-4.660762"><ele>23.4</ele></trkpt>
    <trkpt lat="48.350813" lon="-4.660420"><ele>20.6</ele></trkpt>
    <trkpt lat="48.350810" lon="-4.660157"><ele>18.6</ele></trkpt>
    <trkpt lat="48.350772" lon="-4.660030"><ele>18.8</ele></trkpt>
    <trkpt lat="48.350465" lon="-4.659560"><ele>16.4</ele></trkpt>
    <trkpt lat="48.350513" lon="-4.659103"><ele>17.8</ele></trkpt>
    <trkpt lat="48.350428" lon="-4.658777"><ele>20.2</ele></trkpt>
    <trkpt lat="48.350345" lon="-4.658592"><ele>21.8</ele></trkpt>
    <trkpt lat="48.350132" lon="-4.658303"><ele>22.8</ele></trkpt>
    <trkpt lat="48.350000" lon="-4.658140"><ele>25.0</ele></trkpt>
    <trkpt lat="48.349838" lon="-4.658022"><ele>27.0</ele></trkpt>
    <trkpt lat="48.349735" lon="-4.657798"><ele>27.2</ele></trkpt>
    <trkpt lat="48.349538" lon="-4.657618"><ele>27.0</ele></trkpt>
    <trkpt lat="48.349500" lon="-4.657515"><ele>27.4</ele></trkpt>
    <trkpt lat="48.349432" lon="-4.656943"><ele>33.4</ele></trkpt>
    <trkpt lat="48.349372" lon="-4.656703"><ele>35.8</ele></trkpt>
    <trkpt lat="48.349283" lon="-4.656513"><ele>38.0</ele></trkpt>
    <trkpt lat="48.349208" lon="-4.656442"><ele>38.4</ele></trkpt>
    <trkpt lat="48.348990" lon="-4.656372"><ele>37.4</ele></trkpt>
    <trkpt lat="48.348922" lon="-4.656287"><ele>36.4</ele></trkpt>
    <trkpt lat="48.348887" lon="-4.656142"><ele>35.4</ele></trkpt>
    <trkpt lat="48.348882" lon="-4.655938"><ele>34.8</ele></trkpt>
    <trkpt lat="48.348905" lon="-4.655730"><ele>34.2</ele></trkpt>
    <trkpt lat="48.348990" lon="-4.655410"><ele>33.6</ele></trkpt>
    <trkpt lat="48.348957" lon="-4.655098"><ele>32.0</ele></trkpt>
    <trkpt lat="48.348862" lon="-4.654848"><ele>29.6</ele></trkpt>
    <trkpt lat="48.348722" lon="-4.654708"><ele>30.4</ele></trkpt>
    <trkpt lat="48.348622" lon="-4.654520"><ele>32.6</ele></trkpt>
    <trkpt lat="48.348493" lon="-4.654037"><ele>33.8</ele></trkpt>
    <trkpt lat="48.348225" lon="-4.653665"><ele>36.0</ele></trkpt>
    <trkpt lat="48.347965" lon="-4.653797"><ele>39.0</ele></trkpt>
    <trkpt lat="48.347787" lon="-4.653793"><ele>40.0</ele></trkpt>
    <trkpt lat="48.347537" lon="-4.653693"><ele>41.4</ele></trkpt>
    <trkpt lat="48.347233" lon="-4.653413"><ele>43.2</ele></trkpt>
    <trkpt lat="48.347028" lon="-4.653125"><ele>43.0</ele></trkpt>
    <trkpt lat="48.346913" lon="-4.652678"><ele>42.6</ele></trkpt>
    <trkpt lat="48.346613" lon="-4.652373"><ele>41.0</ele></trkpt>
    <trkpt lat="48.346467" lon="-4.652158"><ele>40.6</ele></trkpt>
    <trkpt lat="48.346373" lon="-4.651882"><ele>39.6</ele></trkpt>
    <trkpt lat="48.346393" lon="-4.651687"><ele>39.0</ele></trkpt>
    <trkpt lat="48.346372" lon="-4.651595"><ele>38.6</ele></trkpt>
    <trkpt lat="48.346065" lon="-4.651225"><ele>35.8</ele></trkpt>
    <trkpt lat="48.345998" lon="-4.650878"><ele>34.6</ele></trkpt>
    <trkpt lat="48.345817" lon="-4.650590"><ele>34.2</ele></trkpt>
    <trkpt lat="48.345808" lon="-4.650452"><ele>34.6</ele></trkpt>
    <trkpt lat="48.345843" lon="-4.650277"><ele>34.8</ele></trkpt>
    <trkpt lat="48.346158" lon="-4.649567"><ele>42.8</ele></trkpt>
    <trkpt lat="48.346177" lon="-4.649410"><ele>43.8</ele></trkpt>
    <trkpt lat="48.346018" lon="-4.648788"><ele>42.2</ele></trkpt>
    <trkpt lat="48.345855" lon="-4.648448"><ele>41.0</ele></trkpt>
    <trkpt lat="48.345733" lon="-4.648283"><ele>39.6</ele></trkpt>
    <trkpt lat="48.345657" lon="-4.647728"><ele>38.0</ele></trkpt>
    <trkpt lat="48.345665" lon="-4.647590"><ele>38.2</ele></trkpt>
    <trkpt lat="48.345718" lon="-4.647425"><ele>38.4</ele></trkpt>
    <trkpt lat="48.345888" lon="-4.647112"><ele>41.8</ele></trkpt>
    <trkpt lat="48.345918" lon="-4.646925"><ele>43.6</ele></trkpt>
    <trkpt lat="48.345710" lon="-4.646103"><ele>44.0</ele></trkpt>
    <trkpt lat="48.345757" lon="-4.645723"><ele>46.8</ele></trkpt>
    <trkpt lat="48.345633" lon="-4.645425"><ele>48.6</ele></trkpt>
    <trkpt lat="48.345732" lon="-4.644972"><ele>46.8</ele></trkpt>
    <trkpt lat="48.345697" lon="-4.644285"><ele>44.4</ele></trkpt>
    <trkpt lat="48.345718" lon="-4.644185"><ele>44.4</ele></trkpt>
    <trkpt lat="48.345787" lon="-4.644077"><ele>44.6</ele></trkpt>
    <trkpt lat="48.345923" lon="-4.643980"><ele>46.4</ele></trkpt>
    <trkpt lat="48.346232" lon="-4.643865"><ele>47.4</ele></trkpt>
    <trkpt lat="48.346272" lon="-4.643783"><ele>47.2</ele></trkpt>
    <trkpt lat="48.346290" lon="-4.643632"><ele>47.0</ele></trkpt>
    <trkpt lat="48.346252" lon="-4.643215"><ele>45.6</ele></trkpt>
    <trkpt lat="48.346207" lon="-4.643212"><ele>45.2</ele></trkpt>
    <trkpt lat="48.345940" lon="-4.642858"><ele>40.2</ele></trkpt>
    <trkpt lat="48.345795" lon="-4.642732"><ele>36.6</ele></trkpt>
    <trkpt lat="48.345652" lon="-4.642768"><ele>34.0</ele></trkpt>
    <trkpt lat="48.345540" lon="-4.642733"><ele>31.8</ele></trkpt>
    <trkpt lat="48.345523" lon="-4.642607"><ele>30.2</ele></trkpt>
    <trkpt lat="48.345577" lon="-4.642128"><ele>26.2</ele></trkpt>
    <trkpt lat="48.345698" lon="-4.641795"><ele>22.6</ele></trkpt>
    <trkpt lat="48.346240" lon="-4.640972"><ele>14.6</ele></trkpt>
    <trkpt lat="48.346842" lon="-4.640453"><ele>10.2</ele></trkpt>
    <trkpt lat="48.347213" lon="-4.640302"><ele>10.4</ele></trkpt>
    <trkpt lat="48.347333" lon="-4.640173"><ele>10.2</ele></trkpt>
    <trkpt lat="48.347530" lon="-4.639830"><ele>8.2</ele></trkpt>
    <trkpt lat="48.347660" lon="-4.639702"><ele>7.4</ele></trkpt>
    <trkpt lat="48.347667" lon="-4.639615"><ele>7.6</ele></trkpt>
    <trkpt lat="48.347603" lon="-4.639545"><ele>7.6</ele></trkpt>
    <trkpt lat="48.347183" lon="-4.639752"><ele>5.4</ele></trkpt>
    <trkpt lat="48.346938" lon="-4.639732"><ele>6.0</ele></trkpt>
    <trkpt lat="48.346363" lon="-4.639847"><ele>10.0</ele></trkpt>
    <trkpt lat="48.345933" lon="-4.639845"><ele>15.4</ele></trkpt>
    <trkpt lat="48.345852" lon="-4.639732"><ele>16.2</ele></trkpt>
    <trkpt lat="48.345788" lon="-4.639508"><ele>17.8</ele></trkpt>
    <trkpt lat="48.345767" lon="-4.638797"><ele>26.0</ele></trkpt>
    <trkpt lat="48.345498" lon="-4.638627"><ele>27.0</ele></trkpt>
    <trkpt lat="48.345325" lon="-4.638637"><ele>27.6</ele></trkpt>
    <trkpt lat="48.345210" lon="-4.638587"><ele>27.8</ele></trkpt>
    <trkpt lat="48.345128" lon="-4.638520"><ele>28.2</ele></trkpt>
    <trkpt lat="48.345000" lon="-4.638303"><ele>28.8</ele></trkpt>
    <trkpt lat="48.344972" lon="-4.638213"><ele>28.8</ele></trkpt>
    <trkpt lat="48.344935" lon="-4.637703"><ele>30.6</ele></trkpt>
    <trkpt lat="48.344812" lon="-4.637350"><ele>31.6</ele></trkpt>
    <trkpt lat="48.344738" lon="-4.636688"><ele>33.2</ele></trkpt>
    <trkpt lat="48.344613" lon="-4.636403"><ele>32.6</ele></trkpt>
    <trkpt lat="48.344563" lon="-4.636363"><ele>32.2</ele></trkpt>
    <trkpt lat="48.344467" lon="-4.636378"><ele>31.8</ele></trkpt>
    <trkpt lat="48.344243" lon="-4.636515"><ele>30.4</ele></trkpt>
    <trkpt lat="48.344178" lon="-4.636515"><ele>29.8</ele></trkpt>
    <trkpt lat="48.344145" lon="-4.636450"><ele>29.6</ele></trkpt>
    <trkpt lat="48.344195" lon="-4.636068"><ele>30.8</ele></trkpt>
    <trkpt lat="48.344132" lon="-4.635927"><ele>31.8</ele></trkpt>
    <trkpt lat="48.344025" lon="-4.635815"><ele>33.2</ele></trkpt>
    <trkpt lat="48.343837" lon="-4.635770"><ele>32.8</ele></trkpt>
    <trkpt lat="48.343617" lon="-4.635450"><ele>34.2</ele></trkpt>
    <trkpt lat="48.343557" lon="-4.635437"><ele>35.0</ele></trkpt>
    <trkpt lat="48.343365" lon="-4.635512"><ele>35.0</ele></trkpt>
    <trkpt lat="48.343317" lon="-4.635455"><ele>35.0</ele></trkpt>
    <trkpt lat="48.343242" lon="-4.635195"><ele>35.8</ele></trkpt>
    <trkpt lat="48.343055" lon="-4.634913"><ele>39.4</ele></trkpt>
    <trkpt lat="48.343005" lon="-4.634542"><ele>40.6</ele></trkpt>
    <trkpt lat="48.342907" lon="-4.634232"><ele>37.8</ele></trkpt>
    <trkpt lat="48.342952" lon="-4.633928"><ele>34.4</ele></trkpt>
    <trkpt lat="48.342987" lon="-4.633847"><ele>33.4</ele></trkpt>
    <trkpt lat="48.343503" lon="-4.633433"><ele>26.4</ele></trkpt>
    <trkpt lat="48.343855" lon="-4.632838"><ele>19.8</ele></trkpt>
    <trkpt lat="48.344123" lon="-4.632593"><ele>13.2</ele></trkpt>
    <trkpt lat="48.344110" lon="-4.632375"><ele>11.6</ele></trkpt>
    <trkpt lat="48.343935" lon="-4.632303"><ele>11.4</ele></trkpt>
    <trkpt lat="48.343672" lon="-4.632288"><ele>12.0</ele></trkpt>
    <trkpt lat="48.343542" lon="-4.632048"><ele>14.8</ele></trkpt>
    <trkpt lat="48.343128" lon="-4.631920"><ele>15.2</ele></trkpt>
    <trkpt lat="48.343003" lon="-4.631930"><ele>16.0</ele></trkpt>
    <trkpt lat="48.342763" lon="-4.631682"><ele>24.0</ele></trkpt>
    <trkpt lat="48.342515" lon="-4.631562"><ele>32.2</ele></trkpt>
    <trkpt lat="48.342368" lon="-4.631405"><ele>37.8</ele></trkpt>
    <trkpt lat="48.342232" lon="-4.631180"><ele>41.8</ele></trkpt>
    <trkpt lat="48.342213" lon="-4.631098"><ele>42.4</ele></trkpt>
    <trkpt lat="48.342230" lon="-4.630923"><ele>43.6</ele></trkpt>
    <trkpt lat="48.342187" lon="-4.630823"><ele>44.4</ele></trkpt>
    <trkpt lat="48.341823" lon="-4.630767"><ele>45.0</ele></trkpt>
    <trkpt lat="48.341572" lon="-4.630830"><ele>48.6</ele></trkpt>
    <trkpt lat="48.341373" lon="-4.630930"><ele>51.4</ele></trkpt>
    <trkpt lat="48.341160" lon="-4.630810"><ele>52.8</ele></trkpt>
    <trkpt lat="48.341132" lon="-4.630702"><ele>52.8</ele></trkpt>
    <trkpt lat="48.341183" lon="-4.630588"><ele>52.4</ele></trkpt>
    <trkpt lat="48.341240" lon="-4.630560"><ele>52.2</ele></trkpt>
    <trkpt lat="48.341393" lon="-4.630612"><ele>51.6</ele></trkpt>
    <trkpt lat="48.341472" lon="-4.630522"><ele>51.4</ele></trkpt>
    <trkpt lat="48.341493" lon="-4.630402"><ele>51.6</ele></trkpt>
    <trkpt lat="48.340852" lon="-4.629360"><ele>52.2</ele></trkpt>
    <trkpt lat="48.340755" lon="-4.629050"><ele>53.0</ele></trkpt>
    <trkpt lat="48.340755" lon="-4.628947"><ele>53.8</ele></trkpt>
    <trkpt lat="48.340882" lon="-4.628710"><ele>55.6</ele></trkpt>
    <trkpt lat="48.341003" lon="-4.628745"><ele>57.4</ele></trkpt>
    <trkpt lat="48.341047" lon="-4.628587"><ele>58.6</ele></trkpt>
    <trkpt lat="48.341180" lon="-4.628537"><ele>58.8</ele></trkpt>
    <trkpt lat="48.341212" lon="-4.627775"><ele>58.0</ele></trkpt>
    <trkpt lat="48.341253" lon="-4.627638"><ele>57.2</ele></trkpt>
    <trkpt lat="48.341340" lon="-4.627625"><ele>56.6</ele></trkpt>
    <trkpt lat="48.341445" lon="-4.627733"><ele>56.2</ele></trkpt>
    <trkpt lat="48.341557" lon="-4.627783"><ele>56.0</ele></trkpt>
    <trkpt lat="48.342102" lon="-4.627583"><ele>55.4</ele></trkpt>
    <trkpt lat="48.342160" lon="-4.627525"><ele>55.4</ele></trkpt>
    <trkpt lat="48.342190" lon="-4.627383"><ele>55.6</ele></trkpt>
    <trkpt lat="48.342130" lon="-4.626917"><ele>55.4</ele></trkpt>
    <trkpt lat="48.342057" lon="-4.626805"><ele>55.8</ele></trkpt>
    <trkpt lat="48.341472" lon="-4.626550"><ele>54.4</ele></trkpt>
    <trkpt lat="48.341253" lon="-4.626360"><ele>52.8</ele></trkpt>
    <trkpt lat="48.341027" lon="-4.625750"><ele>49.4</ele></trkpt>
    <trkpt lat="48.340965" lon="-4.625128"><ele>46.6</ele></trkpt>
    <trkpt lat="48.340822" lon="-4.624695"><ele>43.6</ele></trkpt>
    <trkpt lat="48.340812" lon="-4.624390"><ele>42.2</ele></trkpt>
    <trkpt lat="48.340737" lon="-4.624275"><ele>42.2</ele></trkpt>
    <trkpt lat="48.340573" lon="-4.624133"><ele>40.8</ele></trkpt>
    <trkpt lat="48.340465" lon="-4.624095"><ele>39.6</ele></trkpt>
    <trkpt lat="48.339570" lon="-4.624075"><ele>31.8</ele></trkpt>
    <trkpt lat="48.339363" lon="-4.623972"><ele>30.2</ele></trkpt>
    <trkpt lat="48.339285" lon="-4.623853"><ele>29.4</ele></trkpt>
    <trkpt lat="48.339315" lon="-4.623725"><ele>28.6</ele></trkpt>
    <trkpt lat="48.339493" lon="-4.623490"><ele>29.4</ele></trkpt>
    <trkpt lat="48.339477" lon="-4.623180"><ele>32.4</ele></trkpt>
    <trkpt lat="48.339503" lon="-4.623007"><ele>33.4</ele></trkpt>
    <trkpt lat="48.339455" lon="-4.622357"><ele>35.6</ele></trkpt>
    <trkpt lat="48.339413" lon="-4.622185"><ele>35.2</ele></trkpt>
    <trkpt lat="48.339335" lon="-4.622052"><ele>33.8</ele></trkpt>
    <trkpt lat="48.339258" lon="-4.621523"><ele>30.4</ele></trkpt>
    <trkpt lat="48.339275" lon="-4.621127"><ele>32.6</ele></trkpt>
    <trkpt lat="48.339315" lon="-4.620985"><ele>32.2</ele></trkpt>
    <trkpt lat="48.339357" lon="-4.620580"><ele>30.0</ele></trkpt>
    <trkpt lat="48.339363" lon="-4.620080"><ele>26.6</ele></trkpt>
    <trkpt lat="48.339458" lon="-4.619580"><ele>23.0</ele></trkpt>
    <trkpt lat="48.339458" lon="-4.619193"><ele>23.6</ele></trkpt>
    <trkpt lat="48.339518" lon="-4.619022"><ele>28.0</ele></trkpt>
    <trkpt lat="48.339422" lon="-4.618713"><ele>28.0</ele></trkpt>
    <trkpt lat="48.339383" lon="-4.618408"><ele>27.8</ele></trkpt>
    <trkpt lat="48.339427" lon="-4.617647"><ele>27.6</ele></trkpt>
    <trkpt lat="48.339638" lon="-4.616898"><ele>34.8</ele></trkpt>
    <trkpt lat="48.339858" lon="-4.616615"><ele>39.6</ele></trkpt>
    <trkpt lat="48.340242" lon="-4.615932"><ele>36.6</ele></trkpt>
    <trkpt lat="48.340478" lon="-4.615705"><ele>35.4</ele></trkpt>
    <trkpt lat="48.340825" lon="-4.615517"><ele>31.2</ele></trkpt>
    <trkpt lat="48.340872" lon="-4.615425"><ele>28.8</ele></trkpt>
    <trkpt lat="48.340870" lon="-4.615233"><ele>23.2</ele></trkpt>
    <trkpt lat="48.340820" lon="-4.615167"><ele>21.4</ele></trkpt>
    <trkpt lat="48.340162" lon="-4.615338"><ele>13.2</ele></trkpt>
    <trkpt lat="48.340007" lon="-4.615295"><ele>11.4</ele></trkpt>
    <trkpt lat="48.339527" lon="-4.615337"><ele>8.8</ele></trkpt>
    <trkpt lat="48.339368" lon="-4.615260"><ele>10.8</ele></trkpt>
    <trkpt lat="48.339173" lon="-4.615247"><ele>14.2</ele></trkpt>
    <trkpt lat="48.339052" lon="-4.615165"><ele>16.2</ele></trkpt>
    <trkpt lat="48.338705" lon="-4.614765"><ele>20.6</ele></trkpt>
    <trkpt lat="48.338707" lon="-4.614680"><ele>21.8</ele></trkpt>
    <trkpt lat="48.338902" lon="-4.614375"><ele>30.0</ele></trkpt>
    <trkpt lat="48.338943" lon="-4.614222"><ele>32.8</ele></trkpt>
    <trkpt lat="48.338897" lon="-4.614005"><ele>33.4</ele></trkpt>
    <trkpt lat="48.338708" lon="-4.613635"><ele>30.6</ele></trkpt>
    <trkpt lat="48.338673" lon="-4.613492"><ele>29.6</ele></trkpt>
    <trkpt lat="48.338683" lon="-4.612962"><ele>28.2</ele></trkpt>
    <trkpt lat="48.338732" lon="-4.612693"><ele>28.0</ele></trkpt>
    <trkpt lat="48.338838" lon="-4.612352"><ele>27.4</ele></trkpt>
    <trkpt lat="48.339060" lon="-4.612057"><ele>27.8</ele></trkpt>
    <trkpt lat="48.339398" lon="-4.611432"><ele>27.2</ele></trkpt>
    <trkpt lat="48.339358" lon="-4.611207"><ele>27.8</ele></trkpt>
    <trkpt lat="48.339207" lon="-4.610943"><ele>32.2</ele></trkpt>
    <trkpt lat="48.339157" lon="-4.610500"><ele>32.6</ele></trkpt>
    <trkpt lat="48.338908" lon="-4.609583"><ele>38.0</ele></trkpt>
    <trkpt lat="48.338775" lon="-4.608747"><ele>39.4</ele></trkpt>
    <trkpt lat="48.338965" lon="-4.607877"><ele>37.4</ele></trkpt>
    <trkpt lat="48.339080" lon="-4.607542"><ele>38.4</ele></trkpt>
    <trkpt lat="48.339092" lon="-4.607405"><ele>39.4</ele></trkpt>
    <trkpt lat="48.339172" lon="-4.607240"><ele>40.8</ele></trkpt>
    <trkpt lat="48.339172" lon="-4.607173"><ele>41.4</ele></trkpt>
    <trkpt lat="48.339067" lon="-4.607090"><ele>39.2</ele></trkpt>
    <trkpt lat="48.339070" lon="-4.607013"><ele>38.2</ele></trkpt>
    <trkpt lat="48.339218" lon="-4.606767"><ele>36.4</ele></trkpt>
    <trkpt lat="48.339238" lon="-4.606673"><ele>34.6</ele></trkpt>
    <trkpt lat="48.339218" lon="-4.606563"><ele>31.0</ele></trkpt>
    <trkpt lat="48.339432" lon="-4.605717"><ele>24.6</ele></trkpt>
    <trkpt lat="48.339528" lon="-4.605568"><ele>25.0</ele></trkpt>
    <trkpt lat="48.339665" lon="-4.605452"><ele>25.2</ele></trkpt>
    <trkpt lat="48.339922" lon="-4.605500"><ele>26.8</ele></trkpt>
    <trkpt lat="48.340033" lon="-4.605407"><ele>27.4</ele></trkpt>
    <trkpt lat="48.340102" lon="-4.605275"><ele>28.6</ele></trkpt>
    <trkpt lat="48.340165" lon="-4.605233"><ele>31.2</ele></trkpt>
    <trkpt lat="48.340265" lon="-4.604953"><ele>32.6</ele></trkpt>
    <trkpt lat="48.340482" lon="-4.604587"><ele>31.8</ele></trkpt>
    <trkpt lat="48.340685" lon="-4.604128"><ele>32.2</ele></trkpt>
    <trkpt lat="48.341055" lon="-4.603612"><ele>37.2</ele></trkpt>
    <trkpt lat="48.341138" lon="-4.603403"><ele>36.4</ele></trkpt>
    <trkpt lat="48.341262" lon="-4.602780"><ele>36.0</ele></trkpt>
    <trkpt lat="48.341455" lon="-4.602507"><ele>37.0</ele></trkpt>
    <trkpt lat="48.341557" lon="-4.602233"><ele>37.0</ele></trkpt>
    <trkpt lat="48.341685" lon="-4.602007"><ele>36.0</ele></trkpt>
    <trkpt lat="48.341702" lon="-4.601762"><ele>34.8</ele></trkpt>
    <trkpt lat="48.341680" lon="-4.601578"><ele>34.4</ele></trkpt>
    <trkpt lat="48.341715" lon="-4.601328"><ele>34.4</ele></trkpt>
    <trkpt lat="48.341653" lon="-4.600895"><ele>35.2</ele></trkpt>
    <trkpt lat="48.341765" lon="-4.600732"><ele>37.0</ele></trkpt>
    <trkpt lat="48.341888" lon="-4.600178"><ele>38.0</ele></trkpt>
    <trkpt lat="48.342218" lon="-4.599512"><ele>35.0</ele></trkpt>
    <trkpt lat="48.342433" lon="-4.599288"><ele>33.8</ele></trkpt>
    <trkpt lat="48.342572" lon="-4.599040"><ele>34.4</ele></trkpt>
    <trkpt lat="48.342730" lon="-4.598868"><ele>35.0</ele></trkpt>
    <trkpt lat="48.343150" lon="-4.598218"><ele>32.0</ele></trkpt>
    <trkpt lat="48.343417" lon="-4.597965"><ele>29.6</ele></trkpt>
    <trkpt lat="48.343552" lon="-4.597785"><ele>29.2</ele></trkpt>
    <trkpt lat="48.343637" lon="-4.597780"><ele>29.2</ele></trkpt>
    <trkpt lat="48.344053" lon="-4.598025"><ele>24.8</ele></trkpt>
    <trkpt lat="48.344190" lon="-4.598163"><ele>21.4</ele></trkpt>
    <trkpt lat="48.344228" lon="-4.598163"><ele>20.8</ele></trkpt>
    <trkpt lat="48.344307" lon="-4.598068"><ele>19.8</ele></trkpt>
    <trkpt lat="48.344330" lon="-4.597867"><ele>18.6</ele></trkpt>
    <trkpt lat="48.344207" lon="-4.597660"><ele>14.8</ele></trkpt>
    <trkpt lat="48.344085" lon="-4.597103"><ele>16.0</ele></trkpt>
    <trkpt lat="48.344090" lon="-4.596915"><ele>18.8</ele></trkpt>
    <trkpt lat="48.344260" lon="-4.596667"><ele>24.6</ele></trkpt>
    <trkpt lat="48.344407" lon="-4.596543"><ele>30.0</ele></trkpt>
    <trkpt lat="48.344472" lon="-4.596407"><ele>31.0</ele></trkpt>
    <trkpt lat="48.344535" lon="-4.596197"><ele>33.2</ele></trkpt>
    <trkpt lat="48.344542" lon="-4.595927"><ele>36.8</ele></trkpt>
    <trkpt lat="48.344658" lon="-4.595490"><ele>42.2</ele></trkpt>
    <trkpt lat="48.344900" lon="-4.594893"><ele>43.6</ele></trkpt>
    <trkpt lat="48.344945" lon="-4.594538"><ele>46.6</ele></trkpt>
    <trkpt lat="48.344940" lon="-4.594300"><ele>48.6</ele></trkpt>
    <trkpt lat="48.345015" lon="-4.594152"><ele>48.6</ele></trkpt>
    <trkpt lat="48.345015" lon="-4.593817"><ele>48.6</ele></trkpt>
    <trkpt lat="48.344945" lon="-4.593543"><ele>47.6</ele></trkpt>
    <trkpt lat="48.345038" lon="-4.592997"><ele>46.4</ele></trkpt>
    <trkpt lat="48.345310" lon="-4.592198"><ele>45.2</ele></trkpt>
    <trkpt lat="48.345477" lon="-4.591547"><ele>45.4</ele></trkpt>
    <trkpt lat="48.345722" lon="-4.590963"><ele>46.2</ele></trkpt>
    <trkpt lat="48.346010" lon="-4.590620"><ele>45.4</ele></trkpt>
    <trkpt lat="48.346303" lon="-4.590188"><ele>43.4</ele></trkpt>
    <trkpt lat="48.346558" lon="-4.589772"><ele>42.4</ele></trkpt>
    <trkpt lat="48.346815" lon="-4.589262"><ele>45.2</ele></trkpt>
    <trkpt lat="48.347212" lon="-4.588978"><ele>54.0</ele></trkpt>
    <trkpt lat="48.347560" lon="-4.589090"><ele>54.8</ele></trkpt>
    <trkpt lat="48.347995" lon="-4.589388"><ele>54.0</ele></trkpt>
    <trkpt lat="48.348068" lon="-4.589495"><ele>54.2</ele></trkpt>
    <trkpt lat="48.348127" lon="-4.589763"><ele>55.6</ele></trkpt>
    <trkpt lat="48.348183" lon="-4.589755"><ele>56.2</ele></trkpt>
    <trkpt lat="48.348418" lon="-4.589437"><ele>56.4</ele></trkpt>
    <trkpt lat="48.348530" lon="-4.589398"><ele>56.2</ele></trkpt>
    <trkpt lat="48.348995" lon="-4.589565"><ele>55.2</ele></trkpt>
    <trkpt lat="48.349335" lon="-4.589763"><ele>53.2</ele></trkpt>
    <trkpt lat="48.349410" lon="-4.589717"><ele>52.8</ele></trkpt>
    <trkpt lat="48.349552" lon="-4.589473"><ele>51.6</ele></trkpt>
    <trkpt lat="48.349700" lon="-4.589103"><ele>49.4</ele></trkpt>
    <trkpt lat="48.349923" lon="-4.588947"><ele>46.8</ele></trkpt>
    <trkpt lat="48.349990" lon="-4.588823"><ele>45.6</ele></trkpt>
    <trkpt lat="48.350007" lon="-4.588678"><ele>44.0</ele></trkpt>
    <trkpt lat="48.349967" lon="-4.588480"><ele>42.4</ele></trkpt>
    <trkpt lat="48.349748" lon="-4.587902"><ele>38.2</ele></trkpt>
    <trkpt lat="48.349607" lon="-4.587745"><ele>36.0</ele></trkpt>
    <trkpt lat="48.349347" lon="-4.587618"><ele>30.6</ele></trkpt>
    <trkpt lat="48.349057" lon="-4.587678"><ele>24.8</ele></trkpt>
    <trkpt lat="48.348938" lon="-4.587625"><ele>11.8</ele></trkpt>
    <trkpt lat="48.348958" lon="-4.587278"><ele>9.4</ele></trkpt>
    <trkpt lat="48.348737" lon="-4.587113"><ele>7.0</ele></trkpt>
    <trkpt lat="48.348712" lon="-4.587018"><ele>6.8</ele></trkpt>
    <trkpt lat="48.348750" lon="-4.586792"><ele>6.4</ele></trkpt>
    <trkpt lat="48.348893" lon="-4.586545"><ele>6.8</ele></trkpt>
    <trkpt lat="48.348920" lon="-4.586430"><ele>7.6</ele></trkpt>
    <trkpt lat="48.348707" lon="-4.586133"><ele>13.8</ele></trkpt>
    <trkpt lat="48.348488" lon="-4.585435"><ele>19.2</ele></trkpt>
    <trkpt lat="48.348093" lon="-4.584632"><ele>17.4</ele></trkpt>
    <trkpt lat="48.348153" lon="-4.584353"><ele>17.0</ele></trkpt>
    <trkpt lat="48.348285" lon="-4.583982"><ele>19.4</ele></trkpt>
    <trkpt lat="48.348320" lon="-4.583757"><ele>21.2</ele></trkpt>
    <trkpt lat="48.348432" lon="-4.583568"><ele>22.8</ele></trkpt>
    <trkpt lat="48.348513" lon="-4.583197"><ele>26.0</ele></trkpt>
    <trkpt lat="48.348593" lon="-4.582547"><ele>29.2</ele></trkpt>
    <trkpt lat="48.348590" lon="-4.582122"><ele>28.2</ele></trkpt>
    <trkpt lat="48.348690" lon="-4.581505"><ele>30.6</ele></trkpt>
    <trkpt lat="48.348778" lon="-4.581267"><ele>31.6</ele></trkpt>
    <trkpt lat="48.348792" lon="-4.581048"><ele>30.6</ele></trkpt>
    <trkpt lat="48.348873" lon="-4.580852"><ele>30.0</ele></trkpt>
    <trkpt lat="48.349142" lon="-4.580448"><ele>30.8</ele></trkpt>
    <trkpt lat="48.349325" lon="-4.579677"><ele>31.4</ele></trkpt>
    <trkpt lat="48.349327" lon="-4.579425"><ele>31.4</ele></trkpt>
    <trkpt lat="48.349510" lon="-4.578548"><ele>30.8</ele></trkpt>
    <trkpt lat="48.349553" lon="-4.578160"><ele>32.6</ele></trkpt>
    <trkpt lat="48.349627" lon="-4.577902"><ele>34.6</ele></trkpt>
    <trkpt lat="48.349663" lon="-4.577570"><ele>36.0</ele></trkpt>
    <trkpt lat="48.349627" lon="-4.577160"><ele>34.0</ele></trkpt>
    <trkpt lat="48.349655" lon="-4.576398"><ele>33.0</ele></trkpt>
    <trkpt lat="48.349745" lon="-4.576067"><ele>32.4</ele></trkpt>
    <trkpt lat="48.349775" lon="-4.575375"><ele>32.6</ele></trkpt>
    <trkpt lat="48.349852" lon="-4.574985"><ele>31.4</ele></trkpt>
    <trkpt lat="48.349872" lon="-4.574497"><ele>33.8</ele></trkpt>
    <trkpt lat="48.349967" lon="-4.573987"><ele>36.2</ele></trkpt>
    <trkpt lat="48.350040" lon="-4.573203"><ele>37.2</ele></trkpt>
    <trkpt lat="48.350142" lon="-4.572938"><ele>37.8</ele></trkpt>
    <trkpt lat="48.350072" lon="-4.572587"><ele>37.0</ele></trkpt>
    <trkpt lat="48.350082" lon="-4.572495"><ele>36.4</ele></trkpt>
    <trkpt lat="48.350187" lon="-4.572273"><ele>36.2</ele></trkpt>
    <trkpt lat="48.350095" lon="-4.571965"><ele>34.0</ele></trkpt>
    <trkpt lat="48.350245" lon="-4.571825"><ele>32.8</ele></trkpt>
    <trkpt lat="48.350362" lon="-4.571807"><ele>32.0</ele></trkpt>
    <trkpt lat="48.350783" lon="-4.572367"><ele>30.0</ele></trkpt>
    <trkpt lat="48.351095" lon="-4.572477"><ele>31.4</ele></trkpt>
    <trkpt lat="48.351185" lon="-4.572345"><ele>31.6</ele></trkpt>
    <trkpt lat="48.351270" lon="-4.572008"><ele>30.6</ele></trkpt>
    <trkpt lat="48.351363" lon="-4.571847"><ele>29.8</ele></trkpt>
    <trkpt lat="48.351455" lon="-4.571808"><ele>29.6</ele></trkpt>
    <trkpt lat="48.351813" lon="-4.571877"><ele>27.6</ele></trkpt>
    <trkpt lat="48.351870" lon="-4.571845"><ele>26.0</ele></trkpt>
    <trkpt lat="48.351888" lon="-4.571733"><ele>24.0</ele></trkpt>
    <trkpt lat="48.351715" lon="-4.570972"><ele>17.6</ele></trkpt>
    <trkpt lat="48.351672" lon="-4.570617"><ele>15.2</ele></trkpt>
    <trkpt lat="48.351648" lon="-4.570300"><ele>13.2</ele></trkpt>
    <trkpt lat="48.351697" lon="-4.570032"><ele>11.6</ele></trkpt>
    <trkpt lat="48.351910" lon="-4.569727"><ele>17.0</ele></trkpt>
    <trkpt lat="48.351938" lon="-4.569437"><ele>18.6</ele></trkpt>
    <trkpt lat="48.351983" lon="-4.569347"><ele>19.0</ele></trkpt>
    <trkpt lat="48.352377" lon="-4.569198"><ele>24.8</ele></trkpt>
    <trkpt lat="48.352688" lon="-4.569017"><ele>26.4</ele></trkpt>
    <trkpt lat="48.353125" lon="-4.568423"><ele>23.8</ele></trkpt>
    <trkpt lat="48.353163" lon="-4.568330"><ele>23.6</ele></trkpt>
    <trkpt lat="48.353148" lon="-4.568088"><ele>23.4</ele></trkpt>
    <trkpt lat="48.352967" lon="-4.567430"><ele>20.8</ele></trkpt>
    <trkpt lat="48.353240" lon="-4.567408"><ele>19.4</ele></trkpt>
    <trkpt lat="48.353672" lon="-4.567120"><ele>16.8</ele></trkpt>
    <trkpt lat="48.353837" lon="-4.567073"><ele>15.8</ele></trkpt>
    <trkpt lat="48.354010" lon="-4.567167"><ele>16.0</ele></trkpt>
    <trkpt lat="48.354233" lon="-4.567385"><ele>18.2</ele></trkpt>
    <trkpt lat="48.354512" lon="-4.567393"><ele>16.4</ele></trkpt>
    <trkpt lat="48.354728" lon="-4.567322"><ele>16.0</ele></trkpt>
    <trkpt lat="48.355143" lon="-4.567358"><ele>13.8</ele></trkpt>
    <trkpt lat="48.355205" lon="-4.567270"><ele>17.6</ele></trkpt>
    <trkpt lat="48.355128" lon="-4.567140"><ele>21.0</ele></trkpt>
    <trkpt lat="48.355160" lon="-4.566753"><ele>19.6</ele></trkpt>
    <trkpt lat="48.355433" lon="-4.566245"><ele>18.4</ele></trkpt>
    <trkpt lat="48.355860" lon="-4.565613"><ele>19.6</ele></trkpt>
    <trkpt lat="48.356072" lon="-4.565448"><ele>18.6</ele></trkpt>
    <trkpt lat="48.356123" lon="-4.565230"><ele>19.8</ele></trkpt>
    <trkpt lat="48.356338" lon="-4.564957"><ele>23.8</ele></trkpt>
    <trkpt lat="48.356427" lon="-4.564387"><ele>23.6</ele></trkpt>
    <trkpt lat="48.356585" lon="-4.564103"><ele>23.2</ele></trkpt>
    <trkpt lat="48.356610" lon="-4.563983"><ele>24.0</ele></trkpt>
    <trkpt lat="48.356572" lon="-4.563585"><ele>23.8</ele></trkpt>
    <trkpt lat="48.356737" lon="-4.563238"><ele>22.8</ele></trkpt>
    <trkpt lat="48.356722" lon="-4.563038"><ele>24.6</ele></trkpt>
    <trkpt lat="48.356523" lon="-4.562298"><ele>23.4</ele></trkpt>
    <trkpt lat="48.356555" lon="-4.562242"><ele>23.0</ele></trkpt>
    <trkpt lat="48.356765" lon="-4.562288"><ele>28.0</ele></trkpt>
    <trkpt lat="48.356802" lon="-4.562245"><ele>29.8</ele></trkpt>
    <trkpt lat="48.356718" lon="-4.560610"><ele>32.0</ele></trkpt>
    <trkpt lat="48.356488" lon="-4.559597"><ele>33.0</ele></trkpt>
    <trkpt lat="48.356427" lon="-4.559477"><ele>32.8</ele></trkpt>
    <trkpt lat="48.355828" lon="-4.559087"><ele>29.8</ele></trkpt>
    <trkpt lat="48.355462" lon="-4.559037"><ele>29.6</ele></trkpt>
    <trkpt lat="48.355415" lon="-4.559000"><ele>30.0</ele></trkpt>
    <trkpt lat="48.355420" lon="-4.558827"><ele>30.6</ele></trkpt>
    <trkpt lat="48.356235" lon="-4.558390"><ele>32.6</ele></trkpt>
    <trkpt lat="48.356623" lon="-4.558110"><ele>33.2</ele></trkpt>
    <trkpt lat="48.356738" lon="-4.557983"><ele>34.0</ele></trkpt>
    <trkpt lat="48.356828" lon="-4.557813"><ele>34.8</ele></trkpt>
    <trkpt lat="48.357135" lon="-4.557460"><ele>36.2</ele></trkpt>
    <trkpt lat="48.357247" lon="-4.557260"><ele>36.8</ele></trkpt>
    <trkpt lat="48.357765" lon="-4.556747"><ele>37.8</ele></trkpt>
    <trkpt lat="48.358577" lon="-4.556170"><ele>39.0</ele></trkpt>
    <trkpt lat="48.359118" lon="-4.555883"><ele>39.6</ele></trkpt>
    <trkpt lat="48.359577" lon="-4.555422"><ele>38.2</ele></trkpt>
    <trkpt lat="48.359733" lon="-4.555320"><ele>37.8</ele></trkpt>
    <trkpt lat="48.360762" lon="-4.555318"><ele>34.4</ele></trkpt>
    <trkpt lat="48.360815" lon="-4.555423"><ele>33.8</ele></trkpt>
    <trkpt lat="48.360892" lon="-4.555763"><ele>32.6</ele></trkpt>
    <trkpt lat="48.360975" lon="-4.556750"><ele>31.4</ele></trkpt>
    <trkpt lat="48.361050" lon="-4.557155"><ele>31.2</ele></trkpt>
    <trkpt lat="48.361130" lon="-4.557322"><ele>30.6</ele></trkpt>
    <trkpt lat="48.361200" lon="-4.556650"><ele>28.2</ele></trkpt>
    <trkpt lat="48.361287" lon="-4.556212"><ele>25.0</ele></trkpt>
    <trkpt lat="48.361278" lon="-4.555888"><ele>22.0</ele></trkpt>
    <trkpt lat="48.361218" lon="-4.555437"><ele>18.0</ele></trkpt>
    <trkpt lat="48.361192" lon="-4.555302"><ele>17.0</ele></trkpt>
    <trkpt lat="48.361110" lon="-4.555155"><ele>15.6</ele></trkpt>
    <trkpt lat="48.360842" lon="-4.555025"><ele>14.0</ele></trkpt>
    <trkpt lat="48.360758" lon="-4.554883"><ele>13.6</ele></trkpt>
    <trkpt lat="48.360718" lon="-4.554928"><ele>13.0</ele></trkpt>
    <trkpt lat="48.360737" lon="-4.554973"><ele>13.2</ele></trkpt>
    <trkpt lat="48.360640" lon="-4.555115"><ele>20.8</ele></trkpt>
    <trkpt lat="48.360613" lon="-4.555207"><ele>24.8</ele></trkpt>
    <trkpt lat="48.360637" lon="-4.555285"><ele>25.2</ele></trkpt>
    <trkpt lat="48.360603" lon="-4.555325"><ele>26.8</ele></trkpt>
    <trkpt lat="48.360345" lon="-4.555353"><ele>36.0</ele></trkpt>
    <trkpt lat="48.360155" lon="-4.555303"><ele>38.2</ele></trkpt>
    <trkpt lat="48.359782" lon="-4.555307"><ele>38.6</ele></trkpt>
    <trkpt lat="48.359633" lon="-4.555382"><ele>38.2</ele></trkpt>
    <trkpt lat="48.359060" lon="-4.555920"><ele>40.4</ele></trkpt>
    <trkpt lat="48.357620" lon="-4.556890"><ele>41.4</ele></trkpt>
    <trkpt lat="48.357110" lon="-4.557430"><ele>40.0</ele></trkpt>
    <trkpt lat="48.356817" lon="-4.557943"><ele>39.4</ele></trkpt>
    <trkpt lat="48.356673" lon="-4.558102"><ele>39.6</ele></trkpt>
    <trkpt lat="48.355418" lon="-4.558875"><ele>33.6</ele></trkpt>
    <trkpt lat="48.355412" lon="-4.558958"><ele>33.4</ele></trkpt>
    <trkpt lat="48.355450" lon="-4.559077"><ele>33.4</ele></trkpt>
    <trkpt lat="48.355838" lon="-4.559127"><ele>32.2</ele></trkpt>
    <trkpt lat="48.356390" lon="-4.559448"><ele>32.2</ele></trkpt>
    <trkpt lat="48.356490" lon="-4.559555"><ele>32.8</ele></trkpt>
    <trkpt lat="48.356563" lon="-4.559782"><ele>33.0</ele></trkpt>
    <trkpt lat="48.356648" lon="-4.560310"><ele>31.2</ele></trkpt>
    <trkpt lat="48.356777" lon="-4.560868"><ele>31.0</ele></trkpt>
    <trkpt lat="48.356768" lon="-4.561417"><ele>31.2</ele></trkpt>
    <trkpt lat="48.356800" lon="-4.562237"><ele>32.0</ele></trkpt>
    <trkpt lat="48.356823" lon="-4.562308"><ele>31.8</ele></trkpt>
    <trkpt lat="48.356580" lon="-4.562295"><ele>26.6</ele></trkpt>
    <trkpt lat="48.356562" lon="-4.562358"><ele>25.8</ele></trkpt>
    <trkpt lat="48.356645" lon="-4.562763"><ele>24.4</ele></trkpt>
    <trkpt lat="48.356772" lon="-4.563177"><ele>24.8</ele></trkpt>
    <trkpt lat="48.356600" lon="-4.563605"><ele>24.2</ele></trkpt>
    <trkpt lat="48.356613" lon="-4.563888"><ele>23.2</ele></trkpt>
    <trkpt lat="48.356592" lon="-4.564048"><ele>24.0</ele></trkpt>
    <trkpt lat="48.356452" lon="-4.564335"><ele>23.6</ele></trkpt>
    <trkpt lat="48.356365" lon="-4.564990"><ele>26.0</ele></trkpt>
    <trkpt lat="48.356168" lon="-4.565235"><ele>23.6</ele></trkpt>
    <trkpt lat="48.356072" lon="-4.565488"><ele>20.6</ele></trkpt>
    <trkpt lat="48.355828" lon="-4.565710"><ele>18.2</ele></trkpt>
    <trkpt lat="48.355652" lon="-4.566045"><ele>19.6</ele></trkpt>
    <trkpt lat="48.355437" lon="-4.566347"><ele>19.2</ele></trkpt>
    <trkpt lat="48.355203" lon="-4.566840"><ele>18.0</ele></trkpt>
    <trkpt lat="48.355188" lon="-4.566967"><ele>17.4</ele></trkpt>
    <trkpt lat="48.355215" lon="-4.567090"><ele>17.4</ele></trkpt>
    <trkpt lat="48.355190" lon="-4.567212"><ele>18.8</ele></trkpt>
    <trkpt lat="48.355193" lon="-4.567275"><ele>19.0</ele></trkpt>
    <trkpt lat="48.355248" lon="-4.567348"><ele>19.2</ele></trkpt>
    <trkpt lat="48.355233" lon="-4.567492"><ele>16.8</ele></trkpt>
    <trkpt lat="48.354985" lon="-4.567502"><ele>14.4</ele></trkpt>
    <trkpt lat="48.354735" lon="-4.567288"><ele>13.4</ele></trkpt>
    <trkpt lat="48.354657" lon="-4.567275"><ele>13.4</ele></trkpt>
    <trkpt lat="48.354580" lon="-4.567310"><ele>13.4</ele></trkpt>
    <trkpt lat="48.354522" lon="-4.567438"><ele>14.2</ele></trkpt>
    <trkpt lat="48.354433" lon="-4.567428"><ele>14.8</ele></trkpt>
    <trkpt lat="48.354162" lon="-4.567295"><ele>14.8</ele></trkpt>
    <trkpt lat="48.353923" lon="-4.567098"><ele>14.4</ele></trkpt>
    <trkpt lat="48.353718" lon="-4.567095"><ele>13.8</ele></trkpt>
    <trkpt lat="48.353527" lon="-4.567228"><ele>14.2</ele></trkpt>
    <trkpt lat="48.353358" lon="-4.567420"><ele>17.8</ele></trkpt>
    <trkpt lat="48.353148" lon="-4.567517"><ele>18.2</ele></trkpt>
    <trkpt lat="48.353052" lon="-4.567510"><ele>18.8</ele></trkpt>
    <trkpt lat="48.352975" lon="-4.567952"><ele>20.8</ele></trkpt>
    <trkpt lat="48.352922" lon="-4.568077"><ele>21.6</ele></trkpt>
    <trkpt lat="48.352702" lon="-4.568248"><ele>24.2</ele></trkpt>
    <trkpt lat="48.352680" lon="-4.568415"><ele>25.4</ele></trkpt>
    <trkpt lat="48.352728" lon="-4.568567"><ele>27.0</ele></trkpt>
    <trkpt lat="48.352677" lon="-4.568685"><ele>28.0</ele></trkpt>
    <trkpt lat="48.352632" lon="-4.568732"><ele>28.4</ele></trkpt>
    <trkpt lat="48.352513" lon="-4.568740"><ele>28.2</ele></trkpt>
    <trkpt lat="48.352413" lon="-4.568862"><ele>27.0</ele></trkpt>
    <trkpt lat="48.352283" lon="-4.568840"><ele>24.8</ele></trkpt>
    <trkpt lat="48.352175" lon="-4.569028"><ele>23.0</ele></trkpt>
    <trkpt lat="48.351968" lon="-4.569135"><ele>19.8</ele></trkpt>
    <trkpt lat="48.351943" lon="-4.569210"><ele>19.0</ele></trkpt>
    <trkpt lat="48.351937" lon="-4.569723"><ele>16.2</ele></trkpt>
    <trkpt lat="48.351730" lon="-4.570163"><ele>11.2</ele></trkpt>
    <trkpt lat="48.351698" lon="-4.570430"><ele>9.4</ele></trkpt>
    <trkpt lat="48.351733" lon="-4.571145"><ele>11.4</ele></trkpt>
    <trkpt lat="48.351800" lon="-4.571465"><ele>12.0</ele></trkpt>
    <trkpt lat="48.351805" lon="-4.571735"><ele>14.0</ele></trkpt>
    <trkpt lat="48.351872" lon="-4.571950"><ele>14.6</ele></trkpt>
    <trkpt lat="48.351850" lon="-4.572012"><ele>15.0</ele></trkpt>
    <trkpt lat="48.351672" lon="-4.571993"><ele>20.4</ele></trkpt>
    <trkpt lat="48.351547" lon="-4.571882"><ele>24.8</ele></trkpt>
    <trkpt lat="48.351492" lon="-4.571922"><ele>26.4</ele></trkpt>
    <trkpt lat="48.351380" lon="-4.571887"><ele>27.2</ele></trkpt>
    <trkpt lat="48.351313" lon="-4.571982"><ele>27.0</ele></trkpt>
    <trkpt lat="48.351187" lon="-4.572408"><ele>29.4</ele></trkpt>
    <trkpt lat="48.351097" lon="-4.572447"><ele>29.6</ele></trkpt>
    <trkpt lat="48.350973" lon="-4.572430"><ele>29.2</ele></trkpt>
    <trkpt lat="48.350747" lon="-4.572245"><ele>27.6</ele></trkpt>
    <trkpt lat="48.350360" lon="-4.571758"><ele>26.0</ele></trkpt>
    <trkpt lat="48.350277" lon="-4.571760"><ele>26.0</ele></trkpt>
    <trkpt lat="48.350107" lon="-4.571958"><ele>28.0</ele></trkpt>
    <trkpt lat="48.350087" lon="-4.572048"><ele>29.0</ele></trkpt>
    <trkpt lat="48.350163" lon="-4.572338"><ele>33.4</ele></trkpt>
    <trkpt lat="48.350083" lon="-4.572542"><ele>35.2</ele></trkpt>
    <trkpt lat="48.350077" lon="-4.572652"><ele>35.6</ele></trkpt>
    <trkpt lat="48.350153" lon="-4.572887"><ele>37.8</ele></trkpt>
    <trkpt lat="48.350053" lon="-4.573082"><ele>38.4</ele></trkpt>
    <trkpt lat="48.349972" lon="-4.574020"><ele>32.4</ele></trkpt>
    <trkpt lat="48.349863" lon="-4.574712"><ele>32.2</ele></trkpt>
    <trkpt lat="48.349787" lon="-4.575603"><ele>29.2</ele></trkpt>
    <trkpt lat="48.349798" lon="-4.575763"><ele>29.0</ele></trkpt>
    <trkpt lat="48.349748" lon="-4.575953"><ele>28.6</ele></trkpt>
    <trkpt lat="48.349642" lon="-4.576867"><ele>29.8</ele></trkpt>
    <trkpt lat="48.349673" lon="-4.577558"><ele>31.0</ele></trkpt>
    <trkpt lat="48.349633" lon="-4.577962"><ele>31.8</ele></trkpt>
    <trkpt lat="48.349522" lon="-4.578437"><ele>31.4</ele></trkpt>
    <trkpt lat="48.349535" lon="-4.578710"><ele>30.0</ele></trkpt>
    <trkpt lat="48.349448" lon="-4.578953"><ele>29.2</ele></trkpt>
    <trkpt lat="48.349438" lon="-4.579172"><ele>29.0</ele></trkpt>
    <trkpt lat="48.349342" lon="-4.579625"><ele>29.4</ele></trkpt>
    <trkpt lat="48.349348" lon="-4.579860"><ele>31.4</ele></trkpt>
    <trkpt lat="48.349282" lon="-4.580275"><ele>30.8</ele></trkpt>
    <trkpt lat="48.349150" lon="-4.580580"><ele>32.0</ele></trkpt>
    <trkpt lat="48.348885" lon="-4.580942"><ele>31.8</ele></trkpt>
    <trkpt lat="48.348747" lon="-4.581435"><ele>32.8</ele></trkpt>
    <trkpt lat="48.348593" lon="-4.582260"><ele>27.6</ele></trkpt>
    <trkpt lat="48.348560" lon="-4.582980"><ele>27.8</ele></trkpt>
    <trkpt lat="48.348438" lon="-4.583547"><ele>25.8</ele></trkpt>
    <trkpt lat="48.348308" lon="-4.583795"><ele>23.6</ele></trkpt>
    <trkpt lat="48.348282" lon="-4.584038"><ele>22.4</ele></trkpt>
    <trkpt lat="48.348180" lon="-4.584303"><ele>20.6</ele></trkpt>
    <trkpt lat="48.348107" lon="-4.584683"><ele>18.0</ele></trkpt>
    <trkpt lat="48.348303" lon="-4.585032"><ele>18.8</ele></trkpt>
    <trkpt lat="48.348505" lon="-4.585485"><ele>20.8</ele></trkpt>
    <trkpt lat="48.348713" lon="-4.586193"><ele>15.4</ele></trkpt>
    <trkpt lat="48.348820" lon="-4.586395"><ele>9.0</ele></trkpt>
    <trkpt lat="48.348913" lon="-4.586497"><ele>7.2</ele></trkpt>
    <trkpt lat="48.348882" lon="-4.586660"><ele>5.6</ele></trkpt>
    <trkpt lat="48.348785" lon="-4.586898"><ele>3.2</ele></trkpt>
    <trkpt lat="48.348763" lon="-4.587092"><ele>2.4</ele></trkpt>
    <trkpt lat="48.348815" lon="-4.587210"><ele>2.8</ele></trkpt>
    <trkpt lat="48.348988" lon="-4.587397"><ele>5.2</ele></trkpt>
    <trkpt lat="48.348963" lon="-4.587458"><ele>8.0</ele></trkpt>
    <trkpt lat="48.348962" lon="-4.587667"><ele>13.6</ele></trkpt>
    <trkpt lat="48.349170" lon="-4.587757"><ele>18.4</ele></trkpt>
    <trkpt lat="48.349308" lon="-4.587702"><ele>19.8</ele></trkpt>
    <trkpt lat="48.349507" lon="-4.587713"><ele>21.2</ele></trkpt>
    <trkpt lat="48.349675" lon="-4.587855"><ele>22.2</ele></trkpt>
    <trkpt lat="48.349865" lon="-4.588233"><ele>25.2</ele></trkpt>
    <trkpt lat="48.349963" lon="-4.588673"><ele>28.8</ele></trkpt>
    <trkpt lat="48.349972" lon="-4.588945"><ele>30.6</ele></trkpt>
    <trkpt lat="48.349847" lon="-4.589093"><ele>33.2</ele></trkpt>
    <trkpt lat="48.349717" lon="-4.589157"><ele>35.2</ele></trkpt>
    <trkpt lat="48.349572" lon="-4.589450"><ele>40.4</ele></trkpt>
    <trkpt lat="48.349378" lon="-4.589698"><ele>44.2</ele></trkpt>
    <trkpt lat="48.349295" lon="-4.589718"><ele>44.8</ele></trkpt>
    <trkpt lat="48.349080" lon="-4.589568"><ele>45.2</ele></trkpt>
    <trkpt lat="48.348568" lon="-4.589363"><ele>44.6</ele></trkpt>
    <trkpt lat="48.348440" lon="-4.589402"><ele>45.0</ele></trkpt>
    <trkpt lat="48.348192" lon="-4.589718"><ele>46.4</ele></trkpt>
    <trkpt lat="48.348115" lon="-4.589758"><ele>46.8</ele></trkpt>
    <trkpt lat="48.348070" lon="-4.589715"><ele>47.2</ele></trkpt>
    <trkpt lat="48.348040" lon="-4.589503"><ele>47.6</ele></trkpt>
    <trkpt lat="48.347965" lon="-4.589393"><ele>47.0</ele></trkpt>
    <trkpt lat="48.347557" lon="-4.589102"><ele>48.4</ele></trkpt>
    <trkpt lat="48.347217" lon="-4.588965"><ele>51.4</ele></trkpt>
    <trkpt lat="48.346815" lon="-4.589290"><ele>47.2</ele></trkpt>
    <trkpt lat="48.346325" lon="-4.590237"><ele>40.2</ele></trkpt>
    <trkpt lat="48.345753" lon="-4.590960"><ele>41.0</ele></trkpt>
    <trkpt lat="48.345632" lon="-4.591197"><ele>41.8</ele></trkpt>
    <trkpt lat="48.345502" lon="-4.591547"><ele>42.2</ele></trkpt>
    <trkpt lat="48.345203" lon="-4.592612"><ele>43.2</ele></trkpt>
    <trkpt lat="48.345037" lon="-4.593057"><ele>42.8</ele></trkpt>
    <trkpt lat="48.345008" lon="-4.593438"><ele>43.6</ele></trkpt>
    <trkpt lat="48.344962" lon="-4.593593"><ele>44.8</ele></trkpt>
    <trkpt lat="48.345007" lon="-4.593828"><ele>47.8</ele></trkpt>
    <trkpt lat="48.345010" lon="-4.594175"><ele>49.2</ele></trkpt>
    <trkpt lat="48.344943" lon="-4.594352"><ele>50.4</ele></trkpt>
    <trkpt lat="48.344930" lon="-4.594927"><ele>51.0</ele></trkpt>
    <trkpt lat="48.344830" lon="-4.595053"><ele>49.0</ele></trkpt>
    <trkpt lat="48.344793" lon="-4.595207"><ele>47.8</ele></trkpt>
    <trkpt lat="48.344663" lon="-4.595472"><ele>46.8</ele></trkpt>
    <trkpt lat="48.344533" lon="-4.596047"><ele>44.4</ele></trkpt>
    <trkpt lat="48.344535" lon="-4.596228"><ele>43.2</ele></trkpt>
    <trkpt lat="48.344453" lon="-4.596465"><ele>39.0</ele></trkpt>
    <trkpt lat="48.344383" lon="-4.596570"><ele>36.8</ele></trkpt>
    <trkpt lat="48.344268" lon="-4.596647"><ele>33.4</ele></trkpt>
    <trkpt lat="48.344092" lon="-4.596943"><ele>28.2</ele></trkpt>
    <trkpt lat="48.344138" lon="-4.597367"><ele>22.2</ele></trkpt>
    <trkpt lat="48.344223" lon="-4.597740"><ele>19.0</ele></trkpt>
    <trkpt lat="48.344327" lon="-4.597913"><ele>17.4</ele></trkpt>
    <trkpt lat="48.344320" lon="-4.598010"><ele>18.4</ele></trkpt>
    <trkpt lat="48.344180" lon="-4.598155"><ele>21.6</ele></trkpt>
    <trkpt lat="48.343832" lon="-4.597923"><ele>30.6</ele></trkpt>
    <trkpt lat="48.343545" lon="-4.597807"><ele>34.4</ele></trkpt>
    <trkpt lat="48.343398" lon="-4.598000"><ele>33.2</ele></trkpt>
    <trkpt lat="48.343302" lon="-4.598040"><ele>33.0</ele></trkpt>
    <trkpt lat="48.343193" lon="-4.598152"><ele>31.8</ele></trkpt>
    <trkpt lat="48.342973" lon="-4.598447"><ele>33.2</ele></trkpt>
    <trkpt lat="48.342862" lon="-4.598690"><ele>33.2</ele></trkpt>
    <trkpt lat="48.342203" lon="-4.599533"><ele>33.4</ele></trkpt>
    <trkpt lat="48.341883" lon="-4.600222"><ele>38.0</ele></trkpt>
    <trkpt lat="48.341755" lon="-4.600787"><ele>38.0</ele></trkpt>
    <trkpt lat="48.341655" lon="-4.600943"><ele>38.8</ele></trkpt>
    <trkpt lat="48.341652" lon="-4.601052"><ele>38.4</ele></trkpt>
    <trkpt lat="48.341717" lon="-4.601343"><ele>37.2</ele></trkpt>
    <trkpt lat="48.341678" lon="-4.602067"><ele>34.2</ele></trkpt>
    <trkpt lat="48.341412" lon="-4.602568"><ele>38.0</ele></trkpt>
    <trkpt lat="48.341275" lon="-4.602757"><ele>38.4</ele></trkpt>
    <trkpt lat="48.341145" lon="-4.603345"><ele>37.0</ele></trkpt>
    <trkpt lat="48.341042" lon="-4.603650"><ele>37.8</ele></trkpt>
    <trkpt lat="48.340990" lon="-4.603760"><ele>38.2</ele></trkpt>
    <trkpt lat="48.340808" lon="-4.603947"><ele>37.2</ele></trkpt>
    <trkpt lat="48.340452" lon="-4.604428"><ele>31.8</ele></trkpt>
    <trkpt lat="48.340152" lon="-4.605285"><ele>33.6</ele></trkpt>
    <trkpt lat="48.339912" lon="-4.605517"><ele>28.8</ele></trkpt>
    <trkpt lat="48.339575" lon="-4.605523"><ele>27.8</ele></trkpt>
    <trkpt lat="48.339477" lon="-4.605613"><ele>27.4</ele></trkpt>
    <trkpt lat="48.339387" lon="-4.605773"><ele>27.0</ele></trkpt>
    <trkpt lat="48.339222" lon="-4.606635"><ele>27.4</ele></trkpt>
    <trkpt lat="48.339245" lon="-4.606775"><ele>30.0</ele></trkpt>
    <trkpt lat="48.339093" lon="-4.606945"><ele>33.2</ele></trkpt>
    <trkpt lat="48.339053" lon="-4.607087"><ele>32.4</ele></trkpt>
    <trkpt lat="48.339055" lon="-4.607155"><ele>33.0</ele></trkpt>
    <trkpt lat="48.339172" lon="-4.607218"><ele>35.0</ele></trkpt>
    <trkpt lat="48.339182" lon="-4.607258"><ele>35.2</ele></trkpt>
    <trkpt lat="48.339087" lon="-4.607418"><ele>35.6</ele></trkpt>
    <trkpt lat="48.338783" lon="-4.608792"><ele>34.0</ele></trkpt>
    <trkpt lat="48.338922" lon="-4.609543"><ele>35.6</ele></trkpt>
    <trkpt lat="48.339175" lon="-4.610575"><ele>35.4</ele></trkpt>
    <trkpt lat="48.339230" lon="-4.610965"><ele>33.6</ele></trkpt>
    <trkpt lat="48.339357" lon="-4.611227"><ele>31.4</ele></trkpt>
    <trkpt lat="48.339400" lon="-4.611495"><ele>28.6</ele></trkpt>
    <trkpt lat="48.339080" lon="-4.612068"><ele>28.6</ele></trkpt>
    <trkpt lat="48.338838" lon="-4.612363"><ele>28.6</ele></trkpt>
    <trkpt lat="48.338770" lon="-4.612528"><ele>28.2</ele></trkpt>
    <trkpt lat="48.338675" lon="-4.613187"><ele>26.4</ele></trkpt>
    <trkpt lat="48.338668" lon="-4.613793"><ele>27.6</ele></trkpt>
    <trkpt lat="48.338617" lon="-4.613998"><ele>26.8</ele></trkpt>
    <trkpt lat="48.338435" lon="-4.614305"><ele>24.2</ele></trkpt>
    <trkpt lat="48.338297" lon="-4.614450"><ele>23.6</ele></trkpt>
    <trkpt lat="48.338098" lon="-4.614527"><ele>24.0</ele></trkpt>
    <trkpt lat="48.338043" lon="-4.614510"><ele>24.0</ele></trkpt>
    <trkpt lat="48.338023" lon="-4.614440"><ele>24.2</ele></trkpt>
    <trkpt lat="48.338073" lon="-4.614315"><ele>24.8</ele></trkpt>
    <trkpt lat="48.338318" lon="-4.614325"><ele>25.4</ele></trkpt>
    <trkpt lat="48.338493" lon="-4.614217"><ele>25.2</ele></trkpt>
    <trkpt lat="48.338630" lon="-4.613977"><ele>25.2</ele></trkpt>
    <trkpt lat="48.338672" lon="-4.613812"><ele>25.2</ele></trkpt>
    <trkpt lat="48.338725" lon="-4.613768"><ele>26.6</ele></trkpt>
    <trkpt lat="48.338807" lon="-4.613882"><ele>26.8</ele></trkpt>
    <trkpt lat="48.338922" lon="-4.614275"><ele>27.6</ele></trkpt>
    <trkpt lat="48.338862" lon="-4.614470"><ele>26.6</ele></trkpt>
    <trkpt lat="48.338707" lon="-4.614675"><ele>23.2</ele></trkpt>
    <trkpt lat="48.338707" lon="-4.614792"><ele>22.4</ele></trkpt>
    <trkpt lat="48.339083" lon="-4.615228"><ele>17.0</ele></trkpt>
    <trkpt lat="48.339192" lon="-4.615272"><ele>16.2</ele></trkpt>
    <trkpt lat="48.339368" lon="-4.615268"><ele>15.2</ele></trkpt>
    <trkpt lat="48.339518" lon="-4.615333"><ele>13.6</ele></trkpt>
    <trkpt lat="48.339998" lon="-4.615275"><ele>11.4</ele></trkpt>
    <trkpt lat="48.340233" lon="-4.615358"><ele>12.4</ele></trkpt>
    <trkpt lat="48.340380" lon="-4.615275"><ele>14.0</ele></trkpt>
    <trkpt lat="48.340790" lon="-4.615187"><ele>15.6</ele></trkpt>
    <trkpt lat="48.340865" lon="-4.615298"><ele>16.2</ele></trkpt>
    <trkpt lat="48.340895" lon="-4.615427"><ele>20.2</ele></trkpt>
    <trkpt lat="48.340843" lon="-4.615553"><ele>24.4</ele></trkpt>
    <trkpt lat="48.340448" lon="-4.615740"><ele>32.8</ele></trkpt>
    <trkpt lat="48.340287" lon="-4.615865"><ele>34.6</ele></trkpt>
    <trkpt lat="48.340103" lon="-4.616168"><ele>37.2</ele></trkpt>
    <trkpt lat="48.339948" lon="-4.616562"><ele>39.8</ele></trkpt>
    <trkpt lat="48.339675" lon="-4.616830"><ele>39.6</ele></trkpt>
    <trkpt lat="48.339602" lon="-4.616992"><ele>37.6</ele></trkpt>
    <trkpt lat="48.339433" lon="-4.617637"><ele>32.8</ele></trkpt>
    <trkpt lat="48.339385" lon="-4.617927"><ele>30.8</ele></trkpt>
    <trkpt lat="48.339368" lon="-4.618272"><ele>29.8</ele></trkpt>
    <trkpt lat="48.339387" lon="-4.618580"><ele>30.6</ele></trkpt>
    <trkpt lat="48.339510" lon="-4.619025"><ele>31.4</ele></trkpt>
    <trkpt lat="48.339448" lon="-4.619273"><ele>28.8</ele></trkpt>
    <trkpt lat="48.339448" lon="-4.619740"><ele>28.6</ele></trkpt>
    <trkpt lat="48.339347" lon="-4.620133"><ele>31.0</ele></trkpt>
    <trkpt lat="48.339327" lon="-4.620748"><ele>36.8</ele></trkpt>
    <trkpt lat="48.339243" lon="-4.621320"><ele>41.6</ele></trkpt>
    <trkpt lat="48.339333" lon="-4.622045"><ele>40.4</ele></trkpt>
    <trkpt lat="48.339457" lon="-4.622367"><ele>42.0</ele></trkpt>
    <trkpt lat="48.339517" lon="-4.623058"><ele>41.6</ele></trkpt>
    <trkpt lat="48.339488" lon="-4.623220"><ele>40.8</ele></trkpt>
    <trkpt lat="48.339508" lon="-4.623517"><ele>38.0</ele></trkpt>
    <trkpt lat="48.339352" lon="-4.623777"><ele>34.4</ele></trkpt>
    <trkpt lat="48.339355" lon="-4.623912"><ele>34.0</ele></trkpt>
    <trkpt lat="48.339442" lon="-4.624005"><ele>34.2</ele></trkpt>
    <trkpt lat="48.339590" lon="-4.624072"><ele>35.2</ele></trkpt>
    <trkpt lat="48.340422" lon="-4.624142"><ele>41.0</ele></trkpt>
    <trkpt lat="48.340763" lon="-4.624387"><ele>43.4</ele></trkpt>
    <trkpt lat="48.340815" lon="-4.624480"><ele>44.2</ele></trkpt>
    <trkpt lat="48.340855" lon="-4.624780"><ele>45.6</ele></trkpt>
    <trkpt lat="48.340993" lon="-4.625128"><ele>46.6</ele></trkpt>
    <trkpt lat="48.341015" lon="-4.625413"><ele>48.4</ele></trkpt>
    <trkpt lat="48.341203" lon="-4.626167"><ele>52.0</ele></trkpt>
    <trkpt lat="48.341293" lon="-4.626378"><ele>53.2</ele></trkpt>
    <trkpt lat="48.341372" lon="-4.626470"><ele>53.6</ele></trkpt>
    <trkpt lat="48.342022" lon="-4.626828"><ele>58.2</ele></trkpt>
    <trkpt lat="48.342122" lon="-4.626925"><ele>58.4</ele></trkpt>
    <trkpt lat="48.342150" lon="-4.627003"><ele>58.6</ele></trkpt>
    <trkpt lat="48.342173" lon="-4.627492"><ele>60.4</ele></trkpt>
    <trkpt lat="48.342117" lon="-4.627630"><ele>61.0</ele></trkpt>
    <trkpt lat="48.341522" lon="-4.627788"><ele>67.6</ele></trkpt>
    <trkpt lat="48.341288" lon="-4.627643"><ele>68.4</ele></trkpt>
    <trkpt lat="48.341207" lon="-4.627668"><ele>68.2</ele></trkpt>
    <trkpt lat="48.341172" lon="-4.627948"><ele>68.6</ele></trkpt>
    <trkpt lat="48.341162" lon="-4.628513"><ele>69.6</ele></trkpt>
    <trkpt lat="48.340970" lon="-4.628732"><ele>70.4</ele></trkpt>
    <trkpt lat="48.340877" lon="-4.628683"><ele>69.4</ele></trkpt>
    <trkpt lat="48.340750" lon="-4.628890"><ele>68.2</ele></trkpt>
    <trkpt lat="48.340760" lon="-4.629073"><ele>67.8</ele></trkpt>
    <trkpt lat="48.340860" lon="-4.629388"><ele>65.4</ele></trkpt>
    <trkpt lat="48.341408" lon="-4.630287"><ele>62.6</ele></trkpt>
    <trkpt lat="48.341482" lon="-4.630467"><ele>63.4</ele></trkpt>
    <trkpt lat="48.341482" lon="-4.630563"><ele>63.6</ele></trkpt>
    <trkpt lat="48.341400" lon="-4.630653"><ele>63.4</ele></trkpt>
    <trkpt lat="48.341172" lon="-4.630600"><ele>62.4</ele></trkpt>
    <trkpt lat="48.341122" lon="-4.630698"><ele>62.0</ele></trkpt>
    <trkpt lat="48.341117" lon="-4.630812"><ele>61.8</ele></trkpt>
    <trkpt lat="48.341205" lon="-4.630900"><ele>62.0</ele></trkpt>
    <trkpt lat="48.341333" lon="-4.630938"><ele>62.2</ele></trkpt>
    <trkpt lat="48.341810" lon="-4.630788"><ele>64.6</ele></trkpt>
    <trkpt lat="48.342187" lon="-4.630853"><ele>61.6</ele></trkpt>
    <trkpt lat="48.342237" lon="-4.630918"><ele>61.0</ele></trkpt>
    <trkpt lat="48.342258" lon="-4.631190"><ele>59.2</ele></trkpt>
    <trkpt lat="48.342307" lon="-4.631310"><ele>58.4</ele></trkpt>
    <trkpt lat="48.342393" lon="-4.631457"><ele>57.4</ele></trkpt>
    <trkpt lat="48.342510" lon="-4.631568"><ele>56.0</ele></trkpt>
    <trkpt lat="48.342740" lon="-4.631695"><ele>52.6</ele></trkpt>
    <trkpt lat="48.343012" lon="-4.631933"><ele>46.4</ele></trkpt>
    <trkpt lat="48.343548" lon="-4.632067"><ele>39.6</ele></trkpt>
    <trkpt lat="48.343723" lon="-4.632350"><ele>36.8</ele></trkpt>
    <trkpt lat="48.343972" lon="-4.632342"><ele>32.0</ele></trkpt>
    <trkpt lat="48.344090" lon="-4.632398"><ele>29.0</ele></trkpt>
    <trkpt lat="48.344140" lon="-4.632513"><ele>27.4</ele></trkpt>
    <trkpt lat="48.344140" lon="-4.632662"><ele>26.0</ele></trkpt>
    <trkpt lat="48.343975" lon="-4.632758"><ele>26.4</ele></trkpt>
    <trkpt lat="48.343882" lon="-4.632865"><ele>27.8</ele></trkpt>
    <trkpt lat="48.343687" lon="-4.633160"><ele>31.4</ele></trkpt>
    <trkpt lat="48.343668" lon="-4.633245"><ele>31.8</ele></trkpt>
    <trkpt lat="48.343515" lon="-4.633447"><ele>32.6</ele></trkpt>
    <trkpt lat="48.342947" lon="-4.633895"><ele>31.8</ele></trkpt>
    <trkpt lat="48.342897" lon="-4.634253"><ele>35.8</ele></trkpt>
    <trkpt lat="48.342995" lon="-4.634550"><ele>42.4</ele></trkpt>
    <trkpt lat="48.343047" lon="-4.634920"><ele>47.6</ele></trkpt>
    <trkpt lat="48.343252" lon="-4.635238"><ele>48.4</ele></trkpt>
    <trkpt lat="48.343382" lon="-4.635533"><ele>46.6</ele></trkpt>
    <trkpt lat="48.343627" lon="-4.635472"><ele>46.2</ele></trkpt>
    <trkpt lat="48.343845" lon="-4.635793"><ele>46.6</ele></trkpt>
    <trkpt lat="48.344053" lon="-4.635855"><ele>46.4</ele></trkpt>
    <trkpt lat="48.344155" lon="-4.635960"><ele>47.4</ele></trkpt>
    <trkpt lat="48.344210" lon="-4.636148"><ele>47.6</ele></trkpt>
    <trkpt lat="48.344165" lon="-4.636458"><ele>45.8</ele></trkpt>
    <trkpt lat="48.344185" lon="-4.636572"><ele>44.4</ele></trkpt>
    <trkpt lat="48.344547" lon="-4.636410"><ele>45.8</ele></trkpt>
    <trkpt lat="48.344652" lon="-4.636515"><ele>46.6</ele></trkpt>
    <trkpt lat="48.344755" lon="-4.636718"><ele>46.0</ele></trkpt>
    <trkpt lat="48.344813" lon="-4.637367"><ele>46.6</ele></trkpt>
    <trkpt lat="48.344953" lon="-4.637805"><ele>44.4</ele></trkpt>
    <trkpt lat="48.344985" lon="-4.638273"><ele>43.2</ele></trkpt>
    <trkpt lat="48.345138" lon="-4.638540"><ele>42.0</ele></trkpt>
    <trkpt lat="48.345218" lon="-4.638608"><ele>42.0</ele></trkpt>
    <trkpt lat="48.345335" lon="-4.638667"><ele>41.8</ele></trkpt>
    <trkpt lat="48.345525" lon="-4.638672"><ele>42.8</ele></trkpt>
    <trkpt lat="48.345748" lon="-4.638810"><ele>41.6</ele></trkpt>
    <trkpt lat="48.345795" lon="-4.639045"><ele>39.6</ele></trkpt>
    <trkpt lat="48.345795" lon="-4.639528"><ele>36.4</ele></trkpt>
    <trkpt lat="48.345902" lon="-4.639797"><ele>34.2</ele></trkpt>
    <trkpt lat="48.345985" lon="-4.639875"><ele>33.4</ele></trkpt>
    <trkpt lat="48.346112" lon="-4.639908"><ele>33.0</ele></trkpt>
    <trkpt lat="48.346392" lon="-4.639923"><ele>31.8</ele></trkpt>
    <trkpt lat="48.346760" lon="-4.639860"><ele>28.4</ele></trkpt>
    <trkpt lat="48.346977" lon="-4.639702"><ele>25.6</ele></trkpt>
    <trkpt lat="48.347307" lon="-4.639725"><ele>23.8</ele></trkpt>
    <trkpt lat="48.347610" lon="-4.639572"><ele>23.8</ele></trkpt>
    <trkpt lat="48.347700" lon="-4.639657"><ele>23.2</ele></trkpt>
    <trkpt lat="48.347710" lon="-4.639737"><ele>23.2</ele></trkpt>
    <trkpt lat="48.347533" lon="-4.639923"><ele>22.0</ele></trkpt>
    <trkpt lat="48.347290" lon="-4.640303"><ele>23.2</ele></trkpt>
    <trkpt lat="48.346987" lon="-4.640498"><ele>26.6</ele></trkpt>
    <trkpt lat="48.346833" lon="-4.640535"><ele>26.0</ele></trkpt>
    <trkpt lat="48.346252" lon="-4.641040"><ele>25.2</ele></trkpt>
    <trkpt lat="48.345677" lon="-4.641877"><ele>26.6</ele></trkpt>
    <trkpt lat="48.345583" lon="-4.642093"><ele>27.6</ele></trkpt>
    <trkpt lat="48.345552" lon="-4.642248"><ele>28.8</ele></trkpt>
    <trkpt lat="48.345520" lon="-4.642605"><ele>32.6</ele></trkpt>
    <trkpt lat="48.345537" lon="-4.642702"><ele>33.8</ele></trkpt>
    <trkpt lat="48.345603" lon="-4.642752"><ele>35.0</ele></trkpt>
    <trkpt lat="48.345783" lon="-4.642743"><ele>40.6</ele></trkpt>
    <trkpt lat="48.345990" lon="-4.642925"><ele>44.0</ele></trkpt>
    <trkpt lat="48.346242" lon="-4.643267"><ele>50.4</ele></trkpt>
    <trkpt lat="48.346270" lon="-4.643638"><ele>56.4</ele></trkpt>
    <trkpt lat="48.346225" lon="-4.643887"><ele>58.0</ele></trkpt>
    <trkpt lat="48.345933" lon="-4.643990"><ele>59.4</ele></trkpt>
    <trkpt lat="48.345785" lon="-4.644085"><ele>58.8</ele></trkpt>
    <trkpt lat="48.345715" lon="-4.644177"><ele>57.4</ele></trkpt>
    <trkpt lat="48.345660" lon="-4.644348"><ele>56.4</ele></trkpt>
    <trkpt lat="48.345725" lon="-4.645018"><ele>54.0</ele></trkpt>
    <trkpt lat="48.345612" lon="-4.645483"><ele>55.0</ele></trkpt>
    <trkpt lat="48.345750" lon="-4.645810"><ele>56.4</ele></trkpt>
    <trkpt lat="48.345678" lon="-4.646163"><ele>54.6</ele></trkpt>
    <trkpt lat="48.345882" lon="-4.646777"><ele>54.2</ele></trkpt>
    <trkpt lat="48.345917" lon="-4.646992"><ele>54.2</ele></trkpt>
    <trkpt lat="48.345890" lon="-4.647120"><ele>55.0</ele></trkpt>
    <trkpt lat="48.345670" lon="-4.647537"><ele>53.8</ele></trkpt>
    <trkpt lat="48.345635" lon="-4.647665"><ele>53.4</ele></trkpt>
    <trkpt lat="48.345642" lon="-4.647842"><ele>53.0</ele></trkpt>
    <trkpt lat="48.345733" lon="-4.648352"><ele>52.0</ele></trkpt>
    <trkpt lat="48.345838" lon="-4.648475"><ele>52.8</ele></trkpt>
    <trkpt lat="48.345987" lon="-4.648770"><ele>53.6</ele></trkpt>
    <trkpt lat="48.346180" lon="-4.649422"><ele>58.2</ele></trkpt>
    <trkpt lat="48.346153" lon="-4.649587"><ele>58.4</ele></trkpt>
    <trkpt lat="48.345982" lon="-4.650030"><ele>54.2</ele></trkpt>
    <trkpt lat="48.345807" lon="-4.650350"><ele>50.0</ele></trkpt>
    <trkpt lat="48.345785" lon="-4.650490"><ele>48.8</ele></trkpt>
    <trkpt lat="48.345805" lon="-4.650638"><ele>47.4</ele></trkpt>
    <trkpt lat="48.345957" lon="-4.650872"><ele>45.0</ele></trkpt>
    <trkpt lat="48.346042" lon="-4.651260"><ele>43.0</ele></trkpt>
    <trkpt lat="48.346367" lon="-4.651607"><ele>42.8</ele></trkpt>
    <trkpt lat="48.346393" lon="-4.651745"><ele>44.2</ele></trkpt>
    <trkpt lat="48.346373" lon="-4.651938"><ele>46.2</ele></trkpt>
    <trkpt lat="48.346493" lon="-4.652247"><ele>47.6</ele></trkpt>
    <trkpt lat="48.346648" lon="-4.652443"><ele>48.4</ele></trkpt>
    <trkpt lat="48.346862" lon="-4.652623"><ele>50.0</ele></trkpt>
    <trkpt lat="48.346915" lon="-4.652722"><ele>52.4</ele></trkpt>
    <trkpt lat="48.347015" lon="-4.653088"><ele>55.2</ele></trkpt>
    <trkpt lat="48.347253" lon="-4.653423"><ele>54.4</ele></trkpt>
    <trkpt lat="48.347568" lon="-4.653708"><ele>53.2</ele></trkpt>
    <trkpt lat="48.347780" lon="-4.653793"><ele>52.8</ele></trkpt>
    <trkpt lat="48.347977" lon="-4.653807"><ele>52.6</ele></trkpt>
    <trkpt lat="48.348150" lon="-4.653690"><ele>52.4</ele></trkpt>
    <trkpt lat="48.348237" lon="-4.653680"><ele>52.0</ele></trkpt>
    <trkpt lat="48.348450" lon="-4.653995"><ele>46.8</ele></trkpt>
    <trkpt lat="48.348520" lon="-4.654158"><ele>45.2</ele></trkpt>
    <trkpt lat="48.348617" lon="-4.654543"><ele>44.0</ele></trkpt>
    <trkpt lat="48.348857" lon="-4.654850"><ele>43.6</ele></trkpt>
    <trkpt lat="48.348973" lon="-4.655167"><ele>39.6</ele></trkpt>
    <trkpt lat="48.349007" lon="-4.655457"><ele>41.2</ele></trkpt>
    <trkpt lat="48.348883" lon="-4.655850"><ele>42.8</ele></trkpt>
    <trkpt lat="48.348922" lon="-4.656287"><ele>42.8</ele></trkpt>
    <trkpt lat="48.348972" lon="-4.656372"><ele>42.8</ele></trkpt>
    <trkpt lat="48.349195" lon="-4.656455"><ele>45.2</ele></trkpt>
    <trkpt lat="48.349280" lon="-4.656545"><ele>45.8</ele></trkpt>
    <trkpt lat="48.349375" lon="-4.656735"><ele>45.6</ele></trkpt>
    <trkpt lat="48.349435" lon="-4.656947"><ele>44.6</ele></trkpt>
    <trkpt lat="48.349545" lon="-4.657647"><ele>39.4</ele></trkpt>
    <trkpt lat="48.349707" lon="-4.657812"><ele>37.4</ele></trkpt>
    <trkpt lat="48.349843" lon="-4.658062"><ele>36.0</ele></trkpt>
    <trkpt lat="48.350020" lon="-4.658187"><ele>34.8</ele></trkpt>
    <trkpt lat="48.350112" lon="-4.658308"><ele>33.4</ele></trkpt>
    <trkpt lat="48.350393" lon="-4.658793"><ele>31.4</ele></trkpt>
    <trkpt lat="48.350483" lon="-4.659202"><ele>29.4</ele></trkpt>
    <trkpt lat="48.350432" lon="-4.659522"><ele>27.0</ele></trkpt>
    <trkpt lat="48.350443" lon="-4.659615"><ele>26.6</ele></trkpt>
    <trkpt lat="48.350748" lon="-4.660048"><ele>27.2</ele></trkpt>
    <trkpt lat="48.350795" lon="-4.660195"><ele>28.0</ele></trkpt>
    <trkpt lat="48.350812" lon="-4.660460"><ele>27.4</ele></trkpt>
    <trkpt lat="48.350888" lon="-4.660577"><ele>27.2</ele></trkpt>
    <trkpt lat="48.350977" lon="-4.660640"><ele>28.2</ele></trkpt>
    <trkpt lat="48.351003" lon="-4.660845"><ele>20.0</ele></trkpt>
    <trkpt lat="48.350960" lon="-4.661065"><ele>22.0</ele></trkpt>
    <trkpt lat="48.350962" lon="-4.661472"><ele>27.4</ele></trkpt>
    <trkpt lat="48.351017" lon="-4.661537"><ele>28.2</ele></trkpt>
    <trkpt lat="48.351088" lon="-4.661503"><ele>30.8</ele></trkpt>
    <trkpt lat="48.351207" lon="-4.661838"><ele>33.4</ele></trkpt>
    <trkpt lat="48.351308" lon="-4.662027"><ele>32.8</ele></trkpt>
    <trkpt lat="48.351555" lon="-4.662310"><ele>33.0</ele></trkpt>
    <trkpt lat="48.351668" lon="-4.662558"><ele>34.0</ele></trkpt>
    <trkpt lat="48.351810" lon="-4.662670"><ele>34.2</ele></trkpt>
    <trkpt lat="48.352687" lon="-4.662807"><ele>37.2</ele></trkpt>
    <trkpt lat="48.353667" lon="-4.662678"><ele>44.8</ele></trkpt>
    <trkpt lat="48.353908" lon="-4.662705"><ele>45.4</ele></trkpt>
    <trkpt lat="48.353930" lon="-4.662797"><ele>45.4</ele></trkpt>
    <trkpt lat="48.353885" lon="-4.663000"><ele>44.6</ele></trkpt>
    <trkpt lat="48.353580" lon="-4.663840"><ele>42.0</ele></trkpt>
    <trkpt lat="48.353307" lon="-4.664820"><ele>38.0</ele></trkpt>
    <trkpt lat="48.353173" lon="-4.666643"><ele>26.0</ele></trkpt>
    <trkpt lat="48.353205" lon="-4.666748"><ele>25.4</ele></trkpt>
    <trkpt lat="48.353965" lon="-4.666513"><ele>37.0</ele></trkpt>
    <trkpt lat="48.354140" lon="-4.666648"><ele>38.0</ele></trkpt>
    <trkpt lat="48.354902" lon="-4.666627"><ele>35.8</ele></trkpt>
    <trkpt lat="48.354993" lon="-4.666582"><ele>35.8</ele></trkpt>
    <trkpt lat="48.355188" lon="-4.666297"><ele>45.4</ele></trkpt>
    <trkpt lat="48.355452" lon="-4.666127"><ele>46.8</ele></trkpt>
    <trkpt lat="48.355605" lon="-4.665943"><ele>46.2</ele></trkpt>
    <trkpt lat="48.355870" lon="-4.665935"><ele>48.6</ele></trkpt>
    <trkpt lat="48.356047" lon="-4.665838"><ele>50.2</ele></trkpt>
    <trkpt lat="48.356532" lon="-4.665732"><ele>52.6</ele></trkpt>
    <trkpt lat="48.356812" lon="-4.665732"><ele>51.2</ele></trkpt>
    <trkpt lat="48.356878" lon="-4.665645"><ele>51.2</ele></trkpt>
    <trkpt lat="48.356992" lon="-4.665357"><ele>50.2</ele></trkpt>
    <trkpt lat="48.357028" lon="-4.665103"><ele>49.6</ele></trkpt>
    <trkpt lat="48.356988" lon="-4.664848"><ele>50.0</ele></trkpt>
    <trkpt lat="48.357062" lon="-4.664703"><ele>50.4</ele></trkpt>
    <trkpt lat="48.357548" lon="-4.664530"><ele>52.6</ele></trkpt>
    <trkpt lat="48.357785" lon="-4.664362"><ele>54.8</ele></trkpt>
    <trkpt lat="48.358143" lon="-4.664420"><ele>55.6</ele></trkpt>
    <trkpt lat="48.358337" lon="-4.664262"><ele>55.2</ele></trkpt>
    <trkpt lat="48.358978" lon="-4.663948"><ele>56.0</ele></trkpt>
    <trkpt lat="48.359730" lon="-4.662835"><ele>62.2</ele></trkpt>
    <trkpt lat="48.359818" lon="-4.662752"><ele>62.8</ele></trkpt>
    <trkpt lat="48.359993" lon="-4.662427"><ele>64.0</ele></trkpt>
    <trkpt lat="48.360148" lon="-4.662220"><ele>65.0</ele></trkpt>
    <trkpt lat="48.360175" lon="-4.662067"><ele>65.6</ele></trkpt>
    <trkpt lat="48.360122" lon="-4.661707"><ele>68.8</ele></trkpt>
    <trkpt lat="48.360198" lon="-4.661525"><ele>70.0</ele></trkpt>
    <trkpt lat="48.360663" lon="-4.660912"><ele>72.2</ele></trkpt>
    <trkpt lat="48.361490" lon="-4.660220"><ele>71.6</ele></trkpt>
    <trkpt lat="48.361575" lon="-4.660090"><ele>71.6</ele></trkpt>
    <trkpt lat="48.361560" lon="-4.659955"><ele>71.8</ele></trkpt>
    <trkpt lat="48.361437" lon="-4.659712"><ele>73.0</ele></trkpt>
    <trkpt lat="48.361190" lon="-4.659017"><ele>76.0</ele></trkpt>
    <trkpt lat="48.360970" lon="-4.658555"><ele>76.4</ele></trkpt>
    <trkpt lat="48.360615" lon="-4.657940"><ele>76.2</ele></trkpt>
    <trkpt lat="48.360570" lon="-4.657777"><ele>76.2</ele></trkpt>
    <trkpt lat="48.360527" lon="-4.657350"><ele>76.4</ele></trkpt>
    <trkpt lat="48.360553" lon="-4.657190"><ele>75.8</ele></trkpt>
    <trkpt lat="48.360632" lon="-4.657045"><ele>75.6</ele></trkpt>
    <trkpt lat="48.361462" lon="-4.656428"><ele>75.4</ele></trkpt>
    <trkpt lat="48.361728" lon="-4.656348"><ele>74.8</ele></trkpt>
    <trkpt lat="48.362338" lon="-4.656332"><ele>75.0</ele></trkpt>
    <trkpt lat="48.362473" lon="-4.656273"><ele>75.2</ele></trkpt>
    <trkpt lat="48.362570" lon="-4.656093"><ele>75.4</ele></trkpt>
    <trkpt lat="48.362747" lon="-4.655288"><ele>77.4</ele></trkpt>
    <trkpt lat="48.362965" lon="-4.655100"><ele>78.4</ele></trkpt>
    <trkpt lat="48.363493" lon="-4.654918"><ele>79.0</ele></trkpt>
    <trkpt lat="48.363918" lon="-4.654830"><ele>78.4</ele></trkpt>
    <trkpt lat="48.364182" lon="-4.654708"><ele>77.6</ele></trkpt>
    <trkpt lat="48.365160" lon="-4.654152"><ele>76.0</ele></trkpt>
    <trkpt lat="48.365582" lon="-4.653832"><ele>74.8</ele></trkpt>
    <trkpt lat="48.365985" lon="-4.653423"><ele>75.6</ele></trkpt>
    <trkpt lat="48.366192" lon="-4.653377"><ele>75.2</ele></trkpt>
    <trkpt lat="48.366637" lon="-4.653367"><ele>74.0</ele></trkpt>
    <trkpt lat="48.366957" lon="-4.653008"><ele>75.0</ele></trkpt>
    <trkpt lat="48.367372" lon="-4.652852"><ele>76.4</ele></trkpt>
    <trkpt lat="48.367507" lon="-4.652553"><ele>76.2</ele></trkpt>
    <trkpt lat="48.367683" lon="-4.651927"><ele>76.8</ele></trkpt>
    <trkpt lat="48.367780" lon="-4.651690"><ele>76.8</ele></trkpt>
    <trkpt lat="48.367968" lon="-4.651375"><ele>76.6</ele></trkpt>
    <trkpt lat="48.368612" lon="-4.650640"><ele>75.6</ele></trkpt>
    <trkpt lat="48.368783" lon="-4.650300"><ele>76.0</ele></trkpt>
    <trkpt lat="48.368837" lon="-4.650082"><ele>76.2</ele></trkpt>
    <trkpt lat="48.368913" lon="-4.649542"><ele>73.6</ele></trkpt>
    <trkpt lat="48.368985" lon="-4.649403"><ele>65.2</ele></trkpt>
    <trkpt lat="48.368916" lon="-4.649426"><ele>65.4</ele></trkpt>
    <trkpt lat="48.368838" lon="-4.648639"><ele>64.1</ele></trkpt>
    <trkpt lat="48.368580" lon="-4.647765"><ele>63.5</ele></trkpt>
    <trkpt lat="48.368638" lon="-4.647616"><ele>63.0</ele></trkpt>
    <trkpt lat="48.368949" lon="-4.647405"><ele>61.3</ele></trkpt>
    <trkpt lat="48.369046" lon="-4.647190"><ele>60.3</ele></trkpt>
    <trkpt lat="48.369078" lon="-4.646644"><ele>59.0</ele></trkpt>
    <trkpt lat="48.369229" lon="-4.646111"><ele>57.9</ele></trkpt>
    <trkpt lat="48.369272" lon="-4.645672"><ele>57.3</ele></trkpt>
    <trkpt lat="48.369283" lon="-4.645384"><ele>57.2</ele></trkpt>
    <trkpt lat="48.369240" lon="-4.645100"><ele>57.6</ele></trkpt>
    <trkpt lat="48.369400" lon="-4.644461"><ele>58.1</ele></trkpt>
    <trkpt lat="48.369492" lon="-4.644248"><ele>57.8</ele></trkpt>
    <trkpt lat="48.369637" lon="-4.643531"><ele>58.4</ele></trkpt>
    <trkpt lat="48.369648" lon="-4.643161"><ele>59.5</ele></trkpt>
    <trkpt lat="48.369713" lon="-4.642868"><ele>60.0</ele></trkpt>
    <trkpt lat="48.369687" lon="-4.642481"><ele>60.7</ele></trkpt>
    <trkpt lat="48.369617" lon="-4.642143"><ele>60.4</ele></trkpt>
    <trkpt lat="48.369765" lon="-4.641639"><ele>60.3</ele></trkpt>
    <trkpt lat="48.369839" lon="-4.641563"><ele>60.2</ele></trkpt>
    <trkpt lat="48.369870" lon="-4.641462"><ele>60.0</ele></trkpt>
    <trkpt lat="48.369887" lon="-4.641188"><ele>60.0</ele></trkpt>
    <trkpt lat="48.370043" lon="-4.640741"><ele>60.0</ele></trkpt>
  </trkseg></trk>
</gpx>
