<?xml version="1.0" encoding="UTF-8"?>
<gpx version="1.1" creator="tcap-parcours" xmlns="http://www.topografix.com/GPX/1/1">
  <metadata><name>ar-sainte-anne-portzic-2</name></metadata>
  <trk><name>ar-sainte-anne-portzic-2</name><trkseg>
    <trkpt lat="48.370044" lon="-4.640701"><ele>60.0</ele></trkpt>
    <trkpt lat="48.370042" lon="-4.640779"><ele>60.0</ele></trkpt>
    <trkpt lat="48.369887" lon="-4.641188"><ele>60.0</ele></trkpt>
    <trkpt lat="48.369870" lon="-4.641462"><ele>60.0</ele></trkpt>
    <trkpt lat="48.369839" lon="-4.641563"><ele>60.2</ele></trkpt>
    <trkpt lat="48.369765" lon="-4.641639"><ele>60.3</ele></trkpt>
    <trkpt lat="48.369617" lon="-4.642143"><ele>60.4</ele></trkpt>
    <trkpt lat="48.369687" lon="-4.642481"><ele>60.7</ele></trkpt>
    <trkpt lat="48.369713" lon="-4.642868"><ele>60.0</ele></trkpt>
    <trkpt lat="48.369648" lon="-4.643161"><ele>59.5</ele></trkpt>
    <trkpt lat="48.369637" lon="-4.643531"><ele>58.4</ele></trkpt>
    <trkpt lat="48.369492" lon="-4.644248"><ele>57.8</ele></trkpt>
    <trkpt lat="48.369400" lon="-4.644461"><ele>58.1</ele></trkpt>
    <trkpt lat="48.369240" lon="-4.645100"><ele>57.6</ele></trkpt>
    <trkpt lat="48.369283" lon="-4.645384"><ele>57.2</ele></trkpt>
    <trkpt lat="48.369272" lon="-4.645672"><ele>57.3</ele></trkpt>
    <trkpt lat="48.369229" lon="-4.646111"><ele>57.9</ele></trkpt>
    <trkpt lat="48.369078" lon="-4.646644"><ele>59.0</ele></trkpt>
    <trkpt lat="48.369046" lon="-4.647190"><ele>60.3</ele></trkpt>
    <trkpt lat="48.368949" lon="-4.647405"><ele>61.3</ele></trkpt>
    <trkpt lat="48.368638" lon="-4.647616"><ele>63.0</ele></trkpt>
    <trkpt lat="48.368580" lon="-4.647765"><ele>63.5</ele></trkpt>
    <trkpt lat="48.368838" lon="-4.648639"><ele>64.1</ele></trkpt>
    <trkpt lat="48.368895" lon="-4.649293"><ele>65.1</ele></trkpt>
    <trkpt lat="48.368940" lon="-4.649452"><ele>68.2</ele></trkpt>
    <trkpt lat="48.368877" lon="-4.649538"><ele>67.6</ele></trkpt>
    <trkpt lat="48.368818" lon="-4.650158"><ele>67.0</ele></trkpt>
    <trkpt lat="48.368575" lon="-4.650660"><ele>68.2</ele></trkpt>
    <trkpt lat="48.367893" lon="-4.651427"><ele>70.2</ele></trkpt>
    <trkpt lat="48.367798" lon="-4.651590"><ele>70.4</ele></trkpt>
    <trkpt lat="48.367533" lon="-4.652450"><ele>70.4</ele></trkpt>
    <trkpt lat="48.367352" lon="-4.652860"><ele>71.0</ele></trkpt>
    <trkpt lat="48.367273" lon="-4.652938"><ele>71.2</ele></trkpt>
    <trkpt lat="48.367048" lon="-4.652965"><ele>72.6</ele></trkpt>
    <trkpt lat="48.366905" lon="-4.653030"><ele>73.2</ele></trkpt>
    <trkpt lat="48.366602" lon="-4.653393"><ele>73.4</ele></trkpt>
    <trkpt lat="48.365933" lon="-4.653448"><ele>73.6</ele></trkpt>
    <trkpt lat="48.365483" lon="-4.653915"><ele>74.2</ele></trkpt>
    <trkpt lat="48.364178" lon="-4.654747"><ele>75.8</ele></trkpt>
    <trkpt lat="48.363753" lon="-4.654918"><ele>75.4</ele></trkpt>
    <trkpt lat="48.363360" lon="-4.654987"><ele>75.0</ele></trkpt>
    <trkpt lat="48.362862" lon="-4.655145"><ele>76.0</ele></trkpt>
    <trkpt lat="48.362757" lon="-4.655267"><ele>75.8</ele></trkpt>
    <trkpt lat="48.362578" lon="-4.656060"><ele>73.8</ele></trkpt>
    <trkpt lat="48.362440" lon="-4.656297"><ele>73.2</ele></trkpt>
    <trkpt lat="48.362295" lon="-4.656370"><ele>73.2</ele></trkpt>
    <trkpt lat="48.361867" lon="-4.656392"><ele>73.0</ele></trkpt>
    <trkpt lat="48.361332" lon="-4.656540"><ele>73.0</ele></trkpt>
    <trkpt lat="48.361030" lon="-4.656712"><ele>73.4</ele></trkpt>
    <trkpt lat="48.360608" lon="-4.657058"><ele>72.6</ele></trkpt>
    <trkpt lat="48.360560" lon="-4.657192"><ele>72.2</ele></trkpt>
    <trkpt lat="48.360543" lon="-4.657385"><ele>72.0</ele></trkpt>
    <trkpt lat="48.360628" lon="-4.657867"><ele>72.2</ele></trkpt>
    <trkpt lat="48.361202" lon="-4.659020"><ele>72.4</ele></trkpt>
    <trkpt lat="48.361542" lon="-4.660000"><ele>71.6</ele></trkpt>
    <trkpt lat="48.361545" lon="-4.660137"><ele>71.4</ele></trkpt>
    <trkpt lat="48.360980" lon="-4.660660"><ele>70.2</ele></trkpt>
    <trkpt lat="48.360677" lon="-4.660860"><ele>70.0</ele></trkpt>
    <trkpt lat="48.360305" lon="-4.661350"><ele>68.2</ele></trkpt>
    <trkpt lat="48.360147" lon="-4.661635"><ele>67.2</ele></trkpt>
    <trkpt lat="48.360130" lon="-4.661788"><ele>66.8</ele></trkpt>
    <trkpt lat="48.360173" lon="-4.662087"><ele>66.2</ele></trkpt>
    <trkpt lat="48.360117" lon="-4.662273"><ele>65.4</ele></trkpt>
    <trkpt lat="48.359920" lon="-4.662587"><ele>64.2</ele></trkpt>
    <trkpt lat="48.359662" lon="-4.662902"><ele>62.8</ele></trkpt>
    <trkpt lat="48.358937" lon="-4.664020"><ele>58.2</ele></trkpt>
    <trkpt lat="48.358107" lon="-4.664435"><ele>57.0</ele></trkpt>
    <trkpt lat="48.358018" lon="-4.664428"><ele>57.0</ele></trkpt>
    <trkpt lat="48.357877" lon="-4.664332"><ele>56.8</ele></trkpt>
    <trkpt lat="48.357793" lon="-4.664333"><ele>56.8</ele></trkpt>
    <trkpt lat="48.357205" lon="-4.664598"><ele>55.6</ele></trkpt>
    <trkpt lat="48.357057" lon="-4.664702"><ele>55.2</ele></trkpt>
    <trkpt lat="48.356983" lon="-4.664803"><ele>54.8</ele></trkpt>
    <trkpt lat="48.356947" lon="-4.665288"><ele>53.0</ele></trkpt>
    <trkpt lat="48.356813" lon="-4.665652"><ele>52.4</ele></trkpt>
    <trkpt lat="48.356297" lon="-4.665727"><ele>52.0</ele></trkpt>
    <trkpt lat="48.355860" lon="-4.665907"><ele>50.2</ele></trkpt>
    <trkpt lat="48.355553" lon="-4.665927"><ele>48.6</ele></trkpt>
    <trkpt lat="48.355418" lon="-4.666087"><ele>47.8</ele></trkpt>
    <trkpt lat="48.355197" lon="-4.666243"><ele>47.4</ele></trkpt>
    <trkpt lat="48.355032" lon="-4.666527"><ele>46.0</ele></trkpt>
    <trkpt lat="48.354912" lon="-4.666632"><ele>44.8</ele></trkpt>
    <trkpt lat="48.354490" lon="-4.666707"><ele>41.2</ele></trkpt>
    <trkpt lat="48.354235" lon="-4.666672"><ele>39.0</ele></trkpt>
    <trkpt lat="48.354092" lon="-4.666593"><ele>37.6</ele></trkpt>
    <trkpt lat="48.353877" lon="-4.666552"><ele>34.4</ele></trkpt>
    <trkpt lat="48.353582" lon="-4.666677"><ele>29.0</ele></trkpt>
    <trkpt lat="48.353208" lon="-4.666768"><ele>21.0</ele></trkpt>
    <trkpt lat="48.353165" lon="-4.666723"><ele>20.0</ele></trkpt>
    <trkpt lat="48.353153" lon="-4.666593"><ele>19.4</ele></trkpt>
    <trkpt lat="48.353310" lon="-4.664715"><ele>30.2</ele></trkpt>
    <trkpt lat="48.353555" lon="-4.663887"><ele>36.0</ele></trkpt>
    <trkpt lat="48.353850" lon="-4.663037"><ele>39.2</ele></trkpt>
    <trkpt lat="48.353910" lon="-4.662687"><ele>40.2</ele></trkpt>
    <trkpt lat="48.353712" lon="-4.662667"><ele>41.0</ele></trkpt>
    <trkpt lat="48.352757" lon="-4.662875"><ele>35.2</ele></trkpt>
    <trkpt lat="48.352558" lon="-4.662880"><ele>33.4</ele></trkpt>
    <trkpt lat="48.351843" lon="-4.662748"><ele>31.4</ele></trkpt>
    <trkpt lat="48.351678" lon="-4.662615"><ele>30.4</ele></trkpt>
    <trkpt lat="48.351548" lon="-4.662333"><ele>30.0</ele></trkpt>
    <trkpt lat="48.351302" lon="-4.662000"><ele>28.6</ele></trkpt>
    <trkpt lat="48.351127" lon="-4.661523"><ele>28.6</ele></trkpt>
    <trkpt lat="48.351093" lon="-4.661488"><ele>28.4</ele></trkpt>
    <trkpt lat="48.351023" lon="-4.661520"><ele>28.0</ele></trkpt>
    <trkpt lat="48.350960" lon="-4.661492"><ele>26.2</ele></trkpt>
    <trkpt lat="48.350978" lon="-4.661038"><ele>24.0</ele></trkpt>
    <trkpt lat="48.351035" lon="-4.660762"><ele>23.4</ele></trkpt>
    <trkpt lat="48.350813" lon="-4.660420"><ele>20.6</ele></trkpt>
    <trkpt lat="48.350810" lon="-4.660157"><ele>18.6</ele></trkpt>
    <trkpt lat="48.350772" lon="-4.660030"><ele>18.8</ele></trkpt>
    <trkpt lat="48.350465" lon="-4.659560"><ele>16.4</ele></trkpt>
    <trkpt lat="48.350513" lon="-4.659103"><ele>17.8</ele></trkpt>
    <trkpt lat="48.350428" lon="-4.658777"><ele>20.2</ele></trkpt>
    <trkpt lat="48.350345" lon="-4.658592"><ele>21.8</ele></trkpt>
    <trkpt lat="48.350132" lon="-4.658303"><ele>22.8</ele></trkpt>
    <trkpt lat="48.350000" lon="-4.658140"><ele>25.0</ele></trkpt>
    <trkpt lat="48.349838" lon="-4.658022"><ele>27.0</ele></trkpt>
    <trkpt lat="48.349735" lon="-4.657798"><ele>27.2</ele></trkpt>
    <trkpt lat="48.349538" lon="-4.657618"><ele>27.0</ele></trkpt>
    <trkpt lat="48.349500" lon="-4.657515"><ele>27.4</ele></trkpt>
    <trkpt lat="48.349432" lon="-4.656943"><ele>33.4</ele></trkpt>
    <trkpt lat="48.349372" lon="-4.656703"><ele>35.8</ele></trkpt>
    <trkpt lat="48.349283" lon="-4.656513"><ele>38.0</ele></trkpt>
    <trkpt lat="48.349208" lon="-4.656442"><ele>38.4</ele></trkpt>
    <trkpt lat="48.348990" lon="-4.656372"><ele>37.4</ele></trkpt>
    <trkpt lat="48.348922" lon="-4.656287"><ele>36.4</ele></trkpt>
    <trkpt lat="48.348887" lon="-4.656142"><ele>35.4</ele></trkpt>
    <trkpt lat="48.348882" lon="-4.655938"><ele>34.8</ele></trkpt>
    <trkpt lat="48.348905" lon="-4.655730"><ele>34.2</ele></trkpt>
    <trkpt lat="48.348990" lon="-4.655410"><ele>33.6</ele></trkpt>
    <trkpt lat="48.348957" lon="-4.655098"><ele>32.0</ele></trkpt>
    <trkpt lat="48.348862" lon="-4.654848"><ele>29.6</ele></trkpt>
    <trkpt lat="48.348722" lon="-4.654708"><ele>30.4</ele></trkpt>
    <trkpt lat="48.348622" lon="-4.654520"><ele>32.6</ele></trkpt>
    <trkpt lat="48.348493" lon="-4.654037"><ele>33.8</ele></trkpt>
    <trkpt lat="48.348225" lon="-4.653665"><ele>36.0</ele></trkpt>
    <trkpt lat="48.347965" lon="-4.653797"><ele>39.0</ele></trkpt>
    <trkpt lat="48.347787" lon="-4.653793"><ele>40.0</ele></trkpt>
    <trkpt lat="48.347537" lon="-4.653693"><ele>41.4</ele></trkpt>
    <trkpt lat="48.347233" lon="-4.653413"><ele>43.2</ele></trkpt>
    <trkpt lat="48.347028" lon="-4.653125"><ele>43.0</ele></trkpt>
    <trkpt lat="48.346913" lon="-4.652678"><ele>42.6</ele></trkpt>
    <trkpt lat="48.346613" lon="-4.652373"><ele>41.0</ele></trkpt>
    <trkpt lat="48.346467" lon="-4.652158"><ele>40.6</ele></trkpt>
    <trkpt lat="48.346373" lon="-4.651882"><ele>39.6</ele></trkpt>
    <trkpt lat="48.346393" lon="-4.651687"><ele>39.0</ele></trkpt>
    <trkpt lat="48.346372" lon="-4.651595"><ele>38.6</ele></trkpt>
    <trkpt lat="48.346065" lon="-4.651225"><ele>35.8</ele></trkpt>
    <trkpt lat="48.345998" lon="-4.650878"><ele>34.6</ele></trkpt>
    <trkpt lat="48.345817" lon="-4.650590"><ele>34.2</ele></trkpt>
    <trkpt lat="48.345808" lon="-4.650452"><ele>34.6</ele></trkpt>
    <trkpt lat="48.345843" lon="-4.650277"><ele>34.8</ele></trkpt>
    <trkpt lat="48.346158" lon="-4.649567"><ele>42.8</ele></trkpt>
    <trkpt lat="48.346177" lon="-4.649410"><ele>43.8</ele></trkpt>
    <trkpt lat="48.346018" lon="-4.648788"><ele>42.2</ele></trkpt>
    <trkpt lat="48.345855" lon="-4.648448"><ele>41.0</ele></trkpt>
    <trkpt lat="48.345733" lon="-4.648283"><ele>39.6</ele></trkpt>
    <trkpt lat="48.345657" lon="-4.647728"><ele>38.0</ele></trkpt>
    <trkpt lat="48.345665" lon="-4.647590"><ele>38.2</ele></trkpt>
    <trkpt lat="48.345718" lon="-4.647425"><ele>38.4</ele></trkpt>
    <trkpt lat="48.345888" lon="-4.647112"><ele>41.8</ele></trkpt>
    <trkpt lat="48.345922" lon="-4.646862"><ele>45.0</ele></trkpt>
    <trkpt lat="48.345706" lon="-4.646213"><ele>46.6</ele></trkpt>
    <trkpt lat="48.345706" lon="-4.645888"><ele>49.4</ele></trkpt>
    <trkpt lat="48.345598" lon="-4.645564"><ele>49.0</ele></trkpt>
    <trkpt lat="48.345612" lon="-4.645483"><ele>55.0</ele></trkpt>
    <trkpt lat="48.345750" lon="-4.645810"><ele>56.4</ele></trkpt>
    <trkpt lat="48.345678" lon="-4.646163"><ele>54.6</ele></trkpt>
    <trkpt lat="48.345882" lon="-4.646777"><ele>54.2</ele></trkpt>
    <trkpt lat="48.345917" lon="-4.646992"><ele>54.2</ele></trkpt>
    <trkpt lat="48.345890" lon="-4.647120"><ele>55.0</ele></trkpt>
    <trkpt lat="48.345670" lon="-4.647537"><ele>53.8</ele></trkpt>
    <trkpt lat="48.345635" lon="-4.647665"><ele>53.4</ele></trkpt>
    <trkpt lat="48.345642" lon="-4.647842"><ele>53.0</ele></trkpt>
    <trkpt lat="48.345733" lon="-4.648352"><ele>52.0</ele></trkpt>
    <trkpt lat="48.345838" lon="-4.648475"><ele>52.8</ele></trkpt>
    <trkpt lat="48.345987" lon="-4.648770"><ele>53.6</ele></trkpt>
    <trkpt lat="48.346180" lon="-4.649422"><ele>58.2</ele></trkpt>
    <trkpt lat="48.346153" lon="-4.649587"><ele>58.4</ele></trkpt>
    <trkpt lat="48.345982" lon="-4.650030"><ele>54.2</ele></trkpt>
    <trkpt lat="48.345807" lon="-4.650350"><ele>50.0</ele></trkpt>
    <trkpt lat="48.345785" lon="-4.650490"><ele>48.8</ele></trkpt>
    <trkpt lat="48.345805" lon="-4.650638"><ele>47.4</ele></trkpt>
    <trkpt lat="48.345957" lon="-4.650872"><ele>45.0</ele></trkpt>
    <trkpt lat="48.346042" lon="-4.651260"><ele>43.0</ele></trkpt>
    <trkpt lat="48.346367" lon="-4.651607"><ele>42.8</ele></trkpt>
    <trkpt lat="48.346393" lon="-4.651745"><ele>44.2</ele></trkpt>
    <trkpt lat="48.346373" lon="-4.651938"><ele>46.2</ele></trkpt>
    <trkpt lat="48.346493" lon="-4.652247"><ele>47.6</ele></trkpt>
    <trkpt lat="48.346648" lon="-4.652443"><ele>48.4</ele></trkpt>
    <trkpt lat="48.346862" lon="-4.652623"><ele>50.0</ele></trkpt>
    <trkpt lat="48.346915" lon="-4.652722"><ele>52.4</ele></trkpt>
    <trkpt lat="48.347015" lon="-4.653088"><ele>55.2</ele></trkpt>
    <trkpt lat="48.347253" lon="-4.653423"><ele>54.4</ele></trkpt>
    <trkpt lat="48.347568" lon="-4.653708"><ele>53.2</ele></trkpt>
    <trkpt lat="48.347780" lon="-4.653793"><ele>52.8</ele></trkpt>
    <trkpt lat="48.347977" lon="-4.653807"><ele>52.6</ele></trkpt>
    <trkpt lat="48.348150" lon="-4.653690"><ele>52.4</ele></trkpt>
    <trkpt lat="48.348237" lon="-4.653680"><ele>52.0</ele></trkpt>
    <trkpt lat="48.348450" lon="-4.653995"><ele>46.8</ele></trkpt>
    <trkpt lat="48.348520" lon="-4.654158"><ele>45.2</ele></trkpt>
    <trkpt lat="48.348617" lon="-4.654543"><ele>44.0</ele></trkpt>
    <trkpt lat="48.348857" lon="-4.654850"><ele>43.6</ele></trkpt>
    <trkpt lat="48.348973" lon="-4.655167"><ele>39.6</ele></trkpt>
    <trkpt lat="48.349007" lon="-4.655457"><ele>41.2</ele></trkpt>
    <trkpt lat="48.348883" lon="-4.655850"><ele>42.8</ele></trkpt>
    <trkpt lat="48.348922" lon="-4.656287"><ele>42.8</ele></trkpt>
    <trkpt lat="48.348972" lon="-4.656372"><ele>42.8</ele></trkpt>
    <trkpt lat="48.349195" lon="-4.656455"><ele>45.2</ele></trkpt>
    <trkpt lat="48.349280" lon="-4.656545"><ele>45.8</ele></trkpt>
    <trkpt lat="48.349375" lon="-4.656735"><ele>45.6</ele></trkpt>
    <trkpt lat="48.349435" lon="-4.656947"><ele>44.6</ele></trkpt>
    <trkpt lat="48.349545" lon="-4.657647"><ele>39.4</ele></trkpt>
    <trkpt lat="48.349707" lon="-4.657812"><ele>37.4</ele></trkpt>
    <trkpt lat="48.349843" lon="-4.658062"><ele>36.0</ele></trkpt>
    <trkpt lat="48.350020" lon="-4.658187"><ele>34.8</ele></trkpt>
    <trkpt lat="48.350112" lon="-4.658308"><ele>33.4</ele></trkpt>
    <trkpt lat="48.350393" lon="-4.658793"><ele>31.4</ele></trkpt>
    <trkpt lat="48.350483" lon="-4.659202"><ele>29.4</ele></trkpt>
    <trkpt lat="48.350432" lon="-4.659522"><ele>27.0</ele></trkpt>
    <trkpt lat="48.350443" lon="-4.659615"><ele>26.6</ele></trkpt>
    <trkpt lat="48.350748" lon="-4.660048"><ele>27.2</ele></trkpt>
    <trkpt lat="48.350795" lon="-4.660195"><ele>28.0</ele></trkpt>
    <trkpt lat="48.350812" lon="-4.660460"><ele>27.4</ele></trkpt>
    <trkpt lat="48.350888" lon="-4.660577"><ele>27.2</ele></trkpt>
    <trkpt lat="48.350977" lon="-4.660640"><ele>28.2</ele></trkpt>
    <trkpt lat="48.351003" lon="-4.660845"><ele>20.0</ele></trkpt>
    <trkpt lat="48.350960" lon="-4.661065"><ele>22.0</ele></trkpt>
    <trkpt lat="48.350962" lon="-4.661472"><ele>27.4</ele></trkpt>
    <trkpt lat="48.351017" lon="-4.661537"><ele>28.2</ele></trkpt>
    <trkpt lat="48.351088" lon="-4.661503"><ele>30.8</ele></trkpt>
    <trkpt lat="48.351207" lon="-4.661838"><ele>33.4</ele></trkpt>
    <trkpt lat="48.351308" lon="-4.662027"><ele>32.8</ele></trkpt>
    <trkpt lat="48.351555" lon="-4.662310"><ele>33.0</ele></trkpt>
    <trkpt lat="48.351668" lon="-4.662558"><ele>34.0</ele></trkpt>
    <trkpt lat="48.351810" lon="-4.662670"><ele>34.2</ele></trkpt>
    <trkpt lat="48.352687" lon="-4.662807"><ele>37.2</ele></trkpt>
    <trkpt lat="48.353667" lon="-4.662678"><ele>44.8</ele></trkpt>
    <trkpt lat="48.353908" lon="-4.662705"><ele>45.4</ele></trkpt>
    <trkpt lat="48.353930" lon="-4.662797"><ele>45.4</ele></trkpt>
    <trkpt lat="48.353885" lon="-4.663000"><ele>44.6</ele></trkpt>
    <trkpt lat="48.353580" lon="-4.663840"><ele>42.0</ele></trkpt>
    <trkpt lat="48.353307" lon="-4.664820"><ele>38.0</ele></trkpt>
    <trkpt lat="48.353173" lon="-4.666643"><ele>26.0</ele></trkpt>
    <trkpt lat="48.353205" lon="-4.666748"><ele>25.4</ele></trkpt>
    <trkpt lat="48.353965" lon="-4.666513"><ele>37.0</ele></trkpt>
    <trkpt lat="48.354140" lon="-4.666648"><ele>38.0</ele></trkpt>
    <trkpt lat="48.354902" lon="-4.666627"><ele>35.8</ele></trkpt>
    <trkpt lat="48.354993" lon="-4.666582"><ele>35.8</ele></trkpt>
    <trkpt lat="48.355188" lon="-4.666297"><ele>45.4</ele></trkpt>
    <trkpt lat="48.355452" lon="-4.666127"><ele>46.8</ele></trkpt>
    <trkpt lat="48.355605" lon="-4.665943"><ele>46.2</ele></trkpt>
    <trkpt lat="48.355870" lon="-4.665935"><ele>48.6</ele></trkpt>
    <trkpt lat="48.356047" lon="-4.665838"><ele>50.2</ele></trkpt>
    <trkpt lat="48.356532" lon="-4.665732"><ele>52.6</ele></trkpt>
    <trkpt lat="48.356812" lon="-4.665732"><ele>51.2</ele></trkpt>
    <trkpt lat="48.356878" lon="-4.665645"><ele>51.2</ele></trkpt>
    <trkpt lat="48.356992" lon="-4.665357"><ele>50.2</ele></trkpt>
    <trkpt lat="48.357028" lon="-4.665103"><ele>49.6</ele></trkpt>
    <trkpt lat="48.356988" lon="-4.664848"><ele>50.0</ele></trkpt>
    <trkpt lat="48.357062" lon="-4.664703"><ele>50.4</ele></trkpt>
    <trkpt lat="48.357548" lon="-4.664530"><ele>52.6</ele></trkpt>
    <trkpt lat="48.357785" lon="-4.664362"><ele>54.8</ele></trkpt>
    <trkpt lat="48.358143" lon="-4.664420"><ele>55.6</ele></trkpt>
    <trkpt lat="48.358337" lon="-4.664262"><ele>55.2</ele></trkpt>
    <trkpt lat="48.358978" lon="-4.663948"><ele>56.0</ele></trkpt>
    <trkpt lat="48.359730" lon="-4.662835"><ele>62.2</ele></trkpt>
    <trkpt lat="48.359818" lon="-4.662752"><ele>62.8</ele></trkpt>
    <trkpt lat="48.359993" lon="-4.662427"><ele>64.0</ele></trkpt>
    <trkpt lat="48.360148" lon="-4.662220"><ele>65.0</ele></trkpt>
    <trkpt lat="48.360175" lon="-4.662067"><ele>65.6</ele></trkpt>
    <trkpt lat="48.360122" lon="-4.661707"><ele>68.8</ele></trkpt>
    <trkpt lat="48.360198" lon="-4.661525"><ele>70.0</ele></trkpt>
    <trkpt lat="48.360663" lon="-4.660912"><ele>72.2</ele></trkpt>
    <trkpt lat="48.361490" lon="-4.660220"><ele>71.6</ele></trkpt>
    <trkpt lat="48.361575" lon="-4.660090"><ele>71.6</ele></trkpt>
    <trkpt lat="48.361560" lon="-4.659955"><ele>71.8</ele></trkpt>
    <trkpt lat="48.361437" lon="-4.659712"><ele>73.0</ele></trkpt>
    <trkpt lat="48.361190" lon="-4.659017"><ele>76.0</ele></trkpt>
    <trkpt lat="48.360970" lon="-4.658555"><ele>76.4</ele></trkpt>
    <trkpt lat="48.360615" lon="-4.657940"><ele>76.2</ele></trkpt>
    <trkpt lat="48.360570" lon="-4.657777"><ele>76.2</ele></trkpt>
    <trkpt lat="48.360527" lon="-4.657350"><ele>76.4</ele></trkpt>
    <trkpt lat="48.360553" lon="-4.657190"><ele>75.8</ele></trkpt>
    <trkpt lat="48.360632" lon="-4.657045"><ele>75.6</ele></trkpt>
    <trkpt lat="48.361462" lon="-4.656428"><ele>75.4</ele></trkpt>
    <trkpt lat="48.361728" lon="-4.656348"><ele>74.8</ele></trkpt>
    <trkpt lat="48.362338" lon="-4.656332"><ele>75.0</ele></trkpt>
    <trkpt lat="48.362473" lon="-4.656273"><ele>75.2</ele></trkpt>
    <trkpt lat="48.362570" lon="-4.656093"><ele>75.4</ele></trkpt>
    <trkpt lat="48.362747" lon="-4.655288"><ele>77.4</ele></trkpt>
    <trkpt lat="48.362965" lon="-4.655100"><ele>78.4</ele></trkpt>
    <trkpt lat="48.363493" lon="-4.654918"><ele>79.0</ele></trkpt>
    <trkpt lat="48.363918" lon="-4.654830"><ele>78.4</ele></trkpt>
    <trkpt lat="48.364182" lon="-4.654708"><ele>77.6</ele></trkpt>
    <trkpt lat="48.365160" lon="-4.654152"><ele>76.0</ele></trkpt>
    <trkpt lat="48.365582" lon="-4.653832"><ele>74.8</ele></trkpt>
    <trkpt lat="48.365985" lon="-4.653423"><ele>75.6</ele></trkpt>
    <trkpt lat="48.366192" lon="-4.653377"><ele>75.2</ele></trkpt>
    <trkpt lat="48.366637" lon="-4.653367"><ele>74.0</ele></trkpt>
    <trkpt lat="48.366957" lon="-4.653008"><ele>75.0</ele></trkpt>
    <trkpt lat="48.367372" lon="-4.652852"><ele>76.4</ele></trkpt>
    <trkpt lat="48.367507" lon="-4.652553"><ele>76.2</ele></trkpt>
    <trkpt lat="48.367683" lon="-4.651927"><ele>76.8</ele></trkpt>
    <trkpt lat="48.367780" lon="-4.651690"><ele>76.8</ele></trkpt>
    <trkpt lat="48.367968" lon="-4.651375"><ele>76.6</ele></trkpt>
    <trkpt lat="48.368612" lon="-4.650640"><ele>75.6</ele></trkpt>
    <trkpt lat="48.368783" lon="-4.650300"><ele>76.0</ele></trkpt>
    <trkpt lat="48.368837" lon="-4.650082"><ele>76.2</ele></trkpt>
    <trkpt lat="48.368913" lon="-4.649542"><ele>73.6</ele></trkpt>
    <trkpt lat="48.368985" lon="-4.649403"><ele>65.2</ele></trkpt>
    <trkpt lat="48.368916" lon="-4.649426"><ele>65.4</ele></trkpt>
    <trkpt lat="48.368838" lon="-4.648639"><ele>64.1</ele></trkpt>
    <trkpt lat="48.368580" lon="-4.647765"><ele>63.5</ele></trkpt>
    <trkpt lat="48.368638" lon="-4.647616"><ele>63.0</ele></trkpt>
    <trkpt lat="48.368949" lon="-4.647405"><ele>61.3</ele></trkpt>
    <trkpt lat="48.369046" lon="-4.647190"><ele>60.3</ele></trkpt>
    <trkpt lat="48.369078" lon="-4.646644"><ele>59.0</ele></trkpt>
    <trkpt lat="48.369229" lon="-4.646111"><ele>57.9</ele></trkpt>
    <trkpt lat="48.369272" lon="-4.645672"><ele>57.3</ele></trkpt>
    <trkpt lat="48.369283" lon="-4.645384"><ele>57.2</ele></trkpt>
    <trkpt lat="48.369240" lon="-4.645100"><ele>57.6</ele></trkpt>
    <trkpt lat="48.369400" lon="-4.644461"><ele>58.1</ele></trkpt>
    <trkpt lat="48.369492" lon="-4.644248"><ele>57.8</ele></trkpt>
    <trkpt lat="48.369637" lon="-4.643531"><ele>58.4</ele></trkpt>
    <trkpt lat="48.369648" lon="-4.643161"><ele>59.5</ele></trkpt>
    <trkpt lat="48.369713" lon="-4.642868"><ele>60.0</ele></trkpt>
    <trkpt lat="48.369687" lon="-4.642481"><ele>60.7</ele></trkpt>
    <trkpt lat="48.369617" lon="-4.642143"><ele>60.4</ele></trkpt>
    <trkpt lat="48.369765" lon="-4.641639"><ele>60.3</ele></trkpt>
    <trkpt lat="48.369839" lon="-4.641563"><ele>60.2</ele></trkpt>
    <trkpt lat="48.369870" lon="-4.641462"><ele>60.0</ele></trkpt>
    <trkpt lat="48.369887" lon="-4.641188"><ele>60.0</ele></trkpt>
    <trkpt lat="48.370043" lon="-4.640741"><ele>60.0</ele></trkpt>
  </trkseg></trk>
</gpx>
