<?xml version="1.0" encoding="UTF-8"?>
<gpx version="1.1" creator="tcap-parcours" xmlns="http://www.topografix.com/GPX/1/1">
  <metadata><name>ar-saint-mathieu-classique-2</name></metadata>
  <trk><name>ar-saint-mathieu-classique-2</name><trkseg>
    <trkpt lat="48.370044" lon="-4.640701"><ele>60.0</ele></trkpt>
    <trkpt lat="48.370042" lon="-4.640779"><ele>60.0</ele></trkpt>
    <trkpt lat="48.369887" lon="-4.641188"><ele>60.0</ele></trkpt>
    <trkpt lat="48.369870" lon="-4.641462"><ele>60.0</ele></trkpt>
    <trkpt lat="48.369839" lon="-4.641563"><ele>60.2</ele></trkpt>
    <trkpt lat="48.369765" lon="-4.641639"><ele>60.3</ele></trkpt>
    <trkpt lat="48.369617" lon="-4.642143"><ele>60.4</ele></trkpt>
    <trkpt lat="48.369687" lon="-4.642481"><ele>60.7</ele></trkpt>
    <trkpt lat="48.369713" lon="-4.642868"><ele>60.0</ele></trkpt>
    <trkpt lat="48.369648" lon="-4.643161"><ele>59.5</ele></trkpt>
    <trkpt lat="48.369637" lon="-4.643531"><ele>58.4</ele></trkpt>
    <trkpt lat="48.369492" lon="-4.644248"><ele>57.8</ele></trkpt>
    <trkpt lat="48.369400" lon="-4.644461"><ele>58.1</ele></trkpt>
    <trkpt lat="48.369240" lon="-4.645100"><ele>57.6</ele></trkpt>
    <trkpt lat="48.369283" lon="-4.645384"><ele>57.2</ele></trkpt>
    <trkpt lat="48.369272" lon="-4.645672"><ele>57.3</ele></trkpt>
    <trkpt lat="48.369229" lon="-4.646111"><ele>57.9</ele></trkpt>
    <trkpt lat="48.369078" lon="-4.646644"><ele>59.0</ele></trkpt>
    <trkpt lat="48.369046" lon="-4.647190"><ele>60.3</ele></trkpt>
    <trkpt lat="48.368949" lon="-4.647405"><ele>61.3</ele></trkpt>
    <trkpt lat="48.368638" lon="-4.647616"><ele>63.0</ele></trkpt>
    <trkpt lat="48.368580" lon="-4.647765"><ele>63.5</ele></trkpt>
    <trkpt lat="48.368838" lon="-4.648639"><ele>64.1</ele></trkpt>
    <trkpt lat="48.368895" lon="-4.649293"><ele>65.1</ele></trkpt>
    <trkpt lat="48.368990" lon="-4.649350"><ele>67.6</ele></trkpt>
    <trkpt lat="48.368893" lon="-4.649468"><ele>67.6</ele></trkpt>
    <trkpt lat="48.368807" lon="-4.650022"><ele>68.0</ele></trkpt>
    <trkpt lat="48.368735" lon="-4.650268"><ele>69.8</ele></trkpt>
    <trkpt lat="48.368367" lon="-4.650900"><ele>71.8</ele></trkpt>
    <trkpt lat="48.367975" lon="-4.651307"><ele>71.0</ele></trkpt>
    <trkpt lat="48.367847" lon="-4.651498"><ele>70.6</ele></trkpt>
    <trkpt lat="48.367385" lon="-4.652818"><ele>69.6</ele></trkpt>
    <trkpt lat="48.367272" lon="-4.652915"><ele>70.0</ele></trkpt>
    <trkpt lat="48.366930" lon="-4.652942"><ele>70.2</ele></trkpt>
    <trkpt lat="48.366653" lon="-4.653303"><ele>70.2</ele></trkpt>
    <trkpt lat="48.366583" lon="-4.653347"><ele>69.8</ele></trkpt>
    <trkpt lat="48.365963" lon="-4.653297"><ele>69.2</ele></trkpt>
    <trkpt lat="48.365868" lon="-4.653377"><ele>69.2</ele></trkpt>
    <trkpt lat="48.365632" lon="-4.653707"><ele>70.6</ele></trkpt>
    <trkpt lat="48.365410" lon="-4.653895"><ele>70.2</ele></trkpt>
    <trkpt lat="48.364483" lon="-4.654412"><ele>70.4</ele></trkpt>
    <trkpt lat="48.364107" lon="-4.654667"><ele>71.0</ele></trkpt>
    <trkpt lat="48.363763" lon="-4.654773"><ele>70.4</ele></trkpt>
    <trkpt lat="48.363417" lon="-4.654820"><ele>69.2</ele></trkpt>
    <trkpt lat="48.363323" lon="-4.654893"><ele>68.4</ele></trkpt>
    <trkpt lat="48.362878" lon="-4.655032"><ele>67.2</ele></trkpt>
    <trkpt lat="48.362772" lon="-4.655167"><ele>67.2</ele></trkpt>
    <trkpt lat="48.362542" lon="-4.656002"><ele>67.8</ele></trkpt>
    <trkpt lat="48.362385" lon="-4.656302"><ele>68.4</ele></trkpt>
    <trkpt lat="48.362278" lon="-4.656343"><ele>68.4</ele></trkpt>
    <trkpt lat="48.361822" lon="-4.656328"><ele>66.6</ele></trkpt>
    <trkpt lat="48.361345" lon="-4.656428"><ele>63.8</ele></trkpt>
    <trkpt lat="48.361075" lon="-4.656588"><ele>62.8</ele></trkpt>
    <trkpt lat="48.360822" lon="-4.656875"><ele>62.2</ele></trkpt>
    <trkpt lat="48.360617" lon="-4.657032"><ele>61.4</ele></trkpt>
    <trkpt lat="48.360570" lon="-4.657143"><ele>61.0</ele></trkpt>
    <trkpt lat="48.360548" lon="-4.657308"><ele>61.4</ele></trkpt>
    <trkpt lat="48.360597" lon="-4.657810"><ele>62.0</ele></trkpt>
    <trkpt lat="48.361283" lon="-4.659163"><ele>61.8</ele></trkpt>
    <trkpt lat="48.361512" lon="-4.659862"><ele>60.6</ele></trkpt>
    <trkpt lat="48.361545" lon="-4.660060"><ele>60.6</ele></trkpt>
    <trkpt lat="48.361527" lon="-4.660132"><ele>60.4</ele></trkpt>
    <trkpt lat="48.360967" lon="-4.660633"><ele>59.8</ele></trkpt>
    <trkpt lat="48.360575" lon="-4.660927"><ele>59.2</ele></trkpt>
    <trkpt lat="48.360310" lon="-4.661300"><ele>58.2</ele></trkpt>
    <trkpt lat="48.360137" lon="-4.661643"><ele>58.6</ele></trkpt>
    <trkpt lat="48.360123" lon="-4.661773"><ele>58.2</ele></trkpt>
    <trkpt lat="48.360163" lon="-4.662035"><ele>58.6</ele></trkpt>
    <trkpt lat="48.360103" lon="-4.662243"><ele>57.8</ele></trkpt>
    <trkpt lat="48.359892" lon="-4.662588"><ele>56.0</ele></trkpt>
    <trkpt lat="48.359477" lon="-4.663147"><ele>52.8</ele></trkpt>
    <trkpt lat="48.359343" lon="-4.663410"><ele>52.0</ele></trkpt>
    <trkpt lat="48.359155" lon="-4.663630"><ele>50.4</ele></trkpt>
    <trkpt lat="48.359025" lon="-4.663898"><ele>49.4</ele></trkpt>
    <trkpt lat="48.358557" lon="-4.664207"><ele>48.4</ele></trkpt>
    <trkpt lat="48.358182" lon="-4.664363"><ele>46.2</ele></trkpt>
    <trkpt lat="48.358035" lon="-4.664382"><ele>45.4</ele></trkpt>
    <trkpt lat="48.357950" lon="-4.664332"><ele>45.4</ele></trkpt>
    <trkpt lat="48.357738" lon="-4.664325"><ele>45.0</ele></trkpt>
    <trkpt lat="48.357453" lon="-4.664465"><ele>44.8</ele></trkpt>
    <trkpt lat="48.357310" lon="-4.664592"><ele>44.2</ele></trkpt>
    <trkpt lat="48.357077" lon="-4.664673"><ele>44.2</ele></trkpt>
    <trkpt lat="48.357008" lon="-4.664762"><ele>44.0</ele></trkpt>
    <trkpt lat="48.356960" lon="-4.665350"><ele>43.2</ele></trkpt>
    <trkpt lat="48.356732" lon="-4.665907"><ele>41.0</ele></trkpt>
    <trkpt lat="48.356602" lon="-4.666330"><ele>40.0</ele></trkpt>
    <trkpt lat="48.356493" lon="-4.667008"><ele>39.6</ele></trkpt>
    <trkpt lat="48.356342" lon="-4.667397"><ele>38.6</ele></trkpt>
    <trkpt lat="48.356363" lon="-4.667825"><ele>37.0</ele></trkpt>
    <trkpt lat="48.356415" lon="-4.668127"><ele>35.6</ele></trkpt>
    <trkpt lat="48.356495" lon="-4.668255"><ele>35.2</ele></trkpt>
    <trkpt lat="48.356857" lon="-4.668320"><ele>35.2</ele></trkpt>
    <trkpt lat="48.357273" lon="-4.668463"><ele>33.6</ele></trkpt>
    <trkpt lat="48.357517" lon="-4.668303"><ele>32.6</ele></trkpt>
    <trkpt lat="48.357818" lon="-4.668258"><ele>32.2</ele></trkpt>
    <trkpt lat="48.357908" lon="-4.668320"><ele>32.4</ele></trkpt>
    <trkpt lat="48.357973" lon="-4.668425"><ele>31.8</ele></trkpt>
    <trkpt lat="48.358000" lon="-4.668560"><ele>30.6</ele></trkpt>
    <trkpt lat="48.357992" lon="-4.668723"><ele>28.4</ele></trkpt>
    <trkpt lat="48.357895" lon="-4.668910"><ele>26.8</ele></trkpt>
    <trkpt lat="48.357678" lon="-4.669105"><ele>23.2</ele></trkpt>
    <trkpt lat="48.357655" lon="-4.669522"><ele>18.4</ele></trkpt>
    <trkpt lat="48.357532" lon="-4.669627"><ele>16.6</ele></trkpt>
    <trkpt lat="48.357432" lon="-4.669783"><ele>15.2</ele></trkpt>
    <trkpt lat="48.356918" lon="-4.670208"><ele>15.4</ele></trkpt>
    <trkpt lat="48.356890" lon="-4.670477"><ele>14.6</ele></trkpt>
    <trkpt lat="48.356975" lon="-4.670768"><ele>11.8</ele></trkpt>
    <trkpt lat="48.356967" lon="-4.670930"><ele>9.8</ele></trkpt>
    <trkpt lat="48.356917" lon="-4.671027"><ele>8.6</ele></trkpt>
    <trkpt lat="48.356552" lon="-4.671422"><ele>6.8</ele></trkpt>
    <trkpt lat="48.356093" lon="-4.672073"><ele>6.0</ele></trkpt>
    <trkpt lat="48.356035" lon="-4.672207"><ele>6.2</ele></trkpt>
    <trkpt lat="48.356002" lon="-4.672667"><ele>4.0</ele></trkpt>
    <trkpt lat="48.355878" lon="-4.672902"><ele>2.6</ele></trkpt>
    <trkpt lat="48.355705" lon="-4.673070"><ele>2.0</ele></trkpt>
    <trkpt lat="48.355267" lon="-4.673322"><ele>1.0</ele></trkpt>
    <trkpt lat="48.354788" lon="-4.673765"><ele>0.0</ele></trkpt>
    <trkpt lat="48.354677" lon="-4.673690"><ele>0.0</ele></trkpt>
    <trkpt lat="48.354618" lon="-4.673738"><ele>0.0</ele></trkpt>
    <trkpt lat="48.354627" lon="-4.674178"><ele>0.0</ele></trkpt>
    <trkpt lat="48.354762" lon="-4.675102"><ele>0.0</ele></trkpt>
    <trkpt lat="48.354858" lon="-4.676042"><ele>1.0</ele></trkpt>
    <trkpt lat="48.354908" lon="-4.676245"><ele>2.8</ele></trkpt>
    <trkpt lat="48.355008" lon="-4.676425"><ele>3.8</ele></trkpt>
    <trkpt lat="48.355140" lon="-4.676902"><ele>6.6</ele></trkpt>
    <trkpt lat="48.355162" lon="-4.677355"><ele>6.6</ele></trkpt>
    <trkpt lat="48.355207" lon="-4.677592"><ele>7.0</ele></trkpt>
    <trkpt lat="48.355353" lon="-4.677983"><ele>6.2</ele></trkpt>
    <trkpt lat="48.355458" lon="-4.678157"><ele>6.6</ele></trkpt>
    <trkpt lat="48.355693" lon="-4.678318"><ele>4.6</ele></trkpt>
    <trkpt lat="48.355852" lon="-4.678483"><ele>2.0</ele></trkpt>
    <trkpt lat="48.355990" lon="-4.678857"><ele>0.6</ele></trkpt>
    <trkpt lat="48.356160" lon="-4.678892"><ele>0.0</ele></trkpt>
    <trkpt lat="48.356252" lon="-4.678977"><ele>0.0</ele></trkpt>
    <trkpt lat="48.356298" lon="-4.679623"><ele>0.0</ele></trkpt>
    <trkpt lat="48.356215" lon="-4.680035"><ele>0.0</ele></trkpt>
    <trkpt lat="48.356093" lon="-4.680290"><ele>0.0</ele></trkpt>
    <trkpt lat="48.356052" lon="-4.680613"><ele>0.2</ele></trkpt>
    <trkpt lat="48.356065" lon="-4.680743"><ele>1.8</ele></trkpt>
    <trkpt lat="48.356008" lon="-4.680932"><ele>3.6</ele></trkpt>
    <trkpt lat="48.355905" lon="-4.680995"><ele>5.6</ele></trkpt>
    <trkpt lat="48.355762" lon="-4.681200"><ele>8.2</ele></trkpt>
    <trkpt lat="48.355668" lon="-4.681272"><ele>9.4</ele></trkpt>
    <trkpt lat="48.355600" lon="-4.681433"><ele>10.0</ele></trkpt>
    <trkpt lat="48.355418" lon="-4.681577"><ele>10.6</ele></trkpt>
    <trkpt lat="48.355350" lon="-4.681785"><ele>11.6</ele></trkpt>
    <trkpt lat="48.355313" lon="-4.682045"><ele>13.2</ele></trkpt>
    <trkpt lat="48.355038" lon="-4.682328"><ele>15.6</ele></trkpt>
    <trkpt lat="48.354953" lon="-4.682308"><ele>16.0</ele></trkpt>
    <trkpt lat="48.354763" lon="-4.682155"><ele>15.8</ele></trkpt>
    <trkpt lat="48.354643" lon="-4.682160"><ele>14.6</ele></trkpt>
    <trkpt lat="48.354378" lon="-4.682495"><ele>15.0</ele></trkpt>
    <trkpt lat="48.354398" lon="-4.682710"><ele>15.2</ele></trkpt>
    <trkpt lat="48.354352" lon="-4.682832"><ele>15.4</ele></trkpt>
    <trkpt lat="48.354113" lon="-4.682972"><ele>13.8</ele></trkpt>
    <trkpt lat="48.354045" lon="-4.683058"><ele>12.4</ele></trkpt>
    <trkpt lat="48.353908" lon="-4.683648"><ele>9.2</ele></trkpt>
    <trkpt lat="48.353935" lon="-4.684107"><ele>12.0</ele></trkpt>
    <trkpt lat="48.353878" lon="-4.684228"><ele>12.8</ele></trkpt>
    <trkpt lat="48.353755" lon="-4.684315"><ele>11.8</ele></trkpt>
    <trkpt lat="48.353638" lon="-4.684627"><ele>10.2</ele></trkpt>
    <trkpt lat="48.353633" lon="-4.684777"><ele>10.8</ele></trkpt>
    <trkpt lat="48.353687" lon="-4.685012"><ele>13.2</ele></trkpt>
    <trkpt lat="48.353750" lon="-4.685142"><ele>13.6</ele></trkpt>
    <trkpt lat="48.354040" lon="-4.685230"><ele>13.4</ele></trkpt>
    <trkpt lat="48.354265" lon="-4.685188"><ele>14.8</ele></trkpt>
    <trkpt lat="48.354577" lon="-4.685203"><ele>17.8</ele></trkpt>
    <trkpt lat="48.354633" lon="-4.685317"><ele>18.2</ele></trkpt>
    <trkpt lat="48.354540" lon="-4.687207"><ele>20.4</ele></trkpt>
    <trkpt lat="48.354778" lon="-4.688238"><ele>13.6</ele></trkpt>
    <trkpt lat="48.354748" lon="-4.688900"><ele>12.8</ele></trkpt>
    <trkpt lat="48.354850" lon="-4.689268"><ele>11.8</ele></trkpt>
    <trkpt lat="48.354838" lon="-4.689357"><ele>11.2</ele></trkpt>
    <trkpt lat="48.354655" lon="-4.689635"><ele>9.2</ele></trkpt>
    <trkpt lat="48.354635" lon="-4.689852"><ele>7.6</ele></trkpt>
    <trkpt lat="48.354675" lon="-4.690030"><ele>5.0</ele></trkpt>
    <trkpt lat="48.354857" lon="-4.690392"><ele>3.4</ele></trkpt>
    <trkpt lat="48.354869" lon="-4.691161"><ele>10.2</ele></trkpt>
    <trkpt lat="48.354761" lon="-4.691161"><ele>6.7</ele></trkpt>
    <trkpt lat="48.354767" lon="-4.691388"><ele>7.2</ele></trkpt>
    <trkpt lat="48.354937" lon="-4.691153"><ele>1.8</ele></trkpt>
    <trkpt lat="48.354895" lon="-4.691035"><ele>0.0</ele></trkpt>
    <trkpt lat="48.354873" lon="-4.690393"><ele>0.0</ele></trkpt>
    <trkpt lat="48.354823" lon="-4.690250"><ele>0.0</ele></trkpt>
    <trkpt lat="48.354673" lon="-4.690022"><ele>0.0</ele></trkpt>
    <trkpt lat="48.354638" lon="-4.689867"><ele>0.0</ele></trkpt>
    <trkpt lat="48.354668" lon="-4.689605"><ele>0.0</ele></trkpt>
    <trkpt lat="48.354847" lon="-4.689375"><ele>1.0</ele></trkpt>
    <trkpt lat="48.354872" lon="-4.689247"><ele>2.6</ele></trkpt>
    <trkpt lat="48.354790" lon="-4.689008"><ele>4.4</ele></trkpt>
    <trkpt lat="48.354770" lon="-4.688790"><ele>6.2</ele></trkpt>
    <trkpt lat="48.354800" lon="-4.688198"><ele>9.0</ele></trkpt>
    <trkpt lat="48.354587" lon="-4.687335"><ele>8.2</ele></trkpt>
    <trkpt lat="48.354572" lon="-4.687128"><ele>9.8</ele></trkpt>
    <trkpt lat="48.354607" lon="-4.685288"><ele>17.4</ele></trkpt>
    <trkpt lat="48.354563" lon="-4.685205"><ele>17.6</ele></trkpt>
    <trkpt lat="48.354453" lon="-4.685175"><ele>16.8</ele></trkpt>
    <trkpt lat="48.354047" lon="-4.685237"><ele>14.0</ele></trkpt>
    <trkpt lat="48.353787" lon="-4.685138"><ele>12.2</ele></trkpt>
    <trkpt lat="48.353708" lon="-4.684988"><ele>10.6</ele></trkpt>
    <trkpt lat="48.353635" lon="-4.684670"><ele>8.6</ele></trkpt>
    <trkpt lat="48.353747" lon="-4.684310"><ele>8.4</ele></trkpt>
    <trkpt lat="48.353880" lon="-4.684205"><ele>9.6</ele></trkpt>
    <trkpt lat="48.353940" lon="-4.684077"><ele>10.2</ele></trkpt>
    <trkpt lat="48.353955" lon="-4.683948"><ele>10.2</ele></trkpt>
    <trkpt lat="48.353917" lon="-4.683648"><ele>10.4</ele></trkpt>
    <trkpt lat="48.354035" lon="-4.683085"><ele>8.8</ele></trkpt>
    <trkpt lat="48.354117" lon="-4.682970"><ele>9.4</ele></trkpt>
    <trkpt lat="48.354327" lon="-4.682867"><ele>14.0</ele></trkpt>
    <trkpt lat="48.354405" lon="-4.682662"><ele>17.2</ele></trkpt>
    <trkpt lat="48.354392" lon="-4.682448"><ele>17.6</ele></trkpt>
    <trkpt lat="48.354567" lon="-4.682302"><ele>15.0</ele></trkpt>
    <trkpt lat="48.354660" lon="-4.682163"><ele>14.2</ele></trkpt>
    <trkpt lat="48.354738" lon="-4.682153"><ele>13.0</ele></trkpt>
    <trkpt lat="48.354943" lon="-4.682320"><ele>15.4</ele></trkpt>
    <trkpt lat="48.355077" lon="-4.682302"><ele>13.0</ele></trkpt>
    <trkpt lat="48.355313" lon="-4.682010"><ele>13.2</ele></trkpt>
    <trkpt lat="48.355363" lon="-4.681702"><ele>16.6</ele></trkpt>
    <trkpt lat="48.355430" lon="-4.681553"><ele>16.4</ele></trkpt>
    <trkpt lat="48.355787" lon="-4.681140"><ele>11.8</ele></trkpt>
    <trkpt lat="48.356067" lon="-4.680698"><ele>4.0</ele></trkpt>
    <trkpt lat="48.356110" lon="-4.680243"><ele>0.0</ele></trkpt>
    <trkpt lat="48.356228" lon="-4.679980"><ele>0.0</ele></trkpt>
    <trkpt lat="48.356278" lon="-4.679745"><ele>0.0</ele></trkpt>
    <trkpt lat="48.356282" lon="-4.679302"><ele>0.8</ele></trkpt>
    <trkpt lat="48.356210" lon="-4.678905"><ele>1.4</ele></trkpt>
    <trkpt lat="48.355975" lon="-4.678833"><ele>0.0</ele></trkpt>
    <trkpt lat="48.355675" lon="-4.678347"><ele>0.4</ele></trkpt>
    <trkpt lat="48.355403" lon="-4.678052"><ele>6.2</ele></trkpt>
    <trkpt lat="48.355213" lon="-4.677597"><ele>12.8</ele></trkpt>
    <trkpt lat="48.355180" lon="-4.677437"><ele>13.0</ele></trkpt>
    <trkpt lat="48.355150" lon="-4.676908"><ele>11.8</ele></trkpt>
    <trkpt lat="48.355055" lon="-4.676545"><ele>10.4</ele></trkpt>
    <trkpt lat="48.354882" lon="-4.676138"><ele>7.8</ele></trkpt>
    <trkpt lat="48.354693" lon="-4.674772"><ele>1.0</ele></trkpt>
    <trkpt lat="48.354670" lon="-4.674373"><ele>5.2</ele></trkpt>
    <trkpt lat="48.354690" lon="-4.674122"><ele>7.2</ele></trkpt>
    <trkpt lat="48.354750" lon="-4.673902"><ele>8.2</ele></trkpt>
    <trkpt lat="48.355062" lon="-4.673480"><ele>10.0</ele></trkpt>
    <trkpt lat="48.355348" lon="-4.673222"><ele>12.6</ele></trkpt>
    <trkpt lat="48.355843" lon="-4.672950"><ele>12.2</ele></trkpt>
    <trkpt lat="48.355935" lon="-4.672840"><ele>12.0</ele></trkpt>
    <trkpt lat="48.356017" lon="-4.672625"><ele>12.2</ele></trkpt>
    <trkpt lat="48.356052" lon="-4.672168"><ele>12.0</ele></trkpt>
    <trkpt lat="48.356902" lon="-4.671002"><ele>18.4</ele></trkpt>
    <trkpt lat="48.356927" lon="-4.670777"><ele>20.0</ele></trkpt>
    <trkpt lat="48.356863" lon="-4.670472"><ele>24.8</ele></trkpt>
    <trkpt lat="48.356925" lon="-4.670265"><ele>27.4</ele></trkpt>
    <trkpt lat="48.357070" lon="-4.670158"><ele>28.6</ele></trkpt>
    <trkpt lat="48.357417" lon="-4.669792"><ele>30.6</ele></trkpt>
    <trkpt lat="48.357595" lon="-4.669533"><ele>32.6</ele></trkpt>
    <trkpt lat="48.357632" lon="-4.669388"><ele>32.2</ele></trkpt>
    <trkpt lat="48.357595" lon="-4.669168"><ele>29.8</ele></trkpt>
    <trkpt lat="48.357878" lon="-4.668920"><ele>30.0</ele></trkpt>
    <trkpt lat="48.357947" lon="-4.668770"><ele>33.8</ele></trkpt>
    <trkpt lat="48.357977" lon="-4.668593"><ele>36.8</ele></trkpt>
    <trkpt lat="48.357948" lon="-4.668368"><ele>40.2</ele></trkpt>
    <trkpt lat="48.357883" lon="-4.668303"><ele>42.4</ele></trkpt>
    <trkpt lat="48.357563" lon="-4.668295"><ele>43.0</ele></trkpt>
    <trkpt lat="48.357212" lon="-4.668432"><ele>44.4</ele></trkpt>
    <trkpt lat="48.356970" lon="-4.668338"><ele>48.4</ele></trkpt>
    <trkpt lat="48.356472" lon="-4.668277"><ele>49.4</ele></trkpt>
    <trkpt lat="48.356380" lon="-4.668098"><ele>49.8</ele></trkpt>
    <trkpt lat="48.356345" lon="-4.667890"><ele>49.4</ele></trkpt>
    <trkpt lat="48.356332" lon="-4.667445"><ele>48.8</ele></trkpt>
    <trkpt lat="48.356375" lon="-4.667248"><ele>49.8</ele></trkpt>
    <trkpt lat="48.356505" lon="-4.666930"><ele>51.8</ele></trkpt>
    <trkpt lat="48.356537" lon="-4.666565"><ele>53.6</ele></trkpt>
    <trkpt lat="48.356963" lon="-4.665193"><ele>56.8</ele></trkpt>
    <trkpt lat="48.357000" lon="-4.664962"><ele>56.6</ele></trkpt>
    <trkpt lat="48.356998" lon="-4.664728"><ele>55.6</ele></trkpt>
    <trkpt lat="48.357762" lon="-4.664322"><ele>59.2</ele></trkpt>
    <trkpt lat="48.357875" lon="-4.664300"><ele>59.2</ele></trkpt>
    <trkpt lat="48.358088" lon="-4.664385"><ele>58.8</ele></trkpt>
    <trkpt lat="48.358300" lon="-4.664252"><ele>58.4</ele></trkpt>
    <trkpt lat="48.358995" lon="-4.663955"><ele>55.6</ele></trkpt>
    <trkpt lat="48.359220" lon="-4.663528"><ele>58.8</ele></trkpt>
    <trkpt lat="48.359992" lon="-4.662420"><ele>64.6</ele></trkpt>
    <trkpt lat="48.360152" lon="-4.662020"><ele>65.6</ele></trkpt>
    <trkpt lat="48.360112" lon="-4.661723"><ele>65.6</ele></trkpt>
    <trkpt lat="48.360127" lon="-4.661633"><ele>65.2</ele></trkpt>
    <trkpt lat="48.360342" lon="-4.661247"><ele>66.6</ele></trkpt>
    <trkpt lat="48.360673" lon="-4.660838"><ele>65.0</ele></trkpt>
    <trkpt lat="48.361170" lon="-4.660457"><ele>64.2</ele></trkpt>
    <trkpt lat="48.361530" lon="-4.660065"><ele>65.2</ele></trkpt>
    <trkpt lat="48.361545" lon="-4.659992"><ele>65.0</ele></trkpt>
    <trkpt lat="48.361520" lon="-4.659878"><ele>65.4</ele></trkpt>
    <trkpt lat="48.361205" lon="-4.658997"><ele>65.0</ele></trkpt>
    <trkpt lat="48.360612" lon="-4.657828"><ele>63.0</ele></trkpt>
    <trkpt lat="48.360543" lon="-4.657308"><ele>65.2</ele></trkpt>
    <trkpt lat="48.360578" lon="-4.657087"><ele>64.6</ele></trkpt>
    <trkpt lat="48.360643" lon="-4.656948"><ele>64.6</ele></trkpt>
    <trkpt lat="48.361102" lon="-4.656558"><ele>66.0</ele></trkpt>
    <trkpt lat="48.361368" lon="-4.656442"><ele>67.0</ele></trkpt>
    <trkpt lat="48.361907" lon="-4.656325"><ele>68.4</ele></trkpt>
    <trkpt lat="48.362273" lon="-4.656330"><ele>68.4</ele></trkpt>
    <trkpt lat="48.362435" lon="-4.656265"><ele>69.8</ele></trkpt>
    <trkpt lat="48.362573" lon="-4.655992"><ele>70.8</ele></trkpt>
    <trkpt lat="48.362727" lon="-4.655217"><ele>72.2</ele></trkpt>
    <trkpt lat="48.362833" lon="-4.655077"><ele>72.4</ele></trkpt>
    <trkpt lat="48.363310" lon="-4.654912"><ele>76.0</ele></trkpt>
    <trkpt lat="48.363785" lon="-4.654818"><ele>75.8</ele></trkpt>
    <trkpt lat="48.364272" lon="-4.654613"><ele>74.6</ele></trkpt>
    <trkpt lat="48.365167" lon="-4.654057"><ele>71.4</ele></trkpt>
    <trkpt lat="48.365625" lon="-4.653702"><ele>71.6</ele></trkpt>
    <trkpt lat="48.365890" lon="-4.653390"><ele>70.6</ele></trkpt>
    <trkpt lat="48.366087" lon="-4.653333"><ele>70.0</ele></trkpt>
    <trkpt lat="48.366585" lon="-4.653367"><ele>68.4</ele></trkpt>
    <trkpt lat="48.366930" lon="-4.652980"><ele>69.6</ele></trkpt>
    <trkpt lat="48.367305" lon="-4.652895"><ele>71.0</ele></trkpt>
    <trkpt lat="48.367428" lon="-4.652718"><ele>70.4</ele></trkpt>
    <trkpt lat="48.367660" lon="-4.651922"><ele>68.2</ele></trkpt>
    <trkpt lat="48.367890" lon="-4.651442"><ele>67.4</ele></trkpt>
    <trkpt lat="48.368560" lon="-4.650695"><ele>66.0</ele></trkpt>
    <trkpt lat="48.368705" lon="-4.650487"><ele>65.8</ele></trkpt>
    <trkpt lat="48.368832" lon="-4.650088"><ele>63.2</ele></trkpt>
    <trkpt lat="48.368842" lon="-4.649742"><ele>62.4</ele></trkpt>
    <trkpt lat="48.368900" lon="-4.649375"><ele>61.2</ele></trkpt>
    <trkpt lat="48.368897" lon="-4.648965"><ele>60.0</ele></trkpt>
    <trkpt lat="48.368828" lon="-4.648535"><ele>58.4</ele></trkpt>
    <trkpt lat="48.368652" lon="-4.647963"><ele>55.8</ele></trkpt>
    <trkpt lat="48.368618" lon="-4.647703"><ele>55.8</ele></trkpt>
    <trkpt lat="48.368700" lon="-4.647582"><ele>55.0</ele></trkpt>
    <trkpt lat="48.368923" lon="-4.647442"><ele>54.4</ele></trkpt>
    <trkpt lat="48.369062" lon="-4.647108"><ele>51.0</ele></trkpt>
    <trkpt lat="48.369115" lon="-4.646452"><ele>47.0</ele></trkpt>
    <trkpt lat="48.369275" lon="-4.645865"><ele>44.4</ele></trkpt>
    <trkpt lat="48.369305" lon="-4.645002"><ele>43.0</ele></trkpt>
    <trkpt lat="48.369593" lon="-4.643773"><ele>50.6</ele></trkpt>
    <trkpt lat="48.369675" lon="-4.643108"><ele>53.2</ele></trkpt>
    <trkpt lat="48.369733" lon="-4.642963"><ele>52.6</ele></trkpt>
    <trkpt lat="48.369808" lon="-4.642933"><ele>51.6</ele></trkpt>
    <trkpt lat="48.369713" lon="-4.642868"><ele>60.0</ele></trkpt>
    <trkpt lat="48.369687" lon="-4.642481"><ele>60.7</ele></trkpt>
    <trkpt lat="48.369617" lon="-4.642143"><ele>60.4</ele></trkpt>
    <trkpt lat="48.369765" lon="-4.641639"><ele>60.3</ele></trkpt>
    <trkpt lat="48.369839" lon="-4.641563"><ele>60.2</ele></trkpt>
    <trkpt lat="48.369870" lon="-4.641462"><ele>60.0</ele></trkpt>
    <trkpt lat="48.369887" lon="-4.641188"><ele>60.0</ele></trkpt>
    <trkpt lat="48.370042" lon="-4.640779"><ele>60.0</ele></trkpt>
    <trkpt lat="48.370047" lon="-4.640476"><ele>60.0</ele></trkpt>
  </trkseg></trk>
</gpx>
