<?xml version="1.0" encoding="UTF-8"?>
<gpx version="1.1" creator="tcap-parcours" xmlns="http://www.topografix.com/GPX/1/1">
  <metadata><name>back-to-basics-2</name></metadata>
  <trk><name>back-to-basics-2</name><trkseg>
    <trkpt lat="48.370200" lon="-4.640616"><ele>60.0</ele></trkpt>
    <trkpt lat="48.369744" lon="-4.642250"><ele>61.4</ele></trkpt>
    <trkpt lat="48.369649" lon="-4.642287"><ele>61.5</ele></trkpt>
    <trkpt lat="48.369713" lon="-4.642868"><ele>61.9</ele></trkpt>
    <trkpt lat="48.369394" lon="-4.642899"><ele>62.3</ele></trkpt>
    <trkpt lat="48.368444" lon="-4.642855"><ele>63.4</ele></trkpt>
    <trkpt lat="48.368053" lon="-4.642760"><ele>63.8</ele></trkpt>
    <trkpt lat="48.367102" lon="-4.642433"><ele>65.0</ele></trkpt>
    <trkpt lat="48.367070" lon="-4.642501"><ele>65.0</ele></trkpt>
    <trkpt lat="48.366459" lon="-4.642299"><ele>65.7</ele></trkpt>
    <trkpt lat="48.366306" lon="-4.642290"><ele>65.9</ele></trkpt>
    <trkpt lat="48.366187" lon="-4.642360"><ele>66.1</ele></trkpt>
    <trkpt lat="48.366020" lon="-4.642173"><ele>66.3</ele></trkpt>
    <trkpt lat="48.365877" lon="-4.642094"><ele>66.5</ele></trkpt>
    <trkpt lat="48.365733" lon="-4.642117"><ele>66.6</ele></trkpt>
    <trkpt lat="48.364894" lon="-4.641536"><ele>67.7</ele></trkpt>
    <trkpt lat="48.364642" lon="-4.641475"><ele>68.0</ele></trkpt>
    <trkpt lat="48.362868" lon="-4.641272"><ele>70.1</ele></trkpt>
    <trkpt lat="48.362483" lon="-4.641279"><ele>70.5</ele></trkpt>
    <trkpt lat="48.361326" lon="-4.641506"><ele>71.8</ele></trkpt>
    <trkpt lat="48.360957" lon="-4.641668"><ele>72.3</ele></trkpt>
    <trkpt lat="48.360705" lon="-4.641904"><ele>72.6</ele></trkpt>
    <trkpt lat="48.360407" lon="-4.642384"><ele>73.1</ele></trkpt>
    <trkpt lat="48.360248" lon="-4.642577"><ele>73.4</ele></trkpt>
    <trkpt lat="48.360118" lon="-4.642688"><ele>73.5</ele></trkpt>
    <trkpt lat="48.359834" lon="-4.642826"><ele>73.9</ele></trkpt>
    <trkpt lat="48.359795" lon="-4.642916"><ele>74.0</ele></trkpt>
    <trkpt lat="48.359569" lon="-4.642935"><ele>74.2</ele></trkpt>
    <trkpt lat="48.359287" lon="-4.643041"><ele>74.5</ele></trkpt>
    <trkpt lat="48.359070" lon="-4.643171"><ele>74.8</ele></trkpt>
    <trkpt lat="48.358970" lon="-4.643324"><ele>75.0</ele></trkpt>
    <trkpt lat="48.358849" lon="-4.643398"><ele>75.1</ele></trkpt>
    <trkpt lat="48.358670" lon="-4.643296"><ele>75.4</ele></trkpt>
    <trkpt lat="48.358501" lon="-4.643328"><ele>75.6</ele></trkpt>
    <trkpt lat="48.358104" lon="-4.643767"><ele>76.1</ele></trkpt>
    <trkpt lat="48.357630" lon="-4.644673"><ele>77.0</ele></trkpt>
    <trkpt lat="48.357387" lon="-4.644667"><ele>77.3</ele></trkpt>
    <trkpt lat="48.356779" lon="-4.644445"><ele>78.0</ele></trkpt>
    <trkpt lat="48.356704" lon="-4.644149"><ele>78.3</ele></trkpt>
    <trkpt lat="48.356295" lon="-4.643261"><ele>79.1</ele></trkpt>
    <trkpt lat="48.356197" lon="-4.642622"><ele>79.6</ele></trkpt>
    <trkpt lat="48.356236" lon="-4.642256"><ele>79.9</ele></trkpt>
    <trkpt lat="48.356372" lon="-4.641993"><ele>79.8</ele></trkpt>
    <trkpt lat="48.356516" lon="-4.641498"><ele>79.6</ele></trkpt>
    <trkpt lat="48.356575" lon="-4.641010"><ele>78.6</ele></trkpt>
    <trkpt lat="48.356574" lon="-4.640720"><ele>77.8</ele></trkpt>
    <trkpt lat="48.356765" lon="-4.639638"><ele>76.8</ele></trkpt>
    <trkpt lat="48.356700" lon="-4.639485"><ele>76.4</ele></trkpt>
    <trkpt lat="48.356070" lon="-4.639013"><ele>75.0</ele></trkpt>
    <trkpt lat="48.355991" lon="-4.638908"><ele>74.8</ele></trkpt>
    <trkpt lat="48.356081" lon="-4.638457"><ele>74.0</ele></trkpt>
    <trkpt lat="48.356039" lon="-4.638230"><ele>73.6</ele></trkpt>
    <trkpt lat="48.356030" lon="-4.637681"><ele>72.4</ele></trkpt>
    <trkpt lat="48.355814" lon="-4.636530"><ele>70.8</ele></trkpt>
    <trkpt lat="48.355848" lon="-4.636371"><ele>70.4</ele></trkpt>
    <trkpt lat="48.355802" lon="-4.636097"><ele>69.8</ele></trkpt>
    <trkpt lat="48.355781" lon="-4.635543"><ele>69.4</ele></trkpt>
    <trkpt lat="48.355902" lon="-4.634880"><ele>69.0</ele></trkpt>
    <trkpt lat="48.356345" lon="-4.633303"><ele>72.4</ele></trkpt>
    <trkpt lat="48.356342" lon="-4.633138"><ele>72.6</ele></trkpt>
    <trkpt lat="48.356199" lon="-4.632935"><ele>72.8</ele></trkpt>
    <trkpt lat="48.356289" lon="-4.632532"><ele>73.2</ele></trkpt>
    <trkpt lat="48.356355" lon="-4.631924"><ele>72.8</ele></trkpt>
    <trkpt lat="48.356375" lon="-4.630882"><ele>71.4</ele></trkpt>
    <trkpt lat="48.356617" lon="-4.629906"><ele>72.4</ele></trkpt>
    <trkpt lat="48.356667" lon="-4.629346"><ele>72.6</ele></trkpt>
    <trkpt lat="48.356782" lon="-4.628597"><ele>72.0</ele></trkpt>
    <trkpt lat="48.356769" lon="-4.628303"><ele>72.0</ele></trkpt>
    <trkpt lat="48.356694" lon="-4.627891"><ele>72.4</ele></trkpt>
    <trkpt lat="48.356636" lon="-4.627789"><ele>72.6</ele></trkpt>
    <trkpt lat="48.356449" lon="-4.627619"><ele>73.0</ele></trkpt>
    <trkpt lat="48.356408" lon="-4.627508"><ele>73.0</ele></trkpt>
    <trkpt lat="48.356542" lon="-4.626388"><ele>75.4</ele></trkpt>
    <trkpt lat="48.356491" lon="-4.626241"><ele>75.4</ele></trkpt>
    <trkpt lat="48.356324" lon="-4.626119"><ele>75.0</ele></trkpt>
    <trkpt lat="48.356272" lon="-4.626022"><ele>74.8</ele></trkpt>
    <trkpt lat="48.356297" lon="-4.625268"><ele>73.2</ele></trkpt>
    <trkpt lat="48.356232" lon="-4.624979"><ele>72.2</ele></trkpt>
    <trkpt lat="48.355892" lon="-4.624552"><ele>71.2</ele></trkpt>
    <trkpt lat="48.355734" lon="-4.624453"><ele>71.6</ele></trkpt>
    <trkpt lat="48.355656" lon="-4.624485"><ele>71.8</ele></trkpt>
    <trkpt lat="48.355360" lon="-4.624832"><ele>70.8</ele></trkpt>
    <trkpt lat="48.354609" lon="-4.625990"><ele>67.8</ele></trkpt>
    <trkpt lat="48.354302" lon="-4.626665"><ele>68.0</ele></trkpt>
    <trkpt lat="48.354115" lon="-4.626986"><ele>68.2</ele></trkpt>
    <trkpt lat="48.353567" lon="-4.627278"><ele>70.2</ele></trkpt>
    <trkpt lat="48.352935" lon="-4.627844"><ele>70.0</ele></trkpt>
    <trkpt lat="48.352137" lon="-4.628390"><ele>69.2</ele></trkpt>
    <trkpt lat="48.352088" lon="-4.628301"><ele>69.2</ele></trkpt>
    <trkpt lat="48.352174" lon="-4.628363"><ele>69.4</ele></trkpt>
    <trkpt lat="48.351958" lon="-4.628201"><ele>69.4</ele></trkpt>
    <trkpt lat="48.352066" lon="-4.628039"><ele>66.2</ele></trkpt>
    <trkpt lat="48.352066" lon="-4.628526"><ele>65.3</ele></trkpt>
    <trkpt lat="48.352174" lon="-4.628688"><ele>64.6</ele></trkpt>
    <trkpt lat="48.351851" lon="-4.629175"><ele>62.4</ele></trkpt>
    <trkpt lat="48.351635" lon="-4.629824"><ele>60.2</ele></trkpt>
    <trkpt lat="48.351635" lon="-4.629986"><ele>59.7</ele></trkpt>
    <trkpt lat="48.351527" lon="-4.630148"><ele>58.9</ele></trkpt>
    <trkpt lat="48.351527" lon="-4.631933"><ele>53.4</ele></trkpt>
    <trkpt lat="48.351635" lon="-4.632582"><ele>51.3</ele></trkpt>
    <trkpt lat="48.351635" lon="-4.632907"><ele>63.0</ele></trkpt>
    <trkpt lat="48.351527" lon="-4.633394"><ele>62.6</ele></trkpt>
    <trkpt lat="48.351419" lon="-4.633718"><ele>62.2</ele></trkpt>
    <trkpt lat="48.351204" lon="-4.634043"><ele>61.2</ele></trkpt>
    <trkpt lat="48.350880" lon="-4.634367"><ele>60.2</ele></trkpt>
    <trkpt lat="48.349371" lon="-4.634367"><ele>51.4</ele></trkpt>
    <trkpt lat="48.349371" lon="-4.635341"><ele>54.4</ele></trkpt>
    <trkpt lat="48.349695" lon="-4.637613"><ele>41.4</ele></trkpt>
    <trkpt lat="48.349910" lon="-4.638099"><ele>34.8</ele></trkpt>
    <trkpt lat="48.347970" lon="-4.638911"><ele>26.4</ele></trkpt>
    <trkpt lat="48.347539" lon="-4.639560"><ele>12.8</ele></trkpt>
    <trkpt lat="48.347646" lon="-4.639722"><ele>12.8</ele></trkpt>
    <trkpt lat="48.347646" lon="-4.639560"><ele>12.2</ele></trkpt>
    <trkpt lat="48.347620" lon="-4.639618"><ele>11.4</ele></trkpt>
    <trkpt lat="48.347666" lon="-4.639654"><ele>11.4</ele></trkpt>
    <trkpt lat="48.347660" lon="-4.639784"><ele>11.4</ele></trkpt>
    <trkpt lat="48.347500" lon="-4.639924"><ele>11.4</ele></trkpt>
    <trkpt lat="48.347279" lon="-4.640301"><ele>12.6</ele></trkpt>
    <trkpt lat="48.346832" lon="-4.640512"><ele>11.2</ele></trkpt>
    <trkpt lat="48.346182" lon="-4.641082"><ele>15.6</ele></trkpt>
    <trkpt lat="48.345712" lon="-4.641761"><ele>21.0</ele></trkpt>
    <trkpt lat="48.345550" lon="-4.642179"><ele>23.4</ele></trkpt>
    <trkpt lat="48.345510" lon="-4.642605"><ele>27.8</ele></trkpt>
    <trkpt lat="48.345525" lon="-4.642755"><ele>29.8</ele></trkpt>
    <trkpt lat="48.345595" lon="-4.642799"><ele>31.0</ele></trkpt>
    <trkpt lat="48.345818" lon="-4.642734"><ele>35.2</ele></trkpt>
    <trkpt lat="48.346216" lon="-4.643269"><ele>45.8</ele></trkpt>
    <trkpt lat="48.346220" lon="-4.643182"><ele>45.6</ele></trkpt>
    <trkpt lat="48.346241" lon="-4.643655"><ele>46.8</ele></trkpt>
    <trkpt lat="48.346220" lon="-4.643843"><ele>47.6</ele></trkpt>
    <trkpt lat="48.346169" lon="-4.643960"><ele>48.2</ele></trkpt>
    <trkpt lat="48.345736" lon="-4.644135"><ele>45.2</ele></trkpt>
    <trkpt lat="48.345678" lon="-4.644238"><ele>44.6</ele></trkpt>
    <trkpt lat="48.345643" lon="-4.644420"><ele>43.8</ele></trkpt>
    <trkpt lat="48.345701" lon="-4.645081"><ele>44.6</ele></trkpt>
    <trkpt lat="48.345602" lon="-4.645527"><ele>47.8</ele></trkpt>
    <trkpt lat="48.345735" lon="-4.645775"><ele>47.8</ele></trkpt>
    <trkpt lat="48.345667" lon="-4.646185"><ele>45.2</ele></trkpt>
    <trkpt lat="48.345891" lon="-4.646933"><ele>44.0</ele></trkpt>
    <trkpt lat="48.345870" lon="-4.647125"><ele>43.2</ele></trkpt>
    <trkpt lat="48.345710" lon="-4.647394"><ele>40.4</ele></trkpt>
    <trkpt lat="48.345630" lon="-4.647636"><ele>38.2</ele></trkpt>
    <trkpt lat="48.345621" lon="-4.647771"><ele>37.4</ele></trkpt>
    <trkpt lat="48.345724" lon="-4.648345"><ele>36.6</ele></trkpt>
    <trkpt lat="48.345848" lon="-4.648508"><ele>38.0</ele></trkpt>
    <trkpt lat="48.345969" lon="-4.648746"><ele>39.6</ele></trkpt>
    <trkpt lat="48.346157" lon="-4.649434"><ele>43.8</ele></trkpt>
    <trkpt lat="48.346126" lon="-4.649611"><ele>43.0</ele></trkpt>
    <trkpt lat="48.345963" lon="-4.650021"><ele>37.2</ele></trkpt>
    <trkpt lat="48.345786" lon="-4.650345"><ele>34.0</ele></trkpt>
    <trkpt lat="48.345764" lon="-4.650482"><ele>33.4</ele></trkpt>
    <trkpt lat="48.345780" lon="-4.650622"><ele>33.0</ele></trkpt>
    <trkpt lat="48.345957" lon="-4.650887"><ele>32.4</ele></trkpt>
    <trkpt lat="48.346053" lon="-4.651282"><ele>33.2</ele></trkpt>
    <trkpt lat="48.346361" lon="-4.651633"><ele>36.6</ele></trkpt>
    <trkpt lat="48.346353" lon="-4.651942"><ele>38.2</ele></trkpt>
    <trkpt lat="48.346431" lon="-4.652190"><ele>38.8</ele></trkpt>
    <trkpt lat="48.346560" lon="-4.652379"><ele>39.2</ele></trkpt>
    <trkpt lat="48.346855" lon="-4.652651"><ele>41.6</ele></trkpt>
    <trkpt lat="48.347065" lon="-4.653218"><ele>44.4</ele></trkpt>
    <trkpt lat="48.347276" lon="-4.653466"><ele>44.8</ele></trkpt>
    <trkpt lat="48.347572" lon="-4.653733"><ele>43.4</ele></trkpt>
    <trkpt lat="48.347803" lon="-4.653804"><ele>41.4</ele></trkpt>
    <trkpt lat="48.347954" lon="-4.653802"><ele>40.4</ele></trkpt>
    <trkpt lat="48.348209" lon="-4.653681"><ele>37.6</ele></trkpt>
    <trkpt lat="48.348451" lon="-4.654015"><ele>35.0</ele></trkpt>
    <trkpt lat="48.348611" lon="-4.654561"><ele>34.2</ele></trkpt>
    <trkpt lat="48.348835" lon="-4.654860"><ele>30.4</ele></trkpt>
    <trkpt lat="48.348930" lon="-4.655134"><ele>30.4</ele></trkpt>
    <trkpt lat="48.348966" lon="-4.655460"><ele>32.2</ele></trkpt>
    <trkpt lat="48.348860" lon="-4.655912"><ele>33.2</ele></trkpt>
    <trkpt lat="48.348903" lon="-4.656313"><ele>34.4</ele></trkpt>
    <trkpt lat="48.348972" lon="-4.656415"><ele>34.8</ele></trkpt>
    <trkpt lat="48.349230" lon="-4.656575"><ele>35.8</ele></trkpt>
    <trkpt lat="48.349336" lon="-4.656731"><ele>35.8</ele></trkpt>
    <trkpt lat="48.349401" lon="-4.656924"><ele>34.8</ele></trkpt>
    <trkpt lat="48.349476" lon="-4.657535"><ele>28.0</ele></trkpt>
    <trkpt lat="48.349530" lon="-4.657675"><ele>26.8</ele></trkpt>
    <trkpt lat="48.349700" lon="-4.657854"><ele>25.4</ele></trkpt>
    <trkpt lat="48.349833" lon="-4.658076"><ele>25.0</ele></trkpt>
    <trkpt lat="48.350145" lon="-4.658374"><ele>23.0</ele></trkpt>
    <trkpt lat="48.350320" lon="-4.658662"><ele>22.4</ele></trkpt>
    <trkpt lat="48.350467" lon="-4.659101"><ele>20.0</ele></trkpt>
    <trkpt lat="48.350424" lon="-4.659539"><ele>17.8</ele></trkpt>
    <trkpt lat="48.350437" lon="-4.659628"><ele>17.4</ele></trkpt>
    <trkpt lat="48.350764" lon="-4.660105"><ele>18.8</ele></trkpt>
    <trkpt lat="48.350787" lon="-4.660500"><ele>20.2</ele></trkpt>
    <trkpt lat="48.350986" lon="-4.660827"><ele>22.4</ele></trkpt>
    <trkpt lat="48.350920" lon="-4.661437"><ele>22.2</ele></trkpt>
    <trkpt lat="48.351128" lon="-4.661564"><ele>27.2</ele></trkpt>
    <trkpt lat="48.351334" lon="-4.662078"><ele>28.4</ele></trkpt>
    <trkpt lat="48.351743" lon="-4.662684"><ele>29.0</ele></trkpt>
    <trkpt lat="48.351917" lon="-4.662755"><ele>29.0</ele></trkpt>
    <trkpt lat="48.352640" lon="-4.662835"><ele>31.6</ele></trkpt>
    <trkpt lat="48.353779" lon="-4.662671"><ele>38.6</ele></trkpt>
    <trkpt lat="48.353943" lon="-4.662699"><ele>38.7</ele></trkpt>
    <trkpt lat="48.353961" lon="-4.662754"><ele>38.7</ele></trkpt>
    <trkpt lat="48.354407" lon="-4.661517"><ele>39.5</ele></trkpt>
    <trkpt lat="48.354818" lon="-4.660668"><ele>40.1</ele></trkpt>
    <trkpt lat="48.355868" lon="-4.659477"><ele>41.2</ele></trkpt>
    <trkpt lat="48.356122" lon="-4.659090"><ele>41.5</ele></trkpt>
    <trkpt lat="48.356290" lon="-4.658709"><ele>41.7</ele></trkpt>
    <trkpt lat="48.356439" lon="-4.658199"><ele>42.0</ele></trkpt>
    <trkpt lat="48.356548" lon="-4.657656"><ele>42.3</ele></trkpt>
    <trkpt lat="48.356626" lon="-4.656864"><ele>42.8</ele></trkpt>
    <trkpt lat="48.356752" lon="-4.656889"><ele>42.9</ele></trkpt>
    <trkpt lat="48.357228" lon="-4.656586"><ele>43.3</ele></trkpt>
    <trkpt lat="48.358263" lon="-4.656056"><ele>44.2</ele></trkpt>
    <trkpt lat="48.359614" lon="-4.655196"><ele>45.4</ele></trkpt>
    <trkpt lat="48.359826" lon="-4.655779"><ele>45.8</ele></trkpt>
    <trkpt lat="48.359908" lon="-4.655855"><ele>45.9</ele></trkpt>
    <trkpt lat="48.360009" lon="-4.655865"><ele>46.0</ele></trkpt>
    <trkpt lat="48.360272" lon="-4.655740"><ele>46.2</ele></trkpt>
    <trkpt lat="48.360403" lon="-4.655743"><ele>46.3</ele></trkpt>
    <trkpt lat="48.360517" lon="-4.655831"><ele>46.4</ele></trkpt>
    <trkpt lat="48.360570" lon="-4.655982"><ele>46.5</ele></trkpt>
    <trkpt lat="48.360740" lon="-4.655825"><ele>46.7</ele></trkpt>
    <trkpt lat="48.360870" lon="-4.655620"><ele>46.8</ele></trkpt>
    <trkpt lat="48.361223" lon="-4.654852"><ele>47.3</ele></trkpt>
    <trkpt lat="48.361439" lon="-4.654125"><ele>47.8</ele></trkpt>
    <trkpt lat="48.361826" lon="-4.653377"><ele>48.3</ele></trkpt>
    <trkpt lat="48.361899" lon="-4.653061"><ele>48.5</ele></trkpt>
    <trkpt lat="48.362159" lon="-4.652754"><ele>48.7</ele></trkpt>
    <trkpt lat="48.362308" lon="-4.652406"><ele>49.0</ele></trkpt>
    <trkpt lat="48.362410" lon="-4.652313"><ele>49.1</ele></trkpt>
    <trkpt lat="48.362845" lon="-4.650552"><ele>50.1</ele></trkpt>
    <trkpt lat="48.363337" lon="-4.649148"><ele>51.0</ele></trkpt>
    <trkpt lat="48.363638" lon="-4.648483"><ele>51.4</ele></trkpt>
    <trkpt lat="48.363941" lon="-4.647418"><ele>52.1</ele></trkpt>
    <trkpt lat="48.364671" lon="-4.645488"><ele>53.3</ele></trkpt>
    <trkpt lat="48.365011" lon="-4.644377"><ele>53.9</ele></trkpt>
    <trkpt lat="48.365307" lon="-4.643860"><ele>54.3</ele></trkpt>
    <trkpt lat="48.365527" lon="-4.643357"><ele>54.7</ele></trkpt>
    <trkpt lat="48.365885" lon="-4.643460"><ele>55.0</ele></trkpt>
    <trkpt lat="48.365963" lon="-4.643416"><ele>55.0</ele></trkpt>
    <trkpt lat="48.366038" lon="-4.643256"><ele>55.1</ele></trkpt>
    <trkpt lat="48.366187" lon="-4.642360"><ele>55.6</ele></trkpt>
    <trkpt lat="48.366306" lon="-4.642290"><ele>55.7</ele></trkpt>
    <trkpt lat="48.366459" lon="-4.642299"><ele>55.9</ele></trkpt>
    <trkpt lat="48.367070" lon="-4.642501"><ele>56.4</ele></trkpt>
    <trkpt lat="48.367102" lon="-4.642433"><ele>56.4</ele></trkpt>
    <trkpt lat="48.368053" lon="-4.642760"><ele>57.2</ele></trkpt>
    <trkpt lat="48.368444" lon="-4.642855"><ele>57.6</ele></trkpt>
    <trkpt lat="48.369394" lon="-4.642899"><ele>58.4</ele></trkpt>
    <trkpt lat="48.369713" lon="-4.642868"><ele>58.6</ele></trkpt>
    <trkpt lat="48.369649" lon="-4.642287"><ele>58.9</ele></trkpt>
    <trkpt lat="48.369744" lon="-4.642250"><ele>59.0</ele></trkpt>
    <trkpt lat="48.370200" lon="-4.640616"><ele>60.0</ele></trkpt>
  </trkseg></trk>
</gpx>
