<?xml version="1.0" encoding="UTF-8"?>
<gpx version="1.1" creator="tcap-parcours" xmlns="http://www.topografix.com/GPX/1/1">
  <metadata><name>back-to-basics</name></metadata>
  <trk><name>back-to-basics</name><trkseg>
    <trkpt lat="48.370200" lon="-4.640616"><ele>60.0</ele></trkpt>
    <trkpt lat="48.369744" lon="-4.642250"><ele>61.4</ele></trkpt>
    <trkpt lat="48.369649" lon="-4.642287"><ele>61.5</ele></trkpt>
    <trkpt lat="48.369713" lon="-4.642868"><ele>61.9</ele></trkpt>
    <trkpt lat="48.369394" lon="-4.642899"><ele>62.3</ele></trkpt>
    <trkpt lat="48.368444" lon="-4.642855"><ele>63.4</ele></trkpt>
    <trkpt lat="48.368053" lon="-4.642760"><ele>63.8</ele></trkpt>
    <trkpt lat="48.367102" lon="-4.642433"><ele>65.0</ele></trkpt>
    <trkpt lat="48.367070" lon="-4.642501"><ele>65.0</ele></trkpt>
    <trkpt lat="48.366459" lon="-4.642299"><ele>65.7</ele></trkpt>
    <trkpt lat="48.366306" lon="-4.642290"><ele>65.9</ele></trkpt>
    <trkpt lat="48.366187" lon="-4.642360"><ele>66.1</ele></trkpt>
    <trkpt lat="48.366020" lon="-4.642173"><ele>66.3</ele></trkpt>
    <trkpt lat="48.365877" lon="-4.642094"><ele>66.5</ele></trkpt>
    <trkpt lat="48.365733" lon="-4.642117"><ele>66.6</ele></trkpt>
    <trkpt lat="48.364894" lon="-4.641536"><ele>67.7</ele></trkpt>
    <trkpt lat="48.364642" lon="-4.641475"><ele>68.0</ele></trkpt>
    <trkpt lat="48.362868" lon="-4.641272"><ele>70.1</ele></trkpt>
    <trkpt lat="48.362483" lon="-4.641279"><ele>70.5</ele></trkpt>
    <trkpt lat="48.361326" lon="-4.641506"><ele>71.8</ele></trkpt>
    <trkpt lat="48.360957" lon="-4.641668"><ele>72.3</ele></trkpt>
    <trkpt lat="48.360705" lon="-4.641904"><ele>72.6</ele></trkpt>
    <trkpt lat="48.360407" lon="-4.642384"><ele>73.1</ele></trkpt>
    <trkpt lat="48.360248" lon="-4.642577"><ele>73.4</ele></trkpt>
    <trkpt lat="48.360118" lon="-4.642688"><ele>73.5</ele></trkpt>
    <trkpt lat="48.359834" lon="-4.642826"><ele>73.9</ele></trkpt>
    <trkpt lat="48.359795" lon="-4.642916"><ele>74.0</ele></trkpt>
    <trkpt lat="48.359569" lon="-4.642935"><ele>74.2</ele></trkpt>
    <trkpt lat="48.359287" lon="-4.643041"><ele>74.5</ele></trkpt>
    <trkpt lat="48.359070" lon="-4.643171"><ele>74.8</ele></trkpt>
    <trkpt lat="48.358970" lon="-4.643324"><ele>75.0</ele></trkpt>
    <trkpt lat="48.358849" lon="-4.643398"><ele>75.1</ele></trkpt>
    <trkpt lat="48.358670" lon="-4.643296"><ele>75.4</ele></trkpt>
    <trkpt lat="48.358501" lon="-4.643328"><ele>75.6</ele></trkpt>
    <trkpt lat="48.358104" lon="-4.643767"><ele>76.1</ele></trkpt>
    <trkpt lat="48.357630" lon="-4.644673"><ele>77.0</ele></trkpt>
    <trkpt lat="48.357387" lon="-4.644667"><ele>77.3</ele></trkpt>
    <trkpt lat="48.356779" lon="-4.644445"><ele>78.0</ele></trkpt>
    <trkpt lat="48.356704" lon="-4.644149"><ele>78.3</ele></trkpt>
    <trkpt lat="48.356295" lon="-4.643261"><ele>79.1</ele></trkpt>
    <trkpt lat="48.356197" lon="-4.642622"><ele>79.6</ele></trkpt>
    <trkpt lat="48.356236" lon="-4.642256"><ele>79.9</ele></trkpt>
    <trkpt lat="48.356372" lon="-4.641993"><ele>79.8</ele></trkpt>
    <trkpt lat="48.356516" lon="-4.641498"><ele>79.6</ele></trkpt>
    <trkpt lat="48.356575" lon="-4.641010"><ele>78.6</ele></trkpt>
    <trkpt lat="48.356574" lon="-4.640720"><ele>77.8</ele></trkpt>
    <trkpt lat="48.356765" lon="-4.639638"><ele>76.8</ele></trkpt>
    <trkpt lat="48.356700" lon="-4.639485"><ele>76.4</ele></trkpt>
    <trkpt lat="48.356070" lon="-4.639013"><ele>75.0</ele></trkpt>
    <trkpt lat="48.355991" lon="-4.638908"><ele>74.8</ele></trkpt>
    <trkpt lat="48.356081" lon="-4.638457"><ele>74.0</ele></trkpt>
    <trkpt lat="48.356039" lon="-4.638230"><ele>73.6</ele></trkpt>
    <trkpt lat="48.356030" lon="-4.637681"><ele>72.4</ele></trkpt>
    <trkpt lat="48.355814" lon="-4.636530"><ele>70.8</ele></trkpt>
    <trkpt lat="48.355848" lon="-4.636371"><ele>70.4</ele></trkpt>
    <trkpt lat="48.355802" lon="-4.636097"><ele>69.8</ele></trkpt>
    <trkpt lat="48.355781" lon="-4.635543"><ele>69.4</ele></trkpt>
    <trkpt lat="48.355902" lon="-4.634880"><ele>69.0</ele></trkpt>
    <trkpt lat="48.356345" lon="-4.633303"><ele>72.4</ele></trkpt>
    <trkpt lat="48.356342" lon="-4.633138"><ele>72.6</ele></trkpt>
    <trkpt lat="48.356199" lon="-4.632935"><ele>72.8</ele></trkpt>
    <trkpt lat="48.356289" lon="-4.632532"><ele>73.2</ele></trkpt>
    <trkpt lat="48.356355" lon="-4.631924"><ele>72.8</ele></trkpt>
    <trkpt lat="48.356375" lon="-4.630882"><ele>71.4</ele></trkpt>
    <trkpt lat="48.356617" lon="-4.629906"><ele>72.4</ele></trkpt>
    <trkpt lat="48.356667" lon="-4.629346"><ele>72.6</ele></trkpt>
    <trkpt lat="48.356782" lon="-4.628597"><ele>72.0</ele></trkpt>
    <trkpt lat="48.356769" lon="-4.628303"><ele>72.0</ele></trkpt>
    <trkpt lat="48.356694" lon="-4.627891"><ele>72.4</ele></trkpt>
    <trkpt lat="48.356636" lon="-4.627789"><ele>72.6</ele></trkpt>
    <trkpt lat="48.356449" lon="-4.627619"><ele>73.0</ele></trkpt>
    <trkpt lat="48.356408" lon="-4.627508"><ele>73.0</ele></trkpt>
    <trkpt lat="48.356542" lon="-4.626388"><ele>75.4</ele></trkpt>
    <trkpt lat="48.356491" lon="-4.626241"><ele>75.4</ele></trkpt>
    <trkpt lat="48.356324" lon="-4.626119"><ele>75.0</ele></trkpt>
    <trkpt lat="48.356272" lon="-4.626022"><ele>74.8</ele></trkpt>
    <trkpt lat="48.356297" lon="-4.625268"><ele>73.2</ele></trkpt>
    <trkpt lat="48.356232" lon="-4.624979"><ele>72.2</ele></trkpt>
    <trkpt lat="48.355892" lon="-4.624552"><ele>71.2</ele></trkpt>
    <trkpt lat="48.355734" lon="-4.624453"><ele>71.6</ele></trkpt>
    <trkpt lat="48.355656" lon="-4.624485"><ele>71.8</ele></trkpt>
    <trkpt lat="48.355360" lon="-4.624832"><ele>70.8</ele></trkpt>
    <trkpt lat="48.354609" lon="-4.625990"><ele>67.8</ele></trkpt>
    <trkpt lat="48.354302" lon="-4.626665"><ele>68.0</ele></trkpt>
    <trkpt lat="48.354115" lon="-4.626986"><ele>68.2</ele></trkpt>
    <trkpt lat="48.353567" lon="-4.627278"><ele>70.2</ele></trkpt>
    <trkpt lat="48.352935" lon="-4.627844"><ele>70.0</ele></trkpt>
    <trkpt lat="48.352137" lon="-4.628390"><ele>69.2</ele></trkpt>
    <trkpt lat="48.352088" lon="-4.628301"><ele>69.2</ele></trkpt>
    <trkpt lat="48.352094" lon="-4.626826"><ele>73.0</ele></trkpt>
    <trkpt lat="48.352017" lon="-4.626168"><ele>73.0</ele></trkpt>
    <trkpt lat="48.351797" lon="-4.625516"><ele>72.4</ele></trkpt>
    <trkpt lat="48.351244" lon="-4.623588"><ele>72.6</ele></trkpt>
    <trkpt lat="48.350742" lon="-4.621773"><ele>73.4</ele></trkpt>
    <trkpt lat="48.350588" lon="-4.621102"><ele>74.4</ele></trkpt>
    <trkpt lat="48.350476" lon="-4.620755"><ele>74.2</ele></trkpt>
    <trkpt lat="48.350370" lon="-4.620610"><ele>73.8</ele></trkpt>
    <trkpt lat="48.350279" lon="-4.620593"><ele>73.6</ele></trkpt>
    <trkpt lat="48.350188" lon="-4.620637"><ele>73.4</ele></trkpt>
    <trkpt lat="48.349946" lon="-4.620913"><ele>72.6</ele></trkpt>
    <trkpt lat="48.348315" lon="-4.622466"><ele>71.6</ele></trkpt>
    <trkpt lat="48.348005" lon="-4.622673"><ele>71.4</ele></trkpt>
    <trkpt lat="48.347638" lon="-4.622818"><ele>71.6</ele></trkpt>
    <trkpt lat="48.347330" lon="-4.622867"><ele>71.0</ele></trkpt>
    <trkpt lat="48.346003" lon="-4.622759"><ele>70.4</ele></trkpt>
    <trkpt lat="48.345603" lon="-4.622876"><ele>70.2</ele></trkpt>
    <trkpt lat="48.344941" lon="-4.623177"><ele>69.6</ele></trkpt>
    <trkpt lat="48.344695" lon="-4.623201"><ele>69.2</ele></trkpt>
    <trkpt lat="48.343271" lon="-4.622891"><ele>61.0</ele></trkpt>
    <trkpt lat="48.342868" lon="-4.622776"><ele>58.4</ele></trkpt>
    <trkpt lat="48.342754" lon="-4.622697"><ele>57.8</ele></trkpt>
    <trkpt lat="48.342675" lon="-4.622561"><ele>57.2</ele></trkpt>
    <trkpt lat="48.342638" lon="-4.622393"><ele>57.0</ele></trkpt>
    <trkpt lat="48.342655" lon="-4.621911"><ele>56.8</ele></trkpt>
    <trkpt lat="48.342578" lon="-4.621158"><ele>56.6</ele></trkpt>
    <trkpt lat="48.342506" lon="-4.619202"><ele>55.6</ele></trkpt>
    <trkpt lat="48.342466" lon="-4.619021"><ele>56.4</ele></trkpt>
    <trkpt lat="48.342260" lon="-4.618585"><ele>58.6</ele></trkpt>
    <trkpt lat="48.342207" lon="-4.618393"><ele>59.4</ele></trkpt>
    <trkpt lat="48.342356" lon="-4.617374"><ele>59.2</ele></trkpt>
    <trkpt lat="48.342253" lon="-4.616024"><ele>57.6</ele></trkpt>
    <trkpt lat="48.342262" lon="-4.615510"><ele>55.4</ele></trkpt>
    <trkpt lat="48.342331" lon="-4.615300"><ele>54.0</ele></trkpt>
    <trkpt lat="48.342491" lon="-4.615128"><ele>52.0</ele></trkpt>
    <trkpt lat="48.342917" lon="-4.614838"><ele>48.4</ele></trkpt>
    <trkpt lat="48.343302" lon="-4.614742"><ele>46.4</ele></trkpt>
    <trkpt lat="48.343555" lon="-4.614552"><ele>45.0</ele></trkpt>
    <trkpt lat="48.343812" lon="-4.614311"><ele>43.6</ele></trkpt>
    <trkpt lat="48.343966" lon="-4.614076"><ele>42.6</ele></trkpt>
    <trkpt lat="48.344366" lon="-4.613649"><ele>40.0</ele></trkpt>
    <trkpt lat="48.344481" lon="-4.613445"><ele>39.8</ele></trkpt>
    <trkpt lat="48.344535" lon="-4.613180"><ele>39.4</ele></trkpt>
    <trkpt lat="48.344492" lon="-4.612892"><ele>39.0</ele></trkpt>
    <trkpt lat="48.344418" lon="-4.612788"><ele>39.0</ele></trkpt>
    <trkpt lat="48.344340" lon="-4.612783"><ele>38.8</ele></trkpt>
    <trkpt lat="48.344156" lon="-4.612900"><ele>38.2</ele></trkpt>
    <trkpt lat="48.343720" lon="-4.613340"><ele>35.6</ele></trkpt>
    <trkpt lat="48.343360" lon="-4.613579"><ele>33.2</ele></trkpt>
    <trkpt lat="48.342885" lon="-4.613823"><ele>30.2</ele></trkpt>
    <trkpt lat="48.342583" lon="-4.614166"><ele>28.6</ele></trkpt>
    <trkpt lat="48.342228" lon="-4.614469"><ele>28.4</ele></trkpt>
    <trkpt lat="48.341684" lon="-4.614818"><ele>25.6</ele></trkpt>
    <trkpt lat="48.341037" lon="-4.615158"><ele>19.6</ele></trkpt>
    <trkpt lat="48.340765" lon="-4.615550"><ele>28.4</ele></trkpt>
    <trkpt lat="48.340642" lon="-4.615581"><ele>29.0</ele></trkpt>
    <trkpt lat="48.340260" lon="-4.615865"><ele>33.6</ele></trkpt>
    <trkpt lat="48.339962" lon="-4.616412"><ele>39.2</ele></trkpt>
    <trkpt lat="48.339587" lon="-4.616948"><ele>33.8</ele></trkpt>
    <trkpt lat="48.339403" lon="-4.617658"><ele>28.2</ele></trkpt>
    <trkpt lat="48.339358" lon="-4.618022"><ele>26.4</ele></trkpt>
    <trkpt lat="48.339367" lon="-4.618536"><ele>26.4</ele></trkpt>
    <trkpt lat="48.339407" lon="-4.618764"><ele>27.4</ele></trkpt>
    <trkpt lat="48.339494" lon="-4.619013"><ele>27.4</ele></trkpt>
    <trkpt lat="48.339428" lon="-4.619190"><ele>24.0</ele></trkpt>
    <trkpt lat="48.339436" lon="-4.619614"><ele>22.2</ele></trkpt>
    <trkpt lat="48.339319" lon="-4.620207"><ele>25.4</ele></trkpt>
    <trkpt lat="48.339330" lon="-4.620560"><ele>28.4</ele></trkpt>
    <trkpt lat="48.339230" lon="-4.621419"><ele>31.8</ele></trkpt>
    <trkpt lat="48.339300" lon="-4.622010"><ele>32.8</ele></trkpt>
    <trkpt lat="48.339410" lon="-4.622420"><ele>36.2</ele></trkpt>
    <trkpt lat="48.339414" lon="-4.622631"><ele>35.8</ele></trkpt>
    <trkpt lat="48.339477" lon="-4.623048"><ele>34.6</ele></trkpt>
    <trkpt lat="48.339458" lon="-4.623211"><ele>33.2</ele></trkpt>
    <trkpt lat="48.339482" lon="-4.623367"><ele>31.8</ele></trkpt>
    <trkpt lat="48.339464" lon="-4.623548"><ele>29.8</ele></trkpt>
    <trkpt lat="48.339328" lon="-4.623738"><ele>29.0</ele></trkpt>
    <trkpt lat="48.339301" lon="-4.623911"><ele>30.0</ele></trkpt>
    <trkpt lat="48.339365" lon="-4.623976"><ele>30.8</ele></trkpt>
    <trkpt lat="48.339635" lon="-4.624082"><ele>33.8</ele></trkpt>
    <trkpt lat="48.340425" lon="-4.624122"><ele>38.6</ele></trkpt>
    <trkpt lat="48.340778" lon="-4.624412"><ele>39.8</ele></trkpt>
    <trkpt lat="48.340813" lon="-4.624491"><ele>39.8</ele></trkpt>
    <trkpt lat="48.340799" lon="-4.624767"><ele>40.0</ele></trkpt>
    <trkpt lat="48.340947" lon="-4.625172"><ele>41.8</ele></trkpt>
    <trkpt lat="48.340977" lon="-4.625654"><ele>45.6</ele></trkpt>
    <trkpt lat="48.341017" lon="-4.625868"><ele>46.8</ele></trkpt>
    <trkpt lat="48.341186" lon="-4.626321"><ele>49.4</ele></trkpt>
    <trkpt lat="48.341377" lon="-4.626536"><ele>52.0</ele></trkpt>
    <trkpt lat="48.342050" lon="-4.626868"><ele>54.0</ele></trkpt>
    <trkpt lat="48.342113" lon="-4.626935"><ele>54.2</ele></trkpt>
    <trkpt lat="48.342143" lon="-4.627036"><ele>54.4</ele></trkpt>
    <trkpt lat="48.342153" lon="-4.627494"><ele>56.0</ele></trkpt>
    <trkpt lat="48.342128" lon="-4.627591"><ele>56.2</ele></trkpt>
    <trkpt lat="48.341542" lon="-4.627776"><ele>58.2</ele></trkpt>
    <trkpt lat="48.341473" lon="-4.627832"><ele>58.8</ele></trkpt>
    <trkpt lat="48.341499" lon="-4.628143"><ele>59.4</ele></trkpt>
    <trkpt lat="48.341454" lon="-4.628930"><ele>58.2</ele></trkpt>
    <trkpt lat="48.341409" lon="-4.629025"><ele>57.8</ele></trkpt>
    <trkpt lat="48.341212" lon="-4.629119"><ele>56.8</ele></trkpt>
    <trkpt lat="48.341166" lon="-4.629287"><ele>56.0</ele></trkpt>
    <trkpt lat="48.341421" lon="-4.630029"><ele>52.8</ele></trkpt>
    <trkpt lat="48.341463" lon="-4.630241"><ele>52.0</ele></trkpt>
    <trkpt lat="48.341470" lon="-4.630485"><ele>51.4</ele></trkpt>
    <trkpt lat="48.341447" lon="-4.630569"><ele>51.2</ele></trkpt>
    <trkpt lat="48.341372" lon="-4.630640"><ele>51.0</ele></trkpt>
    <trkpt lat="48.341212" lon="-4.630587"><ele>51.0</ele></trkpt>
    <trkpt lat="48.341160" lon="-4.630608"><ele>51.2</ele></trkpt>
    <trkpt lat="48.341122" lon="-4.630677"><ele>51.6</ele></trkpt>
    <trkpt lat="48.341112" lon="-4.630800"><ele>52.0</ele></trkpt>
    <trkpt lat="48.341176" lon="-4.630879"><ele>52.4</ele></trkpt>
    <trkpt lat="48.341346" lon="-4.630951"><ele>51.8</ele></trkpt>
    <trkpt lat="48.341631" lon="-4.630801"><ele>48.0</ele></trkpt>
    <trkpt lat="48.341854" lon="-4.630749"><ele>45.8</ele></trkpt>
    <trkpt lat="48.342173" lon="-4.630835"><ele>45.2</ele></trkpt>
    <trkpt lat="48.342242" lon="-4.630940"><ele>45.0</ele></trkpt>
    <trkpt lat="48.342244" lon="-4.631237"><ele>43.8</ele></trkpt>
    <trkpt lat="48.342436" lon="-4.631512"><ele>40.2</ele></trkpt>
    <trkpt lat="48.342548" lon="-4.631596"><ele>37.6</ele></trkpt>
    <trkpt lat="48.342745" lon="-4.631666"><ele>30.0</ele></trkpt>
    <trkpt lat="48.343004" lon="-4.631914"><ele>23.4</ele></trkpt>
    <trkpt lat="48.343514" lon="-4.632073"><ele>20.8</ele></trkpt>
    <trkpt lat="48.343699" lon="-4.632331"><ele>16.6</ele></trkpt>
    <trkpt lat="48.343996" lon="-4.632349"><ele>12.6</ele></trkpt>
    <trkpt lat="48.344096" lon="-4.632456"><ele>12.2</ele></trkpt>
    <trkpt lat="48.344127" lon="-4.632545"><ele>12.4</ele></trkpt>
    <trkpt lat="48.344110" lon="-4.632633"><ele>12.8</ele></trkpt>
    <trkpt lat="48.343968" lon="-4.632702"><ele>15.2</ele></trkpt>
    <trkpt lat="48.343880" lon="-4.632795"><ele>16.8</ele></trkpt>
    <trkpt lat="48.343679" lon="-4.633202"><ele>23.0</ele></trkpt>
    <trkpt lat="48.343532" lon="-4.633390"><ele>25.4</ele></trkpt>
    <trkpt lat="48.342921" lon="-4.633895"><ele>26.6</ele></trkpt>
    <trkpt lat="48.342867" lon="-4.634178"><ele>29.4</ele></trkpt>
    <trkpt lat="48.342875" lon="-4.634345"><ele>31.2</ele></trkpt>
    <trkpt lat="48.342990" lon="-4.634611"><ele>34.8</ele></trkpt>
    <trkpt lat="48.343047" lon="-4.634984"><ele>36.4</ele></trkpt>
    <trkpt lat="48.343236" lon="-4.635201"><ele>34.6</ele></trkpt>
    <trkpt lat="48.343359" lon="-4.635491"><ele>33.2</ele></trkpt>
    <trkpt lat="48.343404" lon="-4.635525"><ele>33.2</ele></trkpt>
    <trkpt lat="48.343559" lon="-4.635464"><ele>33.6</ele></trkpt>
    <trkpt lat="48.343630" lon="-4.635479"><ele>33.8</ele></trkpt>
    <trkpt lat="48.343867" lon="-4.635792"><ele>33.2</ele></trkpt>
    <trkpt lat="48.344045" lon="-4.635850"><ele>33.4</ele></trkpt>
    <trkpt lat="48.344145" lon="-4.635968"><ele>33.2</ele></trkpt>
    <trkpt lat="48.344188" lon="-4.636111"><ele>32.6</ele></trkpt>
    <trkpt lat="48.344141" lon="-4.636425"><ele>31.4</ele></trkpt>
    <trkpt lat="48.344155" lon="-4.636541"><ele>31.2</ele></trkpt>
    <trkpt lat="48.344235" lon="-4.636554"><ele>31.4</ele></trkpt>
    <trkpt lat="48.344498" lon="-4.636378"><ele>32.6</ele></trkpt>
    <trkpt lat="48.344611" lon="-4.636429"><ele>32.8</ele></trkpt>
    <trkpt lat="48.344721" lon="-4.636719"><ele>33.2</ele></trkpt>
    <trkpt lat="48.344777" lon="-4.637307"><ele>33.2</ele></trkpt>
    <trkpt lat="48.344920" lon="-4.637763"><ele>32.2</ele></trkpt>
    <trkpt lat="48.344975" lon="-4.638304"><ele>31.6</ele></trkpt>
    <trkpt lat="48.345160" lon="-4.638575"><ele>31.6</ele></trkpt>
    <trkpt lat="48.345321" lon="-4.638644"><ele>31.4</ele></trkpt>
    <trkpt lat="48.345516" lon="-4.638647"><ele>30.8</ele></trkpt>
    <trkpt lat="48.345751" lon="-4.638825"><ele>28.2</ele></trkpt>
    <trkpt lat="48.345777" lon="-4.638941"><ele>26.8</ele></trkpt>
    <trkpt lat="48.345772" lon="-4.639544"><ele>21.0</ele></trkpt>
    <trkpt lat="48.345871" lon="-4.639796"><ele>19.2</ele></trkpt>
    <trkpt lat="48.345972" lon="-4.639877"><ele>18.4</ele></trkpt>
    <trkpt lat="48.346371" lon="-4.639902"><ele>15.4</ele></trkpt>
    <trkpt lat="48.346632" lon="-4.639865"><ele>12.8</ele></trkpt>
    <trkpt lat="48.346827" lon="-4.639781"><ele>11.2</ele></trkpt>
    <trkpt lat="48.347236" lon="-4.639830"><ele>10.0</ele></trkpt>
    <trkpt lat="48.347369" lon="-4.639786"><ele>10.4</ele></trkpt>
    <trkpt lat="48.347620" lon="-4.639618"><ele>11.4</ele></trkpt>
    <trkpt lat="48.347666" lon="-4.639654"><ele>11.4</ele></trkpt>
    <trkpt lat="48.347660" lon="-4.639784"><ele>11.4</ele></trkpt>
    <trkpt lat="48.347500" lon="-4.639924"><ele>11.4</ele></trkpt>
    <trkpt lat="48.347279" lon="-4.640301"><ele>12.6</ele></trkpt>
    <trkpt lat="48.346832" lon="-4.640512"><ele>11.2</ele></trkpt>
    <trkpt lat="48.346182" lon="-4.641082"><ele>15.6</ele></trkpt>
    <trkpt lat="48.345712" lon="-4.641761"><ele>21.0</ele></trkpt>
    <trkpt lat="48.345550" lon="-4.642179"><ele>23.4</ele></trkpt>
    <trkpt lat="48.345510" lon="-4.642605"><ele>27.8</ele></trkpt>
    <trkpt lat="48.345525" lon="-4.642755"><ele>29.8</ele></trkpt>
    <trkpt lat="48.345595" lon="-4.642799"><ele>31.0</ele></trkpt>
    <trkpt lat="48.345818" lon="-4.642734"><ele>35.2</ele></trkpt>
    <trkpt lat="48.346216" lon="-4.643269"><ele>45.8</ele></trkpt>
    <trkpt lat="48.346220" lon="-4.643182"><ele>45.6</ele></trkpt>
    <trkpt lat="48.346241" lon="-4.643655"><ele>46.8</ele></trkpt>
    <trkpt lat="48.346220" lon="-4.643843"><ele>47.6</ele></trkpt>
    <trkpt lat="48.346169" lon="-4.643960"><ele>48.2</ele></trkpt>
    <trkpt lat="48.345736" lon="-4.644135"><ele>45.2</ele></trkpt>
    <trkpt lat="48.345678" lon="-4.644238"><ele>44.6</ele></trkpt>
    <trkpt lat="48.345643" lon="-4.644420"><ele>43.8</ele></trkpt>
    <trkpt lat="48.345701" lon="-4.645081"><ele>44.6</ele></trkpt>
    <trkpt lat="48.345602" lon="-4.645527"><ele>47.8</ele></trkpt>
    <trkpt lat="48.345735" lon="-4.645775"><ele>47.8</ele></trkpt>
    <trkpt lat="48.345667" lon="-4.646185"><ele>45.2</ele></trkpt>
    <trkpt lat="48.345891" lon="-4.646933"><ele>44.0</ele></trkpt>
    <trkpt lat="48.345870" lon="-4.647125"><ele>43.2</ele></trkpt>
    <trkpt lat="48.345710" lon="-4.647394"><ele>40.4</ele></trkpt>
    <trkpt lat="48.345630" lon="-4.647636"><ele>38.2</ele></trkpt>
    <trkpt lat="48.345621" lon="-4.647771"><ele>37.4</ele></trkpt>
    <trkpt lat="48.345724" lon="-4.648345"><ele>36.6</ele></trkpt>
    <trkpt lat="48.345848" lon="-4.648508"><ele>38.0</ele></trkpt>
    <trkpt lat="48.345969" lon="-4.648746"><ele>39.6</ele></trkpt>
    <trkpt lat="48.346157" lon="-4.649434"><ele>43.8</ele></trkpt>
    <trkpt lat="48.346126" lon="-4.649611"><ele>43.0</ele></trkpt>
    <trkpt lat="48.345963" lon="-4.650021"><ele>37.2</ele></trkpt>
    <trkpt lat="48.345786" lon="-4.650345"><ele>34.0</ele></trkpt>
    <trkpt lat="48.345764" lon="-4.650482"><ele>33.4</ele></trkpt>
    <trkpt lat="48.345780" lon="-4.650622"><ele>33.0</ele></trkpt>
    <trkpt lat="48.345957" lon="-4.650887"><ele>32.4</ele></trkpt>
    <trkpt lat="48.346053" lon="-4.651282"><ele>33.2</ele></trkpt>
    <trkpt lat="48.346361" lon="-4.651633"><ele>36.6</ele></trkpt>
    <trkpt lat="48.346353" lon="-4.651942"><ele>38.2</ele></trkpt>
    <trkpt lat="48.346431" lon="-4.652190"><ele>38.8</ele></trkpt>
    <trkpt lat="48.346560" lon="-4.652379"><ele>39.2</ele></trkpt>
    <trkpt lat="48.346855" lon="-4.652651"><ele>41.6</ele></trkpt>
    <trkpt lat="48.347065" lon="-4.653218"><ele>44.4</ele></trkpt>
    <trkpt lat="48.347276" lon="-4.653466"><ele>44.8</ele></trkpt>
    <trkpt lat="48.347572" lon="-4.653733"><ele>43.4</ele></trkpt>
    <trkpt lat="48.347803" lon="-4.653804"><ele>41.4</ele></trkpt>
    <trkpt lat="48.347954" lon="-4.653802"><ele>40.4</ele></trkpt>
    <trkpt lat="48.348209" lon="-4.653681"><ele>37.6</ele></trkpt>
    <trkpt lat="48.348451" lon="-4.654015"><ele>35.0</ele></trkpt>
    <trkpt lat="48.348611" lon="-4.654561"><ele>34.2</ele></trkpt>
    <trkpt lat="48.348835" lon="-4.654860"><ele>30.4</ele></trkpt>
    <trkpt lat="48.348930" lon="-4.655134"><ele>30.4</ele></trkpt>
    <trkpt lat="48.348966" lon="-4.655460"><ele>32.2</ele></trkpt>
    <trkpt lat="48.348860" lon="-4.655912"><ele>33.2</ele></trkpt>
    <trkpt lat="48.348903" lon="-4.656313"><ele>34.4</ele></trkpt>
    <trkpt lat="48.348972" lon="-4.656415"><ele>34.8</ele></trkpt>
    <trkpt lat="48.349230" lon="-4.656575"><ele>35.8</ele></trkpt>
    <trkpt lat="48.349336" lon="-4.656731"><ele>35.8</ele></trkpt>
    <trkpt lat="48.349401" lon="-4.656924"><ele>34.8</ele></trkpt>
    <trkpt lat="48.349476" lon="-4.657535"><ele>28.0</ele></trkpt>
    <trkpt lat="48.349530" lon="-4.657675"><ele>26.8</ele></trkpt>
    <trkpt lat="48.349700" lon="-4.657854"><ele>25.4</ele></trkpt>
    <trkpt lat="48.349833" lon="-4.658076"><ele>25.0</ele></trkpt>
    <trkpt lat="48.350145" lon="-4.658374"><ele>23.0</ele></trkpt>
    <trkpt lat="48.350320" lon="-4.658662"><ele>22.4</ele></trkpt>
    <trkpt lat="48.350467" lon="-4.659101"><ele>20.0</ele></trkpt>
    <trkpt lat="48.350424" lon="-4.659539"><ele>17.8</ele></trkpt>
    <trkpt lat="48.350437" lon="-4.659628"><ele>17.4</ele></trkpt>
    <trkpt lat="48.350764" lon="-4.660105"><ele>18.8</ele></trkpt>
    <trkpt lat="48.350787" lon="-4.660500"><ele>20.2</ele></trkpt>
    <trkpt lat="48.350986" lon="-4.660827"><ele>22.4</ele></trkpt>
    <trkpt lat="48.350920" lon="-4.661437"><ele>22.2</ele></trkpt>
    <trkpt lat="48.351128" lon="-4.661564"><ele>27.2</ele></trkpt>
    <trkpt lat="48.351334" lon="-4.662078"><ele>28.4</ele></trkpt>
    <trkpt lat="48.351743" lon="-4.662684"><ele>29.0</ele></trkpt>
    <trkpt lat="48.351917" lon="-4.662755"><ele>29.0</ele></trkpt>
    <trkpt lat="48.352640" lon="-4.662835"><ele>31.6</ele></trkpt>
    <trkpt lat="48.353779" lon="-4.662671"><ele>38.6</ele></trkpt>
    <trkpt lat="48.353943" lon="-4.662699"><ele>38.7</ele></trkpt>
    <trkpt lat="48.353961" lon="-4.662754"><ele>38.7</ele></trkpt>
    <trkpt lat="48.354407" lon="-4.661517"><ele>39.5</ele></trkpt>
    <trkpt lat="48.354818" lon="-4.660668"><ele>40.1</ele></trkpt>
    <trkpt lat="48.355868" lon="-4.659477"><ele>41.2</ele></trkpt>
    <trkpt lat="48.356122" lon="-4.659090"><ele>41.5</ele></trkpt>
    <trkpt lat="48.356290" lon="-4.658709"><ele>41.7</ele></trkpt>
    <trkpt lat="48.356439" lon="-4.658199"><ele>42.0</ele></trkpt>
    <trkpt lat="48.356548" lon="-4.657656"><ele>42.3</ele></trkpt>
    <trkpt lat="48.356626" lon="-4.656864"><ele>42.8</ele></trkpt>
    <trkpt lat="48.356752" lon="-4.656889"><ele>42.9</ele></trkpt>
    <trkpt lat="48.357228" lon="-4.656586"><ele>43.3</ele></trkpt>
    <trkpt lat="48.358263" lon="-4.656056"><ele>44.2</ele></trkpt>
    <trkpt lat="48.359614" lon="-4.655196"><ele>45.4</ele></trkpt>
    <trkpt lat="48.359826" lon="-4.655779"><ele>45.8</ele></trkpt>
    <trkpt lat="48.359908" lon="-4.655855"><ele>45.9</ele></trkpt>
    <trkpt lat="48.360009" lon="-4.655865"><ele>46.0</ele></trkpt>
    <trkpt lat="48.360272" lon="-4.655740"><ele>46.2</ele></trkpt>
    <trkpt lat="48.360403" lon="-4.655743"><ele>46.3</ele></trkpt>
    <trkpt lat="48.360517" lon="-4.655831"><ele>46.4</ele></trkpt>
    <trkpt lat="48.360570" lon="-4.655982"><ele>46.5</ele></trkpt>
    <trkpt lat="48.360740" lon="-4.655825"><ele>46.7</ele></trkpt>
    <trkpt lat="48.360870" lon="-4.655620"><ele>46.8</ele></trkpt>
    <trkpt lat="48.361223" lon="-4.654852"><ele>47.3</ele></trkpt>
    <trkpt lat="48.361439" lon="-4.654125"><ele>47.8</ele></trkpt>
    <trkpt lat="48.361826" lon="-4.653377"><ele>48.3</ele></trkpt>
    <trkpt lat="48.361899" lon="-4.653061"><ele>48.5</ele></trkpt>
    <trkpt lat="48.362159" lon="-4.652754"><ele>48.7</ele></trkpt>
    <trkpt lat="48.362308" lon="-4.652406"><ele>49.0</ele></trkpt>
    <trkpt lat="48.362410" lon="-4.652313"><ele>49.1</ele></trkpt>
    <trkpt lat="48.362845" lon="-4.650552"><ele>50.1</ele></trkpt>
    <trkpt lat="48.363177" lon="-4.649598"><ele>50.7</ele></trkpt>
    <trkpt lat="48.363337" lon="-4.649148"><ele>51.0</ele></trkpt>
    <trkpt lat="48.363638" lon="-4.648483"><ele>51.4</ele></trkpt>
    <trkpt lat="48.363941" lon="-4.647418"><ele>52.1</ele></trkpt>
    <trkpt lat="48.364671" lon="-4.645488"><ele>53.3</ele></trkpt>
    <trkpt lat="48.365011" lon="-4.644377"><ele>53.9</ele></trkpt>
    <trkpt lat="48.365307" lon="-4.643860"><ele>54.3</ele></trkpt>
    <trkpt lat="48.365527" lon="-4.643357"><ele>54.7</ele></trkpt>
    <trkpt lat="48.365885" lon="-4.643460"><ele>55.0</ele></trkpt>
    <trkpt lat="48.365963" lon="-4.643416"><ele>55.0</ele></trkpt>
    <trkpt lat="48.366038" lon="-4.643256"><ele>55.1</ele></trkpt>
    <trkpt lat="48.366187" lon="-4.642360"><ele>55.6</ele></trkpt>
    <trkpt lat="48.366306" lon="-4.642290"><ele>55.7</ele></trkpt>
    <trkpt lat="48.366459" lon="-4.642299"><ele>55.9</ele></trkpt>
    <trkpt lat="48.367070" lon="-4.642501"><ele>56.4</ele></trkpt>
    <trkpt lat="48.367102" lon="-4.642433"><ele>56.4</ele></trkpt>
    <trkpt lat="48.368053" lon="-4.642760"><ele>57.2</ele></trkpt>
    <trkpt lat="48.368444" lon="-4.642855"><ele>57.6</ele></trkpt>
    <trkpt lat="48.369394" lon="-4.642899"><ele>58.4</ele></trkpt>
    <trkpt lat="48.369713" lon="-4.642868"><ele>58.6</ele></trkpt>
    <trkpt lat="48.369649" lon="-4.642287"><ele>58.9</ele></trkpt>
    <trkpt lat="48.369744" lon="-4.642250"><ele>59.0</ele></trkpt>
    <trkpt lat="48.370200" lon="-4.640616"><ele>60.0</ele></trkpt>
  </trkseg></trk>
</gpx>
