<?xml version="1.0" encoding="UTF-8"?>
<gpx version="1.1" creator="tcap-parcours" xmlns="http://www.topografix.com/GPX/1/1">
  <metadata><name>Bertheaume par le GR34, retour Kélédern – Boucle 22 km</name></metadata>
  <trk><name>Bertheaume par le GR34, retour Kélédern – Boucle 22 km</name><trkseg>
    <trkpt lat="48.369948" lon="-4.640454"><ele>60.6</ele></trkpt>
    <trkpt lat="48.369909" lon="-4.640849"><ele>60.6</ele></trkpt>
    <trkpt lat="48.369784" lon="-4.641076"><ele>60.2</ele></trkpt>
    <trkpt lat="48.369744" lon="-4.641418"><ele>60.2</ele></trkpt>
    <trkpt lat="48.369605" lon="-4.641544"><ele>60.8</ele></trkpt>
    <trkpt lat="48.369551" lon="-4.641654"><ele>61.2</ele></trkpt>
    <trkpt lat="48.369530" lon="-4.642055"><ele>61.2</ele></trkpt>
    <trkpt lat="48.369640" lon="-4.642585"><ele>60.2</ele></trkpt>
    <trkpt lat="48.369588" lon="-4.642868"><ele>60.0</ele></trkpt>
    <trkpt lat="48.369617" lon="-4.643254"><ele>59.8</ele></trkpt>
    <trkpt lat="48.369601" lon="-4.643600"><ele>59.6</ele></trkpt>
    <trkpt lat="48.369455" lon="-4.644299"><ele>58.8</ele></trkpt>
    <trkpt lat="48.369244" lon="-4.645054"><ele>58.4</ele></trkpt>
    <trkpt lat="48.369264" lon="-4.645610"><ele>57.8</ele></trkpt>
    <trkpt lat="48.369205" lon="-4.646078"><ele>58.6</ele></trkpt>
    <trkpt lat="48.369057" lon="-4.646591"><ele>60.6</ele></trkpt>
    <trkpt lat="48.369060" lon="-4.647022"><ele>62.0</ele></trkpt>
    <trkpt lat="48.368916" lon="-4.647352"><ele>62.6</ele></trkpt>
    <trkpt lat="48.368647" lon="-4.647558"><ele>63.8</ele></trkpt>
    <trkpt lat="48.368563" lon="-4.647704"><ele>64.4</ele></trkpt>
    <trkpt lat="48.368585" lon="-4.647863"><ele>65.2</ele></trkpt>
    <trkpt lat="48.368815" lon="-4.648534"><ele>66.4</ele></trkpt>
    <trkpt lat="48.368880" lon="-4.648945"><ele>66.2</ele></trkpt>
    <trkpt lat="48.368889" lon="-4.649403"><ele>66.6</ele></trkpt>
    <trkpt lat="48.368804" lon="-4.650068"><ele>67.8</ele></trkpt>
    <trkpt lat="48.368762" lon="-4.650257"><ele>68.6</ele></trkpt>
    <trkpt lat="48.368683" lon="-4.650435"><ele>69.2</ele></trkpt>
    <trkpt lat="48.368568" lon="-4.650618"><ele>69.8</ele></trkpt>
    <trkpt lat="48.368137" lon="-4.651064"><ele>70.4</ele></trkpt>
    <trkpt lat="48.367787" lon="-4.651526"><ele>72.0</ele></trkpt>
    <trkpt lat="48.367610" lon="-4.651990"><ele>72.4</ele></trkpt>
    <trkpt lat="48.367505" lon="-4.652458"><ele>72.6</ele></trkpt>
    <trkpt lat="48.367320" lon="-4.652901"><ele>72.4</ele></trkpt>
    <trkpt lat="48.366905" lon="-4.653012"><ele>72.6</ele></trkpt>
    <trkpt lat="48.366752" lon="-4.653146"><ele>73.2</ele></trkpt>
    <trkpt lat="48.366626" lon="-4.653322"><ele>73.6</ele></trkpt>
    <trkpt lat="48.366522" lon="-4.653390"><ele>73.6</ele></trkpt>
    <trkpt lat="48.366044" lon="-4.653356"><ele>74.0</ele></trkpt>
    <trkpt lat="48.365871" lon="-4.653410"><ele>74.4</ele></trkpt>
    <trkpt lat="48.365398" lon="-4.653927"><ele>74.4</ele></trkpt>
    <trkpt lat="48.364141" lon="-4.654721"><ele>76.0</ele></trkpt>
    <trkpt lat="48.363743" lon="-4.654875"><ele>76.0</ele></trkpt>
    <trkpt lat="48.363421" lon="-4.654916"><ele>76.2</ele></trkpt>
    <trkpt lat="48.362825" lon="-4.655108"><ele>76.6</ele></trkpt>
    <trkpt lat="48.362714" lon="-4.655255"><ele>76.4</ele></trkpt>
    <trkpt lat="48.362539" lon="-4.656079"><ele>75.2</ele></trkpt>
    <trkpt lat="48.362411" lon="-4.656290"><ele>75.0</ele></trkpt>
    <trkpt lat="48.362245" lon="-4.656354"><ele>74.4</ele></trkpt>
    <trkpt lat="48.361769" lon="-4.656339"><ele>73.4</ele></trkpt>
    <trkpt lat="48.361310" lon="-4.656462"><ele>72.8</ele></trkpt>
    <trkpt lat="48.361019" lon="-4.656621"><ele>72.0</ele></trkpt>
    <trkpt lat="48.360559" lon="-4.657028"><ele>71.0</ele></trkpt>
    <trkpt lat="48.360513" lon="-4.657130"><ele>71.0</ele></trkpt>
    <trkpt lat="48.360501" lon="-4.657348"><ele>71.2</ele></trkpt>
    <trkpt lat="48.360593" lon="-4.657866"><ele>72.0</ele></trkpt>
    <trkpt lat="48.361215" lon="-4.659080"><ele>72.0</ele></trkpt>
    <trkpt lat="48.361530" lon="-4.659965"><ele>71.4</ele></trkpt>
    <trkpt lat="48.361526" lon="-4.660136"><ele>71.2</ele></trkpt>
    <trkpt lat="48.360615" lon="-4.660878"><ele>69.0</ele></trkpt>
    <trkpt lat="48.360463" lon="-4.661050"><ele>68.6</ele></trkpt>
    <trkpt lat="48.360108" lon="-4.661635"><ele>67.2</ele></trkpt>
    <trkpt lat="48.360095" lon="-4.661752"><ele>67.2</ele></trkpt>
    <trkpt lat="48.360147" lon="-4.662072"><ele>66.4</ele></trkpt>
    <trkpt lat="48.360091" lon="-4.662242"><ele>66.0</ele></trkpt>
    <trkpt lat="48.358906" lon="-4.663950"><ele>58.6</ele></trkpt>
    <trkpt lat="48.358694" lon="-4.664077"><ele>57.8</ele></trkpt>
    <trkpt lat="48.358219" lon="-4.664237"><ele>57.6</ele></trkpt>
    <trkpt lat="48.358039" lon="-4.664368"><ele>57.0</ele></trkpt>
    <trkpt lat="48.357794" lon="-4.664308"><ele>56.6</ele></trkpt>
    <trkpt lat="48.357685" lon="-4.664329"><ele>56.4</ele></trkpt>
    <trkpt lat="48.357059" lon="-4.664677"><ele>55.2</ele></trkpt>
    <trkpt lat="48.356971" lon="-4.664774"><ele>54.8</ele></trkpt>
    <trkpt lat="48.356947" lon="-4.665206"><ele>54.2</ele></trkpt>
    <trkpt lat="48.356749" lon="-4.665713"><ele>53.0</ele></trkpt>
    <trkpt lat="48.356575" lon="-4.666269"><ele>52.2</ele></trkpt>
    <trkpt lat="48.356492" lon="-4.666640"><ele>51.0</ele></trkpt>
    <trkpt lat="48.356466" lon="-4.666984"><ele>49.6</ele></trkpt>
    <trkpt lat="48.356308" lon="-4.667435"><ele>48.0</ele></trkpt>
    <trkpt lat="48.356319" lon="-4.667818"><ele>47.6</ele></trkpt>
    <trkpt lat="48.356394" lon="-4.668169"><ele>47.2</ele></trkpt>
    <trkpt lat="48.356495" lon="-4.668323"><ele>46.4</ele></trkpt>
    <trkpt lat="48.357249" lon="-4.668490"><ele>43.8</ele></trkpt>
    <trkpt lat="48.357497" lon="-4.668365"><ele>42.4</ele></trkpt>
    <trkpt lat="48.357894" lon="-4.668377"><ele>40.0</ele></trkpt>
    <trkpt lat="48.357962" lon="-4.668434"><ele>38.8</ele></trkpt>
    <trkpt lat="48.357971" lon="-4.668572"><ele>37.6</ele></trkpt>
    <trkpt lat="48.357943" lon="-4.668715"><ele>36.2</ele></trkpt>
    <trkpt lat="48.357890" lon="-4.668809"><ele>35.2</ele></trkpt>
    <trkpt lat="48.357588" lon="-4.669098"><ele>32.0</ele></trkpt>
    <trkpt lat="48.357548" lon="-4.669415"><ele>30.2</ele></trkpt>
    <trkpt lat="48.357393" lon="-4.669678"><ele>29.0</ele></trkpt>
    <trkpt lat="48.356854" lon="-4.670228"><ele>28.2</ele></trkpt>
    <trkpt lat="48.356789" lon="-4.670496"><ele>26.8</ele></trkpt>
    <trkpt lat="48.356884" lon="-4.670826"><ele>23.4</ele></trkpt>
    <trkpt lat="48.356873" lon="-4.670953"><ele>22.6</ele></trkpt>
    <trkpt lat="48.356570" lon="-4.671323"><ele>21.8</ele></trkpt>
    <trkpt lat="48.356023" lon="-4.672132"><ele>18.2</ele></trkpt>
    <trkpt lat="48.355988" lon="-4.672277"><ele>17.4</ele></trkpt>
    <trkpt lat="48.355981" lon="-4.672648"><ele>15.6</ele></trkpt>
    <trkpt lat="48.355923" lon="-4.672855"><ele>15.0</ele></trkpt>
    <trkpt lat="48.355759" lon="-4.673015"><ele>14.0</ele></trkpt>
    <trkpt lat="48.355305" lon="-4.673263"><ele>12.2</ele></trkpt>
    <trkpt lat="48.355010" lon="-4.673503"><ele>10.8</ele></trkpt>
    <trkpt lat="48.354734" lon="-4.673891"><ele>9.4</ele></trkpt>
    <trkpt lat="48.354653" lon="-4.674194"><ele>8.4</ele></trkpt>
    <trkpt lat="48.354675" lon="-4.674750"><ele>9.0</ele></trkpt>
    <trkpt lat="48.354798" lon="-4.675398"><ele>11.2</ele></trkpt>
    <trkpt lat="48.354844" lon="-4.676046"><ele>13.4</ele></trkpt>
    <trkpt lat="48.354909" lon="-4.676265"><ele>14.4</ele></trkpt>
    <trkpt lat="48.355047" lon="-4.676539"><ele>16.0</ele></trkpt>
    <trkpt lat="48.355157" lon="-4.676982"><ele>16.4</ele></trkpt>
    <trkpt lat="48.355165" lon="-4.677396"><ele>16.0</ele></trkpt>
    <trkpt lat="48.355207" lon="-4.677603"><ele>16.4</ele></trkpt>
    <trkpt lat="48.355353" lon="-4.678018"><ele>15.8</ele></trkpt>
    <trkpt lat="48.355730" lon="-4.678424"><ele>10.8</ele></trkpt>
    <trkpt lat="48.355972" lon="-4.678882"><ele>8.0</ele></trkpt>
    <trkpt lat="48.356231" lon="-4.678955"><ele>6.8</ele></trkpt>
    <trkpt lat="48.356268" lon="-4.679052"><ele>6.8</ele></trkpt>
    <trkpt lat="48.356305" lon="-4.679366"><ele>7.2</ele></trkpt>
    <trkpt lat="48.356245" lon="-4.679943"><ele>7.8</ele></trkpt>
    <trkpt lat="48.356073" lon="-4.680327"><ele>9.0</ele></trkpt>
    <trkpt lat="48.356039" lon="-4.680644"><ele>12.4</ele></trkpt>
    <trkpt lat="48.356058" lon="-4.680765"><ele>14.2</ele></trkpt>
    <trkpt lat="48.355753" lon="-4.681168"><ele>16.4</ele></trkpt>
    <trkpt lat="48.355615" lon="-4.681276"><ele>17.2</ele></trkpt>
    <trkpt lat="48.355528" lon="-4.681443"><ele>17.6</ele></trkpt>
    <trkpt lat="48.355366" lon="-4.681598"><ele>18.2</ele></trkpt>
    <trkpt lat="48.355308" lon="-4.681774"><ele>19.0</ele></trkpt>
    <trkpt lat="48.355300" lon="-4.682044"><ele>21.0</ele></trkpt>
    <trkpt lat="48.355263" lon="-4.682108"><ele>21.6</ele></trkpt>
    <trkpt lat="48.354977" lon="-4.682327"><ele>22.4</ele></trkpt>
    <trkpt lat="48.354890" lon="-4.682302"><ele>22.0</ele></trkpt>
    <trkpt lat="48.354718" lon="-4.682165"><ele>19.8</ele></trkpt>
    <trkpt lat="48.354651" lon="-4.682165"><ele>19.2</ele></trkpt>
    <trkpt lat="48.354387" lon="-4.682465"><ele>18.8</ele></trkpt>
    <trkpt lat="48.354365" lon="-4.682520"><ele>19.0</ele></trkpt>
    <trkpt lat="48.354391" lon="-4.682713"><ele>19.8</ele></trkpt>
    <trkpt lat="48.354368" lon="-4.682840"><ele>19.8</ele></trkpt>
    <trkpt lat="48.354294" lon="-4.682927"><ele>19.0</ele></trkpt>
    <trkpt lat="48.354098" lon="-4.683029"><ele>16.8</ele></trkpt>
    <trkpt lat="48.353991" lon="-4.683194"><ele>15.4</ele></trkpt>
    <trkpt lat="48.353886" lon="-4.683635"><ele>15.4</ele></trkpt>
    <trkpt lat="48.353930" lon="-4.684082"><ele>17.8</ele></trkpt>
    <trkpt lat="48.353855" lon="-4.684247"><ele>17.6</ele></trkpt>
    <trkpt lat="48.353725" lon="-4.684337"><ele>17.4</ele></trkpt>
    <trkpt lat="48.353619" lon="-4.684667"><ele>18.0</ele></trkpt>
    <trkpt lat="48.353621" lon="-4.684783"><ele>18.8</ele></trkpt>
    <trkpt lat="48.353711" lon="-4.685082"><ele>21.6</ele></trkpt>
    <trkpt lat="48.353788" lon="-4.685189"><ele>23.4</ele></trkpt>
    <trkpt lat="48.354013" lon="-4.685277"><ele>26.8</ele></trkpt>
    <trkpt lat="48.354441" lon="-4.685214"><ele>30.0</ele></trkpt>
    <trkpt lat="48.354624" lon="-4.685259"><ele>31.4</ele></trkpt>
    <trkpt lat="48.354644" lon="-4.685463"><ele>31.6</ele></trkpt>
    <trkpt lat="48.354559" lon="-4.687246"><ele>24.4</ele></trkpt>
    <trkpt lat="48.354607" lon="-4.687531"><ele>23.2</ele></trkpt>
    <trkpt lat="48.354788" lon="-4.688211"><ele>20.0</ele></trkpt>
    <trkpt lat="48.354763" lon="-4.688846"><ele>17.0</ele></trkpt>
    <trkpt lat="48.354786" lon="-4.689058"><ele>16.4</ele></trkpt>
    <trkpt lat="48.354851" lon="-4.689281"><ele>15.2</ele></trkpt>
    <trkpt lat="48.354833" lon="-4.689378"><ele>14.2</ele></trkpt>
    <trkpt lat="48.354655" lon="-4.689600"><ele>11.0</ele></trkpt>
    <trkpt lat="48.354629" lon="-4.689791"><ele>9.6</ele></trkpt>
    <trkpt lat="48.354664" lon="-4.690018"><ele>8.6</ele></trkpt>
    <trkpt lat="48.354853" lon="-4.690379"><ele>7.4</ele></trkpt>
    <trkpt lat="48.354872" lon="-4.691118"><ele>10.0</ele></trkpt>
    <trkpt lat="48.354914" lon="-4.691174"><ele>11.6</ele></trkpt>
    <trkpt lat="48.354501" lon="-4.691568"><ele>16.2</ele></trkpt>
    <trkpt lat="48.354445" lon="-4.691827"><ele>17.2</ele></trkpt>
    <trkpt lat="48.354366" lon="-4.691960"><ele>17.0</ele></trkpt>
    <trkpt lat="48.354044" lon="-4.692086"><ele>14.4</ele></trkpt>
    <trkpt lat="48.353842" lon="-4.692294"><ele>14.8</ele></trkpt>
    <trkpt lat="48.353611" lon="-4.693165"><ele>17.0</ele></trkpt>
    <trkpt lat="48.353586" lon="-4.693566"><ele>17.6</ele></trkpt>
    <trkpt lat="48.353639" lon="-4.694240"><ele>16.6</ele></trkpt>
    <trkpt lat="48.353604" lon="-4.694643"><ele>15.0</ele></trkpt>
    <trkpt lat="48.353532" lon="-4.694842"><ele>14.0</ele></trkpt>
    <trkpt lat="48.353156" lon="-4.695324"><ele>7.6</ele></trkpt>
    <trkpt lat="48.352873" lon="-4.695448"><ele>4.0</ele></trkpt>
    <trkpt lat="48.352262" lon="-4.696006"><ele>2.2</ele></trkpt>
    <trkpt lat="48.352178" lon="-4.696318"><ele>2.0</ele></trkpt>
    <trkpt lat="48.352092" lon="-4.696408"><ele>1.6</ele></trkpt>
    <trkpt lat="48.352030" lon="-4.696592"><ele>1.4</ele></trkpt>
    <trkpt lat="48.351648" lon="-4.697023"><ele>1.6</ele></trkpt>
    <trkpt lat="48.351514" lon="-4.697332"><ele>1.4</ele></trkpt>
    <trkpt lat="48.351214" lon="-4.698247"><ele>1.8</ele></trkpt>
    <trkpt lat="48.350809" lon="-4.699070"><ele>2.8</ele></trkpt>
    <trkpt lat="48.350240" lon="-4.700382"><ele>3.4</ele></trkpt>
    <trkpt lat="48.350087" lon="-4.700626"><ele>3.2</ele></trkpt>
    <trkpt lat="48.349345" lon="-4.701164"><ele>2.2</ele></trkpt>
    <trkpt lat="48.348709" lon="-4.701922"><ele>2.8</ele></trkpt>
    <trkpt lat="48.347817" lon="-4.702637"><ele>2.8</ele></trkpt>
    <trkpt lat="48.347110" lon="-4.703083"><ele>2.8</ele></trkpt>
    <trkpt lat="48.346393" lon="-4.703302"><ele>2.4</ele></trkpt>
    <trkpt lat="48.346047" lon="-4.703319"><ele>3.2</ele></trkpt>
    <trkpt lat="48.345704" lon="-4.703396"><ele>4.2</ele></trkpt>
    <trkpt lat="48.345423" lon="-4.703326"><ele>4.4</ele></trkpt>
    <trkpt lat="48.345282" lon="-4.702983"><ele>4.4</ele></trkpt>
    <trkpt lat="48.345257" lon="-4.702607"><ele>4.6</ele></trkpt>
    <trkpt lat="48.345148" lon="-4.702597"><ele>6.0</ele></trkpt>
    <trkpt lat="48.344918" lon="-4.702800"><ele>8.6</ele></trkpt>
    <trkpt lat="48.344866" lon="-4.702741"><ele>9.2</ele></trkpt>
    <trkpt lat="48.344868" lon="-4.702295"><ele>10.8</ele></trkpt>
    <trkpt lat="48.344913" lon="-4.701982"><ele>11.4</ele></trkpt>
    <trkpt lat="48.344873" lon="-4.701798"><ele>11.4</ele></trkpt>
    <trkpt lat="48.344162" lon="-4.701265"><ele>12.4</ele></trkpt>
    <trkpt lat="48.343978" lon="-4.701225"><ele>11.8</ele></trkpt>
    <trkpt lat="48.343638" lon="-4.701310"><ele>12.0</ele></trkpt>
    <trkpt lat="48.343442" lon="-4.701259"><ele>11.8</ele></trkpt>
    <trkpt lat="48.343272" lon="-4.701270"><ele>11.8</ele></trkpt>
    <trkpt lat="48.342964" lon="-4.701524"><ele>13.6</ele></trkpt>
    <trkpt lat="48.342833" lon="-4.701561"><ele>14.4</ele></trkpt>
    <trkpt lat="48.342713" lon="-4.701478"><ele>14.8</ele></trkpt>
    <trkpt lat="48.342576" lon="-4.701215"><ele>14.6</ele></trkpt>
    <trkpt lat="48.342481" lon="-4.701116"><ele>14.6</ele></trkpt>
    <trkpt lat="48.341489" lon="-4.700575"><ele>29.8</ele></trkpt>
    <trkpt lat="48.341041" lon="-4.700651"><ele>22.2</ele></trkpt>
    <trkpt lat="48.340670" lon="-4.700634"><ele>15.8</ele></trkpt>
    <trkpt lat="48.340331" lon="-4.700944"><ele>13.2</ele></trkpt>
    <trkpt lat="48.340043" lon="-4.701079"><ele>9.8</ele></trkpt>
    <trkpt lat="48.339847" lon="-4.701406"><ele>7.8</ele></trkpt>
    <trkpt lat="48.339741" lon="-4.701717"><ele>7.4</ele></trkpt>
    <trkpt lat="48.339688" lon="-4.702038"><ele>7.2</ele></trkpt>
    <trkpt lat="48.339691" lon="-4.702613"><ele>7.4</ele></trkpt>
    <trkpt lat="48.339638" lon="-4.702636"><ele>7.4</ele></trkpt>
    <trkpt lat="48.339515" lon="-4.702563"><ele>7.6</ele></trkpt>
    <trkpt lat="48.339181" lon="-4.702491"><ele>7.4</ele></trkpt>
    <trkpt lat="48.339119" lon="-4.702407"><ele>7.4</ele></trkpt>
    <trkpt lat="48.339101" lon="-4.702245"><ele>7.6</ele></trkpt>
    <trkpt lat="48.339170" lon="-4.702017"><ele>7.6</ele></trkpt>
    <trkpt lat="48.339361" lon="-4.701603"><ele>6.6</ele></trkpt>
    <trkpt lat="48.339374" lon="-4.701368"><ele>6.4</ele></trkpt>
    <trkpt lat="48.339019" lon="-4.700716"><ele>11.8</ele></trkpt>
    <trkpt lat="48.338928" lon="-4.700470"><ele>14.8</ele></trkpt>
    <trkpt lat="48.338863" lon="-4.700391"><ele>16.0</ele></trkpt>
    <trkpt lat="48.338713" lon="-4.700321"><ele>18.2</ele></trkpt>
    <trkpt lat="48.338674" lon="-4.700234"><ele>19.0</ele></trkpt>
    <trkpt lat="48.338707" lon="-4.700083"><ele>19.6</ele></trkpt>
    <trkpt lat="48.338883" lon="-4.699835"><ele>19.2</ele></trkpt>
    <trkpt lat="48.338955" lon="-4.699672"><ele>18.0</ele></trkpt>
    <trkpt lat="48.338944" lon="-4.699358"><ele>16.0</ele></trkpt>
    <trkpt lat="48.338889" lon="-4.699218"><ele>15.0</ele></trkpt>
    <trkpt lat="48.338590" lon="-4.698737"><ele>12.6</ele></trkpt>
    <trkpt lat="48.338396" lon="-4.698596"><ele>11.4</ele></trkpt>
    <trkpt lat="48.338257" lon="-4.698402"><ele>11.4</ele></trkpt>
    <trkpt lat="48.338137" lon="-4.698378"><ele>12.0</ele></trkpt>
    <trkpt lat="48.337727" lon="-4.698969"><ele>18.8</ele></trkpt>
    <trkpt lat="48.337689" lon="-4.699287"><ele>21.4</ele></trkpt>
    <trkpt lat="48.337629" lon="-4.699417"><ele>21.2</ele></trkpt>
    <trkpt lat="48.337496" lon="-4.699569"><ele>19.4</ele></trkpt>
    <trkpt lat="48.337296" lon="-4.699607"><ele>18.4</ele></trkpt>
    <trkpt lat="48.337217" lon="-4.699694"><ele>19.0</ele></trkpt>
    <trkpt lat="48.337184" lon="-4.700034"><ele>21.8</ele></trkpt>
    <trkpt lat="48.337054" lon="-4.700592"><ele>22.2</ele></trkpt>
    <trkpt lat="48.337144" lon="-4.701207"><ele>21.8</ele></trkpt>
    <trkpt lat="48.337132" lon="-4.701697"><ele>23.0</ele></trkpt>
    <trkpt lat="48.337047" lon="-4.701878"><ele>23.2</ele></trkpt>
    <trkpt lat="48.336719" lon="-4.702282"><ele>20.8</ele></trkpt>
    <trkpt lat="48.336644" lon="-4.702465"><ele>20.0</ele></trkpt>
    <trkpt lat="48.336549" lon="-4.703006"><ele>22.6</ele></trkpt>
    <trkpt lat="48.336508" lon="-4.703544"><ele>27.2</ele></trkpt>
    <trkpt lat="48.336503" lon="-4.704543"><ele>31.0</ele></trkpt>
    <trkpt lat="48.336586" lon="-4.705310"><ele>34.2</ele></trkpt>
    <trkpt lat="48.336584" lon="-4.705845"><ele>36.0</ele></trkpt>
    <trkpt lat="48.336408" lon="-4.707162"><ele>40.4</ele></trkpt>
    <trkpt lat="48.336228" lon="-4.708002"><ele>42.8</ele></trkpt>
    <trkpt lat="48.336076" lon="-4.709059"><ele>46.8</ele></trkpt>
    <trkpt lat="48.335950" lon="-4.709672"><ele>47.6</ele></trkpt>
    <trkpt lat="48.335872" lon="-4.709708"><ele>47.2</ele></trkpt>
    <trkpt lat="48.335343" lon="-4.709578"><ele>44.2</ele></trkpt>
    <trkpt lat="48.334873" lon="-4.709518"><ele>40.2</ele></trkpt>
    <trkpt lat="48.334440" lon="-4.709303"><ele>39.6</ele></trkpt>
    <trkpt lat="48.334426" lon="-4.709183"><ele>39.2</ele></trkpt>
    <trkpt lat="48.334668" lon="-4.708173"><ele>32.2</ele></trkpt>
    <trkpt lat="48.334664" lon="-4.707863"><ele>29.6</ele></trkpt>
    <trkpt lat="48.334642" lon="-4.707682"><ele>28.0</ele></trkpt>
    <trkpt lat="48.334581" lon="-4.707518"><ele>26.6</ele></trkpt>
    <trkpt lat="48.334407" lon="-4.707195"><ele>21.4</ele></trkpt>
    <trkpt lat="48.334261" lon="-4.707052"><ele>17.0</ele></trkpt>
    <trkpt lat="48.334200" lon="-4.707090"><ele>16.0</ele></trkpt>
    <trkpt lat="48.334156" lon="-4.707196"><ele>15.6</ele></trkpt>
    <trkpt lat="48.334081" lon="-4.707730"><ele>22.2</ele></trkpt>
    <trkpt lat="48.334018" lon="-4.707835"><ele>23.4</ele></trkpt>
    <trkpt lat="48.333943" lon="-4.707848"><ele>22.8</ele></trkpt>
    <trkpt lat="48.333768" lon="-4.707729"><ele>19.6</ele></trkpt>
    <trkpt lat="48.333212" lon="-4.708114"><ele>20.2</ele></trkpt>
    <trkpt lat="48.332453" lon="-4.708080"><ele>23.0</ele></trkpt>
    <trkpt lat="48.332239" lon="-4.708208"><ele>27.2</ele></trkpt>
    <trkpt lat="48.332088" lon="-4.708472"><ele>29.6</ele></trkpt>
    <trkpt lat="48.332045" lon="-4.708983"><ele>32.0</ele></trkpt>
    <trkpt lat="48.331962" lon="-4.709264"><ele>36.0</ele></trkpt>
    <trkpt lat="48.331866" lon="-4.709414"><ele>39.0</ele></trkpt>
    <trkpt lat="48.331629" lon="-4.709545"><ele>39.2</ele></trkpt>
    <trkpt lat="48.331507" lon="-4.709699"><ele>38.2</ele></trkpt>
    <trkpt lat="48.331449" lon="-4.709935"><ele>37.4</ele></trkpt>
    <trkpt lat="48.331442" lon="-4.710613"><ele>40.2</ele></trkpt>
    <trkpt lat="48.331474" lon="-4.710785"><ele>41.4</ele></trkpt>
    <trkpt lat="48.331570" lon="-4.711029"><ele>43.4</ele></trkpt>
    <trkpt lat="48.331601" lon="-4.711377"><ele>46.2</ele></trkpt>
    <trkpt lat="48.331689" lon="-4.711660"><ele>46.4</ele></trkpt>
    <trkpt lat="48.331673" lon="-4.711887"><ele>44.6</ele></trkpt>
    <trkpt lat="48.331711" lon="-4.712152"><ele>42.2</ele></trkpt>
    <trkpt lat="48.331701" lon="-4.712609"><ele>40.4</ele></trkpt>
    <trkpt lat="48.331796" lon="-4.712837"><ele>41.0</ele></trkpt>
    <trkpt lat="48.332040" lon="-4.712894"><ele>42.8</ele></trkpt>
    <trkpt lat="48.332092" lon="-4.712952"><ele>42.8</ele></trkpt>
    <trkpt lat="48.332171" lon="-4.713243"><ele>43.2</ele></trkpt>
    <trkpt lat="48.332181" lon="-4.713520"><ele>43.4</ele></trkpt>
    <trkpt lat="48.332075" lon="-4.713683"><ele>43.0</ele></trkpt>
    <trkpt lat="48.331944" lon="-4.713775"><ele>42.0</ele></trkpt>
    <trkpt lat="48.331460" lon="-4.713820"><ele>37.0</ele></trkpt>
    <trkpt lat="48.331055" lon="-4.713914"><ele>31.2</ele></trkpt>
    <trkpt lat="48.330745" lon="-4.714052"><ele>27.2</ele></trkpt>
    <trkpt lat="48.330629" lon="-4.714163"><ele>26.2</ele></trkpt>
    <trkpt lat="48.330582" lon="-4.714343"><ele>26.2</ele></trkpt>
    <trkpt lat="48.330776" lon="-4.715069"><ele>34.6</ele></trkpt>
    <trkpt lat="48.330768" lon="-4.715265"><ele>35.4</ele></trkpt>
    <trkpt lat="48.330597" lon="-4.715635"><ele>33.6</ele></trkpt>
    <trkpt lat="48.330118" lon="-4.716374"><ele>30.0</ele></trkpt>
    <trkpt lat="48.330061" lon="-4.716538"><ele>29.4</ele></trkpt>
    <trkpt lat="48.330099" lon="-4.716684"><ele>29.4</ele></trkpt>
    <trkpt lat="48.330546" lon="-4.717543"><ele>34.2</ele></trkpt>
    <trkpt lat="48.330635" lon="-4.717519"><ele>35.0</ele></trkpt>
    <trkpt lat="48.330855" lon="-4.717304"><ele>38.0</ele></trkpt>
    <trkpt lat="48.330982" lon="-4.717041"><ele>40.6</ele></trkpt>
    <trkpt lat="48.331090" lon="-4.716938"><ele>41.0</ele></trkpt>
    <trkpt lat="48.331316" lon="-4.716959"><ele>37.4</ele></trkpt>
    <trkpt lat="48.331341" lon="-4.717045"><ele>34.4</ele></trkpt>
    <trkpt lat="48.331306" lon="-4.717209"><ele>31.4</ele></trkpt>
    <trkpt lat="48.331320" lon="-4.717436"><ele>27.2</ele></trkpt>
    <trkpt lat="48.331190" lon="-4.717819"><ele>23.4</ele></trkpt>
    <trkpt lat="48.331217" lon="-4.718059"><ele>22.4</ele></trkpt>
    <trkpt lat="48.330984" lon="-4.718359"><ele>18.4</ele></trkpt>
    <trkpt lat="48.330922" lon="-4.718491"><ele>16.8</ele></trkpt>
    <trkpt lat="48.330914" lon="-4.718922"><ele>20.8</ele></trkpt>
    <trkpt lat="48.330806" lon="-4.719154"><ele>19.8</ele></trkpt>
    <trkpt lat="48.330715" lon="-4.719771"><ele>21.4</ele></trkpt>
    <trkpt lat="48.330740" lon="-4.719849"><ele>22.0</ele></trkpt>
    <trkpt lat="48.330899" lon="-4.719971"><ele>24.8</ele></trkpt>
    <trkpt lat="48.330911" lon="-4.720068"><ele>26.0</ele></trkpt>
    <trkpt lat="48.330839" lon="-4.720301"><ele>27.4</ele></trkpt>
    <trkpt lat="48.330474" lon="-4.721115"><ele>27.4</ele></trkpt>
    <trkpt lat="48.330469" lon="-4.721463"><ele>28.0</ele></trkpt>
    <trkpt lat="48.330499" lon="-4.721557"><ele>28.4</ele></trkpt>
    <trkpt lat="48.330595" lon="-4.721675"><ele>28.6</ele></trkpt>
    <trkpt lat="48.330599" lon="-4.721733"><ele>28.6</ele></trkpt>
    <trkpt lat="48.330418" lon="-4.722540"><ele>30.4</ele></trkpt>
    <trkpt lat="48.330287" lon="-4.722898"><ele>29.0</ele></trkpt>
    <trkpt lat="48.330265" lon="-4.723045"><ele>28.8</ele></trkpt>
    <trkpt lat="48.330277" lon="-4.723320"><ele>29.0</ele></trkpt>
    <trkpt lat="48.330313" lon="-4.723458"><ele>28.8</ele></trkpt>
    <trkpt lat="48.330632" lon="-4.723828"><ele>24.8</ele></trkpt>
    <trkpt lat="48.330531" lon="-4.724000"><ele>22.2</ele></trkpt>
    <trkpt lat="48.330508" lon="-4.724143"><ele>23.2</ele></trkpt>
    <trkpt lat="48.330685" lon="-4.724719"><ele>32.6</ele></trkpt>
    <trkpt lat="48.330698" lon="-4.725185"><ele>31.6</ele></trkpt>
    <trkpt lat="48.330570" lon="-4.725699"><ele>25.0</ele></trkpt>
    <trkpt lat="48.330461" lon="-4.725850"><ele>21.6</ele></trkpt>
    <trkpt lat="48.330488" lon="-4.725947"><ele>21.0</ele></trkpt>
    <trkpt lat="48.330667" lon="-4.726211"><ele>22.6</ele></trkpt>
    <trkpt lat="48.330728" lon="-4.726949"><ele>29.2</ele></trkpt>
    <trkpt lat="48.330685" lon="-4.727243"><ele>29.8</ele></trkpt>
    <trkpt lat="48.330490" lon="-4.727776"><ele>31.4</ele></trkpt>
    <trkpt lat="48.330551" lon="-4.728512"><ele>33.0</ele></trkpt>
    <trkpt lat="48.330618" lon="-4.728781"><ele>34.6</ele></trkpt>
    <trkpt lat="48.330810" lon="-4.729053"><ele>35.0</ele></trkpt>
    <trkpt lat="48.331175" lon="-4.729742"><ele>41.6</ele></trkpt>
    <trkpt lat="48.331310" lon="-4.729690"><ele>42.4</ele></trkpt>
    <trkpt lat="48.331358" lon="-4.729374"><ele>43.4</ele></trkpt>
    <trkpt lat="48.331347" lon="-4.729062"><ele>44.6</ele></trkpt>
    <trkpt lat="48.331255" lon="-4.728638"><ele>48.0</ele></trkpt>
    <trkpt lat="48.331275" lon="-4.728484"><ele>49.0</ele></trkpt>
    <trkpt lat="48.331409" lon="-4.728351"><ele>49.6</ele></trkpt>
    <trkpt lat="48.331962" lon="-4.728277"><ele>50.4</ele></trkpt>
    <trkpt lat="48.332729" lon="-4.728305"><ele>52.0</ele></trkpt>
    <trkpt lat="48.333050" lon="-4.728368"><ele>52.4</ele></trkpt>
    <trkpt lat="48.333588" lon="-4.728585"><ele>51.6</ele></trkpt>
    <trkpt lat="48.334952" lon="-4.729273"><ele>48.2</ele></trkpt>
    <trkpt lat="48.335612" lon="-4.729530"><ele>47.2</ele></trkpt>
    <trkpt lat="48.336140" lon="-4.729683"><ele>46.4</ele></trkpt>
    <trkpt lat="48.336403" lon="-4.729659"><ele>48.6</ele></trkpt>
    <trkpt lat="48.336728" lon="-4.729701"><ele>50.8</ele></trkpt>
    <trkpt lat="48.337588" lon="-4.729637"><ele>52.6</ele></trkpt>
    <trkpt lat="48.338538" lon="-4.729380"><ele>54.6</ele></trkpt>
    <trkpt lat="48.338742" lon="-4.729250"><ele>55.0</ele></trkpt>
    <trkpt lat="48.338911" lon="-4.729203"><ele>54.8</ele></trkpt>
    <trkpt lat="48.340203" lon="-4.729304"><ele>55.6</ele></trkpt>
    <trkpt lat="48.340681" lon="-4.729289"><ele>55.2</ele></trkpt>
    <trkpt lat="48.342614" lon="-4.728790"><ele>52.0</ele></trkpt>
    <trkpt lat="48.342694" lon="-4.728675"><ele>51.8</ele></trkpt>
    <trkpt lat="48.342934" lon="-4.727808"><ele>51.0</ele></trkpt>
    <trkpt lat="48.343487" lon="-4.726304"><ele>50.2</ele></trkpt>
    <trkpt lat="48.343626" lon="-4.726197"><ele>50.2</ele></trkpt>
    <trkpt lat="48.344002" lon="-4.726048"><ele>49.6</ele></trkpt>
    <trkpt lat="48.344117" lon="-4.725948"><ele>49.2</ele></trkpt>
    <trkpt lat="48.344704" lon="-4.725153"><ele>50.4</ele></trkpt>
    <trkpt lat="48.345103" lon="-4.724316"><ele>49.4</ele></trkpt>
    <trkpt lat="48.345254" lon="-4.724081"><ele>49.6</ele></trkpt>
    <trkpt lat="48.346057" lon="-4.723222"><ele>49.6</ele></trkpt>
    <trkpt lat="48.346366" lon="-4.722961"><ele>49.6</ele></trkpt>
    <trkpt lat="48.347067" lon="-4.722232"><ele>50.2</ele></trkpt>
    <trkpt lat="48.347173" lon="-4.722038"><ele>50.6</ele></trkpt>
    <trkpt lat="48.347908" lon="-4.720168"><ele>51.0</ele></trkpt>
    <trkpt lat="48.348147" lon="-4.720066"><ele>51.4</ele></trkpt>
    <trkpt lat="48.348232" lon="-4.719955"><ele>51.4</ele></trkpt>
    <trkpt lat="48.348521" lon="-4.719737"><ele>50.2</ele></trkpt>
    <trkpt lat="48.349094" lon="-4.719376"><ele>49.2</ele></trkpt>
    <trkpt lat="48.349110" lon="-4.719314"><ele>49.0</ele></trkpt>
    <trkpt lat="48.349064" lon="-4.718721"><ele>47.8</ele></trkpt>
    <trkpt lat="48.349081" lon="-4.718186"><ele>46.4</ele></trkpt>
    <trkpt lat="48.349135" lon="-4.717794"><ele>44.8</ele></trkpt>
    <trkpt lat="48.349112" lon="-4.717305"><ele>42.0</ele></trkpt>
    <trkpt lat="48.348965" lon="-4.716363"><ele>36.2</ele></trkpt>
    <trkpt lat="48.348955" lon="-4.716052"><ele>34.6</ele></trkpt>
    <trkpt lat="48.349545" lon="-4.716042"><ele>33.8</ele></trkpt>
    <trkpt lat="48.349880" lon="-4.717028"><ele>40.4</ele></trkpt>
    <trkpt lat="48.349962" lon="-4.717067"><ele>41.4</ele></trkpt>
    <trkpt lat="48.350058" lon="-4.717024"><ele>42.0</ele></trkpt>
    <trkpt lat="48.350247" lon="-4.716818"><ele>43.2</ele></trkpt>
    <trkpt lat="48.351558" lon="-4.714452"><ele>47.8</ele></trkpt>
    <trkpt lat="48.351644" lon="-4.714274"><ele>48.0</ele></trkpt>
    <trkpt lat="48.351783" lon="-4.713833"><ele>48.6</ele></trkpt>
    <trkpt lat="48.351972" lon="-4.713442"><ele>49.6</ele></trkpt>
    <trkpt lat="48.352052" lon="-4.713452"><ele>50.0</ele></trkpt>
    <trkpt lat="48.352375" lon="-4.713796"><ele>51.0</ele></trkpt>
    <trkpt lat="48.352440" lon="-4.713811"><ele>51.2</ele></trkpt>
    <trkpt lat="48.352499" lon="-4.713736"><ele>51.4</ele></trkpt>
    <trkpt lat="48.352619" lon="-4.713340"><ele>52.2</ele></trkpt>
    <trkpt lat="48.352727" lon="-4.712719"><ele>52.0</ele></trkpt>
    <trkpt lat="48.352842" lon="-4.712296"><ele>51.4</ele></trkpt>
    <trkpt lat="48.352901" lon="-4.711547"><ele>51.2</ele></trkpt>
    <trkpt lat="48.352986" lon="-4.711036"><ele>50.6</ele></trkpt>
    <trkpt lat="48.353091" lon="-4.710651"><ele>50.0</ele></trkpt>
    <trkpt lat="48.353353" lon="-4.709947"><ele>50.4</ele></trkpt>
    <trkpt lat="48.353492" lon="-4.709392"><ele>50.0</ele></trkpt>
    <trkpt lat="48.353761" lon="-4.708819"><ele>48.8</ele></trkpt>
    <trkpt lat="48.353897" lon="-4.708145"><ele>49.6</ele></trkpt>
    <trkpt lat="48.354162" lon="-4.707309"><ele>50.0</ele></trkpt>
    <trkpt lat="48.354330" lon="-4.706936"><ele>50.0</ele></trkpt>
    <trkpt lat="48.354577" lon="-4.706246"><ele>49.0</ele></trkpt>
    <trkpt lat="48.354704" lon="-4.706032"><ele>49.0</ele></trkpt>
    <trkpt lat="48.355027" lon="-4.705290"><ele>47.6</ele></trkpt>
    <trkpt lat="48.355320" lon="-4.704427"><ele>46.6</ele></trkpt>
    <trkpt lat="48.355356" lon="-4.704219"><ele>46.0</ele></trkpt>
    <trkpt lat="48.355349" lon="-4.704033"><ele>45.6</ele></trkpt>
    <trkpt lat="48.355220" lon="-4.703681"><ele>45.6</ele></trkpt>
    <trkpt lat="48.355110" lon="-4.703200"><ele>47.6</ele></trkpt>
    <trkpt lat="48.355105" lon="-4.703076"><ele>48.0</ele></trkpt>
    <trkpt lat="48.355175" lon="-4.702758"><ele>48.6</ele></trkpt>
    <trkpt lat="48.355582" lon="-4.701755"><ele>51.0</ele></trkpt>
    <trkpt lat="48.355698" lon="-4.701303"><ele>51.2</ele></trkpt>
    <trkpt lat="48.355879" lon="-4.700869"><ele>50.6</ele></trkpt>
    <trkpt lat="48.355891" lon="-4.700675"><ele>50.2</ele></trkpt>
    <trkpt lat="48.355849" lon="-4.700187"><ele>49.8</ele></trkpt>
    <trkpt lat="48.355880" lon="-4.699914"><ele>49.6</ele></trkpt>
    <trkpt lat="48.355982" lon="-4.699744"><ele>49.4</ele></trkpt>
    <trkpt lat="48.356207" lon="-4.699633"><ele>49.2</ele></trkpt>
    <trkpt lat="48.356329" lon="-4.699423"><ele>48.8</ele></trkpt>
    <trkpt lat="48.356564" lon="-4.698731"><ele>47.6</ele></trkpt>
    <trkpt lat="48.356697" lon="-4.698189"><ele>47.2</ele></trkpt>
    <trkpt lat="48.356819" lon="-4.697521"><ele>46.4</ele></trkpt>
    <trkpt lat="48.357262" lon="-4.696852"><ele>46.6</ele></trkpt>
    <trkpt lat="48.357436" lon="-4.696475"><ele>46.0</ele></trkpt>
    <trkpt lat="48.357467" lon="-4.696321"><ele>45.8</ele></trkpt>
    <trkpt lat="48.357447" lon="-4.696153"><ele>45.4</ele></trkpt>
    <trkpt lat="48.357342" lon="-4.695867"><ele>45.0</ele></trkpt>
    <trkpt lat="48.356920" lon="-4.695163"><ele>44.2</ele></trkpt>
    <trkpt lat="48.356840" lon="-4.695168"><ele>44.2</ele></trkpt>
    <trkpt lat="48.356581" lon="-4.695323"><ele>43.8</ele></trkpt>
    <trkpt lat="48.356197" lon="-4.695320"><ele>41.2</ele></trkpt>
    <trkpt lat="48.356151" lon="-4.695267"><ele>40.8</ele></trkpt>
    <trkpt lat="48.356152" lon="-4.695140"><ele>40.4</ele></trkpt>
    <trkpt lat="48.356347" lon="-4.694263"><ele>39.6</ele></trkpt>
    <trkpt lat="48.356513" lon="-4.693915"><ele>38.6</ele></trkpt>
    <trkpt lat="48.356516" lon="-4.693807"><ele>38.2</ele></trkpt>
    <trkpt lat="48.356441" lon="-4.693711"><ele>37.8</ele></trkpt>
    <trkpt lat="48.356356" lon="-4.693685"><ele>37.2</ele></trkpt>
    <trkpt lat="48.355805" lon="-4.693829"><ele>35.2</ele></trkpt>
    <trkpt lat="48.355777" lon="-4.693445"><ele>35.0</ele></trkpt>
    <trkpt lat="48.355682" lon="-4.692999"><ele>34.8</ele></trkpt>
    <trkpt lat="48.355697" lon="-4.692861"><ele>34.4</ele></trkpt>
    <trkpt lat="48.355855" lon="-4.692488"><ele>33.4</ele></trkpt>
    <trkpt lat="48.356073" lon="-4.691711"><ele>29.2</ele></trkpt>
    <trkpt lat="48.356090" lon="-4.691525"><ele>28.2</ele></trkpt>
    <trkpt lat="48.356054" lon="-4.691300"><ele>26.6</ele></trkpt>
    <trkpt lat="48.355935" lon="-4.691082"><ele>24.4</ele></trkpt>
    <trkpt lat="48.355803" lon="-4.690999"><ele>22.6</ele></trkpt>
    <trkpt lat="48.355358" lon="-4.691070"><ele>18.6</ele></trkpt>
    <trkpt lat="48.354891" lon="-4.691083"><ele>10.6</ele></trkpt>
    <trkpt lat="48.354923" lon="-4.690724"><ele>7.8</ele></trkpt>
    <trkpt lat="48.354892" lon="-4.690417"><ele>7.8</ele></trkpt>
    <trkpt lat="48.354646" lon="-4.689886"><ele>11.4</ele></trkpt>
    <trkpt lat="48.354618" lon="-4.689737"><ele>12.0</ele></trkpt>
    <trkpt lat="48.354650" lon="-4.689593"><ele>12.6</ele></trkpt>
    <trkpt lat="48.354837" lon="-4.689367"><ele>14.4</ele></trkpt>
    <trkpt lat="48.354874" lon="-4.689256"><ele>15.2</ele></trkpt>
    <trkpt lat="48.354789" lon="-4.688934"><ele>17.2</ele></trkpt>
    <trkpt lat="48.354755" lon="-4.688669"><ele>18.4</ele></trkpt>
    <trkpt lat="48.354788" lon="-4.688168"><ele>20.6</ele></trkpt>
    <trkpt lat="48.354576" lon="-4.687238"><ele>26.0</ele></trkpt>
    <trkpt lat="48.354600" lon="-4.686114"><ele>30.8</ele></trkpt>
    <trkpt lat="48.354574" lon="-4.685177"><ele>30.6</ele></trkpt>
    <trkpt lat="48.354519" lon="-4.684640"><ele>29.8</ele></trkpt>
    <trkpt lat="48.354604" lon="-4.683605"><ele>29.6</ele></trkpt>
    <trkpt lat="48.354596" lon="-4.682559"><ele>25.0</ele></trkpt>
    <trkpt lat="48.354653" lon="-4.682390"><ele>22.8</ele></trkpt>
    <trkpt lat="48.354761" lon="-4.682262"><ele>21.6</ele></trkpt>
    <trkpt lat="48.354817" lon="-4.682233"><ele>21.6</ele></trkpt>
    <trkpt lat="48.354949" lon="-4.682322"><ele>21.8</ele></trkpt>
    <trkpt lat="48.355045" lon="-4.682327"><ele>21.8</ele></trkpt>
    <trkpt lat="48.355299" lon="-4.682069"><ele>21.2</ele></trkpt>
    <trkpt lat="48.355408" lon="-4.681619"><ele>18.6</ele></trkpt>
    <trkpt lat="48.355696" lon="-4.681251"><ele>16.0</ele></trkpt>
    <trkpt lat="48.355804" lon="-4.681176"><ele>15.2</ele></trkpt>
    <trkpt lat="48.356065" lon="-4.680761"><ele>11.8</ele></trkpt>
    <trkpt lat="48.356053" lon="-4.680558"><ele>9.4</ele></trkpt>
    <trkpt lat="48.356103" lon="-4.680251"><ele>7.8</ele></trkpt>
    <trkpt lat="48.356263" lon="-4.679904"><ele>8.8</ele></trkpt>
    <trkpt lat="48.356332" lon="-4.679317"><ele>8.6</ele></trkpt>
    <trkpt lat="48.356309" lon="-4.679140"><ele>8.2</ele></trkpt>
    <trkpt lat="48.356227" lon="-4.678942"><ele>8.0</ele></trkpt>
    <trkpt lat="48.356134" lon="-4.678861"><ele>8.2</ele></trkpt>
    <trkpt lat="48.355920" lon="-4.678783"><ele>8.8</ele></trkpt>
    <trkpt lat="48.355693" lon="-4.678334"><ele>12.4</ele></trkpt>
    <trkpt lat="48.355523" lon="-4.678204"><ele>15.0</ele></trkpt>
    <trkpt lat="48.355390" lon="-4.678021"><ele>17.0</ele></trkpt>
    <trkpt lat="48.355192" lon="-4.677539"><ele>18.2</ele></trkpt>
    <trkpt lat="48.355141" lon="-4.677303"><ele>17.0</ele></trkpt>
    <trkpt lat="48.355134" lon="-4.676866"><ele>15.2</ele></trkpt>
    <trkpt lat="48.354994" lon="-4.676404"><ele>14.6</ele></trkpt>
    <trkpt lat="48.354870" lon="-4.676110"><ele>13.6</ele></trkpt>
    <trkpt lat="48.354793" lon="-4.675312"><ele>11.2</ele></trkpt>
    <trkpt lat="48.354701" lon="-4.674911"><ele>9.2</ele></trkpt>
    <trkpt lat="48.354700" lon="-4.674712"><ele>8.4</ele></trkpt>
    <trkpt lat="48.354925" lon="-4.673654"><ele>10.2</ele></trkpt>
    <trkpt lat="48.355113" lon="-4.673467"><ele>11.0</ele></trkpt>
    <trkpt lat="48.355828" lon="-4.672991"><ele>15.2</ele></trkpt>
    <trkpt lat="48.355977" lon="-4.672847"><ele>16.0</ele></trkpt>
    <trkpt lat="48.356043" lon="-4.672627"><ele>16.8</ele></trkpt>
    <trkpt lat="48.356078" lon="-4.672157"><ele>19.6</ele></trkpt>
    <trkpt lat="48.356191" lon="-4.671970"><ele>20.2</ele></trkpt>
    <trkpt lat="48.356445" lon="-4.671679"><ele>20.2</ele></trkpt>
    <trkpt lat="48.356954" lon="-4.670988"><ele>21.4</ele></trkpt>
    <trkpt lat="48.357011" lon="-4.670754"><ele>23.4</ele></trkpt>
    <trkpt lat="48.356924" lon="-4.670475"><ele>26.6</ele></trkpt>
    <trkpt lat="48.356979" lon="-4.670231"><ele>27.0</ele></trkpt>
    <trkpt lat="48.357418" lon="-4.669807"><ele>28.0</ele></trkpt>
    <trkpt lat="48.357623" lon="-4.669543"><ele>29.4</ele></trkpt>
    <trkpt lat="48.357653" lon="-4.669426"><ele>30.4</ele></trkpt>
    <trkpt lat="48.357657" lon="-4.669167"><ele>33.2</ele></trkpt>
    <trkpt lat="48.357910" lon="-4.668969"><ele>36.2</ele></trkpt>
    <trkpt lat="48.357981" lon="-4.668781"><ele>37.2</ele></trkpt>
    <trkpt lat="48.358017" lon="-4.668561"><ele>38.6</ele></trkpt>
    <trkpt lat="48.357981" lon="-4.668372"><ele>39.8</ele></trkpt>
    <trkpt lat="48.357851" lon="-4.668279"><ele>41.0</ele></trkpt>
    <trkpt lat="48.357448" lon="-4.668278"><ele>43.6</ele></trkpt>
    <trkpt lat="48.357182" lon="-4.668418"><ele>44.4</ele></trkpt>
    <trkpt lat="48.356599" lon="-4.668203"><ele>46.6</ele></trkpt>
    <trkpt lat="48.356316" lon="-4.667371"><ele>48.6</ele></trkpt>
    <trkpt lat="48.356454" lon="-4.666969"><ele>49.6</ele></trkpt>
    <trkpt lat="48.356542" lon="-4.666449"><ele>51.2</ele></trkpt>
    <trkpt lat="48.356660" lon="-4.666183"><ele>52.4</ele></trkpt>
    <trkpt lat="48.356775" lon="-4.665768"><ele>54.0</ele></trkpt>
    <trkpt lat="48.356981" lon="-4.665238"><ele>54.8</ele></trkpt>
    <trkpt lat="48.357036" lon="-4.664741"><ele>55.8</ele></trkpt>
    <trkpt lat="48.357294" lon="-4.664642"><ele>56.0</ele></trkpt>
    <trkpt lat="48.357736" lon="-4.664353"><ele>56.6</ele></trkpt>
    <trkpt lat="48.357873" lon="-4.664335"><ele>56.8</ele></trkpt>
    <trkpt lat="48.358112" lon="-4.664381"><ele>56.6</ele></trkpt>
    <trkpt lat="48.358809" lon="-4.664083"><ele>57.2</ele></trkpt>
    <trkpt lat="48.358981" lon="-4.663971"><ele>57.8</ele></trkpt>
    <trkpt lat="48.359183" lon="-4.663602"><ele>59.4</ele></trkpt>
    <trkpt lat="48.359353" lon="-4.663405"><ele>60.6</ele></trkpt>
    <trkpt lat="48.360111" lon="-4.662196"><ele>66.0</ele></trkpt>
    <trkpt lat="48.360294" lon="-4.661359"><ele>68.2</ele></trkpt>
    <trkpt lat="48.360483" lon="-4.661047"><ele>68.8</ele></trkpt>
    <trkpt lat="48.360650" lon="-4.660861"><ele>69.4</ele></trkpt>
    <trkpt lat="48.361010" lon="-4.660617"><ele>70.8</ele></trkpt>
    <trkpt lat="48.361541" lon="-4.660092"><ele>71.8</ele></trkpt>
    <trkpt lat="48.361543" lon="-4.659940"><ele>72.2</ele></trkpt>
    <trkpt lat="48.361205" lon="-4.659034"><ele>72.2</ele></trkpt>
    <trkpt lat="48.361015" lon="-4.658603"><ele>72.2</ele></trkpt>
    <trkpt lat="48.360596" lon="-4.657809"><ele>72.4</ele></trkpt>
    <trkpt lat="48.360529" lon="-4.657289"><ele>72.0</ele></trkpt>
    <trkpt lat="48.360544" lon="-4.657022"><ele>71.8</ele></trkpt>
    <trkpt lat="48.360519" lon="-4.656442"><ele>71.6</ele></trkpt>
    <trkpt lat="48.360543" lon="-4.656119"><ele>71.6</ele></trkpt>
    <trkpt lat="48.360608" lon="-4.655975"><ele>71.8</ele></trkpt>
    <trkpt lat="48.360809" lon="-4.655759"><ele>72.0</ele></trkpt>
    <trkpt lat="48.361197" lon="-4.654952"><ele>73.6</ele></trkpt>
    <trkpt lat="48.361358" lon="-4.654341"><ele>75.0</ele></trkpt>
    <trkpt lat="48.361593" lon="-4.653799"><ele>75.2</ele></trkpt>
    <trkpt lat="48.361790" lon="-4.653454"><ele>75.2</ele></trkpt>
    <trkpt lat="48.361914" lon="-4.653042"><ele>75.6</ele></trkpt>
    <trkpt lat="48.362202" lon="-4.652716"><ele>75.8</ele></trkpt>
    <trkpt lat="48.362481" lon="-4.652149"><ele>75.8</ele></trkpt>
    <trkpt lat="48.362753" lon="-4.650893"><ele>75.8</ele></trkpt>
    <trkpt lat="48.362898" lon="-4.650411"><ele>75.0</ele></trkpt>
    <trkpt lat="48.363072" lon="-4.649966"><ele>74.6</ele></trkpt>
    <trkpt lat="48.363197" lon="-4.649512"><ele>74.4</ele></trkpt>
    <trkpt lat="48.363688" lon="-4.648416"><ele>72.0</ele></trkpt>
    <trkpt lat="48.363933" lon="-4.647471"><ele>72.0</ele></trkpt>
    <trkpt lat="48.364663" lon="-4.645570"><ele>70.6</ele></trkpt>
    <trkpt lat="48.364954" lon="-4.644545"><ele>69.0</ele></trkpt>
    <trkpt lat="48.365089" lon="-4.644234"><ele>68.8</ele></trkpt>
    <trkpt lat="48.365339" lon="-4.643824"><ele>68.6</ele></trkpt>
    <trkpt lat="48.365537" lon="-4.643411"><ele>68.2</ele></trkpt>
    <trkpt lat="48.365675" lon="-4.642832"><ele>67.8</ele></trkpt>
    <trkpt lat="48.365722" lon="-4.642404"><ele>67.8</ele></trkpt>
    <trkpt lat="48.365786" lon="-4.642114"><ele>68.0</ele></trkpt>
    <trkpt lat="48.365851" lon="-4.642077"><ele>68.0</ele></trkpt>
    <trkpt lat="48.365930" lon="-4.642112"><ele>68.0</ele></trkpt>
    <trkpt lat="48.366165" lon="-4.642355"><ele>67.6</ele></trkpt>
    <trkpt lat="48.366417" lon="-4.642290"><ele>67.2</ele></trkpt>
    <trkpt lat="48.367331" lon="-4.642591"><ele>69.0</ele></trkpt>
    <trkpt lat="48.367436" lon="-4.642607"><ele>68.8</ele></trkpt>
    <trkpt lat="48.367613" lon="-4.642554"><ele>68.8</ele></trkpt>
    <trkpt lat="48.367873" lon="-4.642624"><ele>68.8</ele></trkpt>
    <trkpt lat="48.368229" lon="-4.642788"><ele>68.0</ele></trkpt>
    <trkpt lat="48.368557" lon="-4.642841"><ele>65.6</ele></trkpt>
    <trkpt lat="48.369344" lon="-4.642842"><ele>62.2</ele></trkpt>
    <trkpt lat="48.369596" lon="-4.642801"><ele>61.0</ele></trkpt>
    <trkpt lat="48.369650" lon="-4.642715"><ele>60.6</ele></trkpt>
    <trkpt lat="48.369740" lon="-4.642255"><ele>60.2</ele></trkpt>
  </trkseg></trk>
</gpx>
