<?xml version="1.0" encoding="UTF-8"?>
<gpx version="1.1" creator="tcap-parcours" xmlns="http://www.topografix.com/GPX/1/1">
  <metadata><name>bertheaume-keledern-2</name></metadata>
  <trk><name>bertheaume-keledern-2</name><trkseg>
    <trkpt lat="48.369948" lon="-4.640454"><ele>60.6</ele></trkpt>
    <trkpt lat="48.369909" lon="-4.640849"><ele>60.6</ele></trkpt>
    <trkpt lat="48.369784" lon="-4.641076"><ele>60.2</ele></trkpt>
    <trkpt lat="48.369744" lon="-4.641418"><ele>60.2</ele></trkpt>
    <trkpt lat="48.369605" lon="-4.641544"><ele>60.8</ele></trkpt>
    <trkpt lat="48.369551" lon="-4.641654"><ele>61.2</ele></trkpt>
    <trkpt lat="48.369530" lon="-4.642055"><ele>61.2</ele></trkpt>
    <trkpt lat="48.369640" lon="-4.642585"><ele>60.2</ele></trkpt>
    <trkpt lat="48.369588" lon="-4.642868"><ele>60.0</ele></trkpt>
    <trkpt lat="48.369617" lon="-4.643254"><ele>59.8</ele></trkpt>
    <trkpt lat="48.369601" lon="-4.643600"><ele>59.6</ele></trkpt>
    <trkpt lat="48.369455" lon="-4.644299"><ele>58.8</ele></trkpt>
    <trkpt lat="48.369244" lon="-4.645054"><ele>58.4</ele></trkpt>
    <trkpt lat="48.369264" lon="-4.645610"><ele>57.8</ele></trkpt>
    <trkpt lat="48.369205" lon="-4.646078"><ele>58.6</ele></trkpt>
    <trkpt lat="48.369057" lon="-4.646591"><ele>60.6</ele></trkpt>
    <trkpt lat="48.369060" lon="-4.647022"><ele>62.0</ele></trkpt>
    <trkpt lat="48.368916" lon="-4.647352"><ele>62.6</ele></trkpt>
    <trkpt lat="48.368647" lon="-4.647558"><ele>63.8</ele></trkpt>
    <trkpt lat="48.368563" lon="-4.647704"><ele>64.4</ele></trkpt>
    <trkpt lat="48.368585" lon="-4.647863"><ele>65.2</ele></trkpt>
    <trkpt lat="48.368815" lon="-4.648534"><ele>66.4</ele></trkpt>
    <trkpt lat="48.368880" lon="-4.648945"><ele>66.2</ele></trkpt>
    <trkpt lat="48.368889" lon="-4.649403"><ele>66.6</ele></trkpt>
    <trkpt lat="48.368804" lon="-4.650068"><ele>67.8</ele></trkpt>
    <trkpt lat="48.368762" lon="-4.650257"><ele>68.6</ele></trkpt>
    <trkpt lat="48.368683" lon="-4.650435"><ele>69.2</ele></trkpt>
    <trkpt lat="48.368568" lon="-4.650618"><ele>69.8</ele></trkpt>
    <trkpt lat="48.368137" lon="-4.651064"><ele>70.4</ele></trkpt>
    <trkpt lat="48.367787" lon="-4.651526"><ele>72.0</ele></trkpt>
    <trkpt lat="48.367610" lon="-4.651990"><ele>72.4</ele></trkpt>
    <trkpt lat="48.367505" lon="-4.652458"><ele>72.6</ele></trkpt>
    <trkpt lat="48.367320" lon="-4.652901"><ele>72.4</ele></trkpt>
    <trkpt lat="48.366905" lon="-4.653012"><ele>72.6</ele></trkpt>
    <trkpt lat="48.366752" lon="-4.653146"><ele>73.2</ele></trkpt>
    <trkpt lat="48.366626" lon="-4.653322"><ele>73.6</ele></trkpt>
    <trkpt lat="48.366522" lon="-4.653390"><ele>73.6</ele></trkpt>
    <trkpt lat="48.366044" lon="-4.653356"><ele>74.0</ele></trkpt>
    <trkpt lat="48.365871" lon="-4.653410"><ele>74.4</ele></trkpt>
    <trkpt lat="48.365398" lon="-4.653927"><ele>74.4</ele></trkpt>
    <trkpt lat="48.364141" lon="-4.654721"><ele>76.0</ele></trkpt>
    <trkpt lat="48.363743" lon="-4.654875"><ele>76.0</ele></trkpt>
    <trkpt lat="48.363421" lon="-4.654916"><ele>76.2</ele></trkpt>
    <trkpt lat="48.362825" lon="-4.655108"><ele>76.6</ele></trkpt>
    <trkpt lat="48.362714" lon="-4.655255"><ele>76.4</ele></trkpt>
    <trkpt lat="48.362539" lon="-4.656079"><ele>75.2</ele></trkpt>
    <trkpt lat="48.362411" lon="-4.656290"><ele>75.0</ele></trkpt>
    <trkpt lat="48.362245" lon="-4.656354"><ele>74.4</ele></trkpt>
    <trkpt lat="48.361769" lon="-4.656339"><ele>73.4</ele></trkpt>
    <trkpt lat="48.361310" lon="-4.656462"><ele>72.8</ele></trkpt>
    <trkpt lat="48.361019" lon="-4.656621"><ele>72.0</ele></trkpt>
    <trkpt lat="48.360559" lon="-4.657028"><ele>71.0</ele></trkpt>
    <trkpt lat="48.360513" lon="-4.657130"><ele>71.0</ele></trkpt>
    <trkpt lat="48.360501" lon="-4.657348"><ele>71.2</ele></trkpt>
    <trkpt lat="48.360593" lon="-4.657866"><ele>72.0</ele></trkpt>
    <trkpt lat="48.361215" lon="-4.659080"><ele>72.0</ele></trkpt>
    <trkpt lat="48.361530" lon="-4.659965"><ele>71.4</ele></trkpt>
    <trkpt lat="48.361526" lon="-4.660136"><ele>71.2</ele></trkpt>
    <trkpt lat="48.360615" lon="-4.660878"><ele>69.0</ele></trkpt>
    <trkpt lat="48.360463" lon="-4.661050"><ele>68.6</ele></trkpt>
    <trkpt lat="48.360108" lon="-4.661635"><ele>67.2</ele></trkpt>
    <trkpt lat="48.360095" lon="-4.661752"><ele>67.2</ele></trkpt>
    <trkpt lat="48.360147" lon="-4.662072"><ele>66.4</ele></trkpt>
    <trkpt lat="48.360091" lon="-4.662242"><ele>66.0</ele></trkpt>
    <trkpt lat="48.358906" lon="-4.663950"><ele>58.6</ele></trkpt>
    <trkpt lat="48.358694" lon="-4.664077"><ele>57.8</ele></trkpt>
    <trkpt lat="48.358219" lon="-4.664237"><ele>57.6</ele></trkpt>
    <trkpt lat="48.358039" lon="-4.664368"><ele>57.0</ele></trkpt>
    <trkpt lat="48.357794" lon="-4.664308"><ele>56.6</ele></trkpt>
    <trkpt lat="48.357685" lon="-4.664329"><ele>56.4</ele></trkpt>
    <trkpt lat="48.357059" lon="-4.664677"><ele>55.2</ele></trkpt>
    <trkpt lat="48.356971" lon="-4.664774"><ele>54.8</ele></trkpt>
    <trkpt lat="48.356947" lon="-4.665206"><ele>54.2</ele></trkpt>
    <trkpt lat="48.356749" lon="-4.665713"><ele>53.0</ele></trkpt>
    <trkpt lat="48.356575" lon="-4.666269"><ele>52.2</ele></trkpt>
    <trkpt lat="48.356492" lon="-4.666640"><ele>51.0</ele></trkpt>
    <trkpt lat="48.356466" lon="-4.666984"><ele>49.6</ele></trkpt>
    <trkpt lat="48.356308" lon="-4.667435"><ele>48.0</ele></trkpt>
    <trkpt lat="48.356319" lon="-4.667818"><ele>47.6</ele></trkpt>
    <trkpt lat="48.356394" lon="-4.668169"><ele>47.2</ele></trkpt>
    <trkpt lat="48.356495" lon="-4.668323"><ele>46.4</ele></trkpt>
    <trkpt lat="48.357249" lon="-4.668490"><ele>43.8</ele></trkpt>
    <trkpt lat="48.357497" lon="-4.668365"><ele>42.4</ele></trkpt>
    <trkpt lat="48.357894" lon="-4.668377"><ele>40.0</ele></trkpt>
    <trkpt lat="48.357962" lon="-4.668434"><ele>38.8</ele></trkpt>
    <trkpt lat="48.357971" lon="-4.668572"><ele>37.6</ele></trkpt>
    <trkpt lat="48.357943" lon="-4.668715"><ele>36.2</ele></trkpt>
    <trkpt lat="48.357890" lon="-4.668809"><ele>35.2</ele></trkpt>
    <trkpt lat="48.357588" lon="-4.669098"><ele>32.0</ele></trkpt>
    <trkpt lat="48.357548" lon="-4.669415"><ele>30.2</ele></trkpt>
    <trkpt lat="48.357393" lon="-4.669678"><ele>29.0</ele></trkpt>
    <trkpt lat="48.356854" lon="-4.670228"><ele>28.2</ele></trkpt>
    <trkpt lat="48.356789" lon="-4.670496"><ele>26.8</ele></trkpt>
    <trkpt lat="48.356884" lon="-4.670826"><ele>23.4</ele></trkpt>
    <trkpt lat="48.356873" lon="-4.670953"><ele>22.6</ele></trkpt>
    <trkpt lat="48.356570" lon="-4.671323"><ele>21.8</ele></trkpt>
    <trkpt lat="48.356023" lon="-4.672132"><ele>18.2</ele></trkpt>
    <trkpt lat="48.355988" lon="-4.672277"><ele>17.4</ele></trkpt>
    <trkpt lat="48.355981" lon="-4.672648"><ele>15.6</ele></trkpt>
    <trkpt lat="48.355923" lon="-4.672855"><ele>15.0</ele></trkpt>
    <trkpt lat="48.355759" lon="-4.673015"><ele>14.0</ele></trkpt>
    <trkpt lat="48.355305" lon="-4.673263"><ele>12.2</ele></trkpt>
    <trkpt lat="48.355010" lon="-4.673503"><ele>10.8</ele></trkpt>
    <trkpt lat="48.354734" lon="-4.673891"><ele>9.4</ele></trkpt>
    <trkpt lat="48.354653" lon="-4.674194"><ele>8.4</ele></trkpt>
    <trkpt lat="48.354675" lon="-4.674750"><ele>9.0</ele></trkpt>
    <trkpt lat="48.354798" lon="-4.675398"><ele>11.2</ele></trkpt>
    <trkpt lat="48.354844" lon="-4.676046"><ele>13.4</ele></trkpt>
    <trkpt lat="48.354909" lon="-4.676265"><ele>14.4</ele></trkpt>
    <trkpt lat="48.355047" lon="-4.676539"><ele>16.0</ele></trkpt>
    <trkpt lat="48.355157" lon="-4.676982"><ele>16.4</ele></trkpt>
    <trkpt lat="48.355165" lon="-4.677396"><ele>16.0</ele></trkpt>
    <trkpt lat="48.355207" lon="-4.677603"><ele>16.4</ele></trkpt>
    <trkpt lat="48.355353" lon="-4.678018"><ele>15.8</ele></trkpt>
    <trkpt lat="48.355730" lon="-4.678424"><ele>10.8</ele></trkpt>
    <trkpt lat="48.355972" lon="-4.678882"><ele>8.0</ele></trkpt>
    <trkpt lat="48.356231" lon="-4.678955"><ele>6.8</ele></trkpt>
    <trkpt lat="48.356268" lon="-4.679052"><ele>6.8</ele></trkpt>
    <trkpt lat="48.356305" lon="-4.679366"><ele>7.2</ele></trkpt>
    <trkpt lat="48.356245" lon="-4.679943"><ele>7.8</ele></trkpt>
    <trkpt lat="48.356073" lon="-4.680327"><ele>9.0</ele></trkpt>
    <trkpt lat="48.356039" lon="-4.680644"><ele>12.4</ele></trkpt>
    <trkpt lat="48.356058" lon="-4.680765"><ele>14.2</ele></trkpt>
    <trkpt lat="48.355753" lon="-4.681168"><ele>16.4</ele></trkpt>
    <trkpt lat="48.355615" lon="-4.681276"><ele>17.2</ele></trkpt>
    <trkpt lat="48.355528" lon="-4.681443"><ele>17.6</ele></trkpt>
    <trkpt lat="48.355366" lon="-4.681598"><ele>18.2</ele></trkpt>
    <trkpt lat="48.355308" lon="-4.681774"><ele>19.0</ele></trkpt>
    <trkpt lat="48.355300" lon="-4.682044"><ele>21.0</ele></trkpt>
    <trkpt lat="48.355263" lon="-4.682108"><ele>21.6</ele></trkpt>
    <trkpt lat="48.354977" lon="-4.682327"><ele>22.4</ele></trkpt>
    <trkpt lat="48.354890" lon="-4.682302"><ele>22.0</ele></trkpt>
    <trkpt lat="48.354718" lon="-4.682165"><ele>19.8</ele></trkpt>
    <trkpt lat="48.354651" lon="-4.682165"><ele>19.2</ele></trkpt>
    <trkpt lat="48.354387" lon="-4.682465"><ele>18.8</ele></trkpt>
    <trkpt lat="48.354365" lon="-4.682520"><ele>19.0</ele></trkpt>
    <trkpt lat="48.354391" lon="-4.682713"><ele>19.8</ele></trkpt>
    <trkpt lat="48.354368" lon="-4.682840"><ele>19.8</ele></trkpt>
    <trkpt lat="48.354294" lon="-4.682927"><ele>19.0</ele></trkpt>
    <trkpt lat="48.354098" lon="-4.683029"><ele>16.8</ele></trkpt>
    <trkpt lat="48.353991" lon="-4.683194"><ele>15.4</ele></trkpt>
    <trkpt lat="48.353886" lon="-4.683635"><ele>15.4</ele></trkpt>
    <trkpt lat="48.353930" lon="-4.684082"><ele>17.8</ele></trkpt>
    <trkpt lat="48.353855" lon="-4.684247"><ele>17.6</ele></trkpt>
    <trkpt lat="48.353725" lon="-4.684337"><ele>17.4</ele></trkpt>
    <trkpt lat="48.353619" lon="-4.684667"><ele>18.0</ele></trkpt>
    <trkpt lat="48.353621" lon="-4.684783"><ele>18.8</ele></trkpt>
    <trkpt lat="48.353711" lon="-4.685082"><ele>21.6</ele></trkpt>
    <trkpt lat="48.353788" lon="-4.685189"><ele>23.4</ele></trkpt>
    <trkpt lat="48.354013" lon="-4.685277"><ele>26.8</ele></trkpt>
    <trkpt lat="48.354441" lon="-4.685214"><ele>30.0</ele></trkpt>
    <trkpt lat="48.354624" lon="-4.685259"><ele>31.4</ele></trkpt>
    <trkpt lat="48.354644" lon="-4.685463"><ele>31.6</ele></trkpt>
    <trkpt lat="48.354559" lon="-4.687246"><ele>24.4</ele></trkpt>
    <trkpt lat="48.354607" lon="-4.687531"><ele>23.2</ele></trkpt>
    <trkpt lat="48.354788" lon="-4.688211"><ele>20.0</ele></trkpt>
    <trkpt lat="48.354763" lon="-4.688846"><ele>17.0</ele></trkpt>
    <trkpt lat="48.354786" lon="-4.689058"><ele>16.4</ele></trkpt>
    <trkpt lat="48.354851" lon="-4.689281"><ele>15.2</ele></trkpt>
    <trkpt lat="48.354833" lon="-4.689378"><ele>14.2</ele></trkpt>
    <trkpt lat="48.354655" lon="-4.689600"><ele>11.0</ele></trkpt>
    <trkpt lat="48.354629" lon="-4.689791"><ele>9.6</ele></trkpt>
    <trkpt lat="48.354664" lon="-4.690018"><ele>8.6</ele></trkpt>
    <trkpt lat="48.354853" lon="-4.690379"><ele>7.4</ele></trkpt>
    <trkpt lat="48.354872" lon="-4.691118"><ele>10.0</ele></trkpt>
    <trkpt lat="48.354914" lon="-4.691174"><ele>11.6</ele></trkpt>
    <trkpt lat="48.354501" lon="-4.691568"><ele>16.2</ele></trkpt>
    <trkpt lat="48.354445" lon="-4.691827"><ele>17.2</ele></trkpt>
    <trkpt lat="48.354366" lon="-4.691960"><ele>17.0</ele></trkpt>
    <trkpt lat="48.354869" lon="-4.691161"><ele>10.2</ele></trkpt>
    <trkpt lat="48.354869" lon="-4.690350"><ele>7.4</ele></trkpt>
    <trkpt lat="48.354653" lon="-4.689701"><ele>11.0</ele></trkpt>
    <trkpt lat="48.354869" lon="-4.689214"><ele>14.8</ele></trkpt>
    <trkpt lat="48.354755" lon="-4.688669"><ele>18.4</ele></trkpt>
    <trkpt lat="48.354788" lon="-4.688168"><ele>20.6</ele></trkpt>
    <trkpt lat="48.354576" lon="-4.687238"><ele>26.0</ele></trkpt>
    <trkpt lat="48.354600" lon="-4.686114"><ele>30.8</ele></trkpt>
    <trkpt lat="48.354574" lon="-4.685177"><ele>30.6</ele></trkpt>
    <trkpt lat="48.354519" lon="-4.684640"><ele>29.8</ele></trkpt>
    <trkpt lat="48.354604" lon="-4.683605"><ele>29.6</ele></trkpt>
    <trkpt lat="48.354596" lon="-4.682559"><ele>25.0</ele></trkpt>
    <trkpt lat="48.354653" lon="-4.682390"><ele>22.8</ele></trkpt>
    <trkpt lat="48.354761" lon="-4.682262"><ele>21.6</ele></trkpt>
    <trkpt lat="48.354817" lon="-4.682233"><ele>21.6</ele></trkpt>
    <trkpt lat="48.354949" lon="-4.682322"><ele>21.8</ele></trkpt>
    <trkpt lat="48.355045" lon="-4.682327"><ele>21.8</ele></trkpt>
    <trkpt lat="48.355299" lon="-4.682069"><ele>21.2</ele></trkpt>
    <trkpt lat="48.355408" lon="-4.681619"><ele>18.6</ele></trkpt>
    <trkpt lat="48.355696" lon="-4.681251"><ele>16.0</ele></trkpt>
    <trkpt lat="48.355804" lon="-4.681176"><ele>15.2</ele></trkpt>
    <trkpt lat="48.356065" lon="-4.680761"><ele>11.8</ele></trkpt>
    <trkpt lat="48.356053" lon="-4.680558"><ele>9.4</ele></trkpt>
    <trkpt lat="48.356103" lon="-4.680251"><ele>7.8</ele></trkpt>
    <trkpt lat="48.356263" lon="-4.679904"><ele>8.8</ele></trkpt>
    <trkpt lat="48.356332" lon="-4.679317"><ele>8.6</ele></trkpt>
    <trkpt lat="48.356309" lon="-4.679140"><ele>8.2</ele></trkpt>
    <trkpt lat="48.356227" lon="-4.678942"><ele>8.0</ele></trkpt>
    <trkpt lat="48.356134" lon="-4.678861"><ele>8.2</ele></trkpt>
    <trkpt lat="48.355920" lon="-4.678783"><ele>8.8</ele></trkpt>
    <trkpt lat="48.355693" lon="-4.678334"><ele>12.4</ele></trkpt>
    <trkpt lat="48.355523" lon="-4.678204"><ele>15.0</ele></trkpt>
    <trkpt lat="48.355390" lon="-4.678021"><ele>17.0</ele></trkpt>
    <trkpt lat="48.355192" lon="-4.677539"><ele>18.2</ele></trkpt>
    <trkpt lat="48.355141" lon="-4.677303"><ele>17.0</ele></trkpt>
    <trkpt lat="48.355134" lon="-4.676866"><ele>15.2</ele></trkpt>
    <trkpt lat="48.354994" lon="-4.676404"><ele>14.6</ele></trkpt>
    <trkpt lat="48.354870" lon="-4.676110"><ele>13.6</ele></trkpt>
    <trkpt lat="48.354793" lon="-4.675312"><ele>11.2</ele></trkpt>
    <trkpt lat="48.354701" lon="-4.674911"><ele>9.2</ele></trkpt>
    <trkpt lat="48.354700" lon="-4.674712"><ele>8.4</ele></trkpt>
    <trkpt lat="48.354925" lon="-4.673654"><ele>10.2</ele></trkpt>
    <trkpt lat="48.355113" lon="-4.673467"><ele>11.0</ele></trkpt>
    <trkpt lat="48.355828" lon="-4.672991"><ele>15.2</ele></trkpt>
    <trkpt lat="48.355977" lon="-4.672847"><ele>16.0</ele></trkpt>
    <trkpt lat="48.356043" lon="-4.672627"><ele>16.8</ele></trkpt>
    <trkpt lat="48.356078" lon="-4.672157"><ele>19.6</ele></trkpt>
    <trkpt lat="48.356191" lon="-4.671970"><ele>20.2</ele></trkpt>
    <trkpt lat="48.356445" lon="-4.671679"><ele>20.2</ele></trkpt>
    <trkpt lat="48.356954" lon="-4.670988"><ele>21.4</ele></trkpt>
    <trkpt lat="48.357011" lon="-4.670754"><ele>23.4</ele></trkpt>
    <trkpt lat="48.356924" lon="-4.670475"><ele>26.6</ele></trkpt>
    <trkpt lat="48.356979" lon="-4.670231"><ele>27.0</ele></trkpt>
    <trkpt lat="48.357418" lon="-4.669807"><ele>28.0</ele></trkpt>
    <trkpt lat="48.357623" lon="-4.669543"><ele>29.4</ele></trkpt>
    <trkpt lat="48.357653" lon="-4.669426"><ele>30.4</ele></trkpt>
    <trkpt lat="48.357657" lon="-4.669167"><ele>33.2</ele></trkpt>
    <trkpt lat="48.357910" lon="-4.668969"><ele>36.2</ele></trkpt>
    <trkpt lat="48.357981" lon="-4.668781"><ele>37.2</ele></trkpt>
    <trkpt lat="48.358017" lon="-4.668561"><ele>38.6</ele></trkpt>
    <trkpt lat="48.357981" lon="-4.668372"><ele>39.8</ele></trkpt>
    <trkpt lat="48.357851" lon="-4.668279"><ele>41.0</ele></trkpt>
    <trkpt lat="48.357448" lon="-4.668278"><ele>43.6</ele></trkpt>
    <trkpt lat="48.357182" lon="-4.668418"><ele>44.4</ele></trkpt>
    <trkpt lat="48.356599" lon="-4.668203"><ele>46.6</ele></trkpt>
    <trkpt lat="48.356316" lon="-4.667371"><ele>48.6</ele></trkpt>
    <trkpt lat="48.356454" lon="-4.666969"><ele>49.6</ele></trkpt>
    <trkpt lat="48.356542" lon="-4.666449"><ele>51.2</ele></trkpt>
    <trkpt lat="48.356660" lon="-4.666183"><ele>52.4</ele></trkpt>
    <trkpt lat="48.356775" lon="-4.665768"><ele>54.0</ele></trkpt>
    <trkpt lat="48.356981" lon="-4.665238"><ele>54.8</ele></trkpt>
    <trkpt lat="48.357036" lon="-4.664741"><ele>55.8</ele></trkpt>
    <trkpt lat="48.357294" lon="-4.664642"><ele>56.0</ele></trkpt>
    <trkpt lat="48.357736" lon="-4.664353"><ele>56.6</ele></trkpt>
    <trkpt lat="48.357873" lon="-4.664335"><ele>56.8</ele></trkpt>
    <trkpt lat="48.358112" lon="-4.664381"><ele>56.6</ele></trkpt>
    <trkpt lat="48.358809" lon="-4.664083"><ele>57.2</ele></trkpt>
    <trkpt lat="48.358981" lon="-4.663971"><ele>57.8</ele></trkpt>
    <trkpt lat="48.359183" lon="-4.663602"><ele>59.4</ele></trkpt>
    <trkpt lat="48.359353" lon="-4.663405"><ele>60.6</ele></trkpt>
    <trkpt lat="48.360111" lon="-4.662196"><ele>66.0</ele></trkpt>
    <trkpt lat="48.360294" lon="-4.661359"><ele>68.2</ele></trkpt>
    <trkpt lat="48.360483" lon="-4.661047"><ele>68.8</ele></trkpt>
    <trkpt lat="48.360650" lon="-4.660861"><ele>69.4</ele></trkpt>
    <trkpt lat="48.361010" lon="-4.660617"><ele>70.8</ele></trkpt>
    <trkpt lat="48.361541" lon="-4.660092"><ele>71.8</ele></trkpt>
    <trkpt lat="48.361543" lon="-4.659940"><ele>72.2</ele></trkpt>
    <trkpt lat="48.361205" lon="-4.659034"><ele>72.2</ele></trkpt>
    <trkpt lat="48.361015" lon="-4.658603"><ele>72.2</ele></trkpt>
    <trkpt lat="48.360596" lon="-4.657809"><ele>72.4</ele></trkpt>
    <trkpt lat="48.360529" lon="-4.657289"><ele>72.0</ele></trkpt>
    <trkpt lat="48.360544" lon="-4.657022"><ele>71.8</ele></trkpt>
    <trkpt lat="48.360519" lon="-4.656442"><ele>71.6</ele></trkpt>
    <trkpt lat="48.360543" lon="-4.656119"><ele>71.6</ele></trkpt>
    <trkpt lat="48.360608" lon="-4.655975"><ele>71.8</ele></trkpt>
    <trkpt lat="48.360809" lon="-4.655759"><ele>72.0</ele></trkpt>
    <trkpt lat="48.361197" lon="-4.654952"><ele>73.6</ele></trkpt>
    <trkpt lat="48.361358" lon="-4.654341"><ele>75.0</ele></trkpt>
    <trkpt lat="48.361593" lon="-4.653799"><ele>75.2</ele></trkpt>
    <trkpt lat="48.361790" lon="-4.653454"><ele>75.2</ele></trkpt>
    <trkpt lat="48.361914" lon="-4.653042"><ele>75.6</ele></trkpt>
    <trkpt lat="48.362202" lon="-4.652716"><ele>75.8</ele></trkpt>
    <trkpt lat="48.362481" lon="-4.652149"><ele>75.8</ele></trkpt>
    <trkpt lat="48.362753" lon="-4.650893"><ele>75.8</ele></trkpt>
    <trkpt lat="48.362898" lon="-4.650411"><ele>75.0</ele></trkpt>
    <trkpt lat="48.363072" lon="-4.649966"><ele>74.6</ele></trkpt>
    <trkpt lat="48.363197" lon="-4.649512"><ele>74.4</ele></trkpt>
    <trkpt lat="48.363688" lon="-4.648416"><ele>72.0</ele></trkpt>
    <trkpt lat="48.363933" lon="-4.647471"><ele>72.0</ele></trkpt>
    <trkpt lat="48.364663" lon="-4.645570"><ele>70.6</ele></trkpt>
    <trkpt lat="48.364954" lon="-4.644545"><ele>69.0</ele></trkpt>
    <trkpt lat="48.365089" lon="-4.644234"><ele>68.8</ele></trkpt>
    <trkpt lat="48.365339" lon="-4.643824"><ele>68.6</ele></trkpt>
    <trkpt lat="48.365537" lon="-4.643411"><ele>68.2</ele></trkpt>
    <trkpt lat="48.365675" lon="-4.642832"><ele>67.8</ele></trkpt>
    <trkpt lat="48.365722" lon="-4.642404"><ele>67.8</ele></trkpt>
    <trkpt lat="48.365786" lon="-4.642114"><ele>68.0</ele></trkpt>
    <trkpt lat="48.365851" lon="-4.642077"><ele>68.0</ele></trkpt>
    <trkpt lat="48.365930" lon="-4.642112"><ele>68.0</ele></trkpt>
    <trkpt lat="48.366165" lon="-4.642355"><ele>67.6</ele></trkpt>
    <trkpt lat="48.366417" lon="-4.642290"><ele>67.2</ele></trkpt>
    <trkpt lat="48.367331" lon="-4.642591"><ele>69.0</ele></trkpt>
    <trkpt lat="48.367436" lon="-4.642607"><ele>68.8</ele></trkpt>
    <trkpt lat="48.367613" lon="-4.642554"><ele>68.8</ele></trkpt>
    <trkpt lat="48.367873" lon="-4.642624"><ele>68.8</ele></trkpt>
    <trkpt lat="48.368229" lon="-4.642788"><ele>68.0</ele></trkpt>
    <trkpt lat="48.368557" lon="-4.642841"><ele>65.6</ele></trkpt>
    <trkpt lat="48.369344" lon="-4.642842"><ele>62.2</ele></trkpt>
    <trkpt lat="48.369596" lon="-4.642801"><ele>61.0</ele></trkpt>
    <trkpt lat="48.369650" lon="-4.642715"><ele>60.6</ele></trkpt>
    <trkpt lat="48.369740" lon="-4.642255"><ele>60.2</ele></trkpt>
  </trkseg></trk>
</gpx>
