<?xml version="1.0" encoding="UTF-8"?>
<gpx version="1.1" creator="tcap-parcours" xmlns="http://www.topografix.com/GPX/1/1">
  <metadata><name>Boucles plates de Bodonou – 3 boucles, 20,5 km</name></metadata>
  <trk><name>Boucles plates de Bodonou – 3 boucles, 20,5 km</name><trkseg>
    <trkpt lat="48.407305" lon="-4.591494"><ele>48.8</ele></trkpt>
    <trkpt lat="48.407378" lon="-4.591389"><ele>47.0</ele></trkpt>
    <trkpt lat="48.407438" lon="-4.591182"><ele>46.8</ele></trkpt>
    <trkpt lat="48.407576" lon="-4.590899"><ele>46.0</ele></trkpt>
    <trkpt lat="48.407700" lon="-4.590874"><ele>45.4</ele></trkpt>
    <trkpt lat="48.407747" lon="-4.590821"><ele>45.0</ele></trkpt>
    <trkpt lat="48.408051" lon="-4.590031"><ele>42.2</ele></trkpt>
    <trkpt lat="48.408411" lon="-4.588952"><ele>39.2</ele></trkpt>
    <trkpt lat="48.408746" lon="-4.588235"><ele>38.6</ele></trkpt>
    <trkpt lat="48.409283" lon="-4.586929"><ele>38.8</ele></trkpt>
    <trkpt lat="48.409453" lon="-4.586659"><ele>38.6</ele></trkpt>
    <trkpt lat="48.410380" lon="-4.585475"><ele>39.6</ele></trkpt>
    <trkpt lat="48.410478" lon="-4.585311"><ele>40.0</ele></trkpt>
    <trkpt lat="48.410501" lon="-4.585205"><ele>40.2</ele></trkpt>
    <trkpt lat="48.410467" lon="-4.585053"><ele>40.6</ele></trkpt>
    <trkpt lat="48.410386" lon="-4.584902"><ele>40.6</ele></trkpt>
    <trkpt lat="48.410112" lon="-4.584645"><ele>40.4</ele></trkpt>
    <trkpt lat="48.409799" lon="-4.584423"><ele>40.4</ele></trkpt>
    <trkpt lat="48.409528" lon="-4.583988"><ele>40.4</ele></trkpt>
    <trkpt lat="48.408906" lon="-4.583204"><ele>40.4</ele></trkpt>
    <trkpt lat="48.408447" lon="-4.582815"><ele>40.2</ele></trkpt>
    <trkpt lat="48.408288" lon="-4.582540"><ele>39.8</ele></trkpt>
    <trkpt lat="48.407946" lon="-4.582149"><ele>39.8</ele></trkpt>
    <trkpt lat="48.407424" lon="-4.581691"><ele>39.8</ele></trkpt>
    <trkpt lat="48.407172" lon="-4.581273"><ele>40.8</ele></trkpt>
    <trkpt lat="48.406527" lon="-4.579936"><ele>40.8</ele></trkpt>
    <trkpt lat="48.406314" lon="-4.579419"><ele>40.4</ele></trkpt>
    <trkpt lat="48.406330" lon="-4.579304"><ele>40.4</ele></trkpt>
    <trkpt lat="48.406513" lon="-4.579178"><ele>40.8</ele></trkpt>
    <trkpt lat="48.406592" lon="-4.579046"><ele>40.8</ele></trkpt>
    <trkpt lat="48.406743" lon="-4.578236"><ele>42.0</ele></trkpt>
    <trkpt lat="48.406734" lon="-4.578137"><ele>42.0</ele></trkpt>
    <trkpt lat="48.406690" lon="-4.578056"><ele>42.0</ele></trkpt>
    <trkpt lat="48.406361" lon="-4.577773"><ele>42.0</ele></trkpt>
    <trkpt lat="48.406004" lon="-4.577291"><ele>42.0</ele></trkpt>
    <trkpt lat="48.405421" lon="-4.576784"><ele>40.8</ele></trkpt>
    <trkpt lat="48.404887" lon="-4.576577"><ele>41.4</ele></trkpt>
    <trkpt lat="48.404575" lon="-4.576075"><ele>42.6</ele></trkpt>
    <trkpt lat="48.404292" lon="-4.575725"><ele>43.8</ele></trkpt>
    <trkpt lat="48.404157" lon="-4.575696"><ele>43.8</ele></trkpt>
    <trkpt lat="48.403797" lon="-4.575865"><ele>43.0</ele></trkpt>
    <trkpt lat="48.403469" lon="-4.575784"><ele>42.6</ele></trkpt>
    <trkpt lat="48.403306" lon="-4.575516"><ele>42.6</ele></trkpt>
    <trkpt lat="48.403148" lon="-4.575171"><ele>43.0</ele></trkpt>
    <trkpt lat="48.403098" lon="-4.574921"><ele>43.2</ele></trkpt>
    <trkpt lat="48.403002" lon="-4.574886"><ele>43.2</ele></trkpt>
    <trkpt lat="48.402727" lon="-4.574936"><ele>43.0</ele></trkpt>
    <trkpt lat="48.402484" lon="-4.574794"><ele>43.0</ele></trkpt>
    <trkpt lat="48.401984" lon="-4.574343"><ele>43.2</ele></trkpt>
    <trkpt lat="48.401621" lon="-4.573625"><ele>43.6</ele></trkpt>
    <trkpt lat="48.401363" lon="-4.573308"><ele>44.0</ele></trkpt>
    <trkpt lat="48.401127" lon="-4.573138"><ele>44.6</ele></trkpt>
    <trkpt lat="48.400548" lon="-4.572539"><ele>45.0</ele></trkpt>
    <trkpt lat="48.400193" lon="-4.572424"><ele>45.2</ele></trkpt>
    <trkpt lat="48.399873" lon="-4.572182"><ele>45.0</ele></trkpt>
    <trkpt lat="48.399783" lon="-4.572225"><ele>45.0</ele></trkpt>
    <trkpt lat="48.399681" lon="-4.572346"><ele>44.8</ele></trkpt>
    <trkpt lat="48.399056" lon="-4.573521"><ele>43.4</ele></trkpt>
    <trkpt lat="48.398744" lon="-4.573943"><ele>43.2</ele></trkpt>
    <trkpt lat="48.398490" lon="-4.574357"><ele>43.0</ele></trkpt>
    <trkpt lat="48.397896" lon="-4.574955"><ele>43.2</ele></trkpt>
    <trkpt lat="48.397648" lon="-4.575251"><ele>42.8</ele></trkpt>
    <trkpt lat="48.397495" lon="-4.575340"><ele>43.0</ele></trkpt>
    <trkpt lat="48.396977" lon="-4.575864"><ele>43.6</ele></trkpt>
    <trkpt lat="48.396795" lon="-4.575959"><ele>43.4</ele></trkpt>
    <trkpt lat="48.396139" lon="-4.576446"><ele>43.2</ele></trkpt>
    <trkpt lat="48.395586" lon="-4.577014"><ele>42.8</ele></trkpt>
    <trkpt lat="48.395168" lon="-4.577285"><ele>42.8</ele></trkpt>
    <trkpt lat="48.395025" lon="-4.577288"><ele>43.0</ele></trkpt>
    <trkpt lat="48.394852" lon="-4.577195"><ele>43.2</ele></trkpt>
    <trkpt lat="48.394801" lon="-4.577222"><ele>43.2</ele></trkpt>
    <trkpt lat="48.394791" lon="-4.577271"><ele>43.2</ele></trkpt>
    <trkpt lat="48.395011" lon="-4.577791"><ele>43.4</ele></trkpt>
    <trkpt lat="48.394878" lon="-4.578820"><ele>43.2</ele></trkpt>
    <trkpt lat="48.394891" lon="-4.578926"><ele>43.2</ele></trkpt>
    <trkpt lat="48.394957" lon="-4.579000"><ele>43.0</ele></trkpt>
    <trkpt lat="48.395873" lon="-4.579227"><ele>42.8</ele></trkpt>
    <trkpt lat="48.396086" lon="-4.579371"><ele>42.8</ele></trkpt>
    <trkpt lat="48.396581" lon="-4.579427"><ele>43.0</ele></trkpt>
    <trkpt lat="48.398415" lon="-4.579986"><ele>42.8</ele></trkpt>
    <trkpt lat="48.399132" lon="-4.580071"><ele>42.4</ele></trkpt>
    <trkpt lat="48.399903" lon="-4.580296"><ele>42.2</ele></trkpt>
    <trkpt lat="48.400342" lon="-4.580301"><ele>42.4</ele></trkpt>
    <trkpt lat="48.400542" lon="-4.580372"><ele>43.6</ele></trkpt>
    <trkpt lat="48.400627" lon="-4.580598"><ele>44.0</ele></trkpt>
    <trkpt lat="48.400706" lon="-4.581002"><ele>44.4</ele></trkpt>
    <trkpt lat="48.400893" lon="-4.581578"><ele>44.6</ele></trkpt>
    <trkpt lat="48.401042" lon="-4.582235"><ele>43.6</ele></trkpt>
    <trkpt lat="48.401134" lon="-4.582504"><ele>42.8</ele></trkpt>
    <trkpt lat="48.401288" lon="-4.582830"><ele>42.2</ele></trkpt>
    <trkpt lat="48.401881" lon="-4.583809"><ele>42.6</ele></trkpt>
    <trkpt lat="48.402127" lon="-4.584288"><ele>42.4</ele></trkpt>
    <trkpt lat="48.402375" lon="-4.584672"><ele>42.8</ele></trkpt>
    <trkpt lat="48.403041" lon="-4.585862"><ele>43.6</ele></trkpt>
    <trkpt lat="48.403086" lon="-4.585985"><ele>43.2</ele></trkpt>
    <trkpt lat="48.403105" lon="-4.586270"><ele>42.6</ele></trkpt>
    <trkpt lat="48.403306" lon="-4.586982"><ele>43.2</ele></trkpt>
    <trkpt lat="48.403359" lon="-4.587796"><ele>44.2</ele></trkpt>
    <trkpt lat="48.403564" lon="-4.587961"><ele>44.2</ele></trkpt>
    <trkpt lat="48.403947" lon="-4.588523"><ele>44.8</ele></trkpt>
    <trkpt lat="48.404072" lon="-4.588552"><ele>44.6</ele></trkpt>
    <trkpt lat="48.405084" lon="-4.588150"><ele>42.6</ele></trkpt>
    <trkpt lat="48.406460" lon="-4.586342"><ele>39.8</ele></trkpt>
    <trkpt lat="48.406527" lon="-4.586213"><ele>39.8</ele></trkpt>
    <trkpt lat="48.406584" lon="-4.586182"><ele>39.8</ele></trkpt>
    <trkpt lat="48.406796" lon="-4.586492"><ele>40.0</ele></trkpt>
    <trkpt lat="48.406775" lon="-4.586872"><ele>39.8</ele></trkpt>
    <trkpt lat="48.407077" lon="-4.587658"><ele>39.8</ele></trkpt>
    <trkpt lat="48.407449" lon="-4.588136"><ele>39.8</ele></trkpt>
    <trkpt lat="48.408401" lon="-4.588893"><ele>37.0</ele></trkpt>
    <trkpt lat="48.409250" lon="-4.586966"><ele>39.0</ele></trkpt>
    <trkpt lat="48.409802" lon="-4.586151"><ele>39.2</ele></trkpt>
    <trkpt lat="48.410294" lon="-4.585552"><ele>40.0</ele></trkpt>
    <trkpt lat="48.410461" lon="-4.585295"><ele>40.6</ele></trkpt>
    <trkpt lat="48.410481" lon="-4.585139"><ele>40.8</ele></trkpt>
    <trkpt lat="48.410447" lon="-4.585020"><ele>40.8</ele></trkpt>
    <trkpt lat="48.410366" lon="-4.584900"><ele>41.0</ele></trkpt>
    <trkpt lat="48.409803" lon="-4.584440"><ele>40.6</ele></trkpt>
    <trkpt lat="48.409569" lon="-4.584064"><ele>40.8</ele></trkpt>
    <trkpt lat="48.408844" lon="-4.583141"><ele>40.6</ele></trkpt>
    <trkpt lat="48.408439" lon="-4.582790"><ele>40.6</ele></trkpt>
    <trkpt lat="48.408302" lon="-4.582557"><ele>40.6</ele></trkpt>
    <trkpt lat="48.407934" lon="-4.582157"><ele>40.4</ele></trkpt>
    <trkpt lat="48.407424" lon="-4.581714"><ele>40.2</ele></trkpt>
    <trkpt lat="48.407167" lon="-4.581290"><ele>40.8</ele></trkpt>
    <trkpt lat="48.406701" lon="-4.580330"><ele>41.0</ele></trkpt>
    <trkpt lat="48.406399" lon="-4.579651"><ele>41.2</ele></trkpt>
    <trkpt lat="48.406339" lon="-4.579443"><ele>41.2</ele></trkpt>
    <trkpt lat="48.406344" lon="-4.579306"><ele>41.2</ele></trkpt>
    <trkpt lat="48.406521" lon="-4.579187"><ele>41.4</ele></trkpt>
    <trkpt lat="48.406607" lon="-4.579047"><ele>41.4</ele></trkpt>
    <trkpt lat="48.406746" lon="-4.578237"><ele>42.6</ele></trkpt>
    <trkpt lat="48.406738" lon="-4.578122"><ele>42.6</ele></trkpt>
    <trkpt lat="48.406686" lon="-4.578028"><ele>42.8</ele></trkpt>
    <trkpt lat="48.406329" lon="-4.577713"><ele>42.8</ele></trkpt>
    <trkpt lat="48.406034" lon="-4.577317"><ele>42.6</ele></trkpt>
    <trkpt lat="48.405525" lon="-4.576855"><ele>41.6</ele></trkpt>
    <trkpt lat="48.405333" lon="-4.576718"><ele>41.6</ele></trkpt>
    <trkpt lat="48.404928" lon="-4.576578"><ele>42.0</ele></trkpt>
    <trkpt lat="48.404756" lon="-4.576381"><ele>42.2</ele></trkpt>
    <trkpt lat="48.404467" lon="-4.575897"><ele>43.8</ele></trkpt>
    <trkpt lat="48.404300" lon="-4.575712"><ele>44.2</ele></trkpt>
    <trkpt lat="48.404170" lon="-4.575685"><ele>44.4</ele></trkpt>
    <trkpt lat="48.403790" lon="-4.575831"><ele>43.8</ele></trkpt>
    <trkpt lat="48.403438" lon="-4.575732"><ele>43.4</ele></trkpt>
    <trkpt lat="48.403160" lon="-4.575200"><ele>43.4</ele></trkpt>
    <trkpt lat="48.403078" lon="-4.574873"><ele>43.8</ele></trkpt>
    <trkpt lat="48.403000" lon="-4.574848"><ele>43.8</ele></trkpt>
    <trkpt lat="48.402810" lon="-4.574900"><ele>43.8</ele></trkpt>
    <trkpt lat="48.402691" lon="-4.574889"><ele>43.8</ele></trkpt>
    <trkpt lat="48.402164" lon="-4.574504"><ele>43.8</ele></trkpt>
    <trkpt lat="48.401954" lon="-4.574282"><ele>43.6</ele></trkpt>
    <trkpt lat="48.401681" lon="-4.573725"><ele>44.2</ele></trkpt>
    <trkpt lat="48.401326" lon="-4.573262"><ele>44.8</ele></trkpt>
    <trkpt lat="48.400959" lon="-4.572988"><ele>45.2</ele></trkpt>
    <trkpt lat="48.400612" lon="-4.572604"><ele>45.6</ele></trkpt>
    <trkpt lat="48.400164" lon="-4.572405"><ele>45.8</ele></trkpt>
    <trkpt lat="48.399886" lon="-4.572079"><ele>43.2</ele></trkpt>
    <trkpt lat="48.399504" lon="-4.572735"><ele>44.6</ele></trkpt>
    <trkpt lat="48.398465" lon="-4.574369"><ele>43.2</ele></trkpt>
    <trkpt lat="48.397675" lon="-4.575198"><ele>43.2</ele></trkpt>
    <trkpt lat="48.397484" lon="-4.575319"><ele>43.2</ele></trkpt>
    <trkpt lat="48.397353" lon="-4.575505"><ele>43.4</ele></trkpt>
    <trkpt lat="48.397004" lon="-4.575836"><ele>43.8</ele></trkpt>
    <trkpt lat="48.396806" lon="-4.575933"><ele>43.6</ele></trkpt>
    <trkpt lat="48.396645" lon="-4.576108"><ele>43.4</ele></trkpt>
    <trkpt lat="48.396222" lon="-4.576423"><ele>43.2</ele></trkpt>
    <trkpt lat="48.395377" lon="-4.577148"><ele>43.0</ele></trkpt>
    <trkpt lat="48.395095" lon="-4.577297"><ele>43.2</ele></trkpt>
    <trkpt lat="48.394867" lon="-4.577185"><ele>43.4</ele></trkpt>
    <trkpt lat="48.394789" lon="-4.577230"><ele>43.4</ele></trkpt>
    <trkpt lat="48.394799" lon="-4.577345"><ele>43.4</ele></trkpt>
    <trkpt lat="48.395005" lon="-4.577767"><ele>43.4</ele></trkpt>
    <trkpt lat="48.394878" lon="-4.578821"><ele>43.4</ele></trkpt>
    <trkpt lat="48.394900" lon="-4.578932"><ele>43.2</ele></trkpt>
    <trkpt lat="48.394970" lon="-4.579001"><ele>43.2</ele></trkpt>
    <trkpt lat="48.395646" lon="-4.579130"><ele>42.6</ele></trkpt>
    <trkpt lat="48.395924" lon="-4.579254"><ele>42.8</ele></trkpt>
    <trkpt lat="48.396077" lon="-4.579369"><ele>42.8</ele></trkpt>
    <trkpt lat="48.396348" lon="-4.579360"><ele>43.0</ele></trkpt>
    <trkpt lat="48.396611" lon="-4.579410"><ele>42.8</ele></trkpt>
    <trkpt lat="48.397016" lon="-4.579581"><ele>43.0</ele></trkpt>
    <trkpt lat="48.397291" lon="-4.579616"><ele>43.0</ele></trkpt>
    <trkpt lat="48.397436" lon="-4.579698"><ele>43.0</ele></trkpt>
    <trkpt lat="48.398240" lon="-4.579931"><ele>42.6</ele></trkpt>
    <trkpt lat="48.399380" lon="-4.580140"><ele>41.8</ele></trkpt>
    <trkpt lat="48.399805" lon="-4.580292"><ele>41.6</ele></trkpt>
    <trkpt lat="48.400518" lon="-4.580403"><ele>42.8</ele></trkpt>
    <trkpt lat="48.400890" lon="-4.581583"><ele>44.2</ele></trkpt>
    <trkpt lat="48.401035" lon="-4.582261"><ele>42.8</ele></trkpt>
    <trkpt lat="48.401175" lon="-4.582677"><ele>41.8</ele></trkpt>
    <trkpt lat="48.402250" lon="-4.584463"><ele>41.8</ele></trkpt>
    <trkpt lat="48.402373" lon="-4.584736"><ele>42.0</ele></trkpt>
    <trkpt lat="48.403044" lon="-4.585925"><ele>42.6</ele></trkpt>
    <trkpt lat="48.403284" lon="-4.586940"><ele>42.4</ele></trkpt>
    <trkpt lat="48.403366" lon="-4.587797"><ele>43.2</ele></trkpt>
    <trkpt lat="48.403570" lon="-4.587967"><ele>43.2</ele></trkpt>
    <trkpt lat="48.403905" lon="-4.588505"><ele>43.6</ele></trkpt>
    <trkpt lat="48.404054" lon="-4.588534"><ele>43.4</ele></trkpt>
    <trkpt lat="48.405082" lon="-4.588135"><ele>41.4</ele></trkpt>
    <trkpt lat="48.406315" lon="-4.586529"><ele>38.8</ele></trkpt>
    <trkpt lat="48.406564" lon="-4.586153"><ele>38.8</ele></trkpt>
    <trkpt lat="48.406638" lon="-4.586212"><ele>38.8</ele></trkpt>
    <trkpt lat="48.406772" lon="-4.586466"><ele>39.0</ele></trkpt>
    <trkpt lat="48.406776" lon="-4.586882"><ele>38.6</ele></trkpt>
    <trkpt lat="48.407057" lon="-4.587676"><ele>38.8</ele></trkpt>
    <trkpt lat="48.407407" lon="-4.588132"><ele>38.0</ele></trkpt>
    <trkpt lat="48.407999" lon="-4.588560"><ele>38.4</ele></trkpt>
    <trkpt lat="48.408350" lon="-4.588892"><ele>36.2</ele></trkpt>
    <trkpt lat="48.408486" lon="-4.588725"><ele>41.2</ele></trkpt>
    <trkpt lat="48.408728" lon="-4.588225"><ele>38.8</ele></trkpt>
    <trkpt lat="48.409326" lon="-4.586780"><ele>38.8</ele></trkpt>
    <trkpt lat="48.409778" lon="-4.586152"><ele>38.8</ele></trkpt>
    <trkpt lat="48.410346" lon="-4.585479"><ele>39.8</ele></trkpt>
    <trkpt lat="48.410448" lon="-4.585274"><ele>40.2</ele></trkpt>
    <trkpt lat="48.410458" lon="-4.585119"><ele>40.4</ele></trkpt>
    <trkpt lat="48.410427" lon="-4.585011"><ele>40.6</ele></trkpt>
    <trkpt lat="48.410335" lon="-4.584885"><ele>40.8</ele></trkpt>
    <trkpt lat="48.409798" lon="-4.584437"><ele>40.8</ele></trkpt>
    <trkpt lat="48.409556" lon="-4.584036"><ele>41.0</ele></trkpt>
    <trkpt lat="48.408919" lon="-4.583252"><ele>40.6</ele></trkpt>
    <trkpt lat="48.408405" lon="-4.582773"><ele>40.6</ele></trkpt>
    <trkpt lat="48.408280" lon="-4.582544"><ele>40.4</ele></trkpt>
    <trkpt lat="48.407772" lon="-4.581997"><ele>40.6</ele></trkpt>
    <trkpt lat="48.407396" lon="-4.581699"><ele>40.2</ele></trkpt>
    <trkpt lat="48.407309" lon="-4.581500"><ele>40.4</ele></trkpt>
    <trkpt lat="48.407107" lon="-4.581217"><ele>40.8</ele></trkpt>
    <trkpt lat="48.406480" lon="-4.579877"><ele>40.4</ele></trkpt>
    <trkpt lat="48.406327" lon="-4.579445"><ele>40.4</ele></trkpt>
    <trkpt lat="48.406337" lon="-4.579309"><ele>40.6</ele></trkpt>
    <trkpt lat="48.406538" lon="-4.579148"><ele>40.8</ele></trkpt>
    <trkpt lat="48.406601" lon="-4.579029"><ele>40.8</ele></trkpt>
    <trkpt lat="48.406748" lon="-4.578249"><ele>42.0</ele></trkpt>
    <trkpt lat="48.406733" lon="-4.578109"><ele>42.2</ele></trkpt>
    <trkpt lat="48.406675" lon="-4.578023"><ele>42.4</ele></trkpt>
    <trkpt lat="48.406309" lon="-4.577707"><ele>42.4</ele></trkpt>
    <trkpt lat="48.406067" lon="-4.577367"><ele>42.2</ele></trkpt>
    <trkpt lat="48.405845" lon="-4.577129"><ele>42.0</ele></trkpt>
    <trkpt lat="48.405498" lon="-4.576838"><ele>41.2</ele></trkpt>
    <trkpt lat="48.405315" lon="-4.576724"><ele>41.2</ele></trkpt>
    <trkpt lat="48.405036" lon="-4.576662"><ele>41.4</ele></trkpt>
    <trkpt lat="48.404917" lon="-4.576592"><ele>41.4</ele></trkpt>
    <trkpt lat="48.404740" lon="-4.576383"><ele>41.8</ele></trkpt>
    <trkpt lat="48.404418" lon="-4.575848"><ele>43.6</ele></trkpt>
    <trkpt lat="48.404312" lon="-4.575729"><ele>43.8</ele></trkpt>
    <trkpt lat="48.404160" lon="-4.575698"><ele>44.0</ele></trkpt>
    <trkpt lat="48.403785" lon="-4.575859"><ele>43.4</ele></trkpt>
    <trkpt lat="48.403466" lon="-4.575753"><ele>43.0</ele></trkpt>
    <trkpt lat="48.403137" lon="-4.575202"><ele>43.2</ele></trkpt>
    <trkpt lat="48.403072" lon="-4.574893"><ele>43.4</ele></trkpt>
    <trkpt lat="48.402699" lon="-4.574897"><ele>43.4</ele></trkpt>
    <trkpt lat="48.402038" lon="-4.574398"><ele>43.4</ele></trkpt>
    <trkpt lat="48.401827" lon="-4.574083"><ele>43.2</ele></trkpt>
    <trkpt lat="48.401690" lon="-4.573744"><ele>43.8</ele></trkpt>
    <trkpt lat="48.401375" lon="-4.573314"><ele>44.0</ele></trkpt>
    <trkpt lat="48.401162" lon="-4.573156"><ele>44.6</ele></trkpt>
    <trkpt lat="48.400563" lon="-4.572539"><ele>45.2</ele></trkpt>
    <trkpt lat="48.400178" lon="-4.572391"><ele>45.4</ele></trkpt>
    <trkpt lat="48.399883" lon="-4.572164"><ele>45.4</ele></trkpt>
    <trkpt lat="48.399771" lon="-4.572258"><ele>45.4</ele></trkpt>
    <trkpt lat="48.399063" lon="-4.573488"><ele>43.8</ele></trkpt>
    <trkpt lat="48.398346" lon="-4.574549"><ele>43.0</ele></trkpt>
    <trkpt lat="48.398140" lon="-4.574705"><ele>43.2</ele></trkpt>
    <trkpt lat="48.397673" lon="-4.575209"><ele>43.0</ele></trkpt>
    <trkpt lat="48.397499" lon="-4.575284"><ele>43.2</ele></trkpt>
    <trkpt lat="48.397189" lon="-4.575645"><ele>43.8</ele></trkpt>
    <trkpt lat="48.395385" lon="-4.577128"><ele>43.4</ele></trkpt>
    <trkpt lat="48.395127" lon="-4.577274"><ele>43.4</ele></trkpt>
    <trkpt lat="48.395025" lon="-4.577266"><ele>43.4</ele></trkpt>
    <trkpt lat="48.394847" lon="-4.577168"><ele>43.8</ele></trkpt>
    <trkpt lat="48.394792" lon="-4.577253"><ele>43.8</ele></trkpt>
    <trkpt lat="48.395002" lon="-4.577795"><ele>43.6</ele></trkpt>
    <trkpt lat="48.394924" lon="-4.578555"><ele>43.4</ele></trkpt>
    <trkpt lat="48.394873" lon="-4.578809"><ele>43.4</ele></trkpt>
    <trkpt lat="48.394896" lon="-4.578923"><ele>43.2</ele></trkpt>
    <trkpt lat="48.394944" lon="-4.578976"><ele>43.2</ele></trkpt>
    <trkpt lat="48.395730" lon="-4.579175"><ele>43.0</ele></trkpt>
    <trkpt lat="48.396060" lon="-4.579373"><ele>43.2</ele></trkpt>
    <trkpt lat="48.396517" lon="-4.579411"><ele>43.2</ele></trkpt>
    <trkpt lat="48.397574" lon="-4.579745"><ele>43.0</ele></trkpt>
    <trkpt lat="48.397913" lon="-4.579783"><ele>42.6</ele></trkpt>
    <trkpt lat="48.398371" lon="-4.579970"><ele>42.2</ele></trkpt>
    <trkpt lat="48.399526" lon="-4.580176"><ele>42.4</ele></trkpt>
    <trkpt lat="48.399893" lon="-4.580322"><ele>42.4</ele></trkpt>
    <trkpt lat="48.400445" lon="-4.580358"><ele>43.0</ele></trkpt>
    <trkpt lat="48.400529" lon="-4.580396"><ele>43.6</ele></trkpt>
    <trkpt lat="48.400583" lon="-4.580502"><ele>44.0</ele></trkpt>
    <trkpt lat="48.400646" lon="-4.580849"><ele>44.6</ele></trkpt>
    <trkpt lat="48.400861" lon="-4.581511"><ele>44.8</ele></trkpt>
    <trkpt lat="48.401083" lon="-4.582392"><ele>43.2</ele></trkpt>
    <trkpt lat="48.401370" lon="-4.582949"><ele>42.0</ele></trkpt>
    <trkpt lat="48.401907" lon="-4.583797"><ele>42.4</ele></trkpt>
    <trkpt lat="48.402766" lon="-4.585424"><ele>43.4</ele></trkpt>
    <trkpt lat="48.403051" lon="-4.585884"><ele>43.6</ele></trkpt>
    <trkpt lat="48.403110" lon="-4.586041"><ele>43.0</ele></trkpt>
    <trkpt lat="48.403136" lon="-4.586293"><ele>42.4</ele></trkpt>
    <trkpt lat="48.403299" lon="-4.586965"><ele>43.2</ele></trkpt>
    <trkpt lat="48.403352" lon="-4.587790"><ele>44.2</ele></trkpt>
    <trkpt lat="48.403411" lon="-4.587885"><ele>44.0</ele></trkpt>
    <trkpt lat="48.403552" lon="-4.587987"><ele>44.0</ele></trkpt>
    <trkpt lat="48.403743" lon="-4.588297"><ele>44.4</ele></trkpt>
    <trkpt lat="48.403937" lon="-4.588520"><ele>44.4</ele></trkpt>
    <trkpt lat="48.404086" lon="-4.588544"><ele>44.4</ele></trkpt>
    <trkpt lat="48.405075" lon="-4.588139"><ele>42.4</ele></trkpt>
    <trkpt lat="48.405370" lon="-4.587717"><ele>40.4</ele></trkpt>
    <trkpt lat="48.406457" lon="-4.586388"><ele>40.0</ele></trkpt>
    <trkpt lat="48.406524" lon="-4.586248"><ele>40.0</ele></trkpt>
    <trkpt lat="48.406603" lon="-4.586233"><ele>39.8</ele></trkpt>
    <trkpt lat="48.406679" lon="-4.586289"><ele>39.8</ele></trkpt>
    <trkpt lat="48.406791" lon="-4.586505"><ele>40.0</ele></trkpt>
    <trkpt lat="48.406750" lon="-4.586755"><ele>39.8</ele></trkpt>
    <trkpt lat="48.406764" lon="-4.586853"><ele>39.8</ele></trkpt>
    <trkpt lat="48.407054" lon="-4.587628"><ele>39.8</ele></trkpt>
    <trkpt lat="48.407422" lon="-4.588124"><ele>39.4</ele></trkpt>
    <trkpt lat="48.408145" lon="-4.588706"><ele>39.8</ele></trkpt>
    <trkpt lat="48.408346" lon="-4.588972"><ele>40.0</ele></trkpt>
    <trkpt lat="48.408348" lon="-4.589057"><ele>39.8</ele></trkpt>
    <trkpt lat="48.408294" lon="-4.589236"><ele>40.0</ele></trkpt>
    <trkpt lat="48.407606" lon="-4.591029"><ele>45.2</ele></trkpt>
    <trkpt lat="48.407514" lon="-4.591354"><ele>44.4</ele></trkpt>
    <trkpt lat="48.407441" lon="-4.591440"><ele>48.6</ele></trkpt>
    <trkpt lat="48.407483" lon="-4.591438"><ele>47.4</ele></trkpt>
    <trkpt lat="48.407554" lon="-4.591344"><ele>46.4</ele></trkpt>
    <trkpt lat="48.407780" lon="-4.590793"><ele>44.8</ele></trkpt>
    <trkpt lat="48.408319" lon="-4.589213"><ele>40.0</ele></trkpt>
    <trkpt lat="48.408376" lon="-4.588893"><ele>39.6</ele></trkpt>
    <trkpt lat="48.408340" lon="-4.588791"><ele>39.4</ele></trkpt>
    <trkpt lat="48.408212" lon="-4.588656"><ele>39.2</ele></trkpt>
    <trkpt lat="48.407432" lon="-4.588072"><ele>38.2</ele></trkpt>
    <trkpt lat="48.407048" lon="-4.587559"><ele>38.6</ele></trkpt>
    <trkpt lat="48.406977" lon="-4.587413"><ele>38.8</ele></trkpt>
    <trkpt lat="48.406793" lon="-4.586788"><ele>39.4</ele></trkpt>
    <trkpt lat="48.406812" lon="-4.586395"><ele>39.4</ele></trkpt>
    <trkpt lat="48.406699" lon="-4.586255"><ele>39.6</ele></trkpt>
    <trkpt lat="48.406585" lon="-4.586167"><ele>39.6</ele></trkpt>
    <trkpt lat="48.406511" lon="-4.586184"><ele>39.6</ele></trkpt>
    <trkpt lat="48.406424" lon="-4.586358"><ele>39.4</ele></trkpt>
    <trkpt lat="48.406272" lon="-4.586514"><ele>39.4</ele></trkpt>
    <trkpt lat="48.405800" lon="-4.587159"><ele>39.8</ele></trkpt>
    <trkpt lat="48.405026" lon="-4.588122"><ele>41.2</ele></trkpt>
    <trkpt lat="48.404293" lon="-4.588354"><ele>43.0</ele></trkpt>
    <trkpt lat="48.404046" lon="-4.588481"><ele>43.6</ele></trkpt>
    <trkpt lat="48.403945" lon="-4.588469"><ele>43.6</ele></trkpt>
    <trkpt lat="48.403638" lon="-4.587942"><ele>43.6</ele></trkpt>
    <trkpt lat="48.403394" lon="-4.587722"><ele>43.4</ele></trkpt>
    <trkpt lat="48.403389" lon="-4.587215"><ele>43.2</ele></trkpt>
    <trkpt lat="48.403346" lon="-4.586841"><ele>42.8</ele></trkpt>
    <trkpt lat="48.403086" lon="-4.585860"><ele>42.2</ele></trkpt>
    <trkpt lat="48.402789" lon="-4.585390"><ele>42.8</ele></trkpt>
    <trkpt lat="48.401183" lon="-4.582552"><ele>41.8</ele></trkpt>
    <trkpt lat="48.401050" lon="-4.582132"><ele>42.6</ele></trkpt>
    <trkpt lat="48.400881" lon="-4.581401"><ele>44.4</ele></trkpt>
    <trkpt lat="48.400687" lon="-4.580854"><ele>44.0</ele></trkpt>
    <trkpt lat="48.400584" lon="-4.580397"><ele>43.6</ele></trkpt>
    <trkpt lat="48.400533" lon="-4.580283"><ele>43.4</ele></trkpt>
    <trkpt lat="48.399444" lon="-4.580073"><ele>42.0</ele></trkpt>
    <trkpt lat="48.396590" lon="-4.579386"><ele>42.4</ele></trkpt>
    <trkpt lat="48.396045" lon="-4.579309"><ele>42.4</ele></trkpt>
    <trkpt lat="48.395651" lon="-4.579095"><ele>42.4</ele></trkpt>
    <trkpt lat="48.395339" lon="-4.579038"><ele>42.2</ele></trkpt>
    <trkpt lat="48.394955" lon="-4.578890"><ele>42.4</ele></trkpt>
    <trkpt lat="48.394908" lon="-4.578761"><ele>42.6</ele></trkpt>
    <trkpt lat="48.395042" lon="-4.577699"><ele>43.0</ele></trkpt>
    <trkpt lat="48.394843" lon="-4.577308"><ele>43.0</ele></trkpt>
    <trkpt lat="48.394817" lon="-4.577199"><ele>43.0</ele></trkpt>
    <trkpt lat="48.394874" lon="-4.577164"><ele>43.2</ele></trkpt>
    <trkpt lat="48.394987" lon="-4.577267"><ele>43.2</ele></trkpt>
    <trkpt lat="48.395085" lon="-4.577298"><ele>43.2</ele></trkpt>
    <trkpt lat="48.395319" lon="-4.577193"><ele>43.2</ele></trkpt>
    <trkpt lat="48.395821" lon="-4.576802"><ele>43.0</ele></trkpt>
    <trkpt lat="48.396180" lon="-4.576464"><ele>43.2</ele></trkpt>
    <trkpt lat="48.396596" lon="-4.576168"><ele>43.4</ele></trkpt>
    <trkpt lat="48.396829" lon="-4.575939"><ele>43.4</ele></trkpt>
    <trkpt lat="48.397019" lon="-4.575837"><ele>43.6</ele></trkpt>
    <trkpt lat="48.397302" lon="-4.575608"><ele>43.8</ele></trkpt>
    <trkpt lat="48.397560" lon="-4.575317"><ele>43.2</ele></trkpt>
    <trkpt lat="48.397689" lon="-4.575245"><ele>43.2</ele></trkpt>
    <trkpt lat="48.397959" lon="-4.574922"><ele>43.2</ele></trkpt>
    <trkpt lat="48.398223" lon="-4.574723"><ele>43.2</ele></trkpt>
    <trkpt lat="48.398417" lon="-4.574520"><ele>43.0</ele></trkpt>
    <trkpt lat="48.398744" lon="-4.573983"><ele>43.2</ele></trkpt>
    <trkpt lat="48.399283" lon="-4.573218"><ele>44.0</ele></trkpt>
    <trkpt lat="48.399765" lon="-4.572329"><ele>45.0</ele></trkpt>
    <trkpt lat="48.399917" lon="-4.572185"><ele>45.2</ele></trkpt>
    <trkpt lat="48.400144" lon="-4.572453"><ele>45.6</ele></trkpt>
    <trkpt lat="48.400481" lon="-4.572562"><ele>45.8</ele></trkpt>
    <trkpt lat="48.401023" lon="-4.573077"><ele>45.0</ele></trkpt>
    <trkpt lat="48.401369" lon="-4.573322"><ele>44.6</ele></trkpt>
    <trkpt lat="48.401718" lon="-4.573794"><ele>44.0</ele></trkpt>
    <trkpt lat="48.401951" lon="-4.574293"><ele>43.4</ele></trkpt>
    <trkpt lat="48.402161" lon="-4.574532"><ele>43.4</ele></trkpt>
    <trkpt lat="48.402748" lon="-4.574978"><ele>43.4</ele></trkpt>
    <trkpt lat="48.402849" lon="-4.574994"><ele>43.4</ele></trkpt>
    <trkpt lat="48.403014" lon="-4.574926"><ele>43.4</ele></trkpt>
    <trkpt lat="48.403075" lon="-4.574958"><ele>43.4</ele></trkpt>
    <trkpt lat="48.403122" lon="-4.575028"><ele>43.4</ele></trkpt>
    <trkpt lat="48.403164" lon="-4.575312"><ele>43.2</ele></trkpt>
    <trkpt lat="48.403309" lon="-4.575606"><ele>43.0</ele></trkpt>
    <trkpt lat="48.403482" lon="-4.575824"><ele>43.0</ele></trkpt>
    <trkpt lat="48.403626" lon="-4.575900"><ele>42.8</ele></trkpt>
    <trkpt lat="48.403788" lon="-4.575911"><ele>42.8</ele></trkpt>
    <trkpt lat="48.404213" lon="-4.575716"><ele>43.8</ele></trkpt>
    <trkpt lat="48.404342" lon="-4.575742"><ele>44.0</ele></trkpt>
    <trkpt lat="48.404770" lon="-4.576448"><ele>42.4</ele></trkpt>
    <trkpt lat="48.404892" lon="-4.576593"><ele>42.2</ele></trkpt>
    <trkpt lat="48.405032" lon="-4.576697"><ele>41.8</ele></trkpt>
    <trkpt lat="48.405328" lon="-4.576768"><ele>41.4</ele></trkpt>
    <trkpt lat="48.405664" lon="-4.576990"><ele>41.4</ele></trkpt>
    <trkpt lat="48.406084" lon="-4.577400"><ele>42.4</ele></trkpt>
    <trkpt lat="48.406360" lon="-4.577773"><ele>42.4</ele></trkpt>
    <trkpt lat="48.406590" lon="-4.577948"><ele>42.4</ele></trkpt>
    <trkpt lat="48.406744" lon="-4.578153"><ele>42.6</ele></trkpt>
    <trkpt lat="48.406760" lon="-4.578330"><ele>42.4</ele></trkpt>
    <trkpt lat="48.406595" lon="-4.579075"><ele>41.2</ele></trkpt>
    <trkpt lat="48.406526" lon="-4.579193"><ele>41.0</ele></trkpt>
    <trkpt lat="48.406351" lon="-4.579344"><ele>41.0</ele></trkpt>
    <trkpt lat="48.406320" lon="-4.579476"><ele>41.0</ele></trkpt>
    <trkpt lat="48.406569" lon="-4.580082"><ele>41.2</ele></trkpt>
    <trkpt lat="48.407375" lon="-4.581750"><ele>40.4</ele></trkpt>
    <trkpt lat="48.407757" lon="-4.582166"><ele>40.4</ele></trkpt>
    <trkpt lat="48.408238" lon="-4.582605"><ele>40.4</ele></trkpt>
    <trkpt lat="48.408440" lon="-4.582875"><ele>40.8</ele></trkpt>
    <trkpt lat="48.408763" lon="-4.583102"><ele>41.0</ele></trkpt>
    <trkpt lat="48.409379" lon="-4.583851"><ele>41.2</ele></trkpt>
    <trkpt lat="48.409845" lon="-4.584506"><ele>41.8</ele></trkpt>
    <trkpt lat="48.410373" lon="-4.584916"><ele>38.8</ele></trkpt>
    <trkpt lat="48.410448" lon="-4.585289"><ele>41.2</ele></trkpt>
    <trkpt lat="48.410059" lon="-4.585828"><ele>38.8</ele></trkpt>
    <trkpt lat="48.409739" lon="-4.586190"><ele>38.6</ele></trkpt>
    <trkpt lat="48.409268" lon="-4.586866"><ele>38.6</ele></trkpt>
    <trkpt lat="48.409019" lon="-4.587399"><ele>38.4</ele></trkpt>
    <trkpt lat="48.408657" lon="-4.588335"><ele>38.4</ele></trkpt>
    <trkpt lat="48.408341" lon="-4.588920"><ele>38.8</ele></trkpt>
    <trkpt lat="48.408271" lon="-4.589287"><ele>39.4</ele></trkpt>
    <trkpt lat="48.407614" lon="-4.590979"><ele>44.6</ele></trkpt>
    <trkpt lat="48.407541" lon="-4.591298"><ele>42.8</ele></trkpt>
  </trkseg></trk>
</gpx>
