<?xml version="1.0" encoding="UTF-8"?>
<gpx version="1.1" creator="tcap-parcours" xmlns="http://www.topografix.com/GPX/1/1">
  <metadata><name>Boucle de Déolen par Milin Nevez – 12,6 km, Déolen à bloc</name></metadata>
  <trk><name>Boucle de Déolen par Milin Nevez – 12,6 km, Déolen à bloc</name><trkseg>
    <trkpt lat="48.370057" lon="-4.640628"><ele>60.6</ele></trkpt>
    <trkpt lat="48.369995" lon="-4.640751"><ele>60.6</ele></trkpt>
    <trkpt lat="48.369814" lon="-4.641555"><ele>60.8</ele></trkpt>
    <trkpt lat="48.369731" lon="-4.641631"><ele>60.8</ele></trkpt>
    <trkpt lat="48.369701" lon="-4.641711"><ele>60.6</ele></trkpt>
    <trkpt lat="48.369654" lon="-4.642104"><ele>59.8</ele></trkpt>
    <trkpt lat="48.369662" lon="-4.642666"><ele>59.8</ele></trkpt>
    <trkpt lat="48.369481" lon="-4.642979"><ele>61.0</ele></trkpt>
    <trkpt lat="48.368585" lon="-4.642880"><ele>65.6</ele></trkpt>
    <trkpt lat="48.368260" lon="-4.642892"><ele>67.2</ele></trkpt>
    <trkpt lat="48.368033" lon="-4.642842"><ele>68.0</ele></trkpt>
    <trkpt lat="48.367856" lon="-4.642740"><ele>68.6</ele></trkpt>
    <trkpt lat="48.366870" lon="-4.642394"><ele>68.8</ele></trkpt>
    <trkpt lat="48.366367" lon="-4.642275"><ele>68.2</ele></trkpt>
    <trkpt lat="48.366160" lon="-4.642326"><ele>67.4</ele></trkpt>
    <trkpt lat="48.365931" lon="-4.642105"><ele>66.8</ele></trkpt>
    <trkpt lat="48.365709" lon="-4.642057"><ele>67.0</ele></trkpt>
    <trkpt lat="48.365478" lon="-4.641938"><ele>66.8</ele></trkpt>
    <trkpt lat="48.365107" lon="-4.641635"><ele>66.6</ele></trkpt>
    <trkpt lat="48.364799" lon="-4.641484"><ele>66.2</ele></trkpt>
    <trkpt lat="48.363557" lon="-4.641304"><ele>68.0</ele></trkpt>
    <trkpt lat="48.362429" lon="-4.641264"><ele>69.6</ele></trkpt>
    <trkpt lat="48.361401" lon="-4.641452"><ele>72.4</ele></trkpt>
    <trkpt lat="48.360997" lon="-4.641605"><ele>72.2</ele></trkpt>
    <trkpt lat="48.360740" lon="-4.641815"><ele>72.0</ele></trkpt>
    <trkpt lat="48.360349" lon="-4.642431"><ele>71.8</ele></trkpt>
    <trkpt lat="48.360107" lon="-4.642671"><ele>71.4</ele></trkpt>
    <trkpt lat="48.359826" lon="-4.642802"><ele>71.8</ele></trkpt>
    <trkpt lat="48.359686" lon="-4.642922"><ele>72.2</ele></trkpt>
    <trkpt lat="48.359524" lon="-4.642928"><ele>72.6</ele></trkpt>
    <trkpt lat="48.359219" lon="-4.643060"><ele>73.2</ele></trkpt>
    <trkpt lat="48.358883" lon="-4.643379"><ele>73.4</ele></trkpt>
    <trkpt lat="48.358819" lon="-4.643382"><ele>73.2</ele></trkpt>
    <trkpt lat="48.358611" lon="-4.643272"><ele>73.6</ele></trkpt>
    <trkpt lat="48.358467" lon="-4.643313"><ele>74.2</ele></trkpt>
    <trkpt lat="48.358091" lon="-4.643745"><ele>76.0</ele></trkpt>
    <trkpt lat="48.357598" lon="-4.644643"><ele>78.8</ele></trkpt>
    <trkpt lat="48.357192" lon="-4.644589"><ele>79.2</ele></trkpt>
    <trkpt lat="48.356869" lon="-4.644446"><ele>79.6</ele></trkpt>
    <trkpt lat="48.356734" lon="-4.644310"><ele>79.8</ele></trkpt>
    <trkpt lat="48.356590" lon="-4.643889"><ele>79.6</ele></trkpt>
    <trkpt lat="48.356344" lon="-4.643411"><ele>79.8</ele></trkpt>
    <trkpt lat="48.356232" lon="-4.643050"><ele>80.0</ele></trkpt>
    <trkpt lat="48.356185" lon="-4.642609"><ele>80.2</ele></trkpt>
    <trkpt lat="48.356212" lon="-4.642272"><ele>80.4</ele></trkpt>
    <trkpt lat="48.356408" lon="-4.641837"><ele>80.2</ele></trkpt>
    <trkpt lat="48.356516" lon="-4.641496"><ele>79.6</ele></trkpt>
    <trkpt lat="48.356577" lon="-4.641079"><ele>78.8</ele></trkpt>
    <trkpt lat="48.356579" lon="-4.640741"><ele>78.2</ele></trkpt>
    <trkpt lat="48.356693" lon="-4.639996"><ele>76.4</ele></trkpt>
    <trkpt lat="48.356791" lon="-4.639577"><ele>75.8</ele></trkpt>
    <trkpt lat="48.356738" lon="-4.639480"><ele>75.4</ele></trkpt>
    <trkpt lat="48.356060" lon="-4.639025"><ele>75.2</ele></trkpt>
    <trkpt lat="48.355965" lon="-4.638904"><ele>75.0</ele></trkpt>
    <trkpt lat="48.355959" lon="-4.638798"><ele>74.8</ele></trkpt>
    <trkpt lat="48.356055" lon="-4.638510"><ele>74.6</ele></trkpt>
    <trkpt lat="48.356020" lon="-4.638198"><ele>74.0</ele></trkpt>
    <trkpt lat="48.356025" lon="-4.637748"><ele>72.8</ele></trkpt>
    <trkpt lat="48.355780" lon="-4.636505"><ele>70.8</ele></trkpt>
    <trkpt lat="48.355825" lon="-4.636142"><ele>70.4</ele></trkpt>
    <trkpt lat="48.355804" lon="-4.635449"><ele>70.0</ele></trkpt>
    <trkpt lat="48.355855" lon="-4.634995"><ele>69.2</ele></trkpt>
    <trkpt lat="48.355927" lon="-4.634698"><ele>69.0</ele></trkpt>
    <trkpt lat="48.356138" lon="-4.634076"><ele>70.4</ele></trkpt>
    <trkpt lat="48.356331" lon="-4.633212"><ele>72.2</ele></trkpt>
    <trkpt lat="48.356292" lon="-4.633127"><ele>72.0</ele></trkpt>
    <trkpt lat="48.356214" lon="-4.633089"><ele>71.8</ele></trkpt>
    <trkpt lat="48.355428" lon="-4.633125"><ele>67.0</ele></trkpt>
    <trkpt lat="48.355264" lon="-4.633194"><ele>65.8</ele></trkpt>
    <trkpt lat="48.355153" lon="-4.633366"><ele>64.8</ele></trkpt>
    <trkpt lat="48.355084" lon="-4.633576"><ele>64.0</ele></trkpt>
    <trkpt lat="48.354972" lon="-4.634191"><ele>60.8</ele></trkpt>
    <trkpt lat="48.354836" lon="-4.634480"><ele>58.6</ele></trkpt>
    <trkpt lat="48.353175" lon="-4.636103"><ele>53.0</ele></trkpt>
    <trkpt lat="48.352707" lon="-4.636952"><ele>51.0</ele></trkpt>
    <trkpt lat="48.352217" lon="-4.637737"><ele>48.4</ele></trkpt>
    <trkpt lat="48.351838" lon="-4.638478"><ele>48.8</ele></trkpt>
    <trkpt lat="48.351687" lon="-4.638675"><ele>48.8</ele></trkpt>
    <trkpt lat="48.351317" lon="-4.638974"><ele>47.0</ele></trkpt>
    <trkpt lat="48.350474" lon="-4.639441"><ele>41.6</ele></trkpt>
    <trkpt lat="48.350273" lon="-4.639507"><ele>40.6</ele></trkpt>
    <trkpt lat="48.350330" lon="-4.639501"><ele>41.8</ele></trkpt>
    <trkpt lat="48.350410" lon="-4.639305"><ele>40.0</ele></trkpt>
    <trkpt lat="48.350635" lon="-4.638979"><ele>35.6</ele></trkpt>
    <trkpt lat="48.350719" lon="-4.638715"><ele>32.0</ele></trkpt>
    <trkpt lat="48.350696" lon="-4.638571"><ele>30.4</ele></trkpt>
    <trkpt lat="48.350614" lon="-4.638403"><ele>29.4</ele></trkpt>
    <trkpt lat="48.350456" lon="-4.638219"><ele>30.6</ele></trkpt>
    <trkpt lat="48.350283" lon="-4.638099"><ele>32.8</ele></trkpt>
    <trkpt lat="48.349831" lon="-4.637990"><ele>36.2</ele></trkpt>
    <trkpt lat="48.349570" lon="-4.638176"><ele>35.8</ele></trkpt>
    <trkpt lat="48.348804" lon="-4.638494"><ele>33.4</ele></trkpt>
    <trkpt lat="48.348381" lon="-4.638623"><ele>30.0</ele></trkpt>
    <trkpt lat="48.347940" lon="-4.638947"><ele>26.4</ele></trkpt>
    <trkpt lat="48.347459" lon="-4.639576"><ele>14.2</ele></trkpt>
    <trkpt lat="48.347440" lon="-4.639634"><ele>13.2</ele></trkpt>
    <trkpt lat="48.347467" lon="-4.639660"><ele>12.6</ele></trkpt>
    <trkpt lat="48.347644" lon="-4.639657"><ele>11.2</ele></trkpt>
    <trkpt lat="48.347684" lon="-4.639734"><ele>10.6</ele></trkpt>
    <trkpt lat="48.347678" lon="-4.639794"><ele>10.4</ele></trkpt>
    <trkpt lat="48.347458" lon="-4.640018"><ele>10.8</ele></trkpt>
    <trkpt lat="48.347262" lon="-4.640306"><ele>12.4</ele></trkpt>
    <trkpt lat="48.347130" lon="-4.640412"><ele>12.6</ele></trkpt>
    <trkpt lat="48.346779" lon="-4.640567"><ele>12.0</ele></trkpt>
    <trkpt lat="48.346291" lon="-4.640977"><ele>14.8</ele></trkpt>
    <trkpt lat="48.345958" lon="-4.641384"><ele>18.0</ele></trkpt>
    <trkpt lat="48.345672" lon="-4.641820"><ele>21.2</ele></trkpt>
    <trkpt lat="48.345586" lon="-4.642015"><ele>22.6</ele></trkpt>
    <trkpt lat="48.345542" lon="-4.642227"><ele>24.4</ele></trkpt>
    <trkpt lat="48.345519" lon="-4.642709"><ele>29.4</ele></trkpt>
    <trkpt lat="48.345539" lon="-4.642773"><ele>30.4</ele></trkpt>
    <trkpt lat="48.345598" lon="-4.642810"><ele>31.8</ele></trkpt>
    <trkpt lat="48.345818" lon="-4.642762"><ele>36.2</ele></trkpt>
    <trkpt lat="48.345966" lon="-4.642904"><ele>39.8</ele></trkpt>
    <trkpt lat="48.346227" lon="-4.643255"><ele>46.2</ele></trkpt>
    <trkpt lat="48.346267" lon="-4.643213"><ele>46.8</ele></trkpt>
    <trkpt lat="48.346320" lon="-4.642969"><ele>46.6</ele></trkpt>
    <trkpt lat="48.346424" lon="-4.642250"><ele>44.4</ele></trkpt>
    <trkpt lat="48.346498" lon="-4.641951"><ele>42.4</ele></trkpt>
    <trkpt lat="48.346565" lon="-4.641841"><ele>41.6</ele></trkpt>
    <trkpt lat="48.346835" lon="-4.641645"><ele>40.6</ele></trkpt>
    <trkpt lat="48.347777" lon="-4.641228"><ele>46.0</ele></trkpt>
    <trkpt lat="48.348154" lon="-4.640952"><ele>46.8</ele></trkpt>
    <trkpt lat="48.348685" lon="-4.640971"><ele>49.6</ele></trkpt>
    <trkpt lat="48.348962" lon="-4.640673"><ele>50.2</ele></trkpt>
    <trkpt lat="48.349299" lon="-4.640612"><ele>49.6</ele></trkpt>
    <trkpt lat="48.349664" lon="-4.640133"><ele>45.6</ele></trkpt>
    <trkpt lat="48.350315" lon="-4.639519"><ele>41.2</ele></trkpt>
    <trkpt lat="48.350477" lon="-4.639230"><ele>37.6</ele></trkpt>
    <trkpt lat="48.350634" lon="-4.639055"><ele>34.6</ele></trkpt>
    <trkpt lat="48.350770" lon="-4.638754"><ele>30.8</ele></trkpt>
    <trkpt lat="48.350769" lon="-4.638635"><ele>30.0</ele></trkpt>
    <trkpt lat="48.350720" lon="-4.638481"><ele>29.2</ele></trkpt>
    <trkpt lat="48.350643" lon="-4.638347"><ele>29.4</ele></trkpt>
    <trkpt lat="48.350478" lon="-4.638205"><ele>30.8</ele></trkpt>
    <trkpt lat="48.350211" lon="-4.638065"><ele>33.8</ele></trkpt>
    <trkpt lat="48.349860" lon="-4.637997"><ele>35.6</ele></trkpt>
    <trkpt lat="48.349519" lon="-4.638222"><ele>34.8</ele></trkpt>
    <trkpt lat="48.349255" lon="-4.638315"><ele>35.0</ele></trkpt>
    <trkpt lat="48.348836" lon="-4.638537"><ele>32.6</ele></trkpt>
    <trkpt lat="48.348376" lon="-4.638694"><ele>29.0</ele></trkpt>
    <trkpt lat="48.347967" lon="-4.638954"><ele>26.2</ele></trkpt>
    <trkpt lat="48.347439" lon="-4.639608"><ele>15.2</ele></trkpt>
    <trkpt lat="48.347431" lon="-4.639647"><ele>14.8</ele></trkpt>
    <trkpt lat="48.347463" lon="-4.639667"><ele>14.4</ele></trkpt>
    <trkpt lat="48.347645" lon="-4.639635"><ele>12.8</ele></trkpt>
    <trkpt lat="48.347666" lon="-4.639773"><ele>11.8</ele></trkpt>
    <trkpt lat="48.347476" lon="-4.639954"><ele>11.0</ele></trkpt>
    <trkpt lat="48.347301" lon="-4.640264"><ele>12.4</ele></trkpt>
    <trkpt lat="48.347135" lon="-4.640392"><ele>12.6</ele></trkpt>
    <trkpt lat="48.346803" lon="-4.640514"><ele>10.8</ele></trkpt>
    <trkpt lat="48.346593" lon="-4.640755"><ele>12.4</ele></trkpt>
    <trkpt lat="48.346141" lon="-4.641144"><ele>16.6</ele></trkpt>
    <trkpt lat="48.345692" lon="-4.641778"><ele>20.8</ele></trkpt>
    <trkpt lat="48.345551" lon="-4.642138"><ele>23.6</ele></trkpt>
    <trkpt lat="48.345523" lon="-4.642698"><ele>29.6</ele></trkpt>
    <trkpt lat="48.345550" lon="-4.642796"><ele>31.0</ele></trkpt>
    <trkpt lat="48.345629" lon="-4.642824"><ele>32.4</ele></trkpt>
    <trkpt lat="48.345783" lon="-4.642749"><ele>35.2</ele></trkpt>
    <trkpt lat="48.345861" lon="-4.642780"><ele>36.8</ele></trkpt>
    <trkpt lat="48.346222" lon="-4.643270"><ele>45.6</ele></trkpt>
    <trkpt lat="48.346298" lon="-4.643012"><ele>46.2</ele></trkpt>
    <trkpt lat="48.346484" lon="-4.641993"><ele>42.8</ele></trkpt>
    <trkpt lat="48.346568" lon="-4.641815"><ele>41.6</ele></trkpt>
    <trkpt lat="48.346741" lon="-4.641677"><ele>40.6</ele></trkpt>
    <trkpt lat="48.347231" lon="-4.641480"><ele>44.0</ele></trkpt>
    <trkpt lat="48.347558" lon="-4.641274"><ele>45.8</ele></trkpt>
    <trkpt lat="48.347937" lon="-4.641103"><ele>46.4</ele></trkpt>
    <trkpt lat="48.348170" lon="-4.640922"><ele>47.0</ele></trkpt>
    <trkpt lat="48.348725" lon="-4.640967"><ele>49.4</ele></trkpt>
    <trkpt lat="48.348994" lon="-4.640680"><ele>50.0</ele></trkpt>
    <trkpt lat="48.349305" lon="-4.640616"><ele>49.4</ele></trkpt>
    <trkpt lat="48.349927" lon="-4.639841"><ele>44.8</ele></trkpt>
    <trkpt lat="48.350318" lon="-4.639507"><ele>41.8</ele></trkpt>
    <trkpt lat="48.350450" lon="-4.639243"><ele>38.2</ele></trkpt>
    <trkpt lat="48.350721" lon="-4.638974"><ele>33.6</ele></trkpt>
    <trkpt lat="48.350789" lon="-4.638785"><ele>32.0</ele></trkpt>
    <trkpt lat="48.350690" lon="-4.638503"><ele>30.6</ele></trkpt>
    <trkpt lat="48.350554" lon="-4.638308"><ele>30.6</ele></trkpt>
    <trkpt lat="48.350240" lon="-4.638048"><ele>34.4</ele></trkpt>
    <trkpt lat="48.350004" lon="-4.637979"><ele>36.6</ele></trkpt>
    <trkpt lat="48.349816" lon="-4.638011"><ele>36.6</ele></trkpt>
    <trkpt lat="48.349554" lon="-4.638241"><ele>36.0</ele></trkpt>
    <trkpt lat="48.348582" lon="-4.638611"><ele>30.8</ele></trkpt>
    <trkpt lat="48.348035" lon="-4.638898"><ele>26.8</ele></trkpt>
    <trkpt lat="48.347460" lon="-4.639637"><ele>14.2</ele></trkpt>
    <trkpt lat="48.347495" lon="-4.639694"><ele>13.6</ele></trkpt>
    <trkpt lat="48.347655" lon="-4.639645"><ele>12.6</ele></trkpt>
    <trkpt lat="48.347660" lon="-4.639823"><ele>11.6</ele></trkpt>
    <trkpt lat="48.347502" lon="-4.639931"><ele>11.4</ele></trkpt>
    <trkpt lat="48.347364" lon="-4.640166"><ele>12.0</ele></trkpt>
    <trkpt lat="48.347195" lon="-4.640361"><ele>12.8</ele></trkpt>
    <trkpt lat="48.346816" lon="-4.640532"><ele>11.2</ele></trkpt>
    <trkpt lat="48.346147" lon="-4.641131"><ele>16.6</ele></trkpt>
    <trkpt lat="48.345641" lon="-4.641859"><ele>21.6</ele></trkpt>
    <trkpt lat="48.345556" lon="-4.642110"><ele>23.4</ele></trkpt>
    <trkpt lat="48.345533" lon="-4.642353"><ele>25.8</ele></trkpt>
    <trkpt lat="48.345546" lon="-4.642792"><ele>30.8</ele></trkpt>
    <trkpt lat="48.345631" lon="-4.642815"><ele>32.2</ele></trkpt>
    <trkpt lat="48.345776" lon="-4.642724"><ele>35.0</ele></trkpt>
    <trkpt lat="48.345836" lon="-4.642735"><ele>36.2</ele></trkpt>
    <trkpt lat="48.345969" lon="-4.642862"><ele>39.4</ele></trkpt>
    <trkpt lat="48.346227" lon="-4.643245"><ele>45.6</ele></trkpt>
    <trkpt lat="48.346309" lon="-4.643013"><ele>46.6</ele></trkpt>
    <trkpt lat="48.346497" lon="-4.642036"><ele>43.4</ele></trkpt>
    <trkpt lat="48.346591" lon="-4.641829"><ele>42.0</ele></trkpt>
    <trkpt lat="48.346793" lon="-4.641672"><ele>41.2</ele></trkpt>
    <trkpt lat="48.347876" lon="-4.641153"><ele>47.2</ele></trkpt>
    <trkpt lat="48.348144" lon="-4.640939"><ele>47.4</ele></trkpt>
    <trkpt lat="48.348719" lon="-4.640939"><ele>49.2</ele></trkpt>
    <trkpt lat="48.348952" lon="-4.640680"><ele>50.0</ele></trkpt>
    <trkpt lat="48.349288" lon="-4.640627"><ele>49.8</ele></trkpt>
    <trkpt lat="48.350083" lon="-4.639654"><ele>43.2</ele></trkpt>
    <trkpt lat="48.350319" lon="-4.639487"><ele>41.0</ele></trkpt>
    <trkpt lat="48.350461" lon="-4.639235"><ele>37.8</ele></trkpt>
    <trkpt lat="48.350725" lon="-4.638894"><ele>33.0</ele></trkpt>
    <trkpt lat="48.350769" lon="-4.638716"><ele>31.2</ele></trkpt>
    <trkpt lat="48.350710" lon="-4.638504"><ele>30.2</ele></trkpt>
    <trkpt lat="48.350577" lon="-4.638298"><ele>30.8</ele></trkpt>
    <trkpt lat="48.350406" lon="-4.638147"><ele>32.6</ele></trkpt>
    <trkpt lat="48.350103" lon="-4.637995"><ele>35.6</ele></trkpt>
    <trkpt lat="48.349858" lon="-4.637994"><ele>36.2</ele></trkpt>
    <trkpt lat="48.349558" lon="-4.638224"><ele>35.0</ele></trkpt>
    <trkpt lat="48.348687" lon="-4.638538"><ele>32.6</ele></trkpt>
    <trkpt lat="48.348193" lon="-4.638841"><ele>28.8</ele></trkpt>
    <trkpt lat="48.347958" lon="-4.638942"><ele>27.4</ele></trkpt>
    <trkpt lat="48.347749" lon="-4.639180"><ele>23.2</ele></trkpt>
    <trkpt lat="48.347447" lon="-4.639624"><ele>15.0</ele></trkpt>
    <trkpt lat="48.347445" lon="-4.639666"><ele>14.6</ele></trkpt>
    <trkpt lat="48.347480" lon="-4.639692"><ele>14.2</ele></trkpt>
    <trkpt lat="48.347657" lon="-4.639642"><ele>13.2</ele></trkpt>
    <trkpt lat="48.347676" lon="-4.639786"><ele>12.6</ele></trkpt>
    <trkpt lat="48.347504" lon="-4.639947"><ele>12.4</ele></trkpt>
    <trkpt lat="48.347303" lon="-4.640280"><ele>13.4</ele></trkpt>
    <trkpt lat="48.347120" lon="-4.640419"><ele>13.4</ele></trkpt>
    <trkpt lat="48.346809" lon="-4.640532"><ele>12.4</ele></trkpt>
    <trkpt lat="48.346465" lon="-4.640825"><ele>15.0</ele></trkpt>
    <trkpt lat="48.346147" lon="-4.641143"><ele>17.2</ele></trkpt>
    <trkpt lat="48.345760" lon="-4.641692"><ele>20.6</ele></trkpt>
    <trkpt lat="48.345647" lon="-4.641885"><ele>21.8</ele></trkpt>
    <trkpt lat="48.345564" lon="-4.642155"><ele>24.4</ele></trkpt>
    <trkpt lat="48.345525" lon="-4.642664"><ele>29.8</ele></trkpt>
    <trkpt lat="48.345537" lon="-4.642770"><ele>31.0</ele></trkpt>
    <trkpt lat="48.345595" lon="-4.642811"><ele>32.2</ele></trkpt>
    <trkpt lat="48.345826" lon="-4.642744"><ele>36.0</ele></trkpt>
    <trkpt lat="48.345974" lon="-4.642887"><ele>39.6</ele></trkpt>
    <trkpt lat="48.346236" lon="-4.643242"><ele>45.4</ele></trkpt>
    <trkpt lat="48.346259" lon="-4.643217"><ele>46.6</ele></trkpt>
    <trkpt lat="48.346275" lon="-4.644327"><ele>51.6</ele></trkpt>
    <trkpt lat="48.346327" lon="-4.644601"><ele>52.8</ele></trkpt>
    <trkpt lat="48.346337" lon="-4.645375"><ele>55.2</ele></trkpt>
    <trkpt lat="48.346380" lon="-4.645823"><ele>55.2</ele></trkpt>
    <trkpt lat="48.346525" lon="-4.646424"><ele>55.2</ele></trkpt>
    <trkpt lat="48.346618" lon="-4.646988"><ele>55.0</ele></trkpt>
    <trkpt lat="48.346863" lon="-4.647791"><ele>54.4</ele></trkpt>
    <trkpt lat="48.347138" lon="-4.649410"><ele>51.6</ele></trkpt>
    <trkpt lat="48.347655" lon="-4.650856"><ele>55.0</ele></trkpt>
    <trkpt lat="48.347717" lon="-4.650946"><ele>55.2</ele></trkpt>
    <trkpt lat="48.347884" lon="-4.651058"><ele>55.4</ele></trkpt>
    <trkpt lat="48.348213" lon="-4.651643"><ele>53.6</ele></trkpt>
    <trkpt lat="48.348640" lon="-4.652242"><ele>46.4</ele></trkpt>
    <trkpt lat="48.348807" lon="-4.652281"><ele>45.4</ele></trkpt>
    <trkpt lat="48.349124" lon="-4.652240"><ele>45.0</ele></trkpt>
    <trkpt lat="48.349412" lon="-4.652299"><ele>44.8</ele></trkpt>
    <trkpt lat="48.349581" lon="-4.652454"><ele>44.4</ele></trkpt>
    <trkpt lat="48.349835" lon="-4.652835"><ele>43.6</ele></trkpt>
    <trkpt lat="48.350031" lon="-4.652969"><ele>44.4</ele></trkpt>
    <trkpt lat="48.350141" lon="-4.652882"><ele>45.2</ele></trkpt>
    <trkpt lat="48.350285" lon="-4.652589"><ele>47.2</ele></trkpt>
    <trkpt lat="48.350997" lon="-4.651589"><ele>52.0</ele></trkpt>
    <trkpt lat="48.351439" lon="-4.650867"><ele>54.4</ele></trkpt>
    <trkpt lat="48.351975" lon="-4.650310"><ele>58.4</ele></trkpt>
    <trkpt lat="48.352575" lon="-4.649901"><ele>62.4</ele></trkpt>
    <trkpt lat="48.352868" lon="-4.649511"><ele>64.4</ele></trkpt>
    <trkpt lat="48.353066" lon="-4.648977"><ele>66.6</ele></trkpt>
    <trkpt lat="48.353106" lon="-4.648367"><ele>68.2</ele></trkpt>
    <trkpt lat="48.353259" lon="-4.647897"><ele>69.2</ele></trkpt>
    <trkpt lat="48.353315" lon="-4.647532"><ele>70.2</ele></trkpt>
    <trkpt lat="48.353572" lon="-4.646843"><ele>72.4</ele></trkpt>
    <trkpt lat="48.353729" lon="-4.646135"><ele>73.4</ele></trkpt>
    <trkpt lat="48.353968" lon="-4.645779"><ele>74.0</ele></trkpt>
    <trkpt lat="48.354420" lon="-4.645970"><ele>74.6</ele></trkpt>
    <trkpt lat="48.354715" lon="-4.645965"><ele>75.0</ele></trkpt>
    <trkpt lat="48.355934" lon="-4.645301"><ele>79.6</ele></trkpt>
    <trkpt lat="48.356173" lon="-4.645073"><ele>80.4</ele></trkpt>
    <trkpt lat="48.356479" lon="-4.644623"><ele>80.4</ele></trkpt>
    <trkpt lat="48.356442" lon="-4.644636"><ele>80.4</ele></trkpt>
    <trkpt lat="48.356355" lon="-4.644701"><ele>80.4</ele></trkpt>
    <trkpt lat="48.356336" lon="-4.644767"><ele>80.6</ele></trkpt>
    <trkpt lat="48.356406" lon="-4.644767"><ele>80.6</ele></trkpt>
    <trkpt lat="48.356646" lon="-4.644556"><ele>80.2</ele></trkpt>
    <trkpt lat="48.356787" lon="-4.644499"><ele>80.0</ele></trkpt>
    <trkpt lat="48.357351" lon="-4.644665"><ele>79.0</ele></trkpt>
    <trkpt lat="48.357647" lon="-4.644644"><ele>78.2</ele></trkpt>
    <trkpt lat="48.357710" lon="-4.644577"><ele>78.0</ele></trkpt>
    <trkpt lat="48.358120" lon="-4.643761"><ele>75.8</ele></trkpt>
    <trkpt lat="48.358476" lon="-4.643359"><ele>73.6</ele></trkpt>
    <trkpt lat="48.358637" lon="-4.643291"><ele>73.4</ele></trkpt>
    <trkpt lat="48.358934" lon="-4.643373"><ele>73.2</ele></trkpt>
    <trkpt lat="48.359242" lon="-4.643062"><ele>73.0</ele></trkpt>
    <trkpt lat="48.359813" lon="-4.642901"><ele>72.0</ele></trkpt>
    <trkpt lat="48.360295" lon="-4.642572"><ele>72.4</ele></trkpt>
    <trkpt lat="48.360723" lon="-4.641892"><ele>72.0</ele></trkpt>
    <trkpt lat="48.360959" lon="-4.641667"><ele>72.2</ele></trkpt>
    <trkpt lat="48.361178" lon="-4.641549"><ele>72.2</ele></trkpt>
    <trkpt lat="48.361674" lon="-4.641424"><ele>72.0</ele></trkpt>
    <trkpt lat="48.362460" lon="-4.641304"><ele>69.6</ele></trkpt>
    <trkpt lat="48.363002" lon="-4.641280"><ele>68.4</ele></trkpt>
    <trkpt lat="48.364873" lon="-4.641535"><ele>66.4</ele></trkpt>
    <trkpt lat="48.365137" lon="-4.641667"><ele>66.6</ele></trkpt>
    <trkpt lat="48.365796" lon="-4.642113"><ele>67.2</ele></trkpt>
    <trkpt lat="48.365978" lon="-4.642177"><ele>67.4</ele></trkpt>
    <trkpt lat="48.366192" lon="-4.642340"><ele>67.6</ele></trkpt>
    <trkpt lat="48.366464" lon="-4.642320"><ele>67.6</ele></trkpt>
    <trkpt lat="48.367764" lon="-4.642768"><ele>68.4</ele></trkpt>
    <trkpt lat="48.368122" lon="-4.642935"><ele>67.2</ele></trkpt>
    <trkpt lat="48.369477" lon="-4.642978"><ele>60.6</ele></trkpt>
    <trkpt lat="48.369585" lon="-4.642906"><ele>60.4</ele></trkpt>
    <trkpt lat="48.369645" lon="-4.642730"><ele>60.4</ele></trkpt>
    <trkpt lat="48.369681" lon="-4.642538"><ele>60.6</ele></trkpt>
    <trkpt lat="48.369645" lon="-4.642250"><ele>60.6</ele></trkpt>
    <trkpt lat="48.369776" lon="-4.642139"><ele>60.6</ele></trkpt>
    <trkpt lat="48.369803" lon="-4.642072"><ele>60.6</ele></trkpt>
    <trkpt lat="48.370182" lon="-4.640626"><ele>60.0</ele></trkpt>
  </trkseg></trk>
</gpx>
