<?xml version="1.0" encoding="UTF-8"?>
<gpx version="1.1" creator="tcap-parcours" xmlns="http://www.topografix.com/GPX/1/1">
  <metadata><name>Boucle de Déolen par Milin Nevez – 13,3 km</name></metadata>
  <trk><name>Boucle de Déolen par Milin Nevez – 13,3 km</name><trkseg>
    <trkpt lat="48.369999" lon="-4.640309"><ele>60.4</ele></trkpt>
    <trkpt lat="48.369936" lon="-4.640791"><ele>60.6</ele></trkpt>
    <trkpt lat="48.369818" lon="-4.641336"><ele>60.8</ele></trkpt>
    <trkpt lat="48.369685" lon="-4.641705"><ele>61.6</ele></trkpt>
    <trkpt lat="48.369584" lon="-4.642189"><ele>62.0</ele></trkpt>
    <trkpt lat="48.369645" lon="-4.642640"><ele>61.4</ele></trkpt>
    <trkpt lat="48.369490" lon="-4.643006"><ele>60.4</ele></trkpt>
    <trkpt lat="48.368734" lon="-4.642900"><ele>65.6</ele></trkpt>
    <trkpt lat="48.368042" lon="-4.642885"><ele>69.0</ele></trkpt>
    <trkpt lat="48.367885" lon="-4.642766"><ele>69.2</ele></trkpt>
    <trkpt lat="48.367338" lon="-4.642544"><ele>69.2</ele></trkpt>
    <trkpt lat="48.366558" lon="-4.642297"><ele>69.0</ele></trkpt>
    <trkpt lat="48.366339" lon="-4.642266"><ele>68.4</ele></trkpt>
    <trkpt lat="48.366160" lon="-4.642335"><ele>68.2</ele></trkpt>
    <trkpt lat="48.365949" lon="-4.642138"><ele>68.2</ele></trkpt>
    <trkpt lat="48.365628" lon="-4.642038"><ele>67.6</ele></trkpt>
    <trkpt lat="48.365065" lon="-4.641597"><ele>66.8</ele></trkpt>
    <trkpt lat="48.364737" lon="-4.641424"><ele>66.2</ele></trkpt>
    <trkpt lat="48.363356" lon="-4.641271"><ele>68.8</ele></trkpt>
    <trkpt lat="48.362576" lon="-4.641254"><ele>69.8</ele></trkpt>
    <trkpt lat="48.361999" lon="-4.641324"><ele>71.8</ele></trkpt>
    <trkpt lat="48.361297" lon="-4.641510"><ele>73.2</ele></trkpt>
    <trkpt lat="48.360954" lon="-4.641664"><ele>73.0</ele></trkpt>
    <trkpt lat="48.360662" lon="-4.641929"><ele>72.6</ele></trkpt>
    <trkpt lat="48.360217" lon="-4.642590"><ele>71.8</ele></trkpt>
    <trkpt lat="48.359827" lon="-4.642813"><ele>72.2</ele></trkpt>
    <trkpt lat="48.359724" lon="-4.642911"><ele>72.4</ele></trkpt>
    <trkpt lat="48.359518" lon="-4.642943"><ele>73.2</ele></trkpt>
    <trkpt lat="48.359155" lon="-4.643095"><ele>74.2</ele></trkpt>
    <trkpt lat="48.358843" lon="-4.643395"><ele>74.0</ele></trkpt>
    <trkpt lat="48.358621" lon="-4.643301"><ele>74.6</ele></trkpt>
    <trkpt lat="48.358485" lon="-4.643343"><ele>75.4</ele></trkpt>
    <trkpt lat="48.358145" lon="-4.643686"><ele>77.2</ele></trkpt>
    <trkpt lat="48.357720" lon="-4.644473"><ele>79.6</ele></trkpt>
    <trkpt lat="48.357499" lon="-4.644692"><ele>79.6</ele></trkpt>
    <trkpt lat="48.357234" lon="-4.644676"><ele>79.4</ele></trkpt>
    <trkpt lat="48.356772" lon="-4.644503"><ele>79.6</ele></trkpt>
    <trkpt lat="48.356632" lon="-4.644519"><ele>80.0</ele></trkpt>
    <trkpt lat="48.356448" lon="-4.644658"><ele>80.6</ele></trkpt>
    <trkpt lat="48.356098" lon="-4.645129"><ele>80.8</ele></trkpt>
    <trkpt lat="48.355853" lon="-4.645354"><ele>79.8</ele></trkpt>
    <trkpt lat="48.354664" lon="-4.645950"><ele>75.0</ele></trkpt>
    <trkpt lat="48.354503" lon="-4.645991"><ele>74.8</ele></trkpt>
    <trkpt lat="48.354397" lon="-4.645966"><ele>74.6</ele></trkpt>
    <trkpt lat="48.353260" lon="-4.645394"><ele>74.4</ele></trkpt>
    <trkpt lat="48.352509" lon="-4.645260"><ele>75.8</ele></trkpt>
    <trkpt lat="48.352196" lon="-4.645332"><ele>76.0</ele></trkpt>
    <trkpt lat="48.351864" lon="-4.645523"><ele>75.4</ele></trkpt>
    <trkpt lat="48.351562" lon="-4.645775"><ele>74.8</ele></trkpt>
    <trkpt lat="48.351433" lon="-4.645805"><ele>74.8</ele></trkpt>
    <trkpt lat="48.351253" lon="-4.645729"><ele>74.6</ele></trkpt>
    <trkpt lat="48.350469" lon="-4.645223"><ele>73.2</ele></trkpt>
    <trkpt lat="48.350308" lon="-4.645060"><ele>72.4</ele></trkpt>
    <trkpt lat="48.350179" lon="-4.644855"><ele>71.8</ele></trkpt>
    <trkpt lat="48.350056" lon="-4.644506"><ele>70.8</ele></trkpt>
    <trkpt lat="48.349571" lon="-4.642455"><ele>63.6</ele></trkpt>
    <trkpt lat="48.349340" lon="-4.641706"><ele>59.4</ele></trkpt>
    <trkpt lat="48.349224" lon="-4.641036"><ele>55.0</ele></trkpt>
    <trkpt lat="48.349228" lon="-4.640742"><ele>52.0</ele></trkpt>
    <trkpt lat="48.349288" lon="-4.640551"><ele>50.0</ele></trkpt>
    <trkpt lat="48.350110" lon="-4.639642"><ele>42.8</ele></trkpt>
    <trkpt lat="48.350330" lon="-4.639485"><ele>41.0</ele></trkpt>
    <trkpt lat="48.350449" lon="-4.639244"><ele>38.0</ele></trkpt>
    <trkpt lat="48.350685" lon="-4.638931"><ele>33.0</ele></trkpt>
    <trkpt lat="48.350727" lon="-4.638775"><ele>31.2</ele></trkpt>
    <trkpt lat="48.350660" lon="-4.638483"><ele>29.2</ele></trkpt>
    <trkpt lat="48.350412" lon="-4.638181"><ele>31.6</ele></trkpt>
    <trkpt lat="48.350163" lon="-4.638056"><ele>34.8</ele></trkpt>
    <trkpt lat="48.349841" lon="-4.638037"><ele>36.8</ele></trkpt>
    <trkpt lat="48.349727" lon="-4.638158"><ele>36.0</ele></trkpt>
    <trkpt lat="48.349504" lon="-4.638283"><ele>35.6</ele></trkpt>
    <trkpt lat="48.348917" lon="-4.638497"><ele>34.2</ele></trkpt>
    <trkpt lat="48.348472" lon="-4.638602"><ele>31.0</ele></trkpt>
    <trkpt lat="48.348012" lon="-4.638883"><ele>27.0</ele></trkpt>
    <trkpt lat="48.347819" lon="-4.639083"><ele>24.0</ele></trkpt>
    <trkpt lat="48.347455" lon="-4.639602"><ele>15.8</ele></trkpt>
    <trkpt lat="48.347480" lon="-4.639641"><ele>15.0</ele></trkpt>
    <trkpt lat="48.347636" lon="-4.639616"><ele>13.8</ele></trkpt>
    <trkpt lat="48.347665" lon="-4.639683"><ele>13.2</ele></trkpt>
    <trkpt lat="48.347658" lon="-4.639778"><ele>12.8</ele></trkpt>
    <trkpt lat="48.347454" lon="-4.639977"><ele>11.8</ele></trkpt>
    <trkpt lat="48.347291" lon="-4.640296"><ele>13.2</ele></trkpt>
    <trkpt lat="48.346969" lon="-4.640488"><ele>13.0</ele></trkpt>
    <trkpt lat="48.346809" lon="-4.640522"><ele>12.6</ele></trkpt>
    <trkpt lat="48.346407" lon="-4.640858"><ele>15.4</ele></trkpt>
    <trkpt lat="48.346208" lon="-4.641075"><ele>17.4</ele></trkpt>
    <trkpt lat="48.345740" lon="-4.641735"><ele>21.4</ele></trkpt>
    <trkpt lat="48.345627" lon="-4.641947"><ele>22.8</ele></trkpt>
    <trkpt lat="48.345550" lon="-4.642184"><ele>24.8</ele></trkpt>
    <trkpt lat="48.345515" lon="-4.642674"><ele>30.0</ele></trkpt>
    <trkpt lat="48.345531" lon="-4.642744"><ele>31.0</ele></trkpt>
    <trkpt lat="48.345582" lon="-4.642784"><ele>32.0</ele></trkpt>
    <trkpt lat="48.345771" lon="-4.642708"><ele>35.4</ele></trkpt>
    <trkpt lat="48.345831" lon="-4.642720"><ele>36.8</ele></trkpt>
    <trkpt lat="48.346000" lon="-4.642894"><ele>41.0</ele></trkpt>
    <trkpt lat="48.346144" lon="-4.643148"><ele>44.8</ele></trkpt>
    <trkpt lat="48.346239" lon="-4.643247"><ele>46.8</ele></trkpt>
    <trkpt lat="48.346296" lon="-4.643122"><ele>47.4</ele></trkpt>
    <trkpt lat="48.346383" lon="-4.642476"><ele>45.0</ele></trkpt>
    <trkpt lat="48.346462" lon="-4.642124"><ele>43.2</ele></trkpt>
    <trkpt lat="48.346546" lon="-4.641903"><ele>42.6</ele></trkpt>
    <trkpt lat="48.346628" lon="-4.641794"><ele>42.2</ele></trkpt>
    <trkpt lat="48.346828" lon="-4.641639"><ele>41.8</ele></trkpt>
    <trkpt lat="48.347240" lon="-4.641476"><ele>44.6</ele></trkpt>
    <trkpt lat="48.347864" lon="-4.641152"><ele>48.4</ele></trkpt>
    <trkpt lat="48.348153" lon="-4.640927"><ele>48.4</ele></trkpt>
    <trkpt lat="48.348662" lon="-4.640918"><ele>49.4</ele></trkpt>
    <trkpt lat="48.348765" lon="-4.640854"><ele>49.6</ele></trkpt>
    <trkpt lat="48.348951" lon="-4.640618"><ele>49.6</ele></trkpt>
    <trkpt lat="48.349303" lon="-4.640524"><ele>48.6</ele></trkpt>
    <trkpt lat="48.349839" lon="-4.639920"><ele>45.2</ele></trkpt>
    <trkpt lat="48.350323" lon="-4.639481"><ele>41.2</ele></trkpt>
    <trkpt lat="48.350481" lon="-4.639192"><ele>37.8</ele></trkpt>
    <trkpt lat="48.350717" lon="-4.638915"><ele>33.2</ele></trkpt>
    <trkpt lat="48.350753" lon="-4.638749"><ele>31.4</ele></trkpt>
    <trkpt lat="48.350636" lon="-4.638413"><ele>30.4</ele></trkpt>
    <trkpt lat="48.350441" lon="-4.638167"><ele>31.8</ele></trkpt>
    <trkpt lat="48.350149" lon="-4.638024"><ele>34.8</ele></trkpt>
    <trkpt lat="48.349870" lon="-4.638014"><ele>36.2</ele></trkpt>
    <trkpt lat="48.349575" lon="-4.638235"><ele>35.0</ele></trkpt>
    <trkpt lat="48.348490" lon="-4.638605"><ele>30.6</ele></trkpt>
    <trkpt lat="48.348018" lon="-4.638867"><ele>27.4</ele></trkpt>
    <trkpt lat="48.347462" lon="-4.639595"><ele>16.0</ele></trkpt>
    <trkpt lat="48.347488" lon="-4.639650"><ele>15.4</ele></trkpt>
    <trkpt lat="48.347658" lon="-4.639628"><ele>14.2</ele></trkpt>
    <trkpt lat="48.347674" lon="-4.639776"><ele>12.8</ele></trkpt>
    <trkpt lat="48.347462" lon="-4.639996"><ele>11.8</ele></trkpt>
    <trkpt lat="48.347294" lon="-4.640272"><ele>12.8</ele></trkpt>
    <trkpt lat="48.347080" lon="-4.640430"><ele>12.6</ele></trkpt>
    <trkpt lat="48.346809" lon="-4.640517"><ele>11.8</ele></trkpt>
    <trkpt lat="48.346263" lon="-4.640996"><ele>16.2</ele></trkpt>
    <trkpt lat="48.345699" lon="-4.641778"><ele>21.2</ele></trkpt>
    <trkpt lat="48.345617" lon="-4.641947"><ele>22.2</ele></trkpt>
    <trkpt lat="48.345548" lon="-4.642197"><ele>24.6</ele></trkpt>
    <trkpt lat="48.345521" lon="-4.642625"><ele>29.2</ele></trkpt>
    <trkpt lat="48.345548" lon="-4.642759"><ele>31.0</ele></trkpt>
    <trkpt lat="48.345634" lon="-4.642794"><ele>32.4</ele></trkpt>
    <trkpt lat="48.345823" lon="-4.642739"><ele>36.6</ele></trkpt>
    <trkpt lat="48.346249" lon="-4.643238"><ele>46.0</ele></trkpt>
    <trkpt lat="48.346303" lon="-4.643093"><ele>46.6</ele></trkpt>
    <trkpt lat="48.346397" lon="-4.642332"><ele>44.0</ele></trkpt>
    <trkpt lat="48.346488" lon="-4.641976"><ele>42.4</ele></trkpt>
    <trkpt lat="48.346576" lon="-4.641818"><ele>41.8</ele></trkpt>
    <trkpt lat="48.346905" lon="-4.641588"><ele>42.2</ele></trkpt>
    <trkpt lat="48.347242" lon="-4.641474"><ele>44.6</ele></trkpt>
    <trkpt lat="48.347745" lon="-4.641210"><ele>47.4</ele></trkpt>
    <trkpt lat="48.348163" lon="-4.640918"><ele>48.2</ele></trkpt>
    <trkpt lat="48.348718" lon="-4.640947"><ele>50.0</ele></trkpt>
    <trkpt lat="48.348949" lon="-4.640624"><ele>49.6</ele></trkpt>
    <trkpt lat="48.349346" lon="-4.640522"><ele>48.6</ele></trkpt>
    <trkpt lat="48.349773" lon="-4.640024"><ele>45.4</ele></trkpt>
    <trkpt lat="48.350311" lon="-4.639548"><ele>42.0</ele></trkpt>
    <trkpt lat="48.350497" lon="-4.639205"><ele>38.2</ele></trkpt>
    <trkpt lat="48.350739" lon="-4.638887"><ele>33.0</ele></trkpt>
    <trkpt lat="48.350778" lon="-4.638732"><ele>31.4</ele></trkpt>
    <trkpt lat="48.350735" lon="-4.638546"><ele>30.6</ele></trkpt>
    <trkpt lat="48.350634" lon="-4.638373"><ele>30.2</ele></trkpt>
    <trkpt lat="48.350255" lon="-4.638041"><ele>33.4</ele></trkpt>
    <trkpt lat="48.350076" lon="-4.637991"><ele>35.0</ele></trkpt>
    <trkpt lat="48.349854" lon="-4.637999"><ele>36.0</ele></trkpt>
    <trkpt lat="48.349499" lon="-4.638262"><ele>35.2</ele></trkpt>
    <trkpt lat="48.348884" lon="-4.638497"><ele>33.6</ele></trkpt>
    <trkpt lat="48.348434" lon="-4.638616"><ele>30.8</ele></trkpt>
    <trkpt lat="48.347996" lon="-4.638928"><ele>26.4</ele></trkpt>
    <trkpt lat="48.347478" lon="-4.639585"><ele>15.2</ele></trkpt>
    <trkpt lat="48.347454" lon="-4.639630"><ele>14.6</ele></trkpt>
    <trkpt lat="48.347474" lon="-4.639649"><ele>14.2</ele></trkpt>
    <trkpt lat="48.347661" lon="-4.639636"><ele>13.0</ele></trkpt>
    <trkpt lat="48.347665" lon="-4.639783"><ele>12.2</ele></trkpt>
    <trkpt lat="48.347458" lon="-4.639967"><ele>11.4</ele></trkpt>
    <trkpt lat="48.347278" lon="-4.640278"><ele>12.2</ele></trkpt>
    <trkpt lat="48.347136" lon="-4.640388"><ele>12.2</ele></trkpt>
    <trkpt lat="48.346825" lon="-4.640515"><ele>11.6</ele></trkpt>
    <trkpt lat="48.346360" lon="-4.640908"><ele>15.4</ele></trkpt>
    <trkpt lat="48.346091" lon="-4.641229"><ele>17.2</ele></trkpt>
    <trkpt lat="48.345697" lon="-4.641804"><ele>22.0</ele></trkpt>
    <trkpt lat="48.345591" lon="-4.642032"><ele>23.4</ele></trkpt>
    <trkpt lat="48.345526" lon="-4.642336"><ele>25.8</ele></trkpt>
    <trkpt lat="48.345540" lon="-4.642745"><ele>30.6</ele></trkpt>
    <trkpt lat="48.345614" lon="-4.642793"><ele>32.0</ele></trkpt>
    <trkpt lat="48.345819" lon="-4.642731"><ele>36.4</ele></trkpt>
    <trkpt lat="48.346235" lon="-4.643228"><ele>46.6</ele></trkpt>
    <trkpt lat="48.346293" lon="-4.643107"><ele>47.4</ele></trkpt>
    <trkpt lat="48.346360" lon="-4.642591"><ele>46.0</ele></trkpt>
    <trkpt lat="48.346472" lon="-4.642091"><ele>43.2</ele></trkpt>
    <trkpt lat="48.346555" lon="-4.641873"><ele>42.0</ele></trkpt>
    <trkpt lat="48.346635" lon="-4.641773"><ele>41.6</ele></trkpt>
    <trkpt lat="48.346837" lon="-4.641624"><ele>41.4</ele></trkpt>
    <trkpt lat="48.347728" lon="-4.641224"><ele>47.8</ele></trkpt>
    <trkpt lat="48.348159" lon="-4.640923"><ele>48.2</ele></trkpt>
    <trkpt lat="48.348360" lon="-4.640905"><ele>48.2</ele></trkpt>
    <trkpt lat="48.348601" lon="-4.640952"><ele>49.4</ele></trkpt>
    <trkpt lat="48.348725" lon="-4.640925"><ele>49.8</ele></trkpt>
    <trkpt lat="48.348954" lon="-4.640645"><ele>50.0</ele></trkpt>
    <trkpt lat="48.349314" lon="-4.640553"><ele>49.4</ele></trkpt>
    <trkpt lat="48.349757" lon="-4.640022"><ele>45.4</ele></trkpt>
    <trkpt lat="48.350336" lon="-4.639498"><ele>41.2</ele></trkpt>
    <trkpt lat="48.350510" lon="-4.639193"><ele>37.8</ele></trkpt>
    <trkpt lat="48.350748" lon="-4.638873"><ele>32.8</ele></trkpt>
    <trkpt lat="48.350764" lon="-4.638768"><ele>31.4</ele></trkpt>
    <trkpt lat="48.350733" lon="-4.638625"><ele>30.4</ele></trkpt>
    <trkpt lat="48.350604" lon="-4.638355"><ele>29.6</ele></trkpt>
    <trkpt lat="48.350462" lon="-4.638192"><ele>30.6</ele></trkpt>
    <trkpt lat="48.350159" lon="-4.638021"><ele>34.0</ele></trkpt>
    <trkpt lat="48.349838" lon="-4.637996"><ele>35.6</ele></trkpt>
    <trkpt lat="48.349454" lon="-4.638275"><ele>35.2</ele></trkpt>
    <trkpt lat="48.348297" lon="-4.638726"><ele>29.2</ele></trkpt>
    <trkpt lat="48.348035" lon="-4.638880"><ele>27.6</ele></trkpt>
    <trkpt lat="48.347859" lon="-4.639067"><ele>25.2</ele></trkpt>
    <trkpt lat="48.347456" lon="-4.639634"><ele>14.6</ele></trkpt>
    <trkpt lat="48.347485" lon="-4.639669"><ele>13.8</ele></trkpt>
    <trkpt lat="48.347654" lon="-4.639627"><ele>12.4</ele></trkpt>
    <trkpt lat="48.347667" lon="-4.639783"><ele>11.4</ele></trkpt>
    <trkpt lat="48.347434" lon="-4.640004"><ele>10.8</ele></trkpt>
    <trkpt lat="48.347292" lon="-4.640267"><ele>12.2</ele></trkpt>
    <trkpt lat="48.347127" lon="-4.640429"><ele>13.2</ele></trkpt>
    <trkpt lat="48.346811" lon="-4.640536"><ele>12.4</ele></trkpt>
    <trkpt lat="48.346481" lon="-4.640812"><ele>14.0</ele></trkpt>
    <trkpt lat="48.346135" lon="-4.641157"><ele>16.6</ele></trkpt>
    <trkpt lat="48.345713" lon="-4.641785"><ele>21.2</ele></trkpt>
    <trkpt lat="48.345615" lon="-4.641960"><ele>22.4</ele></trkpt>
    <trkpt lat="48.345552" lon="-4.642153"><ele>24.0</ele></trkpt>
    <trkpt lat="48.345537" lon="-4.642706"><ele>30.2</ele></trkpt>
    <trkpt lat="48.345612" lon="-4.642778"><ele>32.2</ele></trkpt>
    <trkpt lat="48.345818" lon="-4.642716"><ele>36.4</ele></trkpt>
    <trkpt lat="48.346230" lon="-4.643234"><ele>46.4</ele></trkpt>
    <trkpt lat="48.346299" lon="-4.643040"><ele>47.0</ele></trkpt>
    <trkpt lat="48.346397" lon="-4.642331"><ele>44.0</ele></trkpt>
    <trkpt lat="48.346484" lon="-4.642028"><ele>42.2</ele></trkpt>
    <trkpt lat="48.346551" lon="-4.641875"><ele>41.4</ele></trkpt>
    <trkpt lat="48.346734" lon="-4.641696"><ele>41.0</ele></trkpt>
    <trkpt lat="48.347660" lon="-4.641246"><ele>47.0</ele></trkpt>
    <trkpt lat="48.348165" lon="-4.640918"><ele>47.4</ele></trkpt>
    <trkpt lat="48.348723" lon="-4.640957"><ele>49.8</ele></trkpt>
    <trkpt lat="48.348971" lon="-4.640634"><ele>50.2</ele></trkpt>
    <trkpt lat="48.349358" lon="-4.640501"><ele>48.6</ele></trkpt>
    <trkpt lat="48.349924" lon="-4.639849"><ele>43.0</ele></trkpt>
    <trkpt lat="48.350325" lon="-4.639491"><ele>40.4</ele></trkpt>
    <trkpt lat="48.350455" lon="-4.639200"><ele>37.2</ele></trkpt>
    <trkpt lat="48.350668" lon="-4.638942"><ele>33.0</ele></trkpt>
    <trkpt lat="48.350742" lon="-4.638791"><ele>31.2</ele></trkpt>
    <trkpt lat="48.350752" lon="-4.638686"><ele>30.4</ele></trkpt>
    <trkpt lat="48.350628" lon="-4.638397"><ele>29.8</ele></trkpt>
    <trkpt lat="48.350342" lon="-4.638111"><ele>32.0</ele></trkpt>
    <trkpt lat="48.349918" lon="-4.638034"><ele>35.4</ele></trkpt>
    <trkpt lat="48.349830" lon="-4.638053"><ele>36.4</ele></trkpt>
    <trkpt lat="48.349603" lon="-4.638214"><ele>35.8</ele></trkpt>
    <trkpt lat="48.349045" lon="-4.638435"><ele>34.6</ele></trkpt>
    <trkpt lat="48.348431" lon="-4.638597"><ele>31.0</ele></trkpt>
    <trkpt lat="48.348154" lon="-4.638818"><ele>29.0</ele></trkpt>
    <trkpt lat="48.348029" lon="-4.638850"><ele>28.0</ele></trkpt>
    <trkpt lat="48.347457" lon="-4.639612"><ele>15.0</ele></trkpt>
    <trkpt lat="48.347497" lon="-4.639662"><ele>14.2</ele></trkpt>
    <trkpt lat="48.347646" lon="-4.639631"><ele>13.2</ele></trkpt>
    <trkpt lat="48.347668" lon="-4.639772"><ele>11.8</ele></trkpt>
    <trkpt lat="48.347498" lon="-4.639899"><ele>10.8</ele></trkpt>
    <trkpt lat="48.347289" lon="-4.640284"><ele>11.8</ele></trkpt>
    <trkpt lat="48.347114" lon="-4.640407"><ele>12.2</ele></trkpt>
    <trkpt lat="48.346845" lon="-4.640492"><ele>11.2</ele></trkpt>
    <trkpt lat="48.346277" lon="-4.640981"><ele>15.2</ele></trkpt>
    <trkpt lat="48.345910" lon="-4.641469"><ele>19.0</ele></trkpt>
    <trkpt lat="48.345615" lon="-4.641928"><ele>22.2</ele></trkpt>
    <trkpt lat="48.345542" lon="-4.642195"><ele>24.4</ele></trkpt>
    <trkpt lat="48.345528" lon="-4.642743"><ele>31.0</ele></trkpt>
    <trkpt lat="48.345611" lon="-4.642791"><ele>32.4</ele></trkpt>
    <trkpt lat="48.345815" lon="-4.642730"><ele>36.0</ele></trkpt>
    <trkpt lat="48.346225" lon="-4.643232"><ele>45.0</ele></trkpt>
    <trkpt lat="48.346263" lon="-4.643614"><ele>47.4</ele></trkpt>
    <trkpt lat="48.346261" lon="-4.644053"><ele>50.0</ele></trkpt>
    <trkpt lat="48.346336" lon="-4.644775"><ele>54.0</ele></trkpt>
    <trkpt lat="48.346332" lon="-4.645410"><ele>56.0</ele></trkpt>
    <trkpt lat="48.346388" lon="-4.645682"><ele>56.8</ele></trkpt>
    <trkpt lat="48.346461" lon="-4.645700"><ele>57.0</ele></trkpt>
    <trkpt lat="48.346770" lon="-4.645544"><ele>58.0</ele></trkpt>
    <trkpt lat="48.347638" lon="-4.645232"><ele>61.0</ele></trkpt>
    <trkpt lat="48.347984" lon="-4.644924"><ele>62.6</ele></trkpt>
    <trkpt lat="48.348380" lon="-4.644650"><ele>63.4</ele></trkpt>
    <trkpt lat="48.349653" lon="-4.643396"><ele>66.6</ele></trkpt>
    <trkpt lat="48.349751" lon="-4.643351"><ele>66.8</ele></trkpt>
    <trkpt lat="48.349819" lon="-4.643410"><ele>67.2</ele></trkpt>
    <trkpt lat="48.349905" lon="-4.643871"><ele>69.2</ele></trkpt>
    <trkpt lat="48.350094" lon="-4.644616"><ele>70.8</ele></trkpt>
    <trkpt lat="48.350259" lon="-4.645004"><ele>72.0</ele></trkpt>
    <trkpt lat="48.350544" lon="-4.645287"><ele>73.2</ele></trkpt>
    <trkpt lat="48.351264" lon="-4.645710"><ele>73.8</ele></trkpt>
    <trkpt lat="48.351423" lon="-4.645784"><ele>73.8</ele></trkpt>
    <trkpt lat="48.351517" lon="-4.645770"><ele>73.8</ele></trkpt>
    <trkpt lat="48.352030" lon="-4.645372"><ele>75.6</ele></trkpt>
    <trkpt lat="48.352290" lon="-4.645269"><ele>76.4</ele></trkpt>
    <trkpt lat="48.352473" lon="-4.645257"><ele>76.0</ele></trkpt>
    <trkpt lat="48.353267" lon="-4.645426"><ele>74.8</ele></trkpt>
    <trkpt lat="48.354266" lon="-4.645904"><ele>75.2</ele></trkpt>
    <trkpt lat="48.354598" lon="-4.645944"><ele>75.6</ele></trkpt>
    <trkpt lat="48.355940" lon="-4.645212"><ele>80.4</ele></trkpt>
    <trkpt lat="48.356073" lon="-4.645098"><ele>81.2</ele></trkpt>
    <trkpt lat="48.356488" lon="-4.644558"><ele>81.4</ele></trkpt>
    <trkpt lat="48.356646" lon="-4.644437"><ele>80.8</ele></trkpt>
    <trkpt lat="48.356870" lon="-4.644423"><ele>80.0</ele></trkpt>
    <trkpt lat="48.357349" lon="-4.644624"><ele>79.2</ele></trkpt>
    <trkpt lat="48.357672" lon="-4.644585"><ele>79.2</ele></trkpt>
    <trkpt lat="48.358115" lon="-4.643781"><ele>77.4</ele></trkpt>
    <trkpt lat="48.358510" lon="-4.643332"><ele>74.4</ele></trkpt>
    <trkpt lat="48.358657" lon="-4.643276"><ele>73.6</ele></trkpt>
    <trkpt lat="48.358864" lon="-4.643361"><ele>72.8</ele></trkpt>
    <trkpt lat="48.358971" lon="-4.643341"><ele>72.4</ele></trkpt>
    <trkpt lat="48.359141" lon="-4.643138"><ele>72.6</ele></trkpt>
    <trkpt lat="48.359279" lon="-4.643035"><ele>72.6</ele></trkpt>
    <trkpt lat="48.359556" lon="-4.642917"><ele>72.8</ele></trkpt>
    <trkpt lat="48.359785" lon="-4.642902"><ele>72.2</ele></trkpt>
    <trkpt lat="48.360100" lon="-4.642699"><ele>71.8</ele></trkpt>
    <trkpt lat="48.360341" lon="-4.642473"><ele>72.2</ele></trkpt>
    <trkpt lat="48.360747" lon="-4.641865"><ele>72.4</ele></trkpt>
    <trkpt lat="48.361062" lon="-4.641601"><ele>72.4</ele></trkpt>
    <trkpt lat="48.361478" lon="-4.641460"><ele>73.0</ele></trkpt>
    <trkpt lat="48.362614" lon="-4.641244"><ele>70.2</ele></trkpt>
    <trkpt lat="48.362903" lon="-4.641247"><ele>69.8</ele></trkpt>
    <trkpt lat="48.364863" lon="-4.641521"><ele>66.4</ele></trkpt>
    <trkpt lat="48.365125" lon="-4.641661"><ele>66.4</ele></trkpt>
    <trkpt lat="48.365640" lon="-4.642035"><ele>67.6</ele></trkpt>
    <trkpt lat="48.366001" lon="-4.642149"><ele>68.2</ele></trkpt>
    <trkpt lat="48.366189" lon="-4.642332"><ele>68.6</ele></trkpt>
    <trkpt lat="48.366393" lon="-4.642275"><ele>68.8</ele></trkpt>
    <trkpt lat="48.366524" lon="-4.642298"><ele>69.0</ele></trkpt>
    <trkpt lat="48.368116" lon="-4.642885"><ele>69.2</ele></trkpt>
    <trkpt lat="48.368503" lon="-4.642936"><ele>66.2</ele></trkpt>
    <trkpt lat="48.369528" lon="-4.642968"><ele>61.6</ele></trkpt>
    <trkpt lat="48.369675" lon="-4.642642"><ele>60.2</ele></trkpt>
    <trkpt lat="48.369789" lon="-4.642087"><ele>59.4</ele></trkpt>
    <trkpt lat="48.370234" lon="-4.640557"><ele>61.8</ele></trkpt>
  </trkseg></trk>
</gpx>
