<?xml version="1.0" encoding="UTF-8"?>
<gpx version="1.1" creator="tcap-parcours" xmlns="http://www.topografix.com/GPX/1/1">
  <metadata><name>Gorrequear – Brendégué – Goulven – 5 × 1'45</name></metadata>
  <trk><name>Gorrequear – Brendégué – Goulven – 5 × 1'45</name><trkseg>
    <trkpt lat="48.369999" lon="-4.640233"><ele>60.8</ele></trkpt>
    <trkpt lat="48.370105" lon="-4.640171"><ele>60.6</ele></trkpt>
    <trkpt lat="48.370701" lon="-4.640035"><ele>59.0</ele></trkpt>
    <trkpt lat="48.371154" lon="-4.640400"><ele>58.4</ele></trkpt>
    <trkpt lat="48.371548" lon="-4.640575"><ele>57.6</ele></trkpt>
    <trkpt lat="48.371987" lon="-4.640553"><ele>55.8</ele></trkpt>
    <trkpt lat="48.372472" lon="-4.640617"><ele>53.8</ele></trkpt>
    <trkpt lat="48.372554" lon="-4.640736"><ele>53.6</ele></trkpt>
    <trkpt lat="48.372587" lon="-4.641186"><ele>53.4</ele></trkpt>
    <trkpt lat="48.372642" lon="-4.641437"><ele>53.2</ele></trkpt>
    <trkpt lat="48.372785" lon="-4.641734"><ele>52.4</ele></trkpt>
    <trkpt lat="48.372931" lon="-4.641856"><ele>52.0</ele></trkpt>
    <trkpt lat="48.373046" lon="-4.641839"><ele>51.4</ele></trkpt>
    <trkpt lat="48.373222" lon="-4.641690"><ele>50.6</ele></trkpt>
    <trkpt lat="48.373283" lon="-4.641568"><ele>50.4</ele></trkpt>
    <trkpt lat="48.373388" lon="-4.641162"><ele>50.0</ele></trkpt>
    <trkpt lat="48.373451" lon="-4.641083"><ele>49.8</ele></trkpt>
    <trkpt lat="48.373519" lon="-4.641077"><ele>49.8</ele></trkpt>
    <trkpt lat="48.373746" lon="-4.641220"><ele>49.6</ele></trkpt>
    <trkpt lat="48.373931" lon="-4.641556"><ele>49.6</ele></trkpt>
    <trkpt lat="48.374093" lon="-4.641679"><ele>50.2</ele></trkpt>
    <trkpt lat="48.374311" lon="-4.642038"><ele>50.8</ele></trkpt>
    <trkpt lat="48.374441" lon="-4.642141"><ele>51.2</ele></trkpt>
    <trkpt lat="48.375071" lon="-4.642338"><ele>50.6</ele></trkpt>
    <trkpt lat="48.375537" lon="-4.642330"><ele>50.8</ele></trkpt>
    <trkpt lat="48.375725" lon="-4.642394"><ele>51.4</ele></trkpt>
    <trkpt lat="48.375846" lon="-4.642336"><ele>51.4</ele></trkpt>
    <trkpt lat="48.376224" lon="-4.642024"><ele>50.2</ele></trkpt>
    <trkpt lat="48.376346" lon="-4.641975"><ele>50.2</ele></trkpt>
    <trkpt lat="48.376461" lon="-4.642064"><ele>50.4</ele></trkpt>
    <trkpt lat="48.376727" lon="-4.642475"><ele>50.6</ele></trkpt>
    <trkpt lat="48.376782" lon="-4.642643"><ele>50.6</ele></trkpt>
    <trkpt lat="48.376818" lon="-4.643301"><ele>50.6</ele></trkpt>
    <trkpt lat="48.376881" lon="-4.643663"><ele>50.0</ele></trkpt>
    <trkpt lat="48.376920" lon="-4.645293"><ele>49.8</ele></trkpt>
    <trkpt lat="48.376896" lon="-4.645465"><ele>49.8</ele></trkpt>
    <trkpt lat="48.376661" lon="-4.645964"><ele>50.6</ele></trkpt>
    <trkpt lat="48.376591" lon="-4.645977"><ele>50.6</ele></trkpt>
    <trkpt lat="48.376429" lon="-4.645906"><ele>51.0</ele></trkpt>
    <trkpt lat="48.376342" lon="-4.645945"><ele>51.0</ele></trkpt>
    <trkpt lat="48.376282" lon="-4.646162"><ele>51.2</ele></trkpt>
    <trkpt lat="48.376249" lon="-4.646680"><ele>51.4</ele></trkpt>
    <trkpt lat="48.376152" lon="-4.646986"><ele>51.8</ele></trkpt>
    <trkpt lat="48.375667" lon="-4.647796"><ele>52.2</ele></trkpt>
    <trkpt lat="48.375324" lon="-4.648290"><ele>52.8</ele></trkpt>
    <trkpt lat="48.374939" lon="-4.649102"><ele>54.8</ele></trkpt>
    <trkpt lat="48.374757" lon="-4.649287"><ele>56.0</ele></trkpt>
    <trkpt lat="48.374602" lon="-4.649564"><ele>56.8</ele></trkpt>
    <trkpt lat="48.374407" lon="-4.649786"><ele>57.0</ele></trkpt>
    <trkpt lat="48.374352" lon="-4.649928"><ele>57.2</ele></trkpt>
    <trkpt lat="48.375042" lon="-4.651183"><ele>56.8</ele></trkpt>
    <trkpt lat="48.375462" lon="-4.651840"><ele>56.4</ele></trkpt>
    <trkpt lat="48.375984" lon="-4.652563"><ele>58.4</ele></trkpt>
    <trkpt lat="48.376485" lon="-4.653021"><ele>59.8</ele></trkpt>
    <trkpt lat="48.377190" lon="-4.653411"><ele>59.8</ele></trkpt>
    <trkpt lat="48.377313" lon="-4.653535"><ele>59.8</ele></trkpt>
    <trkpt lat="48.377361" lon="-4.653698"><ele>60.0</ele></trkpt>
    <trkpt lat="48.377418" lon="-4.654669"><ele>62.2</ele></trkpt>
    <trkpt lat="48.377491" lon="-4.655209"><ele>63.4</ele></trkpt>
    <trkpt lat="48.377595" lon="-4.655642"><ele>64.6</ele></trkpt>
    <trkpt lat="48.377661" lon="-4.655757"><ele>65.4</ele></trkpt>
    <trkpt lat="48.377751" lon="-4.655830"><ele>66.0</ele></trkpt>
    <trkpt lat="48.378798" lon="-4.656189"><ele>70.6</ele></trkpt>
    <trkpt lat="48.379514" lon="-4.656811"><ele>72.8</ele></trkpt>
    <trkpt lat="48.379982" lon="-4.657014"><ele>72.4</ele></trkpt>
    <trkpt lat="48.380692" lon="-4.657173"><ele>70.0</ele></trkpt>
    <trkpt lat="48.380824" lon="-4.657149"><ele>69.4</ele></trkpt>
    <trkpt lat="48.381030" lon="-4.656995"><ele>67.6</ele></trkpt>
    <trkpt lat="48.381197" lon="-4.656938"><ele>66.4</ele></trkpt>
    <trkpt lat="48.381517" lon="-4.656935"><ele>66.6</ele></trkpt>
    <trkpt lat="48.381859" lon="-4.657049"><ele>69.0</ele></trkpt>
    <trkpt lat="48.381964" lon="-4.656954"><ele>69.6</ele></trkpt>
    <trkpt lat="48.382122" lon="-4.656493"><ele>69.6</ele></trkpt>
    <trkpt lat="48.382261" lon="-4.656375"><ele>68.8</ele></trkpt>
    <trkpt lat="48.382467" lon="-4.656279"><ele>68.6</ele></trkpt>
    <trkpt lat="48.383092" lon="-4.656427"><ele>70.4</ele></trkpt>
    <trkpt lat="48.383355" lon="-4.656424"><ele>72.0</ele></trkpt>
    <trkpt lat="48.384006" lon="-4.656232"><ele>78.2</ele></trkpt>
    <trkpt lat="48.384566" lon="-4.656375"><ele>80.0</ele></trkpt>
    <trkpt lat="48.384902" lon="-4.656056"><ele>81.0</ele></trkpt>
    <trkpt lat="48.385301" lon="-4.656339"><ele>83.2</ele></trkpt>
    <trkpt lat="48.385400" lon="-4.656345"><ele>83.4</ele></trkpt>
    <trkpt lat="48.385551" lon="-4.656125"><ele>84.0</ele></trkpt>
    <trkpt lat="48.385796" lon="-4.655557"><ele>84.6</ele></trkpt>
    <trkpt lat="48.386046" lon="-4.655100"><ele>84.8</ele></trkpt>
    <trkpt lat="48.386107" lon="-4.654901"><ele>85.2</ele></trkpt>
    <trkpt lat="48.386373" lon="-4.654757"><ele>84.6</ele></trkpt>
    <trkpt lat="48.386667" lon="-4.654520"><ele>84.8</ele></trkpt>
    <trkpt lat="48.387729" lon="-4.653185"><ele>82.2</ele></trkpt>
    <trkpt lat="48.387822" lon="-4.653148"><ele>82.4</ele></trkpt>
    <trkpt lat="48.388141" lon="-4.653190"><ele>83.8</ele></trkpt>
    <trkpt lat="48.388446" lon="-4.653116"><ele>84.0</ele></trkpt>
    <trkpt lat="48.389226" lon="-4.652774"><ele>84.8</ele></trkpt>
    <trkpt lat="48.389590" lon="-4.652490"><ele>86.6</ele></trkpt>
    <trkpt lat="48.389628" lon="-4.652567"><ele>86.4</ele></trkpt>
    <trkpt lat="48.389736" lon="-4.652649"><ele>86.4</ele></trkpt>
    <trkpt lat="48.390523" lon="-4.653030"><ele>87.2</ele></trkpt>
    <trkpt lat="48.391476" lon="-4.653288"><ele>83.8</ele></trkpt>
    <trkpt lat="48.391925" lon="-4.653476"><ele>81.0</ele></trkpt>
    <trkpt lat="48.391946" lon="-4.653528"><ele>80.6</ele></trkpt>
    <trkpt lat="48.391934" lon="-4.653625"><ele>80.6</ele></trkpt>
    <trkpt lat="48.391683" lon="-4.654468"><ele>83.2</ele></trkpt>
    <trkpt lat="48.391594" lon="-4.654581"><ele>83.8</ele></trkpt>
    <trkpt lat="48.391323" lon="-4.654663"><ele>84.4</ele></trkpt>
    <trkpt lat="48.391189" lon="-4.654792"><ele>85.0</ele></trkpt>
    <trkpt lat="48.390984" lon="-4.655267"><ele>87.8</ele></trkpt>
    <trkpt lat="48.390738" lon="-4.656023"><ele>93.2</ele></trkpt>
    <trkpt lat="48.390668" lon="-4.656887"><ele>95.4</ele></trkpt>
    <trkpt lat="48.390542" lon="-4.657385"><ele>96.0</ele></trkpt>
    <trkpt lat="48.390122" lon="-4.658549"><ele>98.0</ele></trkpt>
    <trkpt lat="48.390039" lon="-4.658857"><ele>98.8</ele></trkpt>
    <trkpt lat="48.389822" lon="-4.660012"><ele>101.8</ele></trkpt>
    <trkpt lat="48.389804" lon="-4.660539"><ele>102.4</ele></trkpt>
    <trkpt lat="48.389544" lon="-4.661776"><ele>103.4</ele></trkpt>
    <trkpt lat="48.389368" lon="-4.662221"><ele>103.0</ele></trkpt>
    <trkpt lat="48.389077" lon="-4.662586"><ele>103.0</ele></trkpt>
    <trkpt lat="48.388803" lon="-4.662796"><ele>103.8</ele></trkpt>
    <trkpt lat="48.387978" lon="-4.663672"><ele>105.2</ele></trkpt>
    <trkpt lat="48.387684" lon="-4.664057"><ele>104.6</ele></trkpt>
    <trkpt lat="48.387482" lon="-4.664419"><ele>103.8</ele></trkpt>
    <trkpt lat="48.387328" lon="-4.664532"><ele>103.6</ele></trkpt>
    <trkpt lat="48.387123" lon="-4.664455"><ele>103.8</ele></trkpt>
    <trkpt lat="48.386916" lon="-4.664244"><ele>104.2</ele></trkpt>
    <trkpt lat="48.386582" lon="-4.663640"><ele>104.2</ele></trkpt>
    <trkpt lat="48.386283" lon="-4.662955"><ele>103.8</ele></trkpt>
    <trkpt lat="48.386154" lon="-4.662767"><ele>102.8</ele></trkpt>
    <trkpt lat="48.385889" lon="-4.662460"><ele>100.2</ele></trkpt>
    <trkpt lat="48.385671" lon="-4.662397"><ele>98.2</ele></trkpt>
    <trkpt lat="48.384688" lon="-4.662742"><ele>90.8</ele></trkpt>
    <trkpt lat="48.384462" lon="-4.662863"><ele>89.6</ele></trkpt>
    <trkpt lat="48.384221" lon="-4.663075"><ele>88.4</ele></trkpt>
    <trkpt lat="48.383677" lon="-4.663240"><ele>87.2</ele></trkpt>
    <trkpt lat="48.383420" lon="-4.663366"><ele>86.6</ele></trkpt>
    <trkpt lat="48.383036" lon="-4.663631"><ele>85.2</ele></trkpt>
    <trkpt lat="48.382624" lon="-4.663808"><ele>84.8</ele></trkpt>
    <trkpt lat="48.381890" lon="-4.663889"><ele>87.6</ele></trkpt>
    <trkpt lat="48.381714" lon="-4.663807"><ele>88.0</ele></trkpt>
    <trkpt lat="48.381308" lon="-4.663469"><ele>88.6</ele></trkpt>
    <trkpt lat="48.380632" lon="-4.663230"><ele>88.6</ele></trkpt>
    <trkpt lat="48.380437" lon="-4.663218"><ele>88.0</ele></trkpt>
    <trkpt lat="48.379863" lon="-4.663384"><ele>87.6</ele></trkpt>
    <trkpt lat="48.379560" lon="-4.663594"><ele>87.2</ele></trkpt>
    <trkpt lat="48.379188" lon="-4.664133"><ele>87.2</ele></trkpt>
    <trkpt lat="48.379049" lon="-4.664456"><ele>87.2</ele></trkpt>
    <trkpt lat="48.378986" lon="-4.664523"><ele>87.0</ele></trkpt>
    <trkpt lat="48.378144" lon="-4.664302"><ele>84.0</ele></trkpt>
    <trkpt lat="48.377685" lon="-4.664267"><ele>82.8</ele></trkpt>
    <trkpt lat="48.377487" lon="-4.664296"><ele>82.8</ele></trkpt>
    <trkpt lat="48.377443" lon="-4.664421"><ele>83.0</ele></trkpt>
    <trkpt lat="48.377500" lon="-4.664775"><ele>83.8</ele></trkpt>
    <trkpt lat="48.377920" lon="-4.666341"><ele>86.4</ele></trkpt>
    <trkpt lat="48.378207" lon="-4.667161"><ele>87.6</ele></trkpt>
    <trkpt lat="48.378408" lon="-4.667943"><ele>87.6</ele></trkpt>
    <trkpt lat="48.378452" lon="-4.668445"><ele>88.0</ele></trkpt>
    <trkpt lat="48.378586" lon="-4.669359"><ele>88.8</ele></trkpt>
    <trkpt lat="48.378784" lon="-4.670327"><ele>89.2</ele></trkpt>
    <trkpt lat="48.378882" lon="-4.670963"><ele>88.4</ele></trkpt>
    <trkpt lat="48.378783" lon="-4.671153"><ele>87.8</ele></trkpt>
    <trkpt lat="48.378126" lon="-4.671523"><ele>86.4</ele></trkpt>
    <trkpt lat="48.377069" lon="-4.671738"><ele>84.8</ele></trkpt>
    <trkpt lat="48.376081" lon="-4.671855"><ele>83.4</ele></trkpt>
    <trkpt lat="48.375189" lon="-4.671838"><ele>81.0</ele></trkpt>
    <trkpt lat="48.374838" lon="-4.671887"><ele>80.0</ele></trkpt>
    <trkpt lat="48.374402" lon="-4.672172"><ele>79.2</ele></trkpt>
    <trkpt lat="48.374230" lon="-4.672455"><ele>78.0</ele></trkpt>
    <trkpt lat="48.373607" lon="-4.673085"><ele>74.2</ele></trkpt>
    <trkpt lat="48.372361" lon="-4.674067"><ele>69.6</ele></trkpt>
    <trkpt lat="48.372465" lon="-4.673630"><ele>70.0</ele></trkpt>
    <trkpt lat="48.372457" lon="-4.673551"><ele>70.0</ele></trkpt>
    <trkpt lat="48.372277" lon="-4.672516"><ele>67.6</ele></trkpt>
    <trkpt lat="48.372145" lon="-4.672029"><ele>65.0</ele></trkpt>
    <trkpt lat="48.372060" lon="-4.671926"><ele>64.0</ele></trkpt>
    <trkpt lat="48.371838" lon="-4.671816"><ele>61.6</ele></trkpt>
    <trkpt lat="48.371649" lon="-4.671650"><ele>59.8</ele></trkpt>
    <trkpt lat="48.371569" lon="-4.671498"><ele>58.6</ele></trkpt>
    <trkpt lat="48.371504" lon="-4.671136"><ele>56.4</ele></trkpt>
    <trkpt lat="48.371438" lon="-4.671022"><ele>55.4</ele></trkpt>
    <trkpt lat="48.370279" lon="-4.669941"><ele>47.0</ele></trkpt>
    <trkpt lat="48.370180" lon="-4.669927"><ele>46.6</ele></trkpt>
    <trkpt lat="48.370080" lon="-4.669985"><ele>46.4</ele></trkpt>
    <trkpt lat="48.369761" lon="-4.670346"><ele>45.0</ele></trkpt>
    <trkpt lat="48.369058" lon="-4.671017"><ele>41.8</ele></trkpt>
    <trkpt lat="48.368565" lon="-4.671403"><ele>41.2</ele></trkpt>
    <trkpt lat="48.368183" lon="-4.671758"><ele>40.6</ele></trkpt>
    <trkpt lat="48.368047" lon="-4.671835"><ele>40.4</ele></trkpt>
    <trkpt lat="48.367977" lon="-4.671686"><ele>40.0</ele></trkpt>
    <trkpt lat="48.367923" lon="-4.671262"><ele>38.2</ele></trkpt>
    <trkpt lat="48.367826" lon="-4.670962"><ele>36.4</ele></trkpt>
    <trkpt lat="48.367410" lon="-4.670258"><ele>35.2</ele></trkpt>
    <trkpt lat="48.367230" lon="-4.670068"><ele>38.6</ele></trkpt>
    <trkpt lat="48.367095" lon="-4.670066"><ele>41.0</ele></trkpt>
    <trkpt lat="48.366582" lon="-4.670473"><ele>47.2</ele></trkpt>
    <trkpt lat="48.366257" lon="-4.670562"><ele>50.8</ele></trkpt>
    <trkpt lat="48.366074" lon="-4.670422"><ele>52.8</ele></trkpt>
    <trkpt lat="48.365435" lon="-4.669768"><ele>61.0</ele></trkpt>
    <trkpt lat="48.365323" lon="-4.668795"><ele>64.6</ele></trkpt>
    <trkpt lat="48.365400" lon="-4.667874"><ele>68.4</ele></trkpt>
    <trkpt lat="48.365412" lon="-4.666993"><ele>70.2</ele></trkpt>
    <trkpt lat="48.365448" lon="-4.666642"><ele>71.2</ele></trkpt>
    <trkpt lat="48.365497" lon="-4.666350"><ele>71.6</ele></trkpt>
    <trkpt lat="48.365715" lon="-4.665504"><ele>73.6</ele></trkpt>
    <trkpt lat="48.365879" lon="-4.664310"><ele>75.2</ele></trkpt>
    <trkpt lat="48.366240" lon="-4.662856"><ele>76.2</ele></trkpt>
    <trkpt lat="48.366439" lon="-4.662356"><ele>76.6</ele></trkpt>
    <trkpt lat="48.366892" lon="-4.661428"><ele>76.8</ele></trkpt>
    <trkpt lat="48.367403" lon="-4.660480"><ele>76.4</ele></trkpt>
    <trkpt lat="48.367956" lon="-4.659594"><ele>74.8</ele></trkpt>
    <trkpt lat="48.367673" lon="-4.660011"><ele>75.2</ele></trkpt>
    <trkpt lat="48.367692" lon="-4.659975"><ele>75.2</ele></trkpt>
    <trkpt lat="48.368030" lon="-4.659470"><ele>74.4</ele></trkpt>
    <trkpt lat="48.368678" lon="-4.658755"><ele>75.6</ele></trkpt>
    <trkpt lat="48.369038" lon="-4.658294"><ele>75.8</ele></trkpt>
    <trkpt lat="48.369778" lon="-4.657201"><ele>75.0</ele></trkpt>
    <trkpt lat="48.369926" lon="-4.656929"><ele>74.8</ele></trkpt>
    <trkpt lat="48.370043" lon="-4.656601"><ele>74.4</ele></trkpt>
    <trkpt lat="48.370198" lon="-4.656352"><ele>74.2</ele></trkpt>
    <trkpt lat="48.370372" lon="-4.655850"><ele>73.6</ele></trkpt>
    <trkpt lat="48.371089" lon="-4.653122"><ele>70.6</ele></trkpt>
    <trkpt lat="48.371696" lon="-4.650973"><ele>68.6</ele></trkpt>
    <trkpt lat="48.371971" lon="-4.650386"><ele>67.4</ele></trkpt>
    <trkpt lat="48.372848" lon="-4.648832"><ele>64.4</ele></trkpt>
    <trkpt lat="48.373067" lon="-4.648508"><ele>63.6</ele></trkpt>
    <trkpt lat="48.373272" lon="-4.648076"><ele>63.2</ele></trkpt>
    <trkpt lat="48.373391" lon="-4.647944"><ele>63.6</ele></trkpt>
    <trkpt lat="48.373718" lon="-4.647119"><ele>62.8</ele></trkpt>
    <trkpt lat="48.374005" lon="-4.646179"><ele>61.4</ele></trkpt>
    <trkpt lat="48.373982" lon="-4.646011"><ele>61.6</ele></trkpt>
    <trkpt lat="48.373712" lon="-4.645544"><ele>61.0</ele></trkpt>
    <trkpt lat="48.373669" lon="-4.645282"><ele>60.4</ele></trkpt>
    <trkpt lat="48.373813" lon="-4.644672"><ele>58.2</ele></trkpt>
    <trkpt lat="48.374286" lon="-4.643672"><ele>55.0</ele></trkpt>
    <trkpt lat="48.374282" lon="-4.643543"><ele>54.6</ele></trkpt>
    <trkpt lat="48.374180" lon="-4.643260"><ele>54.2</ele></trkpt>
    <trkpt lat="48.374276" lon="-4.642734"><ele>53.4</ele></trkpt>
    <trkpt lat="48.374268" lon="-4.642292"><ele>52.8</ele></trkpt>
    <trkpt lat="48.374216" lon="-4.641932"><ele>52.0</ele></trkpt>
    <trkpt lat="48.374121" lon="-4.641707"><ele>51.4</ele></trkpt>
    <trkpt lat="48.374057" lon="-4.641617"><ele>51.0</ele></trkpt>
    <trkpt lat="48.373907" lon="-4.641516"><ele>50.6</ele></trkpt>
    <trkpt lat="48.373743" lon="-4.641207"><ele>50.2</ele></trkpt>
    <trkpt lat="48.373633" lon="-4.641118"><ele>50.2</ele></trkpt>
    <trkpt lat="48.373485" lon="-4.641068"><ele>50.4</ele></trkpt>
    <trkpt lat="48.373398" lon="-4.641101"><ele>50.4</ele></trkpt>
    <trkpt lat="48.373352" lon="-4.641167"><ele>50.6</ele></trkpt>
    <trkpt lat="48.373248" lon="-4.641560"><ele>51.6</ele></trkpt>
    <trkpt lat="48.373174" lon="-4.641694"><ele>52.2</ele></trkpt>
    <trkpt lat="48.372994" lon="-4.641807"><ele>52.6</ele></trkpt>
    <trkpt lat="48.372893" lon="-4.641821"><ele>52.8</ele></trkpt>
    <trkpt lat="48.372762" lon="-4.641659"><ele>53.4</ele></trkpt>
    <trkpt lat="48.372656" lon="-4.641413"><ele>53.8</ele></trkpt>
    <trkpt lat="48.372555" lon="-4.640796"><ele>54.8</ele></trkpt>
    <trkpt lat="48.372469" lon="-4.640573"><ele>55.2</ele></trkpt>
    <trkpt lat="48.372092" lon="-4.640527"><ele>56.2</ele></trkpt>
    <trkpt lat="48.371501" lon="-4.640540"><ele>57.0</ele></trkpt>
    <trkpt lat="48.371221" lon="-4.640396"><ele>58.0</ele></trkpt>
    <trkpt lat="48.370694" lon="-4.640036"><ele>60.8</ele></trkpt>
    <trkpt lat="48.370595" lon="-4.640027"><ele>61.2</ele></trkpt>
    <trkpt lat="48.370404" lon="-4.640108"><ele>61.8</ele></trkpt>
  </trkseg></trk>
</gpx>
