<?xml version="1.0" encoding="UTF-8"?>
<gpx version="1.1" creator="tcap-parcours" xmlns="http://www.topografix.com/GPX/1/1">
  <metadata><name>Côtes de Déolen – 6 × 1'50 par La Croix Normand</name></metadata>
  <trk><name>Côtes de Déolen – 6 × 1'50 par La Croix Normand</name><trkseg>
    <trkpt lat="48.370073" lon="-4.640863"><ele>60.8</ele></trkpt>
    <trkpt lat="48.369760" lon="-4.642115"><ele>60.6</ele></trkpt>
    <trkpt lat="48.369648" lon="-4.642692"><ele>61.0</ele></trkpt>
    <trkpt lat="48.369534" lon="-4.642972"><ele>61.2</ele></trkpt>
    <trkpt lat="48.369470" lon="-4.643018"><ele>61.0</ele></trkpt>
    <trkpt lat="48.368448" lon="-4.642957"><ele>66.0</ele></trkpt>
    <trkpt lat="48.368042" lon="-4.642887"><ele>68.8</ele></trkpt>
    <trkpt lat="48.367803" lon="-4.642744"><ele>69.4</ele></trkpt>
    <trkpt lat="48.366580" lon="-4.642321"><ele>69.2</ele></trkpt>
    <trkpt lat="48.366342" lon="-4.642265"><ele>69.0</ele></trkpt>
    <trkpt lat="48.366146" lon="-4.642301"><ele>68.6</ele></trkpt>
    <trkpt lat="48.365949" lon="-4.642104"><ele>68.4</ele></trkpt>
    <trkpt lat="48.365695" lon="-4.642047"><ele>68.2</ele></trkpt>
    <trkpt lat="48.365496" lon="-4.641952"><ele>67.6</ele></trkpt>
    <trkpt lat="48.365079" lon="-4.641618"><ele>67.0</ele></trkpt>
    <trkpt lat="48.364856" lon="-4.641495"><ele>66.4</ele></trkpt>
    <trkpt lat="48.363747" lon="-4.641333"><ele>68.4</ele></trkpt>
    <trkpt lat="48.363519" lon="-4.641343"><ele>68.6</ele></trkpt>
    <trkpt lat="48.363186" lon="-4.641268"><ele>69.4</ele></trkpt>
    <trkpt lat="48.362511" lon="-4.641240"><ele>70.8</ele></trkpt>
    <trkpt lat="48.361459" lon="-4.641449"><ele>73.4</ele></trkpt>
    <trkpt lat="48.361097" lon="-4.641578"><ele>73.4</ele></trkpt>
    <trkpt lat="48.360733" lon="-4.641850"><ele>73.2</ele></trkpt>
    <trkpt lat="48.360320" lon="-4.642469"><ele>73.4</ele></trkpt>
    <trkpt lat="48.360179" lon="-4.642623"><ele>73.6</ele></trkpt>
    <trkpt lat="48.359744" lon="-4.642869"><ele>73.6</ele></trkpt>
    <trkpt lat="48.359457" lon="-4.642915"><ele>74.0</ele></trkpt>
    <trkpt lat="48.359313" lon="-4.642986"><ele>74.4</ele></trkpt>
    <trkpt lat="48.359082" lon="-4.643144"><ele>75.0</ele></trkpt>
    <trkpt lat="48.358893" lon="-4.643417"><ele>74.6</ele></trkpt>
    <trkpt lat="48.358645" lon="-4.643277"><ele>75.2</ele></trkpt>
    <trkpt lat="48.358477" lon="-4.643312"><ele>76.0</ele></trkpt>
    <trkpt lat="48.358060" lon="-4.643832"><ele>78.4</ele></trkpt>
    <trkpt lat="48.357629" lon="-4.644646"><ele>80.6</ele></trkpt>
    <trkpt lat="48.357322" lon="-4.644631"><ele>81.4</ele></trkpt>
    <trkpt lat="48.356839" lon="-4.644457"><ele>81.2</ele></trkpt>
    <trkpt lat="48.356736" lon="-4.644346"><ele>81.4</ele></trkpt>
    <trkpt lat="48.356641" lon="-4.644016"><ele>81.0</ele></trkpt>
    <trkpt lat="48.356311" lon="-4.643374"><ele>80.6</ele></trkpt>
    <trkpt lat="48.356229" lon="-4.642999"><ele>81.4</ele></trkpt>
    <trkpt lat="48.356198" lon="-4.642526"><ele>81.4</ele></trkpt>
    <trkpt lat="48.356223" lon="-4.642280"><ele>81.2</ele></trkpt>
    <trkpt lat="48.356482" lon="-4.641664"><ele>80.4</ele></trkpt>
    <trkpt lat="48.356574" lon="-4.641015"><ele>79.2</ele></trkpt>
    <trkpt lat="48.356575" lon="-4.640758"><ele>78.6</ele></trkpt>
    <trkpt lat="48.356657" lon="-4.640285"><ele>77.8</ele></trkpt>
    <trkpt lat="48.356785" lon="-4.639828"><ele>77.0</ele></trkpt>
    <trkpt lat="48.356807" lon="-4.639563"><ele>76.6</ele></trkpt>
    <trkpt lat="48.356721" lon="-4.639441"><ele>76.2</ele></trkpt>
    <trkpt lat="48.356109" lon="-4.639040"><ele>76.0</ele></trkpt>
    <trkpt lat="48.356002" lon="-4.638924"><ele>75.6</ele></trkpt>
    <trkpt lat="48.355999" lon="-4.638823"><ele>75.4</ele></trkpt>
    <trkpt lat="48.356089" lon="-4.638549"><ele>75.2</ele></trkpt>
    <trkpt lat="48.356095" lon="-4.638444"><ele>75.2</ele></trkpt>
    <trkpt lat="48.356047" lon="-4.638210"><ele>75.0</ele></trkpt>
    <trkpt lat="48.356020" lon="-4.637684"><ele>74.0</ele></trkpt>
    <trkpt lat="48.355936" lon="-4.637298"><ele>73.0</ele></trkpt>
    <trkpt lat="48.355909" lon="-4.637017"><ele>72.0</ele></trkpt>
    <trkpt lat="48.355794" lon="-4.636548"><ele>71.2</ele></trkpt>
    <trkpt lat="48.355834" lon="-4.636365"><ele>71.2</ele></trkpt>
    <trkpt lat="48.355809" lon="-4.635425"><ele>70.8</ele></trkpt>
    <trkpt lat="48.355858" lon="-4.635031"><ele>70.8</ele></trkpt>
    <trkpt lat="48.355935" lon="-4.634686"><ele>70.6</ele></trkpt>
    <trkpt lat="48.356137" lon="-4.634101"><ele>71.2</ele></trkpt>
    <trkpt lat="48.356137" lon="-4.634030"><ele>71.2</ele></trkpt>
    <trkpt lat="48.356054" lon="-4.633984"><ele>70.2</ele></trkpt>
    <trkpt lat="48.356134" lon="-4.633982"><ele>70.6</ele></trkpt>
    <trkpt lat="48.356177" lon="-4.633937"><ele>71.0</ele></trkpt>
    <trkpt lat="48.356322" lon="-4.633241"><ele>72.8</ele></trkpt>
    <trkpt lat="48.356278" lon="-4.633128"><ele>72.8</ele></trkpt>
    <trkpt lat="48.356215" lon="-4.633093"><ele>72.6</ele></trkpt>
    <trkpt lat="48.355695" lon="-4.633100"><ele>70.0</ele></trkpt>
    <trkpt lat="48.355363" lon="-4.633139"><ele>67.8</ele></trkpt>
    <trkpt lat="48.355241" lon="-4.633222"><ele>67.0</ele></trkpt>
    <trkpt lat="48.355100" lon="-4.633517"><ele>65.4</ele></trkpt>
    <trkpt lat="48.354964" lon="-4.634186"><ele>62.0</ele></trkpt>
    <trkpt lat="48.354815" lon="-4.634466"><ele>59.8</ele></trkpt>
    <trkpt lat="48.353192" lon="-4.636011"><ele>53.2</ele></trkpt>
    <trkpt lat="48.353066" lon="-4.636202"><ele>52.4</ele></trkpt>
    <trkpt lat="48.352797" lon="-4.636775"><ele>51.8</ele></trkpt>
    <trkpt lat="48.352365" lon="-4.637575"><ele>50.2</ele></trkpt>
    <trkpt lat="48.351884" lon="-4.638395"><ele>50.6</ele></trkpt>
    <trkpt lat="48.351616" lon="-4.638752"><ele>49.8</ele></trkpt>
    <trkpt lat="48.351193" lon="-4.639067"><ele>47.4</ele></trkpt>
    <trkpt lat="48.350461" lon="-4.639452"><ele>43.0</ele></trkpt>
    <trkpt lat="48.350052" lon="-4.639619"><ele>42.2</ele></trkpt>
    <trkpt lat="48.349279" lon="-4.640498"><ele>49.4</ele></trkpt>
    <trkpt lat="48.349274" lon="-4.640672"><ele>50.2</ele></trkpt>
    <trkpt lat="48.349376" lon="-4.640438"><ele>49.4</ele></trkpt>
    <trkpt lat="48.349635" lon="-4.640098"><ele>46.6</ele></trkpt>
    <trkpt lat="48.350336" lon="-4.639485"><ele>40.8</ele></trkpt>
    <trkpt lat="48.350458" lon="-4.639232"><ele>37.6</ele></trkpt>
    <trkpt lat="48.350737" lon="-4.638885"><ele>32.8</ele></trkpt>
    <trkpt lat="48.350762" lon="-4.638742"><ele>31.8</ele></trkpt>
    <trkpt lat="48.350715" lon="-4.638578"><ele>31.2</ele></trkpt>
    <trkpt lat="48.350591" lon="-4.638383"><ele>32.2</ele></trkpt>
    <trkpt lat="48.350397" lon="-4.638198"><ele>34.0</ele></trkpt>
    <trkpt lat="48.350065" lon="-4.637997"><ele>36.6</ele></trkpt>
    <trkpt lat="48.349951" lon="-4.637972"><ele>37.0</ele></trkpt>
    <trkpt lat="48.349820" lon="-4.637998"><ele>37.2</ele></trkpt>
    <trkpt lat="48.349520" lon="-4.638230"><ele>36.2</ele></trkpt>
    <trkpt lat="48.349012" lon="-4.638412"><ele>34.2</ele></trkpt>
    <trkpt lat="48.348660" lon="-4.638594"><ele>31.6</ele></trkpt>
    <trkpt lat="48.348357" lon="-4.638677"><ele>29.8</ele></trkpt>
    <trkpt lat="48.347959" lon="-4.638967"><ele>25.6</ele></trkpt>
    <trkpt lat="48.347560" lon="-4.639494"><ele>16.8</ele></trkpt>
    <trkpt lat="48.347476" lon="-4.639655"><ele>14.0</ele></trkpt>
    <trkpt lat="48.347656" lon="-4.639658"><ele>12.2</ele></trkpt>
    <trkpt lat="48.347664" lon="-4.639795"><ele>11.6</ele></trkpt>
    <trkpt lat="48.347468" lon="-4.639976"><ele>11.8</ele></trkpt>
    <trkpt lat="48.347287" lon="-4.640255"><ele>13.4</ele></trkpt>
    <trkpt lat="48.347173" lon="-4.640361"><ele>13.6</ele></trkpt>
    <trkpt lat="48.346828" lon="-4.640505"><ele>12.4</ele></trkpt>
    <trkpt lat="48.346543" lon="-4.640748"><ele>15.2</ele></trkpt>
    <trkpt lat="48.346247" lon="-4.641039"><ele>18.6</ele></trkpt>
    <trkpt lat="48.345889" lon="-4.641510"><ele>21.6</ele></trkpt>
    <trkpt lat="48.345668" lon="-4.641894"><ele>23.2</ele></trkpt>
    <trkpt lat="48.345585" lon="-4.642125"><ele>24.8</ele></trkpt>
    <trkpt lat="48.345554" lon="-4.642294"><ele>26.4</ele></trkpt>
    <trkpt lat="48.345546" lon="-4.642764"><ele>31.6</ele></trkpt>
    <trkpt lat="48.345629" lon="-4.642810"><ele>33.2</ele></trkpt>
    <trkpt lat="48.345851" lon="-4.642763"><ele>37.2</ele></trkpt>
    <trkpt lat="48.345996" lon="-4.642907"><ele>40.6</ele></trkpt>
    <trkpt lat="48.346246" lon="-4.643254"><ele>46.6</ele></trkpt>
    <trkpt lat="48.346447" lon="-4.642205"><ele>44.4</ele></trkpt>
    <trkpt lat="48.346517" lon="-4.641934"><ele>43.0</ele></trkpt>
    <trkpt lat="48.346587" lon="-4.641809"><ele>42.4</ele></trkpt>
    <trkpt lat="48.346897" lon="-4.641597"><ele>42.6</ele></trkpt>
    <trkpt lat="48.347723" lon="-4.641284"><ele>48.4</ele></trkpt>
    <trkpt lat="48.348181" lon="-4.640919"><ele>47.6</ele></trkpt>
    <trkpt lat="48.348690" lon="-4.640906"><ele>49.0</ele></trkpt>
    <trkpt lat="48.348966" lon="-4.640626"><ele>49.2</ele></trkpt>
    <trkpt lat="48.349297" lon="-4.640604"><ele>49.8</ele></trkpt>
    <trkpt lat="48.349893" lon="-4.639851"><ele>44.6</ele></trkpt>
    <trkpt lat="48.350324" lon="-4.639507"><ele>41.4</ele></trkpt>
    <trkpt lat="48.350505" lon="-4.639190"><ele>37.2</ele></trkpt>
    <trkpt lat="48.350751" lon="-4.638909"><ele>32.8</ele></trkpt>
    <trkpt lat="48.350804" lon="-4.638782"><ele>31.4</ele></trkpt>
    <trkpt lat="48.350788" lon="-4.638666"><ele>30.6</ele></trkpt>
    <trkpt lat="48.350709" lon="-4.638501"><ele>30.4</ele></trkpt>
    <trkpt lat="48.350506" lon="-4.638246"><ele>32.2</ele></trkpt>
    <trkpt lat="48.350179" lon="-4.638033"><ele>35.0</ele></trkpt>
    <trkpt lat="48.349963" lon="-4.638019"><ele>36.6</ele></trkpt>
    <trkpt lat="48.349822" lon="-4.638065"><ele>36.8</ele></trkpt>
    <trkpt lat="48.349623" lon="-4.638286"><ele>35.2</ele></trkpt>
    <trkpt lat="48.349477" lon="-4.638382"><ele>34.4</ele></trkpt>
    <trkpt lat="48.349179" lon="-4.638475"><ele>34.0</ele></trkpt>
    <trkpt lat="48.348961" lon="-4.638485"><ele>33.6</ele></trkpt>
    <trkpt lat="48.348445" lon="-4.638688"><ele>30.0</ele></trkpt>
    <trkpt lat="48.348026" lon="-4.638939"><ele>26.4</ele></trkpt>
    <trkpt lat="48.347467" lon="-4.639625"><ele>14.4</ele></trkpt>
    <trkpt lat="48.347491" lon="-4.639710"><ele>13.8</ele></trkpt>
    <trkpt lat="48.347652" lon="-4.639682"><ele>12.6</ele></trkpt>
    <trkpt lat="48.347682" lon="-4.639758"><ele>12.2</ele></trkpt>
    <trkpt lat="48.347658" lon="-4.639838"><ele>11.8</ele></trkpt>
    <trkpt lat="48.347496" lon="-4.639952"><ele>11.8</ele></trkpt>
    <trkpt lat="48.347197" lon="-4.640336"><ele>13.0</ele></trkpt>
    <trkpt lat="48.346968" lon="-4.640464"><ele>12.4</ele></trkpt>
    <trkpt lat="48.346822" lon="-4.640493"><ele>12.6</ele></trkpt>
    <trkpt lat="48.346634" lon="-4.640701"><ele>14.0</ele></trkpt>
    <trkpt lat="48.346343" lon="-4.640909"><ele>15.8</ele></trkpt>
    <trkpt lat="48.345995" lon="-4.641356"><ele>18.6</ele></trkpt>
    <trkpt lat="48.345690" lon="-4.641840"><ele>22.0</ele></trkpt>
    <trkpt lat="48.345593" lon="-4.642085"><ele>24.0</ele></trkpt>
    <trkpt lat="48.345557" lon="-4.642311"><ele>26.4</ele></trkpt>
    <trkpt lat="48.345554" lon="-4.642747"><ele>31.4</ele></trkpt>
    <trkpt lat="48.345644" lon="-4.642792"><ele>33.0</ele></trkpt>
    <trkpt lat="48.345798" lon="-4.642718"><ele>35.8</ele></trkpt>
    <trkpt lat="48.345849" lon="-4.642735"><ele>36.8</ele></trkpt>
    <trkpt lat="48.346032" lon="-4.642936"><ele>40.8</ele></trkpt>
    <trkpt lat="48.346252" lon="-4.643256"><ele>46.6</ele></trkpt>
    <trkpt lat="48.346383" lon="-4.642371"><ele>44.8</ele></trkpt>
    <trkpt lat="48.346514" lon="-4.641914"><ele>42.2</ele></trkpt>
    <trkpt lat="48.346588" lon="-4.641781"><ele>41.8</ele></trkpt>
    <trkpt lat="48.346805" lon="-4.641640"><ele>42.0</ele></trkpt>
    <trkpt lat="48.347487" lon="-4.641363"><ele>46.6</ele></trkpt>
    <trkpt lat="48.347935" lon="-4.641121"><ele>48.4</ele></trkpt>
    <trkpt lat="48.348204" lon="-4.640919"><ele>48.0</ele></trkpt>
    <trkpt lat="48.348705" lon="-4.640927"><ele>49.4</ele></trkpt>
    <trkpt lat="48.348798" lon="-4.640879"><ele>49.8</ele></trkpt>
    <trkpt lat="48.348992" lon="-4.640646"><ele>49.6</ele></trkpt>
    <trkpt lat="48.349299" lon="-4.640615"><ele>49.2</ele></trkpt>
    <trkpt lat="48.349615" lon="-4.640199"><ele>47.0</ele></trkpt>
    <trkpt lat="48.350349" lon="-4.639455"><ele>40.6</ele></trkpt>
    <trkpt lat="48.350465" lon="-4.639232"><ele>37.6</ele></trkpt>
    <trkpt lat="48.350753" lon="-4.638873"><ele>32.0</ele></trkpt>
    <trkpt lat="48.350792" lon="-4.638728"><ele>30.8</ele></trkpt>
    <trkpt lat="48.350761" lon="-4.638602"><ele>30.2</ele></trkpt>
    <trkpt lat="48.350652" lon="-4.638415"><ele>30.0</ele></trkpt>
    <trkpt lat="48.350391" lon="-4.638113"><ele>32.4</ele></trkpt>
    <trkpt lat="48.350145" lon="-4.638002"><ele>35.0</ele></trkpt>
    <trkpt lat="48.349912" lon="-4.638000"><ele>36.2</ele></trkpt>
    <trkpt lat="48.349825" lon="-4.638018"><ele>36.2</ele></trkpt>
    <trkpt lat="48.349564" lon="-4.638247"><ele>35.4</ele></trkpt>
    <trkpt lat="48.349017" lon="-4.638416"><ele>35.0</ele></trkpt>
    <trkpt lat="48.348797" lon="-4.638569"><ele>33.0</ele></trkpt>
    <trkpt lat="48.348389" lon="-4.638714"><ele>29.4</ele></trkpt>
    <trkpt lat="48.348022" lon="-4.638937"><ele>25.8</ele></trkpt>
    <trkpt lat="48.347805" lon="-4.639161"><ele>22.2</ele></trkpt>
    <trkpt lat="48.347487" lon="-4.639616"><ele>14.4</ele></trkpt>
    <trkpt lat="48.347490" lon="-4.639692"><ele>13.6</ele></trkpt>
    <trkpt lat="48.347660" lon="-4.639664"><ele>12.0</ele></trkpt>
    <trkpt lat="48.347671" lon="-4.639813"><ele>11.2</ele></trkpt>
    <trkpt lat="48.347530" lon="-4.639944"><ele>11.0</ele></trkpt>
    <trkpt lat="48.347307" lon="-4.640296"><ele>13.0</ele></trkpt>
    <trkpt lat="48.347154" lon="-4.640409"><ele>13.0</ele></trkpt>
    <trkpt lat="48.346825" lon="-4.640512"><ele>11.6</ele></trkpt>
    <trkpt lat="48.346221" lon="-4.641056"><ele>17.0</ele></trkpt>
    <trkpt lat="48.345899" lon="-4.641526"><ele>18.8</ele></trkpt>
    <trkpt lat="48.345656" lon="-4.641922"><ele>21.4</ele></trkpt>
    <trkpt lat="48.345581" lon="-4.642119"><ele>23.2</ele></trkpt>
    <trkpt lat="48.345530" lon="-4.642695"><ele>29.6</ele></trkpt>
    <trkpt lat="48.345546" lon="-4.642772"><ele>30.6</ele></trkpt>
    <trkpt lat="48.345608" lon="-4.642809"><ele>31.8</ele></trkpt>
    <trkpt lat="48.345793" lon="-4.642719"><ele>35.4</ele></trkpt>
    <trkpt lat="48.345875" lon="-4.642751"><ele>37.0</ele></trkpt>
    <trkpt lat="48.346271" lon="-4.643244"><ele>46.4</ele></trkpt>
    <trkpt lat="48.346357" lon="-4.642599"><ele>45.8</ele></trkpt>
    <trkpt lat="48.346466" lon="-4.642079"><ele>43.0</ele></trkpt>
    <trkpt lat="48.346537" lon="-4.641891"><ele>41.4</ele></trkpt>
    <trkpt lat="48.346664" lon="-4.641747"><ele>40.8</ele></trkpt>
    <trkpt lat="48.346884" lon="-4.641602"><ele>41.4</ele></trkpt>
    <trkpt lat="48.347638" lon="-4.641310"><ele>47.0</ele></trkpt>
    <trkpt lat="48.348154" lon="-4.640951"><ele>48.2</ele></trkpt>
    <trkpt lat="48.348743" lon="-4.640928"><ele>49.6</ele></trkpt>
    <trkpt lat="48.348954" lon="-4.640630"><ele>50.2</ele></trkpt>
    <trkpt lat="48.349217" lon="-4.640790"><ele>50.8</ele></trkpt>
    <trkpt lat="48.349249" lon="-4.641224"><ele>55.4</ele></trkpt>
    <trkpt lat="48.349342" lon="-4.641780"><ele>59.2</ele></trkpt>
    <trkpt lat="48.349732" lon="-4.643066"><ele>65.6</ele></trkpt>
    <trkpt lat="48.349962" lon="-4.644090"><ele>68.6</ele></trkpt>
    <trkpt lat="48.350215" lon="-4.644844"><ele>71.6</ele></trkpt>
    <trkpt lat="48.350428" lon="-4.645152"><ele>73.0</ele></trkpt>
    <trkpt lat="48.351293" lon="-4.645730"><ele>74.8</ele></trkpt>
    <trkpt lat="48.351430" lon="-4.645781"><ele>74.8</ele></trkpt>
    <trkpt lat="48.351599" lon="-4.645735"><ele>75.2</ele></trkpt>
    <trkpt lat="48.352111" lon="-4.645346"><ele>76.2</ele></trkpt>
    <trkpt lat="48.352404" lon="-4.645272"><ele>76.0</ele></trkpt>
    <trkpt lat="48.353283" lon="-4.645429"><ele>74.2</ele></trkpt>
    <trkpt lat="48.354152" lon="-4.645869"><ele>74.6</ele></trkpt>
    <trkpt lat="48.354525" lon="-4.645962"><ele>75.6</ele></trkpt>
    <trkpt lat="48.354723" lon="-4.645902"><ele>76.2</ele></trkpt>
    <trkpt lat="48.355932" lon="-4.645228"><ele>80.6</ele></trkpt>
    <trkpt lat="48.356489" lon="-4.644594"><ele>82.2</ele></trkpt>
    <trkpt lat="48.356659" lon="-4.644463"><ele>81.6</ele></trkpt>
    <trkpt lat="48.356846" lon="-4.644454"><ele>80.8</ele></trkpt>
    <trkpt lat="48.357246" lon="-4.644611"><ele>79.6</ele></trkpt>
    <trkpt lat="48.357802" lon="-4.644474"><ele>78.8</ele></trkpt>
    <trkpt lat="48.357911" lon="-4.644170"><ele>78.0</ele></trkpt>
    <trkpt lat="48.358068" lon="-4.643865"><ele>77.0</ele></trkpt>
    <trkpt lat="48.358271" lon="-4.643593"><ele>75.4</ele></trkpt>
    <trkpt lat="48.358520" lon="-4.643338"><ele>73.8</ele></trkpt>
    <trkpt lat="48.358651" lon="-4.643293"><ele>73.2</ele></trkpt>
    <trkpt lat="48.358873" lon="-4.643408"><ele>72.4</ele></trkpt>
    <trkpt lat="48.358952" lon="-4.643407"><ele>72.4</ele></trkpt>
    <trkpt lat="48.359234" lon="-4.643094"><ele>72.6</ele></trkpt>
    <trkpt lat="48.359791" lon="-4.642918"><ele>73.0</ele></trkpt>
    <trkpt lat="48.360106" lon="-4.642712"><ele>72.8</ele></trkpt>
    <trkpt lat="48.360376" lon="-4.642445"><ele>73.0</ele></trkpt>
    <trkpt lat="48.360827" lon="-4.641793"><ele>73.2</ele></trkpt>
    <trkpt lat="48.361041" lon="-4.641627"><ele>73.2</ele></trkpt>
    <trkpt lat="48.361241" lon="-4.641534"><ele>73.2</ele></trkpt>
    <trkpt lat="48.362092" lon="-4.641344"><ele>72.0</ele></trkpt>
    <trkpt lat="48.362662" lon="-4.641274"><ele>70.4</ele></trkpt>
    <trkpt lat="48.364598" lon="-4.641496"><ele>66.6</ele></trkpt>
    <trkpt lat="48.364973" lon="-4.641597"><ele>65.6</ele></trkpt>
    <trkpt lat="48.365643" lon="-4.642041"><ele>66.8</ele></trkpt>
    <trkpt lat="48.366021" lon="-4.642173"><ele>67.2</ele></trkpt>
    <trkpt lat="48.366208" lon="-4.642361"><ele>67.6</ele></trkpt>
    <trkpt lat="48.366506" lon="-4.642340"><ele>68.0</ele></trkpt>
    <trkpt lat="48.368307" lon="-4.642977"><ele>66.4</ele></trkpt>
    <trkpt lat="48.369412" lon="-4.643001"><ele>60.8</ele></trkpt>
    <trkpt lat="48.369554" lon="-4.642935"><ele>61.2</ele></trkpt>
    <trkpt lat="48.369725" lon="-4.642628"><ele>62.0</ele></trkpt>
    <trkpt lat="48.369817" lon="-4.642020"><ele>61.2</ele></trkpt>
    <trkpt lat="48.370175" lon="-4.640644"><ele>61.8</ele></trkpt>
  </trkseg></trk>
</gpx>
