<?xml version="1.0" encoding="UTF-8"?>
<gpx version="1.1" creator="tcap-parcours" xmlns="http://www.topografix.com/GPX/1/1">
  <metadata><name>Côtes de Déolen – 4 × 1'30</name></metadata>
  <trk><name>Côtes de Déolen – 4 × 1'30</name><trkseg>
    <trkpt lat="48.370005" lon="-4.640642"><ele>60.6</ele></trkpt>
    <trkpt lat="48.369979" lon="-4.640829"><ele>60.6</ele></trkpt>
    <trkpt lat="48.369793" lon="-4.641460"><ele>60.4</ele></trkpt>
    <trkpt lat="48.369645" lon="-4.641571"><ele>61.4</ele></trkpt>
    <trkpt lat="48.369608" lon="-4.641652"><ele>61.6</ele></trkpt>
    <trkpt lat="48.369564" lon="-4.642019"><ele>61.8</ele></trkpt>
    <trkpt lat="48.369640" lon="-4.642647"><ele>60.4</ele></trkpt>
    <trkpt lat="48.369488" lon="-4.642975"><ele>60.6</ele></trkpt>
    <trkpt lat="48.369158" lon="-4.642901"><ele>62.8</ele></trkpt>
    <trkpt lat="48.368047" lon="-4.642807"><ele>69.4</ele></trkpt>
    <trkpt lat="48.367682" lon="-4.642628"><ele>69.8</ele></trkpt>
    <trkpt lat="48.367164" lon="-4.642451"><ele>70.2</ele></trkpt>
    <trkpt lat="48.366413" lon="-4.642273"><ele>68.4</ele></trkpt>
    <trkpt lat="48.366170" lon="-4.642309"><ele>68.0</ele></trkpt>
    <trkpt lat="48.365988" lon="-4.642107"><ele>68.0</ele></trkpt>
    <trkpt lat="48.365587" lon="-4.642018"><ele>67.0</ele></trkpt>
    <trkpt lat="48.365111" lon="-4.641619"><ele>66.8</ele></trkpt>
    <trkpt lat="48.364792" lon="-4.641436"><ele>66.6</ele></trkpt>
    <trkpt lat="48.363993" lon="-4.641300"><ele>67.8</ele></trkpt>
    <trkpt lat="48.363303" lon="-4.641268"><ele>68.8</ele></trkpt>
    <trkpt lat="48.362615" lon="-4.641163"><ele>70.4</ele></trkpt>
    <trkpt lat="48.362328" lon="-4.641251"><ele>71.2</ele></trkpt>
    <trkpt lat="48.361771" lon="-4.641318"><ele>72.8</ele></trkpt>
    <trkpt lat="48.361347" lon="-4.641441"><ele>72.4</ele></trkpt>
    <trkpt lat="48.361012" lon="-4.641593"><ele>72.8</ele></trkpt>
    <trkpt lat="48.360699" lon="-4.641844"><ele>72.6</ele></trkpt>
    <trkpt lat="48.360332" lon="-4.642425"><ele>73.0</ele></trkpt>
    <trkpt lat="48.360113" lon="-4.642628"><ele>72.6</ele></trkpt>
    <trkpt lat="48.359195" lon="-4.643007"><ele>73.8</ele></trkpt>
    <trkpt lat="48.359086" lon="-4.643094"><ele>74.2</ele></trkpt>
    <trkpt lat="48.358897" lon="-4.643342"><ele>74.4</ele></trkpt>
    <trkpt lat="48.358589" lon="-4.643258"><ele>74.8</ele></trkpt>
    <trkpt lat="48.358449" lon="-4.643326"><ele>75.4</ele></trkpt>
    <trkpt lat="48.358202" lon="-4.643558"><ele>77.0</ele></trkpt>
    <trkpt lat="48.358030" lon="-4.643789"><ele>78.2</ele></trkpt>
    <trkpt lat="48.357620" lon="-4.644630"><ele>80.4</ele></trkpt>
    <trkpt lat="48.357169" lon="-4.644558"><ele>80.4</ele></trkpt>
    <trkpt lat="48.356870" lon="-4.644421"><ele>80.6</ele></trkpt>
    <trkpt lat="48.356760" lon="-4.644305"><ele>80.6</ele></trkpt>
    <trkpt lat="48.356625" lon="-4.643932"><ele>80.6</ele></trkpt>
    <trkpt lat="48.356345" lon="-4.643337"><ele>80.4</ele></trkpt>
    <trkpt lat="48.356275" lon="-4.643099"><ele>80.4</ele></trkpt>
    <trkpt lat="48.356211" lon="-4.642678"><ele>80.0</ele></trkpt>
    <trkpt lat="48.356239" lon="-4.642322"><ele>80.2</ele></trkpt>
    <trkpt lat="48.356469" lon="-4.641724"><ele>80.6</ele></trkpt>
    <trkpt lat="48.356565" lon="-4.641340"><ele>80.0</ele></trkpt>
    <trkpt lat="48.356588" lon="-4.640743"><ele>78.6</ele></trkpt>
    <trkpt lat="48.356786" lon="-4.639608"><ele>76.2</ele></trkpt>
    <trkpt lat="48.356734" lon="-4.639490"><ele>76.0</ele></trkpt>
    <trkpt lat="48.356039" lon="-4.638986"><ele>76.0</ele></trkpt>
    <trkpt lat="48.355997" lon="-4.638921"><ele>76.0</ele></trkpt>
    <trkpt lat="48.356096" lon="-4.638493"><ele>75.0</ele></trkpt>
    <trkpt lat="48.356031" lon="-4.638201"><ele>74.2</ele></trkpt>
    <trkpt lat="48.356006" lon="-4.637641"><ele>73.0</ele></trkpt>
    <trkpt lat="48.355807" lon="-4.636481"><ele>71.2</ele></trkpt>
    <trkpt lat="48.355841" lon="-4.636343"><ele>71.2</ele></trkpt>
    <trkpt lat="48.355789" lon="-4.635512"><ele>69.6</ele></trkpt>
    <trkpt lat="48.355853" lon="-4.635060"><ele>68.8</ele></trkpt>
    <trkpt lat="48.355906" lon="-4.634799"><ele>69.0</ele></trkpt>
    <trkpt lat="48.356170" lon="-4.634009"><ele>71.4</ele></trkpt>
    <trkpt lat="48.356337" lon="-4.633210"><ele>72.4</ele></trkpt>
    <trkpt lat="48.356301" lon="-4.633126"><ele>72.2</ele></trkpt>
    <trkpt lat="48.356201" lon="-4.633087"><ele>71.8</ele></trkpt>
    <trkpt lat="48.355393" lon="-4.633128"><ele>68.0</ele></trkpt>
    <trkpt lat="48.355248" lon="-4.633209"><ele>67.4</ele></trkpt>
    <trkpt lat="48.355128" lon="-4.633414"><ele>66.2</ele></trkpt>
    <trkpt lat="48.355042" lon="-4.633929"><ele>63.0</ele></trkpt>
    <trkpt lat="48.354946" lon="-4.634280"><ele>61.0</ele></trkpt>
    <trkpt lat="48.354873" lon="-4.634433"><ele>59.8</ele></trkpt>
    <trkpt lat="48.354212" lon="-4.635031"><ele>57.4</ele></trkpt>
    <trkpt lat="48.353814" lon="-4.635450"><ele>56.8</ele></trkpt>
    <trkpt lat="48.353180" lon="-4.635986"><ele>53.0</ele></trkpt>
    <trkpt lat="48.353069" lon="-4.636155"><ele>52.4</ele></trkpt>
    <trkpt lat="48.352353" lon="-4.637583"><ele>49.8</ele></trkpt>
    <trkpt lat="48.351744" lon="-4.638630"><ele>49.8</ele></trkpt>
    <trkpt lat="48.350943" lon="-4.639172"><ele>45.0</ele></trkpt>
    <trkpt lat="48.350628" lon="-4.639272"><ele>42.6</ele></trkpt>
    <trkpt lat="48.350139" lon="-4.639590"><ele>41.0</ele></trkpt>
    <trkpt lat="48.349887" lon="-4.639807"><ele>43.8</ele></trkpt>
    <trkpt lat="48.349696" lon="-4.640046"><ele>46.8</ele></trkpt>
    <trkpt lat="48.349318" lon="-4.640409"><ele>49.2</ele></trkpt>
    <trkpt lat="48.349078" lon="-4.640586"><ele>48.6</ele></trkpt>
    <trkpt lat="48.348994" lon="-4.640545"><ele>47.8</ele></trkpt>
    <trkpt lat="48.348869" lon="-4.640566"><ele>47.0</ele></trkpt>
    <trkpt lat="48.348508" lon="-4.640834"><ele>47.2</ele></trkpt>
    <trkpt lat="48.348085" lon="-4.640867"><ele>46.2</ele></trkpt>
    <trkpt lat="48.347172" lon="-4.641475"><ele>42.6</ele></trkpt>
    <trkpt lat="48.346770" lon="-4.641635"><ele>41.0</ele></trkpt>
    <trkpt lat="48.346479" lon="-4.641915"><ele>41.0</ele></trkpt>
    <trkpt lat="48.346363" lon="-4.642447"><ele>44.8</ele></trkpt>
    <trkpt lat="48.346266" lon="-4.643354"><ele>48.2</ele></trkpt>
    <trkpt lat="48.346275" lon="-4.644112"><ele>52.4</ele></trkpt>
    <trkpt lat="48.346348" lon="-4.644641"><ele>55.4</ele></trkpt>
    <trkpt lat="48.346351" lon="-4.645376"><ele>57.4</ele></trkpt>
    <trkpt lat="48.346384" lon="-4.645574"><ele>58.0</ele></trkpt>
    <trkpt lat="48.346438" lon="-4.645661"><ele>58.6</ele></trkpt>
    <trkpt lat="48.346520" lon="-4.645658"><ele>59.0</ele></trkpt>
    <trkpt lat="48.346806" lon="-4.645497"><ele>59.8</ele></trkpt>
    <trkpt lat="48.347547" lon="-4.645257"><ele>62.4</ele></trkpt>
    <trkpt lat="48.347749" lon="-4.645149"><ele>63.2</ele></trkpt>
    <trkpt lat="48.348113" lon="-4.644782"><ele>64.8</ele></trkpt>
    <trkpt lat="48.348357" lon="-4.644636"><ele>64.8</ele></trkpt>
    <trkpt lat="48.349221" lon="-4.643802"><ele>66.4</ele></trkpt>
    <trkpt lat="48.349718" lon="-4.643290"><ele>67.2</ele></trkpt>
    <trkpt lat="48.349779" lon="-4.643143"><ele>66.8</ele></trkpt>
    <trkpt lat="48.349649" lon="-4.642590"><ele>64.4</ele></trkpt>
    <trkpt lat="48.349288" lon="-4.641504"><ele>57.8</ele></trkpt>
    <trkpt lat="48.349209" lon="-4.641147"><ele>55.0</ele></trkpt>
    <trkpt lat="48.349170" lon="-4.640785"><ele>51.8</ele></trkpt>
    <trkpt lat="48.349119" lon="-4.640649"><ele>50.2</ele></trkpt>
    <trkpt lat="48.349057" lon="-4.640580"><ele>49.4</ele></trkpt>
    <trkpt lat="48.348878" lon="-4.640570"><ele>48.0</ele></trkpt>
    <trkpt lat="48.348615" lon="-4.640890"><ele>48.2</ele></trkpt>
    <trkpt lat="48.348266" lon="-4.640853"><ele>47.6</ele></trkpt>
    <trkpt lat="48.348130" lon="-4.640887"><ele>47.2</ele></trkpt>
    <trkpt lat="48.347897" lon="-4.641086"><ele>47.2</ele></trkpt>
    <trkpt lat="48.347577" lon="-4.641276"><ele>46.0</ele></trkpt>
    <trkpt lat="48.346755" lon="-4.641679"><ele>41.8</ele></trkpt>
    <trkpt lat="48.346563" lon="-4.641838"><ele>42.0</ele></trkpt>
    <trkpt lat="48.346474" lon="-4.641974"><ele>42.6</ele></trkpt>
    <trkpt lat="48.346300" lon="-4.643038"><ele>48.6</ele></trkpt>
    <trkpt lat="48.346256" lon="-4.643925"><ele>51.8</ele></trkpt>
    <trkpt lat="48.346347" lon="-4.644814"><ele>55.4</ele></trkpt>
    <trkpt lat="48.346363" lon="-4.645534"><ele>57.4</ele></trkpt>
    <trkpt lat="48.346407" lon="-4.645681"><ele>57.8</ele></trkpt>
    <trkpt lat="48.346509" lon="-4.645709"><ele>58.2</ele></trkpt>
    <trkpt lat="48.347734" lon="-4.645121"><ele>62.4</ele></trkpt>
    <trkpt lat="48.348397" lon="-4.644599"><ele>64.8</ele></trkpt>
    <trkpt lat="48.348895" lon="-4.644139"><ele>65.6</ele></trkpt>
    <trkpt lat="48.349418" lon="-4.643628"><ele>67.0</ele></trkpt>
    <trkpt lat="48.349754" lon="-4.643246"><ele>67.2</ele></trkpt>
    <trkpt lat="48.349775" lon="-4.643083"><ele>66.8</ele></trkpt>
    <trkpt lat="48.349670" lon="-4.642685"><ele>64.8</ele></trkpt>
    <trkpt lat="48.349283" lon="-4.641567"><ele>57.6</ele></trkpt>
    <trkpt lat="48.349218" lon="-4.640763"><ele>52.4</ele></trkpt>
    <trkpt lat="48.349130" lon="-4.640603"><ele>50.6</ele></trkpt>
    <trkpt lat="48.348989" lon="-4.640559"><ele>49.2</ele></trkpt>
    <trkpt lat="48.348874" lon="-4.640617"><ele>48.6</ele></trkpt>
    <trkpt lat="48.348616" lon="-4.640906"><ele>48.6</ele></trkpt>
    <trkpt lat="48.348102" lon="-4.640945"><ele>48.0</ele></trkpt>
    <trkpt lat="48.347833" lon="-4.641149"><ele>47.4</ele></trkpt>
    <trkpt lat="48.346807" lon="-4.641647"><ele>41.2</ele></trkpt>
    <trkpt lat="48.346550" lon="-4.641829"><ele>41.0</ele></trkpt>
    <trkpt lat="48.346456" lon="-4.641942"><ele>41.6</ele></trkpt>
    <trkpt lat="48.346370" lon="-4.642452"><ele>46.0</ele></trkpt>
    <trkpt lat="48.346273" lon="-4.643365"><ele>50.0</ele></trkpt>
    <trkpt lat="48.346295" lon="-4.643767"><ele>51.2</ele></trkpt>
    <trkpt lat="48.346274" lon="-4.644121"><ele>52.8</ele></trkpt>
    <trkpt lat="48.346359" lon="-4.644746"><ele>55.6</ele></trkpt>
    <trkpt lat="48.346366" lon="-4.645373"><ele>56.8</ele></trkpt>
    <trkpt lat="48.346394" lon="-4.645609"><ele>57.2</ele></trkpt>
    <trkpt lat="48.346428" lon="-4.645665"><ele>57.6</ele></trkpt>
    <trkpt lat="48.346510" lon="-4.645683"><ele>58.0</ele></trkpt>
    <trkpt lat="48.347010" lon="-4.645440"><ele>60.6</ele></trkpt>
    <trkpt lat="48.347380" lon="-4.645333"><ele>62.0</ele></trkpt>
    <trkpt lat="48.347640" lon="-4.645207"><ele>63.4</ele></trkpt>
    <trkpt lat="48.348450" lon="-4.644559"><ele>65.2</ele></trkpt>
    <trkpt lat="48.349461" lon="-4.643594"><ele>67.4</ele></trkpt>
    <trkpt lat="48.349778" lon="-4.643227"><ele>66.8</ele></trkpt>
    <trkpt lat="48.349770" lon="-4.643021"><ele>66.2</ele></trkpt>
    <trkpt lat="48.349284" lon="-4.641578"><ele>58.0</ele></trkpt>
    <trkpt lat="48.349216" lon="-4.641244"><ele>55.8</ele></trkpt>
    <trkpt lat="48.349171" lon="-4.640695"><ele>51.0</ele></trkpt>
    <trkpt lat="48.349075" lon="-4.640572"><ele>49.6</ele></trkpt>
    <trkpt lat="48.348898" lon="-4.640624"><ele>48.4</ele></trkpt>
    <trkpt lat="48.348748" lon="-4.640772"><ele>48.2</ele></trkpt>
    <trkpt lat="48.348627" lon="-4.640956"><ele>48.8</ele></trkpt>
    <trkpt lat="48.348106" lon="-4.640928"><ele>47.6</ele></trkpt>
    <trkpt lat="48.347673" lon="-4.641240"><ele>46.2</ele></trkpt>
    <trkpt lat="48.346680" lon="-4.641727"><ele>41.0</ele></trkpt>
    <trkpt lat="48.346531" lon="-4.641871"><ele>40.8</ele></trkpt>
    <trkpt lat="48.346442" lon="-4.642035"><ele>41.6</ele></trkpt>
    <trkpt lat="48.346267" lon="-4.643206"><ele>48.0</ele></trkpt>
    <trkpt lat="48.346277" lon="-4.644149"><ele>52.2</ele></trkpt>
    <trkpt lat="48.346352" lon="-4.644658"><ele>54.8</ele></trkpt>
    <trkpt lat="48.346370" lon="-4.645534"><ele>56.8</ele></trkpt>
    <trkpt lat="48.346412" lon="-4.645671"><ele>57.2</ele></trkpt>
    <trkpt lat="48.346523" lon="-4.645685"><ele>57.8</ele></trkpt>
    <trkpt lat="48.346926" lon="-4.645475"><ele>61.0</ele></trkpt>
    <trkpt lat="48.347655" lon="-4.645203"><ele>62.8</ele></trkpt>
    <trkpt lat="48.348444" lon="-4.644576"><ele>65.2</ele></trkpt>
    <trkpt lat="48.349533" lon="-4.643518"><ele>67.4</ele></trkpt>
    <trkpt lat="48.349777" lon="-4.643228"><ele>66.8</ele></trkpt>
    <trkpt lat="48.349796" lon="-4.643112"><ele>66.2</ele></trkpt>
    <trkpt lat="48.349772" lon="-4.642989"><ele>65.8</ele></trkpt>
    <trkpt lat="48.349259" lon="-4.641533"><ele>57.8</ele></trkpt>
    <trkpt lat="48.349192" lon="-4.641155"><ele>55.2</ele></trkpt>
    <trkpt lat="48.349174" lon="-4.640745"><ele>51.8</ele></trkpt>
    <trkpt lat="48.349080" lon="-4.640618"><ele>49.6</ele></trkpt>
    <trkpt lat="48.348966" lon="-4.640592"><ele>48.8</ele></trkpt>
    <trkpt lat="48.348833" lon="-4.640666"><ele>48.0</ele></trkpt>
    <trkpt lat="48.348555" lon="-4.640943"><ele>48.6</ele></trkpt>
    <trkpt lat="48.348115" lon="-4.640949"><ele>48.2</ele></trkpt>
    <trkpt lat="48.347412" lon="-4.641401"><ele>45.8</ele></trkpt>
    <trkpt lat="48.346803" lon="-4.641654"><ele>41.2</ele></trkpt>
    <trkpt lat="48.346624" lon="-4.641806"><ele>41.4</ele></trkpt>
    <trkpt lat="48.346496" lon="-4.641978"><ele>42.0</ele></trkpt>
    <trkpt lat="48.346322" lon="-4.642657"><ele>46.0</ele></trkpt>
    <trkpt lat="48.346273" lon="-4.643212"><ele>48.4</ele></trkpt>
    <trkpt lat="48.346303" lon="-4.643715"><ele>50.2</ele></trkpt>
    <trkpt lat="48.346285" lon="-4.644111"><ele>52.0</ele></trkpt>
    <trkpt lat="48.346363" lon="-4.644814"><ele>55.6</ele></trkpt>
    <trkpt lat="48.346382" lon="-4.645546"><ele>57.4</ele></trkpt>
    <trkpt lat="48.346426" lon="-4.645676"><ele>57.6</ele></trkpt>
    <trkpt lat="48.346503" lon="-4.645681"><ele>58.0</ele></trkpt>
    <trkpt lat="48.346934" lon="-4.645455"><ele>61.4</ele></trkpt>
    <trkpt lat="48.347666" lon="-4.645184"><ele>63.0</ele></trkpt>
    <trkpt lat="48.348438" lon="-4.644574"><ele>64.8</ele></trkpt>
    <trkpt lat="48.349769" lon="-4.643276"><ele>66.6</ele></trkpt>
    <trkpt lat="48.349978" lon="-4.643946"><ele>68.6</ele></trkpt>
    <trkpt lat="48.350136" lon="-4.644617"><ele>71.6</ele></trkpt>
    <trkpt lat="48.350236" lon="-4.644889"><ele>73.0</ele></trkpt>
    <trkpt lat="48.350409" lon="-4.645125"><ele>74.4</ele></trkpt>
    <trkpt lat="48.350855" lon="-4.645450"><ele>75.2</ele></trkpt>
    <trkpt lat="48.351417" lon="-4.645754"><ele>75.4</ele></trkpt>
    <trkpt lat="48.351522" lon="-4.645774"><ele>75.6</ele></trkpt>
    <trkpt lat="48.351900" lon="-4.645469"><ele>76.4</ele></trkpt>
    <trkpt lat="48.352214" lon="-4.645278"><ele>76.8</ele></trkpt>
    <trkpt lat="48.352380" lon="-4.645225"><ele>76.6</ele></trkpt>
    <trkpt lat="48.352882" lon="-4.645251"><ele>75.6</ele></trkpt>
    <trkpt lat="48.353534" lon="-4.645518"><ele>75.0</ele></trkpt>
    <trkpt lat="48.353956" lon="-4.645789"><ele>75.8</ele></trkpt>
    <trkpt lat="48.354419" lon="-4.645927"><ele>76.2</ele></trkpt>
    <trkpt lat="48.354589" lon="-4.645929"><ele>76.6</ele></trkpt>
    <trkpt lat="48.355963" lon="-4.645185"><ele>81.6</ele></trkpt>
    <trkpt lat="48.356555" lon="-4.644550"><ele>81.4</ele></trkpt>
    <trkpt lat="48.356674" lon="-4.644465"><ele>81.0</ele></trkpt>
    <trkpt lat="48.356842" lon="-4.644439"><ele>80.6</ele></trkpt>
    <trkpt lat="48.357271" lon="-4.644614"><ele>80.2</ele></trkpt>
    <trkpt lat="48.357450" lon="-4.644641"><ele>79.8</ele></trkpt>
    <trkpt lat="48.357540" lon="-4.644645"><ele>79.6</ele></trkpt>
    <trkpt lat="48.357726" lon="-4.644534"><ele>79.0</ele></trkpt>
    <trkpt lat="48.358131" lon="-4.643761"><ele>76.6</ele></trkpt>
    <trkpt lat="48.358497" lon="-4.643368"><ele>74.6</ele></trkpt>
    <trkpt lat="48.358637" lon="-4.643293"><ele>74.4</ele></trkpt>
    <trkpt lat="48.358931" lon="-4.643372"><ele>74.2</ele></trkpt>
    <trkpt lat="48.359231" lon="-4.643088"><ele>74.0</ele></trkpt>
    <trkpt lat="48.359549" lon="-4.642932"><ele>73.2</ele></trkpt>
    <trkpt lat="48.359788" lon="-4.642904"><ele>72.8</ele></trkpt>
    <trkpt lat="48.360183" lon="-4.642654"><ele>73.0</ele></trkpt>
    <trkpt lat="48.360404" lon="-4.642435"><ele>73.0</ele></trkpt>
    <trkpt lat="48.360727" lon="-4.641915"><ele>73.0</ele></trkpt>
    <trkpt lat="48.361034" lon="-4.641634"><ele>73.2</ele></trkpt>
    <trkpt lat="48.361392" lon="-4.641494"><ele>73.6</ele></trkpt>
    <trkpt lat="48.362481" lon="-4.641274"><ele>71.0</ele></trkpt>
    <trkpt lat="48.363051" lon="-4.641267"><ele>69.2</ele></trkpt>
    <trkpt lat="48.364819" lon="-4.641505"><ele>66.6</ele></trkpt>
    <trkpt lat="48.365043" lon="-4.641613"><ele>66.6</ele></trkpt>
    <trkpt lat="48.365623" lon="-4.642034"><ele>68.2</ele></trkpt>
    <trkpt lat="48.365962" lon="-4.642141"><ele>68.6</ele></trkpt>
    <trkpt lat="48.366197" lon="-4.642360"><ele>69.0</ele></trkpt>
    <trkpt lat="48.366454" lon="-4.642311"><ele>69.2</ele></trkpt>
    <trkpt lat="48.367455" lon="-4.642630"><ele>70.0</ele></trkpt>
    <trkpt lat="48.367713" lon="-4.642608"><ele>69.6</ele></trkpt>
    <trkpt lat="48.368466" lon="-4.642813"><ele>66.8</ele></trkpt>
    <trkpt lat="48.369278" lon="-4.642858"><ele>63.8</ele></trkpt>
    <trkpt lat="48.369534" lon="-4.642829"><ele>63.0</ele></trkpt>
    <trkpt lat="48.369628" lon="-4.642789"><ele>62.6</ele></trkpt>
    <trkpt lat="48.369671" lon="-4.642718"><ele>62.4</ele></trkpt>
    <trkpt lat="48.369769" lon="-4.642226"><ele>61.2</ele></trkpt>
    <trkpt lat="48.370178" lon="-4.640710"><ele>61.0</ele></trkpt>
  </trkseg></trk>
</gpx>
