<?xml version="1.0" encoding="UTF-8"?>
<gpx version="1.1" creator="tcap-parcours" xmlns="http://www.topografix.com/GPX/1/1">
  <metadata><name>Côtes de Déolen – 5 × 2'30</name></metadata>
  <trk><name>Côtes de Déolen – 5 × 2'30</name><trkseg>
    <trkpt lat="48.370165" lon="-4.640631"><ele>60.4</ele></trkpt>
    <trkpt lat="48.370146" lon="-4.640923"><ele>60.6</ele></trkpt>
    <trkpt lat="48.369788" lon="-4.642065"><ele>61.2</ele></trkpt>
    <trkpt lat="48.369670" lon="-4.642716"><ele>60.6</ele></trkpt>
    <trkpt lat="48.369512" lon="-4.643006"><ele>60.4</ele></trkpt>
    <trkpt lat="48.368049" lon="-4.642882"><ele>68.2</ele></trkpt>
    <trkpt lat="48.367703" lon="-4.642705"><ele>69.2</ele></trkpt>
    <trkpt lat="48.366623" lon="-4.642344"><ele>69.0</ele></trkpt>
    <trkpt lat="48.366347" lon="-4.642272"><ele>68.6</ele></trkpt>
    <trkpt lat="48.366153" lon="-4.642327"><ele>68.0</ele></trkpt>
    <trkpt lat="48.365907" lon="-4.642104"><ele>67.2</ele></trkpt>
    <trkpt lat="48.365681" lon="-4.642077"><ele>67.0</ele></trkpt>
    <trkpt lat="48.365529" lon="-4.642007"><ele>67.0</ele></trkpt>
    <trkpt lat="48.364994" lon="-4.641586"><ele>66.4</ele></trkpt>
    <trkpt lat="48.364656" lon="-4.641492"><ele>66.6</ele></trkpt>
    <trkpt lat="48.363560" lon="-4.641309"><ele>68.6</ele></trkpt>
    <trkpt lat="48.362317" lon="-4.641289"><ele>71.4</ele></trkpt>
    <trkpt lat="48.361316" lon="-4.641488"><ele>73.4</ele></trkpt>
    <trkpt lat="48.361069" lon="-4.641577"><ele>73.2</ele></trkpt>
    <trkpt lat="48.360781" lon="-4.641817"><ele>72.8</ele></trkpt>
    <trkpt lat="48.360319" lon="-4.642503"><ele>71.8</ele></trkpt>
    <trkpt lat="48.360140" lon="-4.642664"><ele>72.4</ele></trkpt>
    <trkpt lat="48.359707" lon="-4.642938"><ele>73.6</ele></trkpt>
    <trkpt lat="48.359531" lon="-4.642944"><ele>73.6</ele></trkpt>
    <trkpt lat="48.359131" lon="-4.643115"><ele>74.4</ele></trkpt>
    <trkpt lat="48.358897" lon="-4.643377"><ele>74.6</ele></trkpt>
    <trkpt lat="48.358603" lon="-4.643291"><ele>74.6</ele></trkpt>
    <trkpt lat="48.358477" lon="-4.643348"><ele>75.4</ele></trkpt>
    <trkpt lat="48.358074" lon="-4.643812"><ele>77.4</ele></trkpt>
    <trkpt lat="48.357828" lon="-4.644339"><ele>79.2</ele></trkpt>
    <trkpt lat="48.357605" lon="-4.644635"><ele>80.4</ele></trkpt>
    <trkpt lat="48.357313" lon="-4.644629"><ele>80.6</ele></trkpt>
    <trkpt lat="48.356847" lon="-4.644461"><ele>80.4</ele></trkpt>
    <trkpt lat="48.356579" lon="-4.644487"><ele>80.8</ele></trkpt>
    <trkpt lat="48.355923" lon="-4.645235"><ele>80.4</ele></trkpt>
    <trkpt lat="48.354856" lon="-4.645806"><ele>75.8</ele></trkpt>
    <trkpt lat="48.354481" lon="-4.645938"><ele>75.4</ele></trkpt>
    <trkpt lat="48.354060" lon="-4.645801"><ele>74.6</ele></trkpt>
    <trkpt lat="48.353304" lon="-4.645418"><ele>74.6</ele></trkpt>
    <trkpt lat="48.352484" lon="-4.645230"><ele>76.0</ele></trkpt>
    <trkpt lat="48.352307" lon="-4.645252"><ele>75.8</ele></trkpt>
    <trkpt lat="48.352076" lon="-4.645354"><ele>75.4</ele></trkpt>
    <trkpt lat="48.351586" lon="-4.645707"><ele>74.8</ele></trkpt>
    <trkpt lat="48.351414" lon="-4.645768"><ele>75.4</ele></trkpt>
    <trkpt lat="48.350423" lon="-4.645148"><ele>73.2</ele></trkpt>
    <trkpt lat="48.350194" lon="-4.644857"><ele>72.2</ele></trkpt>
    <trkpt lat="48.350085" lon="-4.644596"><ele>71.6</ele></trkpt>
    <trkpt lat="48.349553" lon="-4.642408"><ele>63.8</ele></trkpt>
    <trkpt lat="48.349352" lon="-4.641812"><ele>59.8</ele></trkpt>
    <trkpt lat="48.349223" lon="-4.641207"><ele>56.2</ele></trkpt>
    <trkpt lat="48.349185" lon="-4.640739"><ele>50.8</ele></trkpt>
    <trkpt lat="48.349360" lon="-4.641712"><ele>59.0</ele></trkpt>
    <trkpt lat="48.349736" lon="-4.643140"><ele>68.0</ele></trkpt>
    <trkpt lat="48.349733" lon="-4.643309"><ele>67.8</ele></trkpt>
    <trkpt lat="48.349348" lon="-4.643718"><ele>66.2</ele></trkpt>
    <trkpt lat="48.348801" lon="-4.644174"><ele>65.4</ele></trkpt>
    <trkpt lat="48.348323" lon="-4.644679"><ele>63.8</ele></trkpt>
    <trkpt lat="48.347639" lon="-4.645197"><ele>61.2</ele></trkpt>
    <trkpt lat="48.346470" lon="-4.645665"><ele>57.2</ele></trkpt>
    <trkpt lat="48.346367" lon="-4.645629"><ele>56.6</ele></trkpt>
    <trkpt lat="48.346330" lon="-4.645478"><ele>56.2</ele></trkpt>
    <trkpt lat="48.346306" lon="-4.644622"><ele>54.0</ele></trkpt>
    <trkpt lat="48.346234" lon="-4.644054"><ele>50.6</ele></trkpt>
    <trkpt lat="48.346252" lon="-4.643166"><ele>46.6</ele></trkpt>
    <trkpt lat="48.346369" lon="-4.642424"><ele>43.4</ele></trkpt>
    <trkpt lat="48.346474" lon="-4.642013"><ele>41.6</ele></trkpt>
    <trkpt lat="48.346567" lon="-4.641829"><ele>41.6</ele></trkpt>
    <trkpt lat="48.346723" lon="-4.641696"><ele>42.2</ele></trkpt>
    <trkpt lat="48.347802" lon="-4.641148"><ele>48.4</ele></trkpt>
    <trkpt lat="48.348166" lon="-4.640903"><ele>48.2</ele></trkpt>
    <trkpt lat="48.348667" lon="-4.640874"><ele>48.4</ele></trkpt>
    <trkpt lat="48.348797" lon="-4.640801"><ele>48.8</ele></trkpt>
    <trkpt lat="48.348963" lon="-4.640618"><ele>49.4</ele></trkpt>
    <trkpt lat="48.349076" lon="-4.640608"><ele>50.2</ele></trkpt>
    <trkpt lat="48.349143" lon="-4.640664"><ele>51.2</ele></trkpt>
    <trkpt lat="48.349188" lon="-4.640766"><ele>52.2</ele></trkpt>
    <trkpt lat="48.349251" lon="-4.641269"><ele>58.0</ele></trkpt>
    <trkpt lat="48.349360" lon="-4.641819"><ele>61.4</ele></trkpt>
    <trkpt lat="48.349534" lon="-4.642355"><ele>64.2</ele></trkpt>
    <trkpt lat="48.349705" lon="-4.643035"><ele>67.6</ele></trkpt>
    <trkpt lat="48.349735" lon="-4.643271"><ele>68.0</ele></trkpt>
    <trkpt lat="48.349716" lon="-4.643330"><ele>68.0</ele></trkpt>
    <trkpt lat="48.349276" lon="-4.643804"><ele>66.2</ele></trkpt>
    <trkpt lat="48.348523" lon="-4.644513"><ele>64.8</ele></trkpt>
    <trkpt lat="48.347576" lon="-4.645296"><ele>62.6</ele></trkpt>
    <trkpt lat="48.346669" lon="-4.645607"><ele>59.0</ele></trkpt>
    <trkpt lat="48.346401" lon="-4.645640"><ele>57.4</ele></trkpt>
    <trkpt lat="48.346355" lon="-4.645510"><ele>56.8</ele></trkpt>
    <trkpt lat="48.346312" lon="-4.644504"><ele>53.4</ele></trkpt>
    <trkpt lat="48.346248" lon="-4.643943"><ele>50.2</ele></trkpt>
    <trkpt lat="48.346274" lon="-4.643125"><ele>47.2</ele></trkpt>
    <trkpt lat="48.346400" lon="-4.642327"><ele>43.6</ele></trkpt>
    <trkpt lat="48.346490" lon="-4.641980"><ele>42.4</ele></trkpt>
    <trkpt lat="48.346563" lon="-4.641825"><ele>42.2</ele></trkpt>
    <trkpt lat="48.346696" lon="-4.641715"><ele>42.2</ele></trkpt>
    <trkpt lat="48.347823" lon="-4.641145"><ele>47.6</ele></trkpt>
    <trkpt lat="48.348147" lon="-4.640906"><ele>47.8</ele></trkpt>
    <trkpt lat="48.348650" lon="-4.640893"><ele>48.6</ele></trkpt>
    <trkpt lat="48.348783" lon="-4.640811"><ele>49.0</ele></trkpt>
    <trkpt lat="48.348946" lon="-4.640611"><ele>49.6</ele></trkpt>
    <trkpt lat="48.349081" lon="-4.640578"><ele>50.6</ele></trkpt>
    <trkpt lat="48.349154" lon="-4.640643"><ele>51.4</ele></trkpt>
    <trkpt lat="48.349196" lon="-4.640757"><ele>52.6</ele></trkpt>
    <trkpt lat="48.349216" lon="-4.641172"><ele>56.8</ele></trkpt>
    <trkpt lat="48.349274" lon="-4.641504"><ele>59.6</ele></trkpt>
    <trkpt lat="48.349627" lon="-4.642737"><ele>65.8</ele></trkpt>
    <trkpt lat="48.349731" lon="-4.643227"><ele>67.4</ele></trkpt>
    <trkpt lat="48.349699" lon="-4.643322"><ele>67.2</ele></trkpt>
    <trkpt lat="48.349055" lon="-4.644020"><ele>65.6</ele></trkpt>
    <trkpt lat="48.348400" lon="-4.644641"><ele>63.8</ele></trkpt>
    <trkpt lat="48.347675" lon="-4.645221"><ele>62.4</ele></trkpt>
    <trkpt lat="48.347315" lon="-4.645387"><ele>61.2</ele></trkpt>
    <trkpt lat="48.346418" lon="-4.645661"><ele>56.6</ele></trkpt>
    <trkpt lat="48.346357" lon="-4.645567"><ele>56.2</ele></trkpt>
    <trkpt lat="48.346332" lon="-4.645394"><ele>55.8</ele></trkpt>
    <trkpt lat="48.346331" lon="-4.644691"><ele>54.2</ele></trkpt>
    <trkpt lat="48.346261" lon="-4.643924"><ele>50.8</ele></trkpt>
    <trkpt lat="48.346284" lon="-4.643594"><ele>49.4</ele></trkpt>
    <trkpt lat="48.346271" lon="-4.643115"><ele>48.2</ele></trkpt>
    <trkpt lat="48.346380" lon="-4.642384"><ele>44.6</ele></trkpt>
    <trkpt lat="48.346484" lon="-4.642008"><ele>42.2</ele></trkpt>
    <trkpt lat="48.346574" lon="-4.641813"><ele>41.4</ele></trkpt>
    <trkpt lat="48.346729" lon="-4.641676"><ele>41.4</ele></trkpt>
    <trkpt lat="48.347657" lon="-4.641218"><ele>47.4</ele></trkpt>
    <trkpt lat="48.348149" lon="-4.640894"><ele>46.8</ele></trkpt>
    <trkpt lat="48.348339" lon="-4.640869"><ele>46.8</ele></trkpt>
    <trkpt lat="48.348662" lon="-4.640907"><ele>48.4</ele></trkpt>
    <trkpt lat="48.348760" lon="-4.640845"><ele>48.8</ele></trkpt>
    <trkpt lat="48.348933" lon="-4.640620"><ele>49.4</ele></trkpt>
    <trkpt lat="48.349098" lon="-4.640622"><ele>50.4</ele></trkpt>
    <trkpt lat="48.349190" lon="-4.640752"><ele>51.8</ele></trkpt>
    <trkpt lat="48.349227" lon="-4.641252"><ele>57.0</ele></trkpt>
    <trkpt lat="48.349347" lon="-4.641786"><ele>61.0</ele></trkpt>
    <trkpt lat="48.349553" lon="-4.642421"><ele>65.0</ele></trkpt>
    <trkpt lat="48.349690" lon="-4.642963"><ele>67.2</ele></trkpt>
    <trkpt lat="48.349732" lon="-4.643267"><ele>67.6</ele></trkpt>
    <trkpt lat="48.349177" lon="-4.643880"><ele>65.0</ele></trkpt>
    <trkpt lat="48.348370" lon="-4.644657"><ele>63.8</ele></trkpt>
    <trkpt lat="48.347666" lon="-4.645211"><ele>62.0</ele></trkpt>
    <trkpt lat="48.346667" lon="-4.645648"><ele>59.0</ele></trkpt>
    <trkpt lat="48.346395" lon="-4.645685"><ele>57.4</ele></trkpt>
    <trkpt lat="48.346345" lon="-4.645555"><ele>56.8</ele></trkpt>
    <trkpt lat="48.346330" lon="-4.644581"><ele>53.8</ele></trkpt>
    <trkpt lat="48.346250" lon="-4.644021"><ele>51.2</ele></trkpt>
    <trkpt lat="48.346275" lon="-4.643493"><ele>49.0</ele></trkpt>
    <trkpt lat="48.346261" lon="-4.643164"><ele>48.0</ele></trkpt>
    <trkpt lat="48.346354" lon="-4.642553"><ele>45.6</ele></trkpt>
    <trkpt lat="48.346480" lon="-4.641969"><ele>42.4</ele></trkpt>
    <trkpt lat="48.346537" lon="-4.641858"><ele>41.8</ele></trkpt>
    <trkpt lat="48.346802" lon="-4.641620"><ele>41.6</ele></trkpt>
    <trkpt lat="48.347543" lon="-4.641284"><ele>48.0</ele></trkpt>
    <trkpt lat="48.348205" lon="-4.640868"><ele>46.8</ele></trkpt>
    <trkpt lat="48.348384" lon="-4.640857"><ele>47.0</ele></trkpt>
    <trkpt lat="48.348674" lon="-4.640915"><ele>48.4</ele></trkpt>
    <trkpt lat="48.348775" lon="-4.640856"><ele>48.8</ele></trkpt>
    <trkpt lat="48.348957" lon="-4.640622"><ele>49.4</ele></trkpt>
    <trkpt lat="48.349221" lon="-4.640653"><ele>50.2</ele></trkpt>
    <trkpt lat="48.350203" lon="-4.639602"><ele>43.4</ele></trkpt>
    <trkpt lat="48.351039" lon="-4.639212"><ele>47.6</ele></trkpt>
    <trkpt lat="48.351394" lon="-4.638996"><ele>50.4</ele></trkpt>
    <trkpt lat="48.351758" lon="-4.638676"><ele>51.8</ele></trkpt>
    <trkpt lat="48.351948" lon="-4.638431"><ele>51.8</ele></trkpt>
    <trkpt lat="48.352155" lon="-4.637969"><ele>51.4</ele></trkpt>
    <trkpt lat="48.352558" lon="-4.637338"><ele>52.4</ele></trkpt>
    <trkpt lat="48.353276" lon="-4.635989"><ele>55.2</ele></trkpt>
    <trkpt lat="48.353748" lon="-4.635604"><ele>57.6</ele></trkpt>
    <trkpt lat="48.354892" lon="-4.634432"><ele>60.2</ele></trkpt>
    <trkpt lat="48.355010" lon="-4.634165"><ele>62.6</ele></trkpt>
    <trkpt lat="48.355177" lon="-4.633403"><ele>67.0</ele></trkpt>
    <trkpt lat="48.355288" lon="-4.633214"><ele>68.0</ele></trkpt>
    <trkpt lat="48.355402" lon="-4.633135"><ele>68.6</ele></trkpt>
    <trkpt lat="48.355681" lon="-4.633167"><ele>70.2</ele></trkpt>
    <trkpt lat="48.356260" lon="-4.633135"><ele>72.2</ele></trkpt>
    <trkpt lat="48.356314" lon="-4.633165"><ele>72.2</ele></trkpt>
    <trkpt lat="48.356343" lon="-4.633248"><ele>72.2</ele></trkpt>
    <trkpt lat="48.356092" lon="-4.634262"><ele>71.2</ele></trkpt>
    <trkpt lat="48.355922" lon="-4.634752"><ele>70.0</ele></trkpt>
    <trkpt lat="48.355835" lon="-4.635106"><ele>69.8</ele></trkpt>
    <trkpt lat="48.355802" lon="-4.635482"><ele>70.2</ele></trkpt>
    <trkpt lat="48.355788" lon="-4.636445"><ele>70.2</ele></trkpt>
    <trkpt lat="48.355762" lon="-4.636571"><ele>70.8</ele></trkpt>
    <trkpt lat="48.356044" lon="-4.637791"><ele>73.4</ele></trkpt>
    <trkpt lat="48.356039" lon="-4.638293"><ele>74.6</ele></trkpt>
    <trkpt lat="48.356110" lon="-4.638607"><ele>75.4</ele></trkpt>
    <trkpt lat="48.356016" lon="-4.638874"><ele>76.0</ele></trkpt>
    <trkpt lat="48.356015" lon="-4.639007"><ele>76.2</ele></trkpt>
    <trkpt lat="48.356080" lon="-4.639082"><ele>76.4</ele></trkpt>
    <trkpt lat="48.356676" lon="-4.639435"><ele>76.2</ele></trkpt>
    <trkpt lat="48.356833" lon="-4.639597"><ele>76.2</ele></trkpt>
    <trkpt lat="48.356825" lon="-4.639720"><ele>76.4</ele></trkpt>
    <trkpt lat="48.356578" lon="-4.640690"><ele>78.8</ele></trkpt>
    <trkpt lat="48.356492" lon="-4.641586"><ele>81.2</ele></trkpt>
    <trkpt lat="48.356215" lon="-4.642343"><ele>82.2</ele></trkpt>
    <trkpt lat="48.356197" lon="-4.642530"><ele>82.4</ele></trkpt>
    <trkpt lat="48.356255" lon="-4.643024"><ele>82.0</ele></trkpt>
    <trkpt lat="48.356357" lon="-4.643427"><ele>81.6</ele></trkpt>
    <trkpt lat="48.356685" lon="-4.644102"><ele>81.0</ele></trkpt>
    <trkpt lat="48.356774" lon="-4.644369"><ele>81.0</ele></trkpt>
    <trkpt lat="48.356896" lon="-4.644494"><ele>81.2</ele></trkpt>
    <trkpt lat="48.357316" lon="-4.644647"><ele>80.8</ele></trkpt>
    <trkpt lat="48.357648" lon="-4.644650"><ele>80.6</ele></trkpt>
    <trkpt lat="48.358153" lon="-4.643709"><ele>77.4</ele></trkpt>
    <trkpt lat="48.358552" lon="-4.643301"><ele>75.0</ele></trkpt>
    <trkpt lat="48.358685" lon="-4.643280"><ele>74.4</ele></trkpt>
    <trkpt lat="48.358928" lon="-4.643371"><ele>73.8</ele></trkpt>
    <trkpt lat="48.359004" lon="-4.643328"><ele>74.0</ele></trkpt>
    <trkpt lat="48.359171" lon="-4.643118"><ele>74.0</ele></trkpt>
    <trkpt lat="48.359366" lon="-4.643001"><ele>74.0</ele></trkpt>
    <trkpt lat="48.359603" lon="-4.642911"><ele>73.6</ele></trkpt>
    <trkpt lat="48.359817" lon="-4.642895"><ele>73.4</ele></trkpt>
    <trkpt lat="48.360318" lon="-4.642508"><ele>73.0</ele></trkpt>
    <trkpt lat="48.360709" lon="-4.641931"><ele>73.0</ele></trkpt>
    <trkpt lat="48.361079" lon="-4.641593"><ele>73.8</ele></trkpt>
    <trkpt lat="48.361608" lon="-4.641425"><ele>73.2</ele></trkpt>
    <trkpt lat="48.362469" lon="-4.641268"><ele>71.4</ele></trkpt>
    <trkpt lat="48.363204" lon="-4.641291"><ele>69.0</ele></trkpt>
    <trkpt lat="48.364867" lon="-4.641515"><ele>66.0</ele></trkpt>
    <trkpt lat="48.365579" lon="-4.642013"><ele>68.2</ele></trkpt>
    <trkpt lat="48.365992" lon="-4.642157"><ele>68.6</ele></trkpt>
    <trkpt lat="48.366205" lon="-4.642348"><ele>68.8</ele></trkpt>
    <trkpt lat="48.366449" lon="-4.642300"><ele>69.0</ele></trkpt>
    <trkpt lat="48.366985" lon="-4.642500"><ele>70.2</ele></trkpt>
    <trkpt lat="48.367483" lon="-4.642621"><ele>69.8</ele></trkpt>
    <trkpt lat="48.367783" lon="-4.642609"><ele>69.4</ele></trkpt>
    <trkpt lat="48.368259" lon="-4.642740"><ele>68.2</ele></trkpt>
    <trkpt lat="48.368548" lon="-4.642775"><ele>66.6</ele></trkpt>
    <trkpt lat="48.369402" lon="-4.642800"><ele>63.2</ele></trkpt>
    <trkpt lat="48.369574" lon="-4.642759"><ele>63.2</ele></trkpt>
    <trkpt lat="48.369635" lon="-4.642728"><ele>63.2</ele></trkpt>
    <trkpt lat="48.369676" lon="-4.642648"><ele>63.2</ele></trkpt>
    <trkpt lat="48.369930" lon="-4.641523"><ele>62.4</ele></trkpt>
    <trkpt lat="48.370194" lon="-4.640657"><ele>65.2</ele></trkpt>
  </trkseg></trk>
</gpx>
