<?xml version="1.0" encoding="UTF-8"?>
<gpx version="1.1" creator="tcap-parcours" xmlns="http://www.topografix.com/GPX/1/1">
  <metadata><name>Côtes de Déolen – 6 × 1'50 par Kerabomes</name></metadata>
  <trk><name>Côtes de Déolen – 6 × 1'50 par Kerabomes</name><trkseg>
    <trkpt lat="48.370082" lon="-4.640486"><ele>60.4</ele></trkpt>
    <trkpt lat="48.370008" lon="-4.640868"><ele>60.6</ele></trkpt>
    <trkpt lat="48.369837" lon="-4.641454"><ele>60.2</ele></trkpt>
    <trkpt lat="48.369743" lon="-4.641559"><ele>61.0</ele></trkpt>
    <trkpt lat="48.369682" lon="-4.641728"><ele>61.6</ele></trkpt>
    <trkpt lat="48.369636" lon="-4.642070"><ele>61.2</ele></trkpt>
    <trkpt lat="48.369655" lon="-4.642660"><ele>59.8</ele></trkpt>
    <trkpt lat="48.369534" lon="-4.642929"><ele>59.6</ele></trkpt>
    <trkpt lat="48.369484" lon="-4.642969"><ele>59.6</ele></trkpt>
    <trkpt lat="48.368803" lon="-4.642944"><ele>63.4</ele></trkpt>
    <trkpt lat="48.368109" lon="-4.642857"><ele>66.6</ele></trkpt>
    <trkpt lat="48.367876" lon="-4.642742"><ele>67.8</ele></trkpt>
    <trkpt lat="48.366589" lon="-4.642299"><ele>67.0</ele></trkpt>
    <trkpt lat="48.366384" lon="-4.642266"><ele>67.0</ele></trkpt>
    <trkpt lat="48.366170" lon="-4.642304"><ele>66.6</ele></trkpt>
    <trkpt lat="48.365949" lon="-4.642101"><ele>66.2</ele></trkpt>
    <trkpt lat="48.365690" lon="-4.642046"><ele>65.8</ele></trkpt>
    <trkpt lat="48.364965" lon="-4.641526"><ele>65.0</ele></trkpt>
    <trkpt lat="48.364746" lon="-4.641430"><ele>64.4</ele></trkpt>
    <trkpt lat="48.362676" lon="-4.641222"><ele>67.8</ele></trkpt>
    <trkpt lat="48.361325" lon="-4.641460"><ele>71.0</ele></trkpt>
    <trkpt lat="48.360969" lon="-4.641635"><ele>71.2</ele></trkpt>
    <trkpt lat="48.360730" lon="-4.641842"><ele>71.4</ele></trkpt>
    <trkpt lat="48.360365" lon="-4.642394"><ele>71.2</ele></trkpt>
    <trkpt lat="48.360106" lon="-4.642637"><ele>71.2</ele></trkpt>
    <trkpt lat="48.359717" lon="-4.642855"><ele>71.4</ele></trkpt>
    <trkpt lat="48.359512" lon="-4.642898"><ele>72.0</ele></trkpt>
    <trkpt lat="48.359137" lon="-4.643094"><ele>72.4</ele></trkpt>
    <trkpt lat="48.358896" lon="-4.643370"><ele>72.4</ele></trkpt>
    <trkpt lat="48.358648" lon="-4.643272"><ele>72.4</ele></trkpt>
    <trkpt lat="48.358431" lon="-4.643370"><ele>73.4</ele></trkpt>
    <trkpt lat="48.358055" lon="-4.643791"><ele>76.8</ele></trkpt>
    <trkpt lat="48.357774" lon="-4.644374"><ele>78.0</ele></trkpt>
    <trkpt lat="48.357602" lon="-4.644628"><ele>78.8</ele></trkpt>
    <trkpt lat="48.357297" lon="-4.644635"><ele>79.2</ele></trkpt>
    <trkpt lat="48.356900" lon="-4.644466"><ele>79.4</ele></trkpt>
    <trkpt lat="48.356764" lon="-4.644316"><ele>79.2</ele></trkpt>
    <trkpt lat="48.356652" lon="-4.643973"><ele>78.4</ele></trkpt>
    <trkpt lat="48.356366" lon="-4.643366"><ele>77.8</ele></trkpt>
    <trkpt lat="48.356265" lon="-4.643012"><ele>77.8</ele></trkpt>
    <trkpt lat="48.356236" lon="-4.642796"><ele>78.2</ele></trkpt>
    <trkpt lat="48.356244" lon="-4.642400"><ele>79.0</ele></trkpt>
    <trkpt lat="48.356465" lon="-4.641829"><ele>79.2</ele></trkpt>
    <trkpt lat="48.356562" lon="-4.641427"><ele>78.8</ele></trkpt>
    <trkpt lat="48.356593" lon="-4.641018"><ele>78.2</ele></trkpt>
    <trkpt lat="48.356579" lon="-4.640789"><ele>77.8</ele></trkpt>
    <trkpt lat="48.356703" lon="-4.640310"><ele>77.0</ele></trkpt>
    <trkpt lat="48.356801" lon="-4.639657"><ele>75.4</ele></trkpt>
    <trkpt lat="48.356767" lon="-4.639525"><ele>75.2</ele></trkpt>
    <trkpt lat="48.356162" lon="-4.639094"><ele>75.0</ele></trkpt>
    <trkpt lat="48.356006" lon="-4.638931"><ele>74.6</ele></trkpt>
    <trkpt lat="48.356112" lon="-4.638509"><ele>73.6</ele></trkpt>
    <trkpt lat="48.356054" lon="-4.638278"><ele>73.4</ele></trkpt>
    <trkpt lat="48.356036" lon="-4.637759"><ele>72.6</ele></trkpt>
    <trkpt lat="48.355943" lon="-4.637266"><ele>72.0</ele></trkpt>
    <trkpt lat="48.355937" lon="-4.637018"><ele>71.4</ele></trkpt>
    <trkpt lat="48.355839" lon="-4.636514"><ele>70.2</ele></trkpt>
    <trkpt lat="48.355865" lon="-4.636413"><ele>70.0</ele></trkpt>
    <trkpt lat="48.355831" lon="-4.636158"><ele>69.8</ele></trkpt>
    <trkpt lat="48.355841" lon="-4.635735"><ele>69.6</ele></trkpt>
    <trkpt lat="48.355808" lon="-4.635435"><ele>69.0</ele></trkpt>
    <trkpt lat="48.355888" lon="-4.634942"><ele>68.2</ele></trkpt>
    <trkpt lat="48.356152" lon="-4.634140"><ele>69.2</ele></trkpt>
    <trkpt lat="48.356242" lon="-4.633685"><ele>70.4</ele></trkpt>
    <trkpt lat="48.356376" lon="-4.633277"><ele>71.8</ele></trkpt>
    <trkpt lat="48.356342" lon="-4.633137"><ele>71.8</ele></trkpt>
    <trkpt lat="48.356164" lon="-4.633046"><ele>71.2</ele></trkpt>
    <trkpt lat="48.355787" lon="-4.633137"><ele>68.6</ele></trkpt>
    <trkpt lat="48.355382" lon="-4.633147"><ele>66.2</ele></trkpt>
    <trkpt lat="48.355236" lon="-4.633238"><ele>65.6</ele></trkpt>
    <trkpt lat="48.355123" lon="-4.633468"><ele>64.6</ele></trkpt>
    <trkpt lat="48.354988" lon="-4.634119"><ele>61.4</ele></trkpt>
    <trkpt lat="48.354853" lon="-4.634447"><ele>59.0</ele></trkpt>
    <trkpt lat="48.353250" lon="-4.635970"><ele>53.2</ele></trkpt>
    <trkpt lat="48.352474" lon="-4.637290"><ele>48.6</ele></trkpt>
    <trkpt lat="48.351929" lon="-4.638333"><ele>49.0</ele></trkpt>
    <trkpt lat="48.351770" lon="-4.638594"><ele>49.4</ele></trkpt>
    <trkpt lat="48.351656" lon="-4.638714"><ele>49.4</ele></trkpt>
    <trkpt lat="48.351454" lon="-4.638885"><ele>48.4</ele></trkpt>
    <trkpt lat="48.350897" lon="-4.639219"><ele>44.4</ele></trkpt>
    <trkpt lat="48.350370" lon="-4.639447"><ele>39.0</ele></trkpt>
    <trkpt lat="48.350419" lon="-4.639280"><ele>36.8</ele></trkpt>
    <trkpt lat="48.350673" lon="-4.639007"><ele>33.4</ele></trkpt>
    <trkpt lat="48.350747" lon="-4.638861"><ele>31.8</ele></trkpt>
    <trkpt lat="48.350716" lon="-4.638618"><ele>29.4</ele></trkpt>
    <trkpt lat="48.350621" lon="-4.638397"><ele>27.2</ele></trkpt>
    <trkpt lat="48.350582" lon="-4.638387"><ele>29.6</ele></trkpt>
    <trkpt lat="48.350677" lon="-4.638568"><ele>29.6</ele></trkpt>
    <trkpt lat="48.350734" lon="-4.638770"><ele>30.6</ele></trkpt>
    <trkpt lat="48.350730" lon="-4.638897"><ele>31.6</ele></trkpt>
    <trkpt lat="48.350684" lon="-4.639014"><ele>33.0</ele></trkpt>
    <trkpt lat="48.350262" lon="-4.639555"><ele>40.4</ele></trkpt>
    <trkpt lat="48.350029" lon="-4.639698"><ele>41.6</ele></trkpt>
    <trkpt lat="48.349403" lon="-4.640394"><ele>48.6</ele></trkpt>
    <trkpt lat="48.349248" lon="-4.640654"><ele>51.2</ele></trkpt>
    <trkpt lat="48.349196" lon="-4.640878"><ele>53.2</ele></trkpt>
    <trkpt lat="48.349252" lon="-4.641216"><ele>54.4</ele></trkpt>
    <trkpt lat="48.349236" lon="-4.640770"><ele>51.2</ele></trkpt>
    <trkpt lat="48.349339" lon="-4.640492"><ele>48.4</ele></trkpt>
    <trkpt lat="48.349922" lon="-4.639866"><ele>43.2</ele></trkpt>
    <trkpt lat="48.350320" lon="-4.639522"><ele>40.8</ele></trkpt>
    <trkpt lat="48.350475" lon="-4.639229"><ele>37.2</ele></trkpt>
    <trkpt lat="48.350727" lon="-4.638886"><ele>31.6</ele></trkpt>
    <trkpt lat="48.350753" lon="-4.638778"><ele>30.4</ele></trkpt>
    <trkpt lat="48.350735" lon="-4.638655"><ele>29.2</ele></trkpt>
    <trkpt lat="48.350588" lon="-4.638369"><ele>27.4</ele></trkpt>
    <trkpt lat="48.350705" lon="-4.638667"><ele>29.6</ele></trkpt>
    <trkpt lat="48.350710" lon="-4.638803"><ele>31.2</ele></trkpt>
    <trkpt lat="48.350679" lon="-4.638925"><ele>33.0</ele></trkpt>
    <trkpt lat="48.350377" lon="-4.639282"><ele>38.8</ele></trkpt>
    <trkpt lat="48.350257" lon="-4.639550"><ele>40.4</ele></trkpt>
    <trkpt lat="48.349968" lon="-4.639794"><ele>42.6</ele></trkpt>
    <trkpt lat="48.349309" lon="-4.640566"><ele>50.4</ele></trkpt>
    <trkpt lat="48.349212" lon="-4.640818"><ele>52.6</ele></trkpt>
    <trkpt lat="48.349252" lon="-4.641170"><ele>54.2</ele></trkpt>
    <trkpt lat="48.349233" lon="-4.641189"><ele>54.2</ele></trkpt>
    <trkpt lat="48.349214" lon="-4.641018"><ele>53.4</ele></trkpt>
    <trkpt lat="48.349234" lon="-4.640774"><ele>51.8</ele></trkpt>
    <trkpt lat="48.349332" lon="-4.640536"><ele>49.4</ele></trkpt>
    <trkpt lat="48.350033" lon="-4.639748"><ele>42.6</ele></trkpt>
    <trkpt lat="48.350339" lon="-4.639502"><ele>40.2</ele></trkpt>
    <trkpt lat="48.350459" lon="-4.639245"><ele>37.2</ele></trkpt>
    <trkpt lat="48.350720" lon="-4.638921"><ele>32.8</ele></trkpt>
    <trkpt lat="48.350751" lon="-4.638813"><ele>31.6</ele></trkpt>
    <trkpt lat="48.350738" lon="-4.638684"><ele>30.6</ele></trkpt>
    <trkpt lat="48.350578" lon="-4.638347"><ele>28.0</ele></trkpt>
    <trkpt lat="48.350715" lon="-4.638678"><ele>29.8</ele></trkpt>
    <trkpt lat="48.350729" lon="-4.638828"><ele>31.4</ele></trkpt>
    <trkpt lat="48.350708" lon="-4.638921"><ele>32.6</ele></trkpt>
    <trkpt lat="48.350402" lon="-4.639289"><ele>38.4</ele></trkpt>
    <trkpt lat="48.350265" lon="-4.639544"><ele>40.2</ele></trkpt>
    <trkpt lat="48.349920" lon="-4.639826"><ele>42.6</ele></trkpt>
    <trkpt lat="48.349286" lon="-4.640594"><ele>50.6</ele></trkpt>
    <trkpt lat="48.349214" lon="-4.640796"><ele>52.6</ele></trkpt>
    <trkpt lat="48.349240" lon="-4.641214"><ele>54.8</ele></trkpt>
    <trkpt lat="48.349230" lon="-4.640799"><ele>52.2</ele></trkpt>
    <trkpt lat="48.349324" lon="-4.640523"><ele>49.6</ele></trkpt>
    <trkpt lat="48.349880" lon="-4.639913"><ele>43.8</ele></trkpt>
    <trkpt lat="48.350348" lon="-4.639502"><ele>40.2</ele></trkpt>
    <trkpt lat="48.350461" lon="-4.639256"><ele>37.6</ele></trkpt>
    <trkpt lat="48.350712" lon="-4.638884"><ele>32.2</ele></trkpt>
    <trkpt lat="48.350741" lon="-4.638777"><ele>31.0</ele></trkpt>
    <trkpt lat="48.350725" lon="-4.638615"><ele>29.6</ele></trkpt>
    <trkpt lat="48.350579" lon="-4.638342"><ele>28.2</ele></trkpt>
    <trkpt lat="48.350716" lon="-4.638667"><ele>29.6</ele></trkpt>
    <trkpt lat="48.350739" lon="-4.638793"><ele>31.0</ele></trkpt>
    <trkpt lat="48.350712" lon="-4.638907"><ele>32.4</ele></trkpt>
    <trkpt lat="48.350444" lon="-4.639207"><ele>37.2</ele></trkpt>
    <trkpt lat="48.350272" lon="-4.639533"><ele>39.8</ele></trkpt>
    <trkpt lat="48.349834" lon="-4.639896"><ele>43.0</ele></trkpt>
    <trkpt lat="48.349322" lon="-4.640526"><ele>49.4</ele></trkpt>
    <trkpt lat="48.349208" lon="-4.640809"><ele>52.6</ele></trkpt>
    <trkpt lat="48.349249" lon="-4.641223"><ele>53.8</ele></trkpt>
    <trkpt lat="48.349238" lon="-4.640784"><ele>52.4</ele></trkpt>
    <trkpt lat="48.349309" lon="-4.640541"><ele>51.4</ele></trkpt>
    <trkpt lat="48.349829" lon="-4.639956"><ele>45.8</ele></trkpt>
    <trkpt lat="48.350324" lon="-4.639523"><ele>41.6</ele></trkpt>
    <trkpt lat="48.350466" lon="-4.639205"><ele>38.4</ele></trkpt>
    <trkpt lat="48.350705" lon="-4.638870"><ele>32.4</ele></trkpt>
    <trkpt lat="48.350722" lon="-4.638668"><ele>30.2</ele></trkpt>
    <trkpt lat="48.350563" lon="-4.638320"><ele>28.0</ele></trkpt>
    <trkpt lat="48.350705" lon="-4.638599"><ele>29.0</ele></trkpt>
    <trkpt lat="48.350733" lon="-4.638780"><ele>30.8</ele></trkpt>
    <trkpt lat="48.350713" lon="-4.638907"><ele>32.4</ele></trkpt>
    <trkpt lat="48.350408" lon="-4.639258"><ele>38.4</ele></trkpt>
    <trkpt lat="48.350269" lon="-4.639526"><ele>40.4</ele></trkpt>
    <trkpt lat="48.349823" lon="-4.639890"><ele>44.0</ele></trkpt>
    <trkpt lat="48.349325" lon="-4.640509"><ele>50.6</ele></trkpt>
    <trkpt lat="48.349211" lon="-4.640793"><ele>53.4</ele></trkpt>
    <trkpt lat="48.349255" lon="-4.641220"><ele>55.2</ele></trkpt>
    <trkpt lat="48.349228" lon="-4.641095"><ele>54.2</ele></trkpt>
    <trkpt lat="48.349237" lon="-4.640805"><ele>52.2</ele></trkpt>
    <trkpt lat="48.349355" lon="-4.640494"><ele>49.2</ele></trkpt>
    <trkpt lat="48.350107" lon="-4.639681"><ele>42.6</ele></trkpt>
    <trkpt lat="48.350327" lon="-4.639517"><ele>40.6</ele></trkpt>
    <trkpt lat="48.350489" lon="-4.639226"><ele>37.4</ele></trkpt>
    <trkpt lat="48.350731" lon="-4.638910"><ele>32.8</ele></trkpt>
    <trkpt lat="48.350764" lon="-4.638807"><ele>31.8</ele></trkpt>
    <trkpt lat="48.350750" lon="-4.638687"><ele>30.8</ele></trkpt>
    <trkpt lat="48.350570" lon="-4.638334"><ele>28.6</ele></trkpt>
    <trkpt lat="48.350712" lon="-4.638599"><ele>29.4</ele></trkpt>
    <trkpt lat="48.350736" lon="-4.638779"><ele>30.8</ele></trkpt>
    <trkpt lat="48.350716" lon="-4.638871"><ele>31.8</ele></trkpt>
    <trkpt lat="48.350443" lon="-4.639137"><ele>36.0</ele></trkpt>
    <trkpt lat="48.350257" lon="-4.639513"><ele>39.8</ele></trkpt>
    <trkpt lat="48.349807" lon="-4.639893"><ele>43.4</ele></trkpt>
    <trkpt lat="48.349284" lon="-4.640544"><ele>50.4</ele></trkpt>
    <trkpt lat="48.349223" lon="-4.640670"><ele>51.6</ele></trkpt>
    <trkpt lat="48.349202" lon="-4.640799"><ele>52.8</ele></trkpt>
    <trkpt lat="48.349241" lon="-4.641225"><ele>53.2</ele></trkpt>
    <trkpt lat="48.349221" lon="-4.641101"><ele>52.6</ele></trkpt>
    <trkpt lat="48.349238" lon="-4.640829"><ele>51.4</ele></trkpt>
    <trkpt lat="48.349323" lon="-4.640512"><ele>50.4</ele></trkpt>
    <trkpt lat="48.350334" lon="-4.639479"><ele>41.4</ele></trkpt>
    <trkpt lat="48.350477" lon="-4.639213"><ele>38.4</ele></trkpt>
    <trkpt lat="48.350725" lon="-4.638892"><ele>32.6</ele></trkpt>
    <trkpt lat="48.350748" lon="-4.638818"><ele>31.4</ele></trkpt>
    <trkpt lat="48.350738" lon="-4.638687"><ele>30.0</ele></trkpt>
    <trkpt lat="48.350577" lon="-4.638332"><ele>27.0</ele></trkpt>
    <trkpt lat="48.350645" lon="-4.638413"><ele>27.4</ele></trkpt>
    <trkpt lat="48.350713" lon="-4.638626"><ele>28.4</ele></trkpt>
    <trkpt lat="48.350730" lon="-4.638779"><ele>30.0</ele></trkpt>
    <trkpt lat="48.350711" lon="-4.638873"><ele>31.0</ele></trkpt>
    <trkpt lat="48.350410" lon="-4.639229"><ele>37.6</ele></trkpt>
    <trkpt lat="48.350266" lon="-4.639523"><ele>40.6</ele></trkpt>
    <trkpt lat="48.349842" lon="-4.639870"><ele>43.6</ele></trkpt>
    <trkpt lat="48.349294" lon="-4.640581"><ele>50.2</ele></trkpt>
    <trkpt lat="48.349221" lon="-4.640854"><ele>53.8</ele></trkpt>
    <trkpt lat="48.349254" lon="-4.641212"><ele>55.6</ele></trkpt>
    <trkpt lat="48.349250" lon="-4.640763"><ele>52.0</ele></trkpt>
    <trkpt lat="48.349323" lon="-4.640554"><ele>50.2</ele></trkpt>
    <trkpt lat="48.349872" lon="-4.639937"><ele>44.0</ele></trkpt>
    <trkpt lat="48.350350" lon="-4.639504"><ele>40.6</ele></trkpt>
    <trkpt lat="48.350489" lon="-4.639209"><ele>37.6</ele></trkpt>
    <trkpt lat="48.350732" lon="-4.638917"><ele>32.6</ele></trkpt>
    <trkpt lat="48.350763" lon="-4.638803"><ele>31.2</ele></trkpt>
    <trkpt lat="48.350754" lon="-4.638712"><ele>30.4</ele></trkpt>
    <trkpt lat="48.350570" lon="-4.638353"><ele>27.6</ele></trkpt>
    <trkpt lat="48.350699" lon="-4.638663"><ele>29.0</ele></trkpt>
    <trkpt lat="48.350710" lon="-4.638821"><ele>30.8</ele></trkpt>
    <trkpt lat="48.350685" lon="-4.638928"><ele>32.2</ele></trkpt>
    <trkpt lat="48.350426" lon="-4.639212"><ele>37.6</ele></trkpt>
    <trkpt lat="48.350272" lon="-4.639532"><ele>40.0</ele></trkpt>
    <trkpt lat="48.350059" lon="-4.639666"><ele>41.2</ele></trkpt>
    <trkpt lat="48.349802" lon="-4.639911"><ele>43.8</ele></trkpt>
    <trkpt lat="48.349266" lon="-4.640596"><ele>51.0</ele></trkpt>
    <trkpt lat="48.349209" lon="-4.640813"><ele>53.0</ele></trkpt>
    <trkpt lat="48.349247" lon="-4.641238"><ele>55.8</ele></trkpt>
    <trkpt lat="48.349242" lon="-4.640809"><ele>52.4</ele></trkpt>
    <trkpt lat="48.349301" lon="-4.640600"><ele>50.4</ele></trkpt>
    <trkpt lat="48.350318" lon="-4.639485"><ele>40.2</ele></trkpt>
    <trkpt lat="48.350724" lon="-4.638915"><ele>32.6</ele></trkpt>
    <trkpt lat="48.350753" lon="-4.638818"><ele>31.8</ele></trkpt>
    <trkpt lat="48.350749" lon="-4.638650"><ele>30.4</ele></trkpt>
    <trkpt lat="48.350627" lon="-4.638372"><ele>28.2</ele></trkpt>
    <trkpt lat="48.350577" lon="-4.638378"><ele>29.4</ele></trkpt>
    <trkpt lat="48.350661" lon="-4.638517"><ele>29.0</ele></trkpt>
    <trkpt lat="48.350723" lon="-4.638768"><ele>30.0</ele></trkpt>
    <trkpt lat="48.350692" lon="-4.638950"><ele>32.0</ele></trkpt>
    <trkpt lat="48.350426" lon="-4.639232"><ele>36.8</ele></trkpt>
    <trkpt lat="48.350255" lon="-4.639563"><ele>40.4</ele></trkpt>
    <trkpt lat="48.349902" lon="-4.639836"><ele>43.4</ele></trkpt>
    <trkpt lat="48.349301" lon="-4.640524"><ele>49.4</ele></trkpt>
    <trkpt lat="48.349229" lon="-4.640734"><ele>50.8</ele></trkpt>
    <trkpt lat="48.349266" lon="-4.641260"><ele>55.6</ele></trkpt>
    <trkpt lat="48.349367" lon="-4.641785"><ele>59.4</ele></trkpt>
    <trkpt lat="48.349774" lon="-4.643220"><ele>67.0</ele></trkpt>
    <trkpt lat="48.350092" lon="-4.644592"><ele>71.4</ele></trkpt>
    <trkpt lat="48.350242" lon="-4.644959"><ele>73.0</ele></trkpt>
    <trkpt lat="48.350375" lon="-4.645154"><ele>73.4</ele></trkpt>
    <trkpt lat="48.350598" lon="-4.645347"><ele>74.2</ele></trkpt>
    <trkpt lat="48.351431" lon="-4.645828"><ele>74.4</ele></trkpt>
    <trkpt lat="48.351356" lon="-4.645790"><ele>74.0</ele></trkpt>
    <trkpt lat="48.351451" lon="-4.645819"><ele>73.8</ele></trkpt>
    <trkpt lat="48.351548" lon="-4.645794"><ele>74.0</ele></trkpt>
    <trkpt lat="48.351957" lon="-4.645439"><ele>75.4</ele></trkpt>
    <trkpt lat="48.352289" lon="-4.645316"><ele>76.0</ele></trkpt>
    <trkpt lat="48.352505" lon="-4.645293"><ele>75.4</ele></trkpt>
    <trkpt lat="48.353300" lon="-4.645405"><ele>74.0</ele></trkpt>
    <trkpt lat="48.353539" lon="-4.645517"><ele>73.4</ele></trkpt>
    <trkpt lat="48.354068" lon="-4.645870"><ele>74.2</ele></trkpt>
    <trkpt lat="48.354307" lon="-4.645967"><ele>75.2</ele></trkpt>
    <trkpt lat="48.354476" lon="-4.645979"><ele>75.6</ele></trkpt>
    <trkpt lat="48.354687" lon="-4.645911"><ele>76.0</ele></trkpt>
    <trkpt lat="48.355954" lon="-4.645217"><ele>80.2</ele></trkpt>
    <trkpt lat="48.356509" lon="-4.644586"><ele>80.0</ele></trkpt>
    <trkpt lat="48.356718" lon="-4.644443"><ele>79.0</ele></trkpt>
    <trkpt lat="48.356935" lon="-4.644455"><ele>78.4</ele></trkpt>
    <trkpt lat="48.357300" lon="-4.644599"><ele>78.2</ele></trkpt>
    <trkpt lat="48.357709" lon="-4.644551"><ele>79.2</ele></trkpt>
    <trkpt lat="48.358022" lon="-4.643897"><ele>77.4</ele></trkpt>
    <trkpt lat="48.358315" lon="-4.643494"><ele>75.8</ele></trkpt>
    <trkpt lat="48.358596" lon="-4.643300"><ele>73.6</ele></trkpt>
    <trkpt lat="48.358890" lon="-4.643388"><ele>72.2</ele></trkpt>
    <trkpt lat="48.359158" lon="-4.643129"><ele>72.6</ele></trkpt>
    <trkpt lat="48.359413" lon="-4.643008"><ele>72.8</ele></trkpt>
    <trkpt lat="48.359792" lon="-4.642914"><ele>72.0</ele></trkpt>
    <trkpt lat="48.359933" lon="-4.642769"><ele>72.2</ele></trkpt>
    <trkpt lat="48.360113" lon="-4.642698"><ele>72.4</ele></trkpt>
    <trkpt lat="48.360275" lon="-4.642554"><ele>73.0</ele></trkpt>
    <trkpt lat="48.360726" lon="-4.641908"><ele>73.8</ele></trkpt>
    <trkpt lat="48.360856" lon="-4.641770"><ele>73.6</ele></trkpt>
    <trkpt lat="48.361054" lon="-4.641619"><ele>73.4</ele></trkpt>
    <trkpt lat="48.361303" lon="-4.641514"><ele>72.8</ele></trkpt>
    <trkpt lat="48.362582" lon="-4.641280"><ele>69.6</ele></trkpt>
    <trkpt lat="48.362958" lon="-4.641260"><ele>68.8</ele></trkpt>
    <trkpt lat="48.364612" lon="-4.641460"><ele>65.6</ele></trkpt>
    <trkpt lat="48.364855" lon="-4.641518"><ele>65.2</ele></trkpt>
    <trkpt lat="48.365045" lon="-4.641643"><ele>64.8</ele></trkpt>
    <trkpt lat="48.364882" lon="-4.641538"><ele>64.8</ele></trkpt>
    <trkpt lat="48.364663" lon="-4.641466"><ele>65.0</ele></trkpt>
    <trkpt lat="48.364309" lon="-4.641441"><ele>65.8</ele></trkpt>
    <trkpt lat="48.363777" lon="-4.641314"><ele>66.8</ele></trkpt>
    <trkpt lat="48.363651" lon="-4.641340"><ele>66.6</ele></trkpt>
    <trkpt lat="48.364750" lon="-4.641526"><ele>65.2</ele></trkpt>
    <trkpt lat="48.364968" lon="-4.641625"><ele>66.0</ele></trkpt>
    <trkpt lat="48.365548" lon="-4.642053"><ele>66.8</ele></trkpt>
    <trkpt lat="48.366002" lon="-4.642188"><ele>66.2</ele></trkpt>
    <trkpt lat="48.366186" lon="-4.642381"><ele>67.0</ele></trkpt>
    <trkpt lat="48.366424" lon="-4.642322"><ele>67.6</ele></trkpt>
    <trkpt lat="48.367767" lon="-4.642767"><ele>67.4</ele></trkpt>
    <trkpt lat="48.368113" lon="-4.642933"><ele>67.6</ele></trkpt>
    <trkpt lat="48.369511" lon="-4.642998"><ele>60.2</ele></trkpt>
    <trkpt lat="48.369585" lon="-4.642961"><ele>60.0</ele></trkpt>
    <trkpt lat="48.369698" lon="-4.642712"><ele>59.8</ele></trkpt>
    <trkpt lat="48.369810" lon="-4.642081"><ele>59.0</ele></trkpt>
    <trkpt lat="48.370199" lon="-4.640728"><ele>59.2</ele></trkpt>
  </trkseg></trk>
</gpx>
