<?xml version="1.0" encoding="UTF-8"?>
<gpx version="1.1" creator="tcap-parcours" xmlns="http://www.topografix.com/GPX/1/1">
  <metadata><name>Séance côtes à Sainte-Anne du Portzic – 10 km, D+ 560 m</name></metadata>
  <trk><name>Séance côtes à Sainte-Anne du Portzic – 10 km, D+ 560 m</name><trkseg>
    <trkpt lat="48.362446" lon="-4.555374"><ele>13.6</ele></trkpt>
    <trkpt lat="48.362542" lon="-4.555421"><ele>11.4</ele></trkpt>
    <trkpt lat="48.362626" lon="-4.555539"><ele>12.6</ele></trkpt>
    <trkpt lat="48.362673" lon="-4.555453"><ele>14.6</ele></trkpt>
    <trkpt lat="48.362717" lon="-4.555502"><ele>16.4</ele></trkpt>
    <trkpt lat="48.362746" lon="-4.555422"><ele>18.2</ele></trkpt>
    <trkpt lat="48.362816" lon="-4.555448"><ele>20.6</ele></trkpt>
    <trkpt lat="48.362878" lon="-4.555562"><ele>24.0</ele></trkpt>
    <trkpt lat="48.363169" lon="-4.555855"><ele>35.0</ele></trkpt>
    <trkpt lat="48.363190" lon="-4.556049"><ele>36.0</ele></trkpt>
    <trkpt lat="48.363313" lon="-4.556453"><ele>33.8</ele></trkpt>
    <trkpt lat="48.363305" lon="-4.556777"><ele>31.4</ele></trkpt>
    <trkpt lat="48.363495" lon="-4.557137"><ele>34.8</ele></trkpt>
    <trkpt lat="48.363709" lon="-4.557253"><ele>39.8</ele></trkpt>
    <trkpt lat="48.363698" lon="-4.557367"><ele>39.2</ele></trkpt>
    <trkpt lat="48.363759" lon="-4.557829"><ele>36.8</ele></trkpt>
    <trkpt lat="48.364006" lon="-4.558339"><ele>39.6</ele></trkpt>
    <trkpt lat="48.364136" lon="-4.558883"><ele>38.4</ele></trkpt>
    <trkpt lat="48.364250" lon="-4.559120"><ele>37.8</ele></trkpt>
    <trkpt lat="48.364252" lon="-4.559222"><ele>35.8</ele></trkpt>
    <trkpt lat="48.364021" lon="-4.559211"><ele>30.0</ele></trkpt>
    <trkpt lat="48.363838" lon="-4.559277"><ele>25.2</ele></trkpt>
    <trkpt lat="48.363706" lon="-4.559452"><ele>20.4</ele></trkpt>
    <trkpt lat="48.363719" lon="-4.559701"><ele>18.4</ele></trkpt>
    <trkpt lat="48.363680" lon="-4.559872"><ele>15.8</ele></trkpt>
    <trkpt lat="48.363812" lon="-4.560153"><ele>13.2</ele></trkpt>
    <trkpt lat="48.363947" lon="-4.560239"><ele>14.6</ele></trkpt>
    <trkpt lat="48.364421" lon="-4.560080"><ele>20.0</ele></trkpt>
    <trkpt lat="48.364503" lon="-4.560139"><ele>21.8</ele></trkpt>
    <trkpt lat="48.364725" lon="-4.560192"><ele>26.2</ele></trkpt>
    <trkpt lat="48.364771" lon="-4.560334"><ele>34.6</ele></trkpt>
    <trkpt lat="48.364708" lon="-4.560364"><ele>36.8</ele></trkpt>
    <trkpt lat="48.364675" lon="-4.560530"><ele>39.2</ele></trkpt>
    <trkpt lat="48.364748" lon="-4.560636"><ele>41.6</ele></trkpt>
    <trkpt lat="48.364723" lon="-4.560531"><ele>39.8</ele></trkpt>
    <trkpt lat="48.364759" lon="-4.560449"><ele>37.6</ele></trkpt>
    <trkpt lat="48.364842" lon="-4.560376"><ele>37.6</ele></trkpt>
    <trkpt lat="48.365017" lon="-4.560402"><ele>43.6</ele></trkpt>
    <trkpt lat="48.365233" lon="-4.560331"><ele>49.8</ele></trkpt>
    <trkpt lat="48.365358" lon="-4.560452"><ele>56.6</ele></trkpt>
    <trkpt lat="48.365216" lon="-4.560705"><ele>53.0</ele></trkpt>
    <trkpt lat="48.364982" lon="-4.560708"><ele>48.0</ele></trkpt>
    <trkpt lat="48.364807" lon="-4.561142"><ele>43.0</ele></trkpt>
    <trkpt lat="48.364655" lon="-4.561260"><ele>39.8</ele></trkpt>
    <trkpt lat="48.364432" lon="-4.561350"><ele>35.0</ele></trkpt>
    <trkpt lat="48.364341" lon="-4.561458"><ele>33.0</ele></trkpt>
    <trkpt lat="48.364244" lon="-4.561674"><ele>30.2</ele></trkpt>
    <trkpt lat="48.364039" lon="-4.561906"><ele>24.8</ele></trkpt>
    <trkpt lat="48.363956" lon="-4.561858"><ele>22.8</ele></trkpt>
    <trkpt lat="48.363731" lon="-4.561119"><ele>21.0</ele></trkpt>
    <trkpt lat="48.363683" lon="-4.560675"><ele>17.2</ele></trkpt>
    <trkpt lat="48.363712" lon="-4.560154"><ele>12.6</ele></trkpt>
    <trkpt lat="48.363510" lon="-4.559457"><ele>12.0</ele></trkpt>
    <trkpt lat="48.363444" lon="-4.558989"><ele>11.0</ele></trkpt>
    <trkpt lat="48.363139" lon="-4.557732"><ele>13.0</ele></trkpt>
    <trkpt lat="48.363099" lon="-4.557403"><ele>14.2</ele></trkpt>
    <trkpt lat="48.362960" lon="-4.556984"><ele>15.2</ele></trkpt>
    <trkpt lat="48.362860" lon="-4.556322"><ele>14.2</ele></trkpt>
    <trkpt lat="48.362650" lon="-4.555702"><ele>15.2</ele></trkpt>
    <trkpt lat="48.362483" lon="-4.555511"><ele>11.6</ele></trkpt>
    <trkpt lat="48.362496" lon="-4.555415"><ele>14.4</ele></trkpt>
    <trkpt lat="48.362629" lon="-4.555517"><ele>12.8</ele></trkpt>
    <trkpt lat="48.362709" lon="-4.555421"><ele>15.4</ele></trkpt>
    <trkpt lat="48.362736" lon="-4.555478"><ele>16.6</ele></trkpt>
    <trkpt lat="48.362852" lon="-4.555441"><ele>21.0</ele></trkpt>
    <trkpt lat="48.362884" lon="-4.555554"><ele>23.4</ele></trkpt>
    <trkpt lat="48.363179" lon="-4.555893"><ele>35.8</ele></trkpt>
    <trkpt lat="48.363195" lon="-4.556088"><ele>35.8</ele></trkpt>
    <trkpt lat="48.363284" lon="-4.556475"><ele>33.8</ele></trkpt>
    <trkpt lat="48.363318" lon="-4.556828"><ele>31.2</ele></trkpt>
    <trkpt lat="48.363432" lon="-4.557110"><ele>33.0</ele></trkpt>
    <trkpt lat="48.363595" lon="-4.557184"><ele>38.0</ele></trkpt>
    <trkpt lat="48.363670" lon="-4.557309"><ele>39.4</ele></trkpt>
    <trkpt lat="48.363793" lon="-4.557924"><ele>37.2</ele></trkpt>
    <trkpt lat="48.364001" lon="-4.558345"><ele>39.6</ele></trkpt>
    <trkpt lat="48.364088" lon="-4.558797"><ele>38.0</ele></trkpt>
    <trkpt lat="48.364260" lon="-4.559165"><ele>37.2</ele></trkpt>
    <trkpt lat="48.364244" lon="-4.559240"><ele>35.6</ele></trkpt>
    <trkpt lat="48.364033" lon="-4.559234"><ele>30.0</ele></trkpt>
    <trkpt lat="48.363810" lon="-4.559293"><ele>24.4</ele></trkpt>
    <trkpt lat="48.363702" lon="-4.559419"><ele>21.0</ele></trkpt>
    <trkpt lat="48.363666" lon="-4.559851"><ele>16.4</ele></trkpt>
    <trkpt lat="48.363831" lon="-4.560169"><ele>13.6</ele></trkpt>
    <trkpt lat="48.363936" lon="-4.560260"><ele>14.2</ele></trkpt>
    <trkpt lat="48.364055" lon="-4.560295"><ele>15.4</ele></trkpt>
    <trkpt lat="48.364494" lon="-4.560162"><ele>20.8</ele></trkpt>
    <trkpt lat="48.364709" lon="-4.560203"><ele>26.0</ele></trkpt>
    <trkpt lat="48.364691" lon="-4.560218"><ele>29.4</ele></trkpt>
    <trkpt lat="48.364723" lon="-4.560298"><ele>33.6</ele></trkpt>
    <trkpt lat="48.364898" lon="-4.560402"><ele>40.0</ele></trkpt>
    <trkpt lat="48.365147" lon="-4.560304"><ele>46.8</ele></trkpt>
    <trkpt lat="48.365349" lon="-4.560437"><ele>56.0</ele></trkpt>
    <trkpt lat="48.365310" lon="-4.560537"><ele>56.0</ele></trkpt>
    <trkpt lat="48.365182" lon="-4.560690"><ele>52.4</ele></trkpt>
    <trkpt lat="48.364958" lon="-4.560724"><ele>47.6</ele></trkpt>
    <trkpt lat="48.364873" lon="-4.560850"><ele>45.4</ele></trkpt>
    <trkpt lat="48.364798" lon="-4.561099"><ele>42.8</ele></trkpt>
    <trkpt lat="48.364635" lon="-4.561226"><ele>39.4</ele></trkpt>
    <trkpt lat="48.364447" lon="-4.561295"><ele>35.6</ele></trkpt>
    <trkpt lat="48.364204" lon="-4.561725"><ele>28.8</ele></trkpt>
    <trkpt lat="48.364029" lon="-4.561893"><ele>23.2</ele></trkpt>
    <trkpt lat="48.363848" lon="-4.561396"><ele>21.6</ele></trkpt>
    <trkpt lat="48.363665" lon="-4.560717"><ele>17.8</ele></trkpt>
    <trkpt lat="48.363653" lon="-4.560440"><ele>15.2</ele></trkpt>
    <trkpt lat="48.363741" lon="-4.560133"><ele>13.0</ele></trkpt>
    <trkpt lat="48.363754" lon="-4.559985"><ele>12.8</ele></trkpt>
    <trkpt lat="48.363658" lon="-4.559925"><ele>12.4</ele></trkpt>
    <trkpt lat="48.363606" lon="-4.559812"><ele>12.4</ele></trkpt>
    <trkpt lat="48.363449" lon="-4.559149"><ele>11.0</ele></trkpt>
    <trkpt lat="48.363363" lon="-4.558627"><ele>12.4</ele></trkpt>
    <trkpt lat="48.363159" lon="-4.557826"><ele>13.2</ele></trkpt>
    <trkpt lat="48.363071" lon="-4.557244"><ele>15.0</ele></trkpt>
    <trkpt lat="48.362804" lon="-4.556189"><ele>14.2</ele></trkpt>
    <trkpt lat="48.362639" lon="-4.555664"><ele>13.4</ele></trkpt>
    <trkpt lat="48.362440" lon="-4.555390"><ele>14.0</ele></trkpt>
    <trkpt lat="48.362647" lon="-4.555508"><ele>12.6</ele></trkpt>
    <trkpt lat="48.362690" lon="-4.555498"><ele>13.2</ele></trkpt>
    <trkpt lat="48.362712" lon="-4.555397"><ele>14.8</ele></trkpt>
    <trkpt lat="48.362764" lon="-4.555470"><ele>16.6</ele></trkpt>
    <trkpt lat="48.362858" lon="-4.555461"><ele>20.6</ele></trkpt>
    <trkpt lat="48.362888" lon="-4.555562"><ele>22.8</ele></trkpt>
    <trkpt lat="48.363038" lon="-4.555674"><ele>29.6</ele></trkpt>
    <trkpt lat="48.363181" lon="-4.555907"><ele>35.6</ele></trkpt>
    <trkpt lat="48.363295" lon="-4.556516"><ele>33.2</ele></trkpt>
    <trkpt lat="48.363278" lon="-4.556700"><ele>31.6</ele></trkpt>
    <trkpt lat="48.363301" lon="-4.556812"><ele>31.0</ele></trkpt>
    <trkpt lat="48.363415" lon="-4.557061"><ele>32.2</ele></trkpt>
    <trkpt lat="48.363508" lon="-4.557157"><ele>35.2</ele></trkpt>
    <trkpt lat="48.363622" lon="-4.557176"><ele>37.8</ele></trkpt>
    <trkpt lat="48.363686" lon="-4.557273"><ele>39.0</ele></trkpt>
    <trkpt lat="48.363778" lon="-4.557825"><ele>36.4</ele></trkpt>
    <trkpt lat="48.364005" lon="-4.558350"><ele>39.2</ele></trkpt>
    <trkpt lat="48.364088" lon="-4.558672"><ele>38.0</ele></trkpt>
    <trkpt lat="48.364220" lon="-4.558979"><ele>37.8</ele></trkpt>
    <trkpt lat="48.364267" lon="-4.559220"><ele>36.4</ele></trkpt>
    <trkpt lat="48.364249" lon="-4.559264"><ele>35.4</ele></trkpt>
    <trkpt lat="48.363852" lon="-4.559290"><ele>24.6</ele></trkpt>
    <trkpt lat="48.363752" lon="-4.559363"><ele>21.8</ele></trkpt>
    <trkpt lat="48.363707" lon="-4.559476"><ele>19.6</ele></trkpt>
    <trkpt lat="48.363727" lon="-4.559658"><ele>18.0</ele></trkpt>
    <trkpt lat="48.363679" lon="-4.559837"><ele>15.4</ele></trkpt>
    <trkpt lat="48.363740" lon="-4.559983"><ele>12.4</ele></trkpt>
    <trkpt lat="48.363676" lon="-4.559955"><ele>12.0</ele></trkpt>
    <trkpt lat="48.363514" lon="-4.559358"><ele>11.2</ele></trkpt>
    <trkpt lat="48.363403" lon="-4.558658"><ele>11.8</ele></trkpt>
    <trkpt lat="48.363260" lon="-4.558247"><ele>12.4</ele></trkpt>
    <trkpt lat="48.363225" lon="-4.557939"><ele>12.6</ele></trkpt>
    <trkpt lat="48.363139" lon="-4.557643"><ele>13.0</ele></trkpt>
    <trkpt lat="48.363055" lon="-4.557120"><ele>15.0</ele></trkpt>
    <trkpt lat="48.362686" lon="-4.555962"><ele>13.2</ele></trkpt>
    <trkpt lat="48.362639" lon="-4.555613"><ele>13.8</ele></trkpt>
    <trkpt lat="48.362517" lon="-4.555460"><ele>12.6</ele></trkpt>
    <trkpt lat="48.362461" lon="-4.555326"><ele>10.4</ele></trkpt>
    <trkpt lat="48.362452" lon="-4.555387"><ele>13.6</ele></trkpt>
    <trkpt lat="48.362632" lon="-4.555537"><ele>11.8</ele></trkpt>
    <trkpt lat="48.362702" lon="-4.555538"><ele>13.0</ele></trkpt>
    <trkpt lat="48.362728" lon="-4.555411"><ele>14.6</ele></trkpt>
    <trkpt lat="48.362772" lon="-4.555483"><ele>16.4</ele></trkpt>
    <trkpt lat="48.362795" lon="-4.555440"><ele>17.8</ele></trkpt>
    <trkpt lat="48.362850" lon="-4.555468"><ele>20.6</ele></trkpt>
    <trkpt lat="48.362875" lon="-4.555559"><ele>23.0</ele></trkpt>
    <trkpt lat="48.362962" lon="-4.555608"><ele>25.8</ele></trkpt>
    <trkpt lat="48.363184" lon="-4.555876"><ele>35.6</ele></trkpt>
    <trkpt lat="48.363273" lon="-4.556421"><ele>34.2</ele></trkpt>
    <trkpt lat="48.363291" lon="-4.556791"><ele>31.6</ele></trkpt>
    <trkpt lat="48.363442" lon="-4.557082"><ele>33.8</ele></trkpt>
    <trkpt lat="48.363597" lon="-4.557153"><ele>38.2</ele></trkpt>
    <trkpt lat="48.363644" lon="-4.557218"><ele>39.6</ele></trkpt>
    <trkpt lat="48.363754" lon="-4.557841"><ele>37.4</ele></trkpt>
    <trkpt lat="48.363995" lon="-4.558336"><ele>40.2</ele></trkpt>
    <trkpt lat="48.364097" lon="-4.558731"><ele>38.8</ele></trkpt>
    <trkpt lat="48.364243" lon="-4.559126"><ele>38.4</ele></trkpt>
    <trkpt lat="48.364239" lon="-4.559224"><ele>36.8</ele></trkpt>
    <trkpt lat="48.364038" lon="-4.559226"><ele>31.2</ele></trkpt>
    <trkpt lat="48.363829" lon="-4.559324"><ele>25.2</ele></trkpt>
    <trkpt lat="48.363718" lon="-4.559463"><ele>21.4</ele></trkpt>
    <trkpt lat="48.363695" lon="-4.559855"><ele>17.2</ele></trkpt>
    <trkpt lat="48.363742" lon="-4.559978"><ele>15.4</ele></trkpt>
    <trkpt lat="48.363887" lon="-4.560168"><ele>14.0</ele></trkpt>
    <trkpt lat="48.363965" lon="-4.560213"><ele>14.6</ele></trkpt>
    <trkpt lat="48.364054" lon="-4.560218"><ele>15.4</ele></trkpt>
    <trkpt lat="48.364280" lon="-4.560113"><ele>17.8</ele></trkpt>
    <trkpt lat="48.364474" lon="-4.560124"><ele>20.8</ele></trkpt>
    <trkpt lat="48.364719" lon="-4.560235"><ele>26.4</ele></trkpt>
    <trkpt lat="48.364704" lon="-4.560303"><ele>31.2</ele></trkpt>
    <trkpt lat="48.364759" lon="-4.560367"><ele>35.4</ele></trkpt>
    <trkpt lat="48.364998" lon="-4.560436"><ele>42.4</ele></trkpt>
    <trkpt lat="48.365174" lon="-4.560324"><ele>49.2</ele></trkpt>
    <trkpt lat="48.365355" lon="-4.560471"><ele>56.8</ele></trkpt>
    <trkpt lat="48.365157" lon="-4.560693"><ele>52.8</ele></trkpt>
    <trkpt lat="48.364967" lon="-4.560755"><ele>48.2</ele></trkpt>
    <trkpt lat="48.364881" lon="-4.560903"><ele>45.6</ele></trkpt>
    <trkpt lat="48.364824" lon="-4.561114"><ele>43.4</ele></trkpt>
    <trkpt lat="48.364643" lon="-4.561258"><ele>39.8</ele></trkpt>
    <trkpt lat="48.364422" lon="-4.561350"><ele>35.4</ele></trkpt>
    <trkpt lat="48.364247" lon="-4.561704"><ele>30.0</ele></trkpt>
    <trkpt lat="48.364063" lon="-4.561928"><ele>25.0</ele></trkpt>
    <trkpt lat="48.363985" lon="-4.561861"><ele>23.2</ele></trkpt>
    <trkpt lat="48.363735" lon="-4.561228"><ele>21.6</ele></trkpt>
    <trkpt lat="48.363689" lon="-4.560588"><ele>16.8</ele></trkpt>
    <trkpt lat="48.363734" lon="-4.560148"><ele>12.6</ele></trkpt>
    <trkpt lat="48.363271" lon="-4.558457"><ele>12.6</ele></trkpt>
    <trkpt lat="48.363068" lon="-4.557341"><ele>14.4</ele></trkpt>
    <trkpt lat="48.362938" lon="-4.556976"><ele>15.0</ele></trkpt>
    <trkpt lat="48.362825" lon="-4.556384"><ele>14.8</ele></trkpt>
    <trkpt lat="48.362648" lon="-4.555693"><ele>13.4</ele></trkpt>
    <trkpt lat="48.362605" lon="-4.555609"><ele>12.4</ele></trkpt>
    <trkpt lat="48.362544" lon="-4.555584"><ele>10.6</ele></trkpt>
    <trkpt lat="48.362468" lon="-4.555381"><ele>14.4</ele></trkpt>
    <trkpt lat="48.362667" lon="-4.555489"><ele>13.2</ele></trkpt>
    <trkpt lat="48.362686" lon="-4.555383"><ele>15.4</ele></trkpt>
    <trkpt lat="48.362855" lon="-4.555466"><ele>20.4</ele></trkpt>
    <trkpt lat="48.362879" lon="-4.555572"><ele>23.6</ele></trkpt>
    <trkpt lat="48.362947" lon="-4.555609"><ele>26.6</ele></trkpt>
    <trkpt lat="48.363202" lon="-4.555927"><ele>36.4</ele></trkpt>
    <trkpt lat="48.363273" lon="-4.556228"><ele>35.4</ele></trkpt>
    <trkpt lat="48.363279" lon="-4.556782"><ele>32.0</ele></trkpt>
    <trkpt lat="48.363437" lon="-4.557059"><ele>33.8</ele></trkpt>
    <trkpt lat="48.363617" lon="-4.557137"><ele>38.2</ele></trkpt>
    <trkpt lat="48.363672" lon="-4.557206"><ele>39.8</ele></trkpt>
    <trkpt lat="48.363745" lon="-4.557816"><ele>37.8</ele></trkpt>
    <trkpt lat="48.364007" lon="-4.558295"><ele>40.2</ele></trkpt>
    <trkpt lat="48.364251" lon="-4.558996"><ele>39.0</ele></trkpt>
    <trkpt lat="48.364265" lon="-4.559221"><ele>36.6</ele></trkpt>
    <trkpt lat="48.363857" lon="-4.559298"><ele>25.8</ele></trkpt>
    <trkpt lat="48.363750" lon="-4.559411"><ele>22.6</ele></trkpt>
    <trkpt lat="48.363718" lon="-4.559481"><ele>21.2</ele></trkpt>
    <trkpt lat="48.363726" lon="-4.559655"><ele>19.6</ele></trkpt>
    <trkpt lat="48.363685" lon="-4.559866"><ele>16.8</ele></trkpt>
    <trkpt lat="48.363718" lon="-4.559972"><ele>15.6</ele></trkpt>
    <trkpt lat="48.363873" lon="-4.560192"><ele>14.4</ele></trkpt>
    <trkpt lat="48.363935" lon="-4.560227"><ele>14.8</ele></trkpt>
    <trkpt lat="48.364176" lon="-4.560226"><ele>17.0</ele></trkpt>
    <trkpt lat="48.364490" lon="-4.560091"><ele>21.0</ele></trkpt>
    <trkpt lat="48.364699" lon="-4.560195"><ele>26.4</ele></trkpt>
    <trkpt lat="48.364712" lon="-4.560311"><ele>31.6</ele></trkpt>
    <trkpt lat="48.364815" lon="-4.560407"><ele>37.0</ele></trkpt>
    <trkpt lat="48.365091" lon="-4.560410"><ele>45.6</ele></trkpt>
    <trkpt lat="48.365196" lon="-4.560341"><ele>49.2</ele></trkpt>
    <trkpt lat="48.365268" lon="-4.560433"><ele>53.0</ele></trkpt>
    <trkpt lat="48.365364" lon="-4.560472"><ele>56.4</ele></trkpt>
    <trkpt lat="48.365185" lon="-4.560671"><ele>53.6</ele></trkpt>
    <trkpt lat="48.364955" lon="-4.560709"><ele>47.6</ele></trkpt>
    <trkpt lat="48.364879" lon="-4.560826"><ele>45.8</ele></trkpt>
    <trkpt lat="48.364802" lon="-4.561082"><ele>43.0</ele></trkpt>
    <trkpt lat="48.364618" lon="-4.561249"><ele>39.0</ele></trkpt>
    <trkpt lat="48.364398" lon="-4.561357"><ele>34.2</ele></trkpt>
    <trkpt lat="48.364233" lon="-4.561716"><ele>29.4</ele></trkpt>
    <trkpt lat="48.364072" lon="-4.561898"><ele>25.0</ele></trkpt>
    <trkpt lat="48.364010" lon="-4.561904"><ele>23.4</ele></trkpt>
    <trkpt lat="48.363969" lon="-4.561852"><ele>22.6</ele></trkpt>
    <trkpt lat="48.363845" lon="-4.561578"><ele>21.4</ele></trkpt>
    <trkpt lat="48.363724" lon="-4.560887"><ele>18.6</ele></trkpt>
    <trkpt lat="48.363695" lon="-4.560503"><ele>15.0</ele></trkpt>
    <trkpt lat="48.363730" lon="-4.560128"><ele>11.8</ele></trkpt>
    <trkpt lat="48.363481" lon="-4.559422"><ele>11.0</ele></trkpt>
    <trkpt lat="48.363405" lon="-4.558874"><ele>10.4</ele></trkpt>
    <trkpt lat="48.363262" lon="-4.558290"><ele>11.8</ele></trkpt>
    <trkpt lat="48.363118" lon="-4.557507"><ele>13.4</ele></trkpt>
    <trkpt lat="48.362962" lon="-4.557103"><ele>14.6</ele></trkpt>
    <trkpt lat="48.362829" lon="-4.556389"><ele>15.0</ele></trkpt>
    <trkpt lat="48.362633" lon="-4.555730"><ele>12.6</ele></trkpt>
    <trkpt lat="48.362455" lon="-4.555404"><ele>14.4</ele></trkpt>
    <trkpt lat="48.362629" lon="-4.555570"><ele>12.8</ele></trkpt>
    <trkpt lat="48.362665" lon="-4.555560"><ele>13.4</ele></trkpt>
    <trkpt lat="48.362678" lon="-4.555454"><ele>15.2</ele></trkpt>
    <trkpt lat="48.362729" lon="-4.555508"><ele>16.8</ele></trkpt>
    <trkpt lat="48.362769" lon="-4.555452"><ele>18.4</ele></trkpt>
    <trkpt lat="48.362845" lon="-4.555474"><ele>21.0</ele></trkpt>
    <trkpt lat="48.362877" lon="-4.555605"><ele>23.4</ele></trkpt>
    <trkpt lat="48.363000" lon="-4.555679"><ele>28.2</ele></trkpt>
    <trkpt lat="48.363188" lon="-4.555901"><ele>35.8</ele></trkpt>
    <trkpt lat="48.363297" lon="-4.556463"><ele>33.8</ele></trkpt>
    <trkpt lat="48.363288" lon="-4.556638"><ele>32.4</ele></trkpt>
    <trkpt lat="48.363315" lon="-4.556801"><ele>31.4</ele></trkpt>
    <trkpt lat="48.363423" lon="-4.557052"><ele>32.6</ele></trkpt>
    <trkpt lat="48.363642" lon="-4.557276"><ele>39.8</ele></trkpt>
    <trkpt lat="48.363771" lon="-4.557795"><ele>37.0</ele></trkpt>
    <trkpt lat="48.364043" lon="-4.558441"><ele>39.8</ele></trkpt>
    <trkpt lat="48.364112" lon="-4.558811"><ele>38.4</ele></trkpt>
    <trkpt lat="48.364299" lon="-4.559100"><ele>38.0</ele></trkpt>
    <trkpt lat="48.364297" lon="-4.559198"><ele>36.6</ele></trkpt>
    <trkpt lat="48.363994" lon="-4.559270"><ele>29.0</ele></trkpt>
    <trkpt lat="48.363809" lon="-4.559354"><ele>24.2</ele></trkpt>
    <trkpt lat="48.363716" lon="-4.559446"><ele>21.4</ele></trkpt>
    <trkpt lat="48.363691" lon="-4.559812"><ele>17.4</ele></trkpt>
    <trkpt lat="48.363733" lon="-4.559952"><ele>15.6</ele></trkpt>
    <trkpt lat="48.363952" lon="-4.560210"><ele>14.6</ele></trkpt>
    <trkpt lat="48.364326" lon="-4.560182"><ele>18.4</ele></trkpt>
    <trkpt lat="48.364442" lon="-4.560132"><ele>21.2</ele></trkpt>
    <trkpt lat="48.364708" lon="-4.560249"><ele>27.2</ele></trkpt>
    <trkpt lat="48.364771" lon="-4.560395"><ele>35.8</ele></trkpt>
    <trkpt lat="48.364820" lon="-4.560421"><ele>37.4</ele></trkpt>
    <trkpt lat="48.365105" lon="-4.560405"><ele>45.4</ele></trkpt>
    <trkpt lat="48.365224" lon="-4.560335"><ele>48.8</ele></trkpt>
    <trkpt lat="48.365241" lon="-4.560421"><ele>52.4</ele></trkpt>
    <trkpt lat="48.365376" lon="-4.560472"><ele>56.6</ele></trkpt>
    <trkpt lat="48.365213" lon="-4.560714"><ele>53.0</ele></trkpt>
    <trkpt lat="48.364962" lon="-4.560739"><ele>47.8</ele></trkpt>
    <trkpt lat="48.364872" lon="-4.560875"><ele>45.6</ele></trkpt>
    <trkpt lat="48.364793" lon="-4.561104"><ele>43.0</ele></trkpt>
    <trkpt lat="48.364642" lon="-4.561252"><ele>39.6</ele></trkpt>
    <trkpt lat="48.364449" lon="-4.561348"><ele>35.2</ele></trkpt>
    <trkpt lat="48.364252" lon="-4.561684"><ele>29.6</ele></trkpt>
    <trkpt lat="48.364047" lon="-4.561852"><ele>24.6</ele></trkpt>
    <trkpt lat="48.363967" lon="-4.561794"><ele>22.8</ele></trkpt>
    <trkpt lat="48.363734" lon="-4.561098"><ele>20.8</ele></trkpt>
    <trkpt lat="48.363656" lon="-4.560451"><ele>15.0</ele></trkpt>
    <trkpt lat="48.363667" lon="-4.560136"><ele>12.6</ele></trkpt>
    <trkpt lat="48.363606" lon="-4.559941"><ele>11.8</ele></trkpt>
    <trkpt lat="48.363533" lon="-4.559314"><ele>11.4</ele></trkpt>
    <trkpt lat="48.363455" lon="-4.558958"><ele>11.0</ele></trkpt>
    <trkpt lat="48.363214" lon="-4.558154"><ele>12.6</ele></trkpt>
    <trkpt lat="48.363021" lon="-4.557060"><ele>15.2</ele></trkpt>
    <trkpt lat="48.362625" lon="-4.555700"><ele>13.2</ele></trkpt>
    <trkpt lat="48.362510" lon="-4.555526"><ele>10.0</ele></trkpt>
    <trkpt lat="48.362478" lon="-4.555348"><ele>14.8</ele></trkpt>
    <trkpt lat="48.362570" lon="-4.555401"><ele>13.0</ele></trkpt>
    <trkpt lat="48.362656" lon="-4.555572"><ele>13.8</ele></trkpt>
    <trkpt lat="48.362694" lon="-4.555562"><ele>14.6</ele></trkpt>
    <trkpt lat="48.362689" lon="-4.555446"><ele>15.8</ele></trkpt>
    <trkpt lat="48.362739" lon="-4.555513"><ele>18.0</ele></trkpt>
    <trkpt lat="48.362771" lon="-4.555434"><ele>19.6</ele></trkpt>
    <trkpt lat="48.362844" lon="-4.555451"><ele>22.4</ele></trkpt>
    <trkpt lat="48.362872" lon="-4.555545"><ele>24.8</ele></trkpt>
    <trkpt lat="48.363114" lon="-4.555757"><ele>34.8</ele></trkpt>
    <trkpt lat="48.363190" lon="-4.555875"><ele>37.8</ele></trkpt>
    <trkpt lat="48.363337" lon="-4.556579"><ele>35.2</ele></trkpt>
    <trkpt lat="48.363321" lon="-4.556769"><ele>34.2</ele></trkpt>
    <trkpt lat="48.363354" lon="-4.556897"><ele>34.4</ele></trkpt>
    <trkpt lat="48.363443" lon="-4.557095"><ele>35.8</ele></trkpt>
    <trkpt lat="48.363552" lon="-4.557113"><ele>38.6</ele></trkpt>
    <trkpt lat="48.363655" lon="-4.557188"><ele>41.4</ele></trkpt>
    <trkpt lat="48.363758" lon="-4.557726"><ele>40.4</ele></trkpt>
    <trkpt lat="48.364024" lon="-4.558362"><ele>41.6</ele></trkpt>
    <trkpt lat="48.364086" lon="-4.558719"><ele>40.4</ele></trkpt>
    <trkpt lat="48.364252" lon="-4.559171"><ele>39.0</ele></trkpt>
    <trkpt lat="48.363856" lon="-4.559302"><ele>27.8</ele></trkpt>
    <trkpt lat="48.363710" lon="-4.559480"><ele>22.8</ele></trkpt>
    <trkpt lat="48.363711" lon="-4.559898"><ele>18.0</ele></trkpt>
    <trkpt lat="48.363754" lon="-4.560016"><ele>16.8</ele></trkpt>
    <trkpt lat="48.363889" lon="-4.560200"><ele>16.0</ele></trkpt>
    <trkpt lat="48.364206" lon="-4.560210"><ele>18.4</ele></trkpt>
    <trkpt lat="48.364440" lon="-4.560115"><ele>22.2</ele></trkpt>
    <trkpt lat="48.364497" lon="-4.560173"><ele>23.8</ele></trkpt>
    <trkpt lat="48.364713" lon="-4.560208"><ele>27.8</ele></trkpt>
    <trkpt lat="48.364912" lon="-4.560098"><ele>30.2</ele></trkpt>
    <trkpt lat="48.365025" lon="-4.559964"><ele>31.6</ele></trkpt>
    <trkpt lat="48.365196" lon="-4.559903"><ele>35.6</ele></trkpt>
    <trkpt lat="48.365548" lon="-4.559425"><ele>42.4</ele></trkpt>
    <trkpt lat="48.365774" lon="-4.558985"><ele>46.2</ele></trkpt>
    <trkpt lat="48.365855" lon="-4.558658"><ele>48.6</ele></trkpt>
    <trkpt lat="48.365920" lon="-4.558522"><ele>49.8</ele></trkpt>
    <trkpt lat="48.365932" lon="-4.558742"><ele>55.2</ele></trkpt>
    <trkpt lat="48.366054" lon="-4.558842"><ele>59.4</ele></trkpt>
    <trkpt lat="48.366036" lon="-4.559451"><ele>65.6</ele></trkpt>
    <trkpt lat="48.365833" lon="-4.559869"><ele>65.6</ele></trkpt>
    <trkpt lat="48.365441" lon="-4.560289"><ele>59.4</ele></trkpt>
    <trkpt lat="48.365242" lon="-4.560624"><ele>53.8</ele></trkpt>
    <trkpt lat="48.364951" lon="-4.560746"><ele>47.2</ele></trkpt>
    <trkpt lat="48.364815" lon="-4.561094"><ele>42.6</ele></trkpt>
    <trkpt lat="48.364627" lon="-4.561259"><ele>38.2</ele></trkpt>
    <trkpt lat="48.364466" lon="-4.561329"><ele>35.2</ele></trkpt>
    <trkpt lat="48.364032" lon="-4.561889"><ele>24.0</ele></trkpt>
    <trkpt lat="48.363892" lon="-4.561421"><ele>21.6</ele></trkpt>
    <trkpt lat="48.363752" lon="-4.560672"><ele>17.4</ele></trkpt>
    <trkpt lat="48.363733" lon="-4.560175"><ele>13.0</ele></trkpt>
    <trkpt lat="48.363600" lon="-4.559752"><ele>12.4</ele></trkpt>
    <trkpt lat="48.363367" lon="-4.558525"><ele>12.8</ele></trkpt>
    <trkpt lat="48.363181" lon="-4.557791"><ele>13.4</ele></trkpt>
    <trkpt lat="48.363139" lon="-4.557408"><ele>14.8</ele></trkpt>
    <trkpt lat="48.362666" lon="-4.555721"><ele>14.0</ele></trkpt>
    <trkpt lat="48.362623" lon="-4.555612"><ele>12.8</ele></trkpt>
    <trkpt lat="48.362537" lon="-4.555521"><ele>10.4</ele></trkpt>
  </trkseg></trk>
</gpx>
