<?xml version="1.0" encoding="UTF-8"?>
<gpx version="1.1" creator="tcap-parcours" xmlns="http://www.topografix.com/GPX/1/1">
  <metadata><name>Dreizoc – Goulven – Portez – Boucle 13,5 km</name></metadata>
  <trk><name>Dreizoc – Goulven – Portez – Boucle 13,5 km</name><trkseg>
    <trkpt lat="48.370035" lon="-4.640702"><ele>61.2</ele></trkpt>
    <trkpt lat="48.369868" lon="-4.641386"><ele>59.8</ele></trkpt>
    <trkpt lat="48.369725" lon="-4.641721"><ele>60.6</ele></trkpt>
    <trkpt lat="48.369638" lon="-4.642054"><ele>62.0</ele></trkpt>
    <trkpt lat="48.369661" lon="-4.642606"><ele>61.2</ele></trkpt>
    <trkpt lat="48.369628" lon="-4.643603"><ele>59.6</ele></trkpt>
    <trkpt lat="48.369459" lon="-4.644393"><ele>59.0</ele></trkpt>
    <trkpt lat="48.369267" lon="-4.645094"><ele>59.0</ele></trkpt>
    <trkpt lat="48.369276" lon="-4.645636"><ele>58.8</ele></trkpt>
    <trkpt lat="48.369208" lon="-4.646129"><ele>58.2</ele></trkpt>
    <trkpt lat="48.369078" lon="-4.646697"><ele>60.2</ele></trkpt>
    <trkpt lat="48.369036" lon="-4.647146"><ele>61.4</ele></trkpt>
    <trkpt lat="48.368897" lon="-4.647448"><ele>62.6</ele></trkpt>
    <trkpt lat="48.368632" lon="-4.647670"><ele>64.6</ele></trkpt>
    <trkpt lat="48.368597" lon="-4.647792"><ele>65.2</ele></trkpt>
    <trkpt lat="48.368604" lon="-4.647897"><ele>65.6</ele></trkpt>
    <trkpt lat="48.368857" lon="-4.648738"><ele>66.2</ele></trkpt>
    <trkpt lat="48.368907" lon="-4.649291"><ele>67.2</ele></trkpt>
    <trkpt lat="48.368955" lon="-4.649413"><ele>67.6</ele></trkpt>
    <trkpt lat="48.369519" lon="-4.649914"><ele>70.6</ele></trkpt>
    <trkpt lat="48.369610" lon="-4.649883"><ele>71.0</ele></trkpt>
    <trkpt lat="48.369810" lon="-4.649653"><ele>71.2</ele></trkpt>
    <trkpt lat="48.369901" lon="-4.649660"><ele>71.0</ele></trkpt>
    <trkpt lat="48.369976" lon="-4.649756"><ele>70.8</ele></trkpt>
    <trkpt lat="48.370387" lon="-4.650588"><ele>72.4</ele></trkpt>
    <trkpt lat="48.370725" lon="-4.651013"><ele>71.2</ele></trkpt>
    <trkpt lat="48.371082" lon="-4.651373"><ele>70.8</ele></trkpt>
    <trkpt lat="48.371490" lon="-4.651607"><ele>69.8</ele></trkpt>
    <trkpt lat="48.371639" lon="-4.651768"><ele>68.4</ele></trkpt>
    <trkpt lat="48.371963" lon="-4.651965"><ele>67.8</ele></trkpt>
    <trkpt lat="48.372190" lon="-4.652164"><ele>67.4</ele></trkpt>
    <trkpt lat="48.372893" lon="-4.652339"><ele>66.2</ele></trkpt>
    <trkpt lat="48.373125" lon="-4.652304"><ele>65.0</ele></trkpt>
    <trkpt lat="48.373372" lon="-4.652496"><ele>63.6</ele></trkpt>
    <trkpt lat="48.373600" lon="-4.652739"><ele>61.8</ele></trkpt>
    <trkpt lat="48.373712" lon="-4.652798"><ele>61.0</ele></trkpt>
    <trkpt lat="48.374830" lon="-4.652940"><ele>60.2</ele></trkpt>
    <trkpt lat="48.375032" lon="-4.652891"><ele>59.8</ele></trkpt>
    <trkpt lat="48.375072" lon="-4.652814"><ele>59.6</ele></trkpt>
    <trkpt lat="48.375076" lon="-4.652696"><ele>59.4</ele></trkpt>
    <trkpt lat="48.374986" lon="-4.651934"><ele>57.6</ele></trkpt>
    <trkpt lat="48.374846" lon="-4.651122"><ele>58.0</ele></trkpt>
    <trkpt lat="48.374840" lon="-4.650868"><ele>57.6</ele></trkpt>
    <trkpt lat="48.374921" lon="-4.650908"><ele>57.4</ele></trkpt>
    <trkpt lat="48.375238" lon="-4.651441"><ele>57.2</ele></trkpt>
    <trkpt lat="48.375341" lon="-4.651498"><ele>57.0</ele></trkpt>
    <trkpt lat="48.375903" lon="-4.650708"><ele>55.6</ele></trkpt>
    <trkpt lat="48.376120" lon="-4.650514"><ele>55.6</ele></trkpt>
    <trkpt lat="48.376730" lon="-4.650248"><ele>55.4</ele></trkpt>
    <trkpt lat="48.376876" lon="-4.650268"><ele>55.8</ele></trkpt>
    <trkpt lat="48.377047" lon="-4.650400"><ele>56.0</ele></trkpt>
    <trkpt lat="48.377215" lon="-4.650461"><ele>55.8</ele></trkpt>
    <trkpt lat="48.377430" lon="-4.650359"><ele>55.2</ele></trkpt>
    <trkpt lat="48.377551" lon="-4.650192"><ele>54.6</ele></trkpt>
    <trkpt lat="48.377909" lon="-4.649403"><ele>53.2</ele></trkpt>
    <trkpt lat="48.378403" lon="-4.647910"><ele>51.6</ele></trkpt>
    <trkpt lat="48.379133" lon="-4.646880"><ele>51.4</ele></trkpt>
    <trkpt lat="48.379508" lon="-4.646504"><ele>53.0</ele></trkpt>
    <trkpt lat="48.379606" lon="-4.646260"><ele>53.6</ele></trkpt>
    <trkpt lat="48.379860" lon="-4.645908"><ele>52.8</ele></trkpt>
    <trkpt lat="48.380363" lon="-4.645081"><ele>50.8</ele></trkpt>
    <trkpt lat="48.380644" lon="-4.645191"><ele>50.6</ele></trkpt>
    <trkpt lat="48.381890" lon="-4.645880"><ele>54.2</ele></trkpt>
    <trkpt lat="48.382191" lon="-4.646128"><ele>55.2</ele></trkpt>
    <trkpt lat="48.382487" lon="-4.646446"><ele>55.8</ele></trkpt>
    <trkpt lat="48.382714" lon="-4.646801"><ele>56.0</ele></trkpt>
    <trkpt lat="48.383209" lon="-4.647818"><ele>57.4</ele></trkpt>
    <trkpt lat="48.383671" lon="-4.648986"><ele>60.0</ele></trkpt>
    <trkpt lat="48.384317" lon="-4.650925"><ele>67.2</ele></trkpt>
    <trkpt lat="48.384429" lon="-4.651155"><ele>68.8</ele></trkpt>
    <trkpt lat="48.384670" lon="-4.651515"><ele>70.8</ele></trkpt>
    <trkpt lat="48.385393" lon="-4.652151"><ele>76.0</ele></trkpt>
    <trkpt lat="48.385815" lon="-4.652378"><ele>77.8</ele></trkpt>
    <trkpt lat="48.386141" lon="-4.652638"><ele>78.4</ele></trkpt>
    <trkpt lat="48.386795" lon="-4.652775"><ele>80.4</ele></trkpt>
    <trkpt lat="48.387082" lon="-4.652883"><ele>80.4</ele></trkpt>
    <trkpt lat="48.387538" lon="-4.653087"><ele>82.0</ele></trkpt>
    <trkpt lat="48.387632" lon="-4.653256"><ele>82.8</ele></trkpt>
    <trkpt lat="48.386674" lon="-4.654530"><ele>85.6</ele></trkpt>
    <trkpt lat="48.386107" lon="-4.654959"><ele>84.8</ele></trkpt>
    <trkpt lat="48.385474" lon="-4.656238"><ele>83.0</ele></trkpt>
    <trkpt lat="48.385380" lon="-4.656343"><ele>82.6</ele></trkpt>
    <trkpt lat="48.385266" lon="-4.656334"><ele>81.8</ele></trkpt>
    <trkpt lat="48.384888" lon="-4.656067"><ele>80.4</ele></trkpt>
    <trkpt lat="48.384812" lon="-4.656114"><ele>80.6</ele></trkpt>
    <trkpt lat="48.384628" lon="-4.656397"><ele>80.8</ele></trkpt>
    <trkpt lat="48.384569" lon="-4.656436"><ele>80.8</ele></trkpt>
    <trkpt lat="48.384381" lon="-4.656390"><ele>79.8</ele></trkpt>
    <trkpt lat="48.384168" lon="-4.656253"><ele>78.4</ele></trkpt>
    <trkpt lat="48.384036" lon="-4.656222"><ele>77.6</ele></trkpt>
    <trkpt lat="48.383754" lon="-4.656233"><ele>75.6</ele></trkpt>
    <trkpt lat="48.383328" lon="-4.656406"><ele>71.2</ele></trkpt>
    <trkpt lat="48.382947" lon="-4.656361"><ele>68.4</ele></trkpt>
    <trkpt lat="48.382543" lon="-4.656221"><ele>68.6</ele></trkpt>
    <trkpt lat="48.382270" lon="-4.656318"><ele>69.0</ele></trkpt>
    <trkpt lat="48.382158" lon="-4.656458"><ele>69.8</ele></trkpt>
    <trkpt lat="48.382146" lon="-4.656574"><ele>70.4</ele></trkpt>
    <trkpt lat="48.382177" lon="-4.656641"><ele>70.8</ele></trkpt>
    <trkpt lat="48.382492" lon="-4.656946"><ele>74.0</ele></trkpt>
    <trkpt lat="48.382565" lon="-4.657092"><ele>74.8</ele></trkpt>
    <trkpt lat="48.382738" lon="-4.659183"><ele>80.2</ele></trkpt>
    <trkpt lat="48.382915" lon="-4.660486"><ele>84.4</ele></trkpt>
    <trkpt lat="48.383084" lon="-4.661153"><ele>85.2</ele></trkpt>
    <trkpt lat="48.383267" lon="-4.661651"><ele>86.4</ele></trkpt>
    <trkpt lat="48.383413" lon="-4.662216"><ele>87.2</ele></trkpt>
    <trkpt lat="48.383691" lon="-4.663019"><ele>87.6</ele></trkpt>
    <trkpt lat="48.383695" lon="-4.663131"><ele>87.2</ele></trkpt>
    <trkpt lat="48.383619" lon="-4.663216"><ele>87.0</ele></trkpt>
    <trkpt lat="48.382848" lon="-4.663668"><ele>86.2</ele></trkpt>
    <trkpt lat="48.382614" lon="-4.663751"><ele>86.0</ele></trkpt>
    <trkpt lat="48.381999" lon="-4.663845"><ele>87.2</ele></trkpt>
    <trkpt lat="48.381632" lon="-4.663755"><ele>88.0</ele></trkpt>
    <trkpt lat="48.381408" lon="-4.663463"><ele>88.2</ele></trkpt>
    <trkpt lat="48.381222" lon="-4.663328"><ele>88.0</ele></trkpt>
    <trkpt lat="48.380544" lon="-4.663183"><ele>87.8</ele></trkpt>
    <trkpt lat="48.380082" lon="-4.663177"><ele>87.4</ele></trkpt>
    <trkpt lat="48.379789" lon="-4.663325"><ele>87.4</ele></trkpt>
    <trkpt lat="48.379565" lon="-4.663529"><ele>87.8</ele></trkpt>
    <trkpt lat="48.379432" lon="-4.663716"><ele>88.6</ele></trkpt>
    <trkpt lat="48.379191" lon="-4.664189"><ele>88.8</ele></trkpt>
    <trkpt lat="48.379225" lon="-4.664294"><ele>88.8</ele></trkpt>
    <trkpt lat="48.379660" lon="-4.664739"><ele>89.4</ele></trkpt>
    <trkpt lat="48.379950" lon="-4.665259"><ele>90.2</ele></trkpt>
    <trkpt lat="48.380478" lon="-4.665729"><ele>91.2</ele></trkpt>
    <trkpt lat="48.380648" lon="-4.666009"><ele>91.6</ele></trkpt>
    <trkpt lat="48.380701" lon="-4.666249"><ele>92.2</ele></trkpt>
    <trkpt lat="48.380642" lon="-4.667125"><ele>92.6</ele></trkpt>
    <trkpt lat="48.380662" lon="-4.667441"><ele>93.0</ele></trkpt>
    <trkpt lat="48.380899" lon="-4.668250"><ele>94.0</ele></trkpt>
    <trkpt lat="48.381190" lon="-4.669448"><ele>93.8</ele></trkpt>
    <trkpt lat="48.381178" lon="-4.669955"><ele>92.6</ele></trkpt>
    <trkpt lat="48.381120" lon="-4.670117"><ele>91.6</ele></trkpt>
    <trkpt lat="48.380866" lon="-4.670365"><ele>91.6</ele></trkpt>
    <trkpt lat="48.380601" lon="-4.670518"><ele>91.2</ele></trkpt>
    <trkpt lat="48.379206" lon="-4.670987"><ele>88.6</ele></trkpt>
    <trkpt lat="48.378038" lon="-4.671532"><ele>87.2</ele></trkpt>
    <trkpt lat="48.376762" lon="-4.671789"><ele>84.0</ele></trkpt>
    <trkpt lat="48.374902" lon="-4.671851"><ele>80.4</ele></trkpt>
    <trkpt lat="48.374538" lon="-4.672023"><ele>80.0</ele></trkpt>
    <trkpt lat="48.374185" lon="-4.672495"><ele>78.2</ele></trkpt>
    <trkpt lat="48.372118" lon="-4.674292"><ele>68.6</ele></trkpt>
    <trkpt lat="48.371496" lon="-4.674454"><ele>65.4</ele></trkpt>
    <trkpt lat="48.371359" lon="-4.674556"><ele>64.8</ele></trkpt>
    <trkpt lat="48.371247" lon="-4.674796"><ele>63.6</ele></trkpt>
    <trkpt lat="48.370869" lon="-4.674919"><ele>61.8</ele></trkpt>
    <trkpt lat="48.370576" lon="-4.675074"><ele>61.6</ele></trkpt>
    <trkpt lat="48.370560" lon="-4.675110"><ele>61.6</ele></trkpt>
    <trkpt lat="48.370602" lon="-4.675361"><ele>58.2</ele></trkpt>
    <trkpt lat="48.370574" lon="-4.675467"><ele>56.6</ele></trkpt>
    <trkpt lat="48.370487" lon="-4.675602"><ele>55.4</ele></trkpt>
    <trkpt lat="48.370261" lon="-4.675733"><ele>52.8</ele></trkpt>
    <trkpt lat="48.370236" lon="-4.675799"><ele>52.0</ele></trkpt>
    <trkpt lat="48.370297" lon="-4.676242"><ele>51.6</ele></trkpt>
    <trkpt lat="48.370310" lon="-4.676867"><ele>61.0</ele></trkpt>
    <trkpt lat="48.370409" lon="-4.677096"><ele>63.8</ele></trkpt>
    <trkpt lat="48.370328" lon="-4.676237"><ele>51.2</ele></trkpt>
    <trkpt lat="48.370290" lon="-4.676169"><ele>50.6</ele></trkpt>
    <trkpt lat="48.370119" lon="-4.676156"><ele>49.4</ele></trkpt>
    <trkpt lat="48.369811" lon="-4.675945"><ele>50.6</ele></trkpt>
    <trkpt lat="48.369476" lon="-4.676050"><ele>49.4</ele></trkpt>
    <trkpt lat="48.369217" lon="-4.676074"><ele>47.2</ele></trkpt>
    <trkpt lat="48.369195" lon="-4.676150"><ele>46.0</ele></trkpt>
    <trkpt lat="48.369231" lon="-4.676531"><ele>41.8</ele></trkpt>
    <trkpt lat="48.369016" lon="-4.676525"><ele>41.4</ele></trkpt>
    <trkpt lat="48.368915" lon="-4.676579"><ele>41.0</ele></trkpt>
    <trkpt lat="48.366373" lon="-4.681627"><ele>42.8</ele></trkpt>
    <trkpt lat="48.366328" lon="-4.681892"><ele>43.8</ele></trkpt>
    <trkpt lat="48.366348" lon="-4.681921"><ele>45.8</ele></trkpt>
    <trkpt lat="48.366154" lon="-4.682104"><ele>42.8</ele></trkpt>
    <trkpt lat="48.365860" lon="-4.682216"><ele>39.0</ele></trkpt>
    <trkpt lat="48.365650" lon="-4.682381"><ele>36.8</ele></trkpt>
    <trkpt lat="48.365343" lon="-4.682848"><ele>33.0</ele></trkpt>
    <trkpt lat="48.365117" lon="-4.683411"><ele>30.0</ele></trkpt>
    <trkpt lat="48.364950" lon="-4.683638"><ele>28.4</ele></trkpt>
    <trkpt lat="48.363920" lon="-4.684286"><ele>27.8</ele></trkpt>
    <trkpt lat="48.363660" lon="-4.684574"><ele>29.0</ele></trkpt>
    <trkpt lat="48.363481" lon="-4.684834"><ele>30.6</ele></trkpt>
    <trkpt lat="48.363312" lon="-4.684790"><ele>31.6</ele></trkpt>
    <trkpt lat="48.363263" lon="-4.684378"><ele>32.8</ele></trkpt>
    <trkpt lat="48.363310" lon="-4.683933"><ele>33.6</ele></trkpt>
    <trkpt lat="48.363291" lon="-4.683843"><ele>34.4</ele></trkpt>
    <trkpt lat="48.363225" lon="-4.683746"><ele>35.6</ele></trkpt>
    <trkpt lat="48.362953" lon="-4.683609"><ele>38.6</ele></trkpt>
    <trkpt lat="48.362625" lon="-4.683536"><ele>40.2</ele></trkpt>
    <trkpt lat="48.362442" lon="-4.683533"><ele>40.6</ele></trkpt>
    <trkpt lat="48.362268" lon="-4.683624"><ele>40.4</ele></trkpt>
    <trkpt lat="48.362213" lon="-4.683769"><ele>40.2</ele></trkpt>
    <trkpt lat="48.362088" lon="-4.684419"><ele>41.2</ele></trkpt>
    <trkpt lat="48.362174" lon="-4.685263"><ele>45.4</ele></trkpt>
    <trkpt lat="48.362082" lon="-4.686318"><ele>48.0</ele></trkpt>
    <trkpt lat="48.362020" lon="-4.686236"><ele>48.4</ele></trkpt>
    <trkpt lat="48.361793" lon="-4.686207"><ele>47.4</ele></trkpt>
    <trkpt lat="48.361087" lon="-4.685970"><ele>40.4</ele></trkpt>
    <trkpt lat="48.358766" lon="-4.685365"><ele>36.2</ele></trkpt>
    <trkpt lat="48.358351" lon="-4.685194"><ele>39.6</ele></trkpt>
    <trkpt lat="48.358385" lon="-4.684440"><ele>39.0</ele></trkpt>
    <trkpt lat="48.358366" lon="-4.684329"><ele>38.8</ele></trkpt>
    <trkpt lat="48.358312" lon="-4.684246"><ele>38.6</ele></trkpt>
    <trkpt lat="48.357945" lon="-4.684055"><ele>36.8</ele></trkpt>
    <trkpt lat="48.356847" lon="-4.683741"><ele>32.6</ele></trkpt>
    <trkpt lat="48.356760" lon="-4.683666"><ele>32.2</ele></trkpt>
    <trkpt lat="48.356641" lon="-4.683438"><ele>31.4</ele></trkpt>
    <trkpt lat="48.356583" lon="-4.682704"><ele>29.2</ele></trkpt>
    <trkpt lat="48.356462" lon="-4.681881"><ele>25.2</ele></trkpt>
    <trkpt lat="48.356415" lon="-4.680951"><ele>20.0</ele></trkpt>
    <trkpt lat="48.356313" lon="-4.680730"><ele>18.2</ele></trkpt>
    <trkpt lat="48.356070" lon="-4.680651"><ele>13.2</ele></trkpt>
    <trkpt lat="48.356051" lon="-4.680611"><ele>12.0</ele></trkpt>
    <trkpt lat="48.356109" lon="-4.680267"><ele>8.6</ele></trkpt>
    <trkpt lat="48.356251" lon="-4.679979"><ele>8.6</ele></trkpt>
    <trkpt lat="48.356308" lon="-4.679749"><ele>9.2</ele></trkpt>
    <trkpt lat="48.356329" lon="-4.679405"><ele>9.2</ele></trkpt>
    <trkpt lat="48.356283" lon="-4.679074"><ele>7.8</ele></trkpt>
    <trkpt lat="48.356207" lon="-4.678890"><ele>7.2</ele></trkpt>
    <trkpt lat="48.355955" lon="-4.678825"><ele>7.4</ele></trkpt>
    <trkpt lat="48.355787" lon="-4.678466"><ele>9.8</ele></trkpt>
    <trkpt lat="48.355661" lon="-4.678283"><ele>13.2</ele></trkpt>
    <trkpt lat="48.355546" lon="-4.678221"><ele>15.4</ele></trkpt>
    <trkpt lat="48.355466" lon="-4.678123"><ele>16.6</ele></trkpt>
    <trkpt lat="48.355314" lon="-4.677831"><ele>18.6</ele></trkpt>
    <trkpt lat="48.355182" lon="-4.677429"><ele>18.6</ele></trkpt>
    <trkpt lat="48.355161" lon="-4.676968"><ele>15.6</ele></trkpt>
    <trkpt lat="48.355125" lon="-4.676799"><ele>14.6</ele></trkpt>
    <trkpt lat="48.354897" lon="-4.676148"><ele>14.6</ele></trkpt>
    <trkpt lat="48.354826" lon="-4.675419"><ele>11.4</ele></trkpt>
    <trkpt lat="48.354718" lon="-4.674825"><ele>9.0</ele></trkpt>
    <trkpt lat="48.354714" lon="-4.674199"><ele>10.8</ele></trkpt>
    <trkpt lat="48.354839" lon="-4.673805"><ele>9.8</ele></trkpt>
    <trkpt lat="48.354930" lon="-4.673723"><ele>10.2</ele></trkpt>
    <trkpt lat="48.355899" lon="-4.673213"><ele>13.6</ele></trkpt>
    <trkpt lat="48.356039" lon="-4.673092"><ele>14.4</ele></trkpt>
    <trkpt lat="48.356076" lon="-4.672947"><ele>14.8</ele></trkpt>
    <trkpt lat="48.356025" lon="-4.672603"><ele>16.0</ele></trkpt>
    <trkpt lat="48.356079" lon="-4.672126"><ele>18.8</ele></trkpt>
    <trkpt lat="48.356931" lon="-4.671007"><ele>20.8</ele></trkpt>
    <trkpt lat="48.356981" lon="-4.670771"><ele>22.4</ele></trkpt>
    <trkpt lat="48.356872" lon="-4.670432"><ele>26.6</ele></trkpt>
    <trkpt lat="48.356926" lon="-4.670272"><ele>27.6</ele></trkpt>
    <trkpt lat="48.357460" lon="-4.669777"><ele>27.4</ele></trkpt>
    <trkpt lat="48.357619" lon="-4.669584"><ele>28.8</ele></trkpt>
    <trkpt lat="48.357666" lon="-4.669472"><ele>29.8</ele></trkpt>
    <trkpt lat="48.357701" lon="-4.669154"><ele>32.8</ele></trkpt>
    <trkpt lat="48.357921" lon="-4.668938"><ele>35.4</ele></trkpt>
    <trkpt lat="48.357999" lon="-4.668734"><ele>36.8</ele></trkpt>
    <trkpt lat="48.358017" lon="-4.668453"><ele>40.0</ele></trkpt>
    <trkpt lat="48.357971" lon="-4.668349"><ele>41.0</ele></trkpt>
    <trkpt lat="48.357906" lon="-4.668299"><ele>41.4</ele></trkpt>
    <trkpt lat="48.357438" lon="-4.668319"><ele>43.2</ele></trkpt>
    <trkpt lat="48.357198" lon="-4.668460"><ele>44.0</ele></trkpt>
    <trkpt lat="48.356750" lon="-4.668273"><ele>45.6</ele></trkpt>
    <trkpt lat="48.356426" lon="-4.668211"><ele>46.6</ele></trkpt>
    <trkpt lat="48.356328" lon="-4.667753"><ele>48.0</ele></trkpt>
    <trkpt lat="48.356310" lon="-4.667466"><ele>48.4</ele></trkpt>
    <trkpt lat="48.356338" lon="-4.667304"><ele>48.8</ele></trkpt>
    <trkpt lat="48.356377" lon="-4.667179"><ele>49.2</ele></trkpt>
    <trkpt lat="48.356505" lon="-4.666991"><ele>50.2</ele></trkpt>
    <trkpt lat="48.356566" lon="-4.666493"><ele>51.4</ele></trkpt>
    <trkpt lat="48.356747" lon="-4.665876"><ele>53.4</ele></trkpt>
    <trkpt lat="48.357004" lon="-4.665283"><ele>54.2</ele></trkpt>
    <trkpt lat="48.357050" lon="-4.665034"><ele>54.6</ele></trkpt>
    <trkpt lat="48.357062" lon="-4.664720"><ele>55.2</ele></trkpt>
    <trkpt lat="48.357731" lon="-4.664333"><ele>56.2</ele></trkpt>
    <trkpt lat="48.357861" lon="-4.664309"><ele>56.6</ele></trkpt>
    <trkpt lat="48.358088" lon="-4.664371"><ele>57.0</ele></trkpt>
    <trkpt lat="48.358800" lon="-4.664081"><ele>58.0</ele></trkpt>
    <trkpt lat="48.358989" lon="-4.663963"><ele>58.2</ele></trkpt>
    <trkpt lat="48.360144" lon="-4.662174"><ele>66.4</ele></trkpt>
    <trkpt lat="48.360195" lon="-4.662000"><ele>67.2</ele></trkpt>
    <trkpt lat="48.360148" lon="-4.661689"><ele>67.6</ele></trkpt>
    <trkpt lat="48.360190" lon="-4.661528"><ele>67.8</ele></trkpt>
    <trkpt lat="48.360637" lon="-4.660916"><ele>69.8</ele></trkpt>
    <trkpt lat="48.361184" lon="-4.660506"><ele>71.2</ele></trkpt>
    <trkpt lat="48.361570" lon="-4.660088"><ele>71.6</ele></trkpt>
    <trkpt lat="48.361575" lon="-4.659928"><ele>71.8</ele></trkpt>
    <trkpt lat="48.361303" lon="-4.659162"><ele>72.6</ele></trkpt>
    <trkpt lat="48.360893" lon="-4.658356"><ele>72.4</ele></trkpt>
    <trkpt lat="48.360643" lon="-4.657943"><ele>71.8</ele></trkpt>
    <trkpt lat="48.360580" lon="-4.657754"><ele>71.8</ele></trkpt>
    <trkpt lat="48.360485" lon="-4.657188"><ele>71.4</ele></trkpt>
    <trkpt lat="48.360509" lon="-4.656309"><ele>70.6</ele></trkpt>
    <trkpt lat="48.360549" lon="-4.656036"><ele>70.8</ele></trkpt>
    <trkpt lat="48.360898" lon="-4.655561"><ele>71.6</ele></trkpt>
    <trkpt lat="48.361206" lon="-4.654897"><ele>74.0</ele></trkpt>
    <trkpt lat="48.361441" lon="-4.654123"><ele>74.2</ele></trkpt>
    <trkpt lat="48.361817" lon="-4.653364"><ele>74.8</ele></trkpt>
    <trkpt lat="48.361910" lon="-4.653043"><ele>75.0</ele></trkpt>
    <trkpt lat="48.362198" lon="-4.652708"><ele>74.2</ele></trkpt>
    <trkpt lat="48.362442" lon="-4.652163"><ele>75.6</ele></trkpt>
    <trkpt lat="48.362634" lon="-4.651161"><ele>75.4</ele></trkpt>
    <trkpt lat="48.362759" lon="-4.650880"><ele>75.2</ele></trkpt>
    <trkpt lat="48.363125" lon="-4.649835"><ele>73.4</ele></trkpt>
    <trkpt lat="48.363233" lon="-4.649401"><ele>73.6</ele></trkpt>
    <trkpt lat="48.363675" lon="-4.648475"><ele>72.2</ele></trkpt>
    <trkpt lat="48.363985" lon="-4.647331"><ele>72.8</ele></trkpt>
    <trkpt lat="48.364564" lon="-4.645817"><ele>70.6</ele></trkpt>
    <trkpt lat="48.364961" lon="-4.644512"><ele>68.8</ele></trkpt>
    <trkpt lat="48.365136" lon="-4.644122"><ele>68.2</ele></trkpt>
    <trkpt lat="48.365392" lon="-4.643702"><ele>67.8</ele></trkpt>
    <trkpt lat="48.365560" lon="-4.643288"><ele>68.0</ele></trkpt>
    <trkpt lat="48.365634" lon="-4.643001"><ele>68.4</ele></trkpt>
    <trkpt lat="48.365774" lon="-4.642124"><ele>68.2</ele></trkpt>
    <trkpt lat="48.365808" lon="-4.642075"><ele>68.2</ele></trkpt>
    <trkpt lat="48.365892" lon="-4.642070"><ele>68.2</ele></trkpt>
    <trkpt lat="48.366056" lon="-4.642172"><ele>68.4</ele></trkpt>
    <trkpt lat="48.366213" lon="-4.642336"><ele>68.6</ele></trkpt>
    <trkpt lat="48.366446" lon="-4.642282"><ele>69.0</ele></trkpt>
    <trkpt lat="48.367239" lon="-4.642585"><ele>70.0</ele></trkpt>
    <trkpt lat="48.368050" lon="-4.642817"><ele>68.8</ele></trkpt>
    <trkpt lat="48.368284" lon="-4.642762"><ele>67.8</ele></trkpt>
    <trkpt lat="48.368645" lon="-4.642799"><ele>65.0</ele></trkpt>
    <trkpt lat="48.369588" lon="-4.642770"><ele>62.2</ele></trkpt>
    <trkpt lat="48.369645" lon="-4.642729"><ele>62.0</ele></trkpt>
    <trkpt lat="48.369693" lon="-4.642598"><ele>61.6</ele></trkpt>
    <trkpt lat="48.369829" lon="-4.641965"><ele>60.6</ele></trkpt>
    <trkpt lat="48.370195" lon="-4.640556"><ele>61.0</ele></trkpt>
  </trkseg></trk>
</gpx>
