<?xml version="1.0" encoding="UTF-8"?>
<gpx version="1.1" creator="tcap-parcours" xmlns="http://www.topografix.com/GPX/1/1">
  <metadata><name>Fractionné plat Dreizoc – Gorrequear – 14 × ~2'</name></metadata>
  <trk><name>Fractionné plat Dreizoc – Gorrequear – 14 × ~2'</name><trkseg>
    <trkpt lat="48.369965" lon="-4.640397"><ele>60.6</ele></trkpt>
    <trkpt lat="48.369983" lon="-4.640666"><ele>60.6</ele></trkpt>
    <trkpt lat="48.369954" lon="-4.640918"><ele>60.4</ele></trkpt>
    <trkpt lat="48.369799" lon="-4.641385"><ele>60.2</ele></trkpt>
    <trkpt lat="48.369633" lon="-4.641633"><ele>61.0</ele></trkpt>
    <trkpt lat="48.369576" lon="-4.642157"><ele>61.8</ele></trkpt>
    <trkpt lat="48.369637" lon="-4.642675"><ele>60.8</ele></trkpt>
    <trkpt lat="48.369568" lon="-4.642897"><ele>60.4</ele></trkpt>
    <trkpt lat="48.369497" lon="-4.642981"><ele>60.6</ele></trkpt>
    <trkpt lat="48.368250" lon="-4.642913"><ele>68.0</ele></trkpt>
    <trkpt lat="48.367401" lon="-4.642588"><ele>69.8</ele></trkpt>
    <trkpt lat="48.366395" lon="-4.642294"><ele>68.6</ele></trkpt>
    <trkpt lat="48.366272" lon="-4.642317"><ele>68.6</ele></trkpt>
    <trkpt lat="48.366149" lon="-4.642429"><ele>69.2</ele></trkpt>
    <trkpt lat="48.366099" lon="-4.642239"><ele>69.2</ele></trkpt>
    <trkpt lat="48.366010" lon="-4.642131"><ele>69.0</ele></trkpt>
    <trkpt lat="48.365902" lon="-4.642091"><ele>68.8</ele></trkpt>
    <trkpt lat="48.365794" lon="-4.642126"><ele>68.6</ele></trkpt>
    <trkpt lat="48.365707" lon="-4.642313"><ele>68.4</ele></trkpt>
    <trkpt lat="48.365632" lon="-4.643002"><ele>68.8</ele></trkpt>
    <trkpt lat="48.365538" lon="-4.643394"><ele>68.8</ele></trkpt>
    <trkpt lat="48.365021" lon="-4.644405"><ele>69.2</ele></trkpt>
    <trkpt lat="48.364683" lon="-4.645530"><ele>70.4</ele></trkpt>
    <trkpt lat="48.364164" lon="-4.646915"><ele>72.0</ele></trkpt>
    <trkpt lat="48.364153" lon="-4.647030"><ele>72.4</ele></trkpt>
    <trkpt lat="48.364192" lon="-4.647132"><ele>72.8</ele></trkpt>
    <trkpt lat="48.364315" lon="-4.647341"><ele>73.2</ele></trkpt>
    <trkpt lat="48.364586" lon="-4.647679"><ele>72.0</ele></trkpt>
    <trkpt lat="48.364816" lon="-4.648084"><ele>72.0</ele></trkpt>
    <trkpt lat="48.365295" lon="-4.649423"><ele>70.8</ele></trkpt>
    <trkpt lat="48.365755" lon="-4.650079"><ele>72.0</ele></trkpt>
    <trkpt lat="48.366511" lon="-4.651589"><ele>76.8</ele></trkpt>
    <trkpt lat="48.367085" lon="-4.652642"><ele>75.0</ele></trkpt>
    <trkpt lat="48.367112" lon="-4.652752"><ele>74.8</ele></trkpt>
    <trkpt lat="48.367090" lon="-4.652872"><ele>74.6</ele></trkpt>
    <trkpt lat="48.366748" lon="-4.653255"><ele>75.2</ele></trkpt>
    <trkpt lat="48.366715" lon="-4.653352"><ele>75.2</ele></trkpt>
    <trkpt lat="48.366730" lon="-4.653427"><ele>75.2</ele></trkpt>
    <trkpt lat="48.366803" lon="-4.653503"><ele>75.0</ele></trkpt>
    <trkpt lat="48.367000" lon="-4.653599"><ele>74.6</ele></trkpt>
    <trkpt lat="48.367502" lon="-4.653743"><ele>73.6</ele></trkpt>
    <trkpt lat="48.367637" lon="-4.653824"><ele>74.0</ele></trkpt>
    <trkpt lat="48.368229" lon="-4.654720"><ele>76.0</ele></trkpt>
    <trkpt lat="48.369154" lon="-4.655891"><ele>76.6</ele></trkpt>
    <trkpt lat="48.369521" lon="-4.656204"><ele>77.2</ele></trkpt>
    <trkpt lat="48.370082" lon="-4.656772"><ele>74.6</ele></trkpt>
    <trkpt lat="48.370416" lon="-4.656740"><ele>72.8</ele></trkpt>
    <trkpt lat="48.370797" lon="-4.656911"><ele>70.6</ele></trkpt>
    <trkpt lat="48.371062" lon="-4.656980"><ele>69.8</ele></trkpt>
    <trkpt lat="48.372706" lon="-4.657051"><ele>64.4</ele></trkpt>
    <trkpt lat="48.373289" lon="-4.657193"><ele>62.8</ele></trkpt>
    <trkpt lat="48.373547" lon="-4.657355"><ele>61.4</ele></trkpt>
    <trkpt lat="48.373988" lon="-4.657719"><ele>60.0</ele></trkpt>
    <trkpt lat="48.374622" lon="-4.658373"><ele>60.8</ele></trkpt>
    <trkpt lat="48.375239" lon="-4.658790"><ele>62.8</ele></trkpt>
    <trkpt lat="48.375654" lon="-4.659143"><ele>65.0</ele></trkpt>
    <trkpt lat="48.376067" lon="-4.659664"><ele>69.6</ele></trkpt>
    <trkpt lat="48.376136" lon="-4.659666"><ele>70.2</ele></trkpt>
    <trkpt lat="48.376236" lon="-4.659596"><ele>71.0</ele></trkpt>
    <trkpt lat="48.376596" lon="-4.659189"><ele>73.8</ele></trkpt>
    <trkpt lat="48.377523" lon="-4.658818"><ele>75.6</ele></trkpt>
    <trkpt lat="48.377880" lon="-4.658483"><ele>75.6</ele></trkpt>
    <trkpt lat="48.378043" lon="-4.658480"><ele>76.0</ele></trkpt>
    <trkpt lat="48.378316" lon="-4.658715"><ele>77.6</ele></trkpt>
    <trkpt lat="48.378673" lon="-4.658498"><ele>77.2</ele></trkpt>
    <trkpt lat="48.378737" lon="-4.658373"><ele>76.8</ele></trkpt>
    <trkpt lat="48.378821" lon="-4.657909"><ele>75.6</ele></trkpt>
    <trkpt lat="48.378956" lon="-4.656794"><ele>72.0</ele></trkpt>
    <trkpt lat="48.378985" lon="-4.656416"><ele>71.4</ele></trkpt>
    <trkpt lat="48.378968" lon="-4.656272"><ele>71.2</ele></trkpt>
    <trkpt lat="48.378724" lon="-4.656105"><ele>70.4</ele></trkpt>
    <trkpt lat="48.377805" lon="-4.655767"><ele>66.0</ele></trkpt>
    <trkpt lat="48.377645" lon="-4.655652"><ele>64.8</ele></trkpt>
    <trkpt lat="48.377566" lon="-4.655505"><ele>64.0</ele></trkpt>
    <trkpt lat="48.377503" lon="-4.655217"><ele>63.0</ele></trkpt>
    <trkpt lat="48.377381" lon="-4.653796"><ele>60.0</ele></trkpt>
    <trkpt lat="48.377285" lon="-4.653473"><ele>59.8</ele></trkpt>
    <trkpt lat="48.377133" lon="-4.653326"><ele>59.8</ele></trkpt>
    <trkpt lat="48.376475" lon="-4.652960"><ele>60.6</ele></trkpt>
    <trkpt lat="48.375966" lon="-4.652551"><ele>59.8</ele></trkpt>
    <trkpt lat="48.374980" lon="-4.651015"><ele>58.4</ele></trkpt>
    <trkpt lat="48.374822" lon="-4.650821"><ele>59.2</ele></trkpt>
    <trkpt lat="48.374784" lon="-4.650917"><ele>59.2</ele></trkpt>
    <trkpt lat="48.374911" lon="-4.651625"><ele>57.8</ele></trkpt>
    <trkpt lat="48.375025" lon="-4.652538"><ele>59.2</ele></trkpt>
    <trkpt lat="48.375038" lon="-4.652771"><ele>60.0</ele></trkpt>
    <trkpt lat="48.375005" lon="-4.652873"><ele>60.2</ele></trkpt>
    <trkpt lat="48.374415" lon="-4.652859"><ele>60.8</ele></trkpt>
    <trkpt lat="48.373672" lon="-4.652760"><ele>61.4</ele></trkpt>
    <trkpt lat="48.373570" lon="-4.652692"><ele>61.8</ele></trkpt>
    <trkpt lat="48.373377" lon="-4.652415"><ele>63.2</ele></trkpt>
    <trkpt lat="48.373128" lon="-4.652270"><ele>63.8</ele></trkpt>
    <trkpt lat="48.373040" lon="-4.652252"><ele>64.4</ele></trkpt>
    <trkpt lat="48.372856" lon="-4.652301"><ele>65.2</ele></trkpt>
    <trkpt lat="48.372156" lon="-4.652169"><ele>68.2</ele></trkpt>
    <trkpt lat="48.372108" lon="-4.652287"><ele>68.2</ele></trkpt>
    <trkpt lat="48.372137" lon="-4.652911"><ele>68.2</ele></trkpt>
    <trkpt lat="48.372102" lon="-4.653084"><ele>68.2</ele></trkpt>
    <trkpt lat="48.372092" lon="-4.653761"><ele>68.4</ele></trkpt>
    <trkpt lat="48.372044" lon="-4.654123"><ele>68.6</ele></trkpt>
    <trkpt lat="48.371679" lon="-4.654107"><ele>69.8</ele></trkpt>
    <trkpt lat="48.371583" lon="-4.654276"><ele>69.0</ele></trkpt>
    <trkpt lat="48.371260" lon="-4.655339"><ele>70.0</ele></trkpt>
    <trkpt lat="48.371197" lon="-4.655435"><ele>70.4</ele></trkpt>
    <trkpt lat="48.371144" lon="-4.655441"><ele>70.6</ele></trkpt>
    <trkpt lat="48.370839" lon="-4.655188"><ele>71.6</ele></trkpt>
    <trkpt lat="48.370760" lon="-4.655043"><ele>71.4</ele></trkpt>
    <trkpt lat="48.371100" lon="-4.653990"><ele>70.6</ele></trkpt>
    <trkpt lat="48.371151" lon="-4.653906"><ele>70.4</ele></trkpt>
    <trkpt lat="48.371226" lon="-4.653897"><ele>70.2</ele></trkpt>
    <trkpt lat="48.371551" lon="-4.654088"><ele>69.6</ele></trkpt>
    <trkpt lat="48.371611" lon="-4.654232"><ele>69.0</ele></trkpt>
    <trkpt lat="48.371509" lon="-4.654707"><ele>69.2</ele></trkpt>
    <trkpt lat="48.371295" lon="-4.655303"><ele>69.4</ele></trkpt>
    <trkpt lat="48.371228" lon="-4.655381"><ele>69.6</ele></trkpt>
    <trkpt lat="48.371148" lon="-4.655399"><ele>69.8</ele></trkpt>
    <trkpt lat="48.370910" lon="-4.655287"><ele>70.2</ele></trkpt>
    <trkpt lat="48.370782" lon="-4.655109"><ele>70.6</ele></trkpt>
    <trkpt lat="48.370775" lon="-4.654914"><ele>70.6</ele></trkpt>
    <trkpt lat="48.370930" lon="-4.654273"><ele>70.4</ele></trkpt>
    <trkpt lat="48.371117" lon="-4.653882"><ele>69.6</ele></trkpt>
    <trkpt lat="48.371250" lon="-4.653892"><ele>69.2</ele></trkpt>
    <trkpt lat="48.371599" lon="-4.654214"><ele>68.6</ele></trkpt>
    <trkpt lat="48.371500" lon="-4.654698"><ele>69.2</ele></trkpt>
    <trkpt lat="48.371334" lon="-4.655257"><ele>69.4</ele></trkpt>
    <trkpt lat="48.371224" lon="-4.655384"><ele>69.4</ele></trkpt>
    <trkpt lat="48.371083" lon="-4.655366"><ele>69.6</ele></trkpt>
    <trkpt lat="48.370863" lon="-4.655164"><ele>70.0</ele></trkpt>
    <trkpt lat="48.370813" lon="-4.654945"><ele>70.0</ele></trkpt>
    <trkpt lat="48.370924" lon="-4.654338"><ele>70.0</ele></trkpt>
    <trkpt lat="48.371050" lon="-4.653996"><ele>69.4</ele></trkpt>
    <trkpt lat="48.371123" lon="-4.653895"><ele>69.2</ele></trkpt>
    <trkpt lat="48.371216" lon="-4.653872"><ele>68.8</ele></trkpt>
    <trkpt lat="48.371595" lon="-4.654176"><ele>68.8</ele></trkpt>
    <trkpt lat="48.371594" lon="-4.654213"><ele>68.8</ele></trkpt>
    <trkpt lat="48.371532" lon="-4.654553"><ele>69.0</ele></trkpt>
    <trkpt lat="48.371322" lon="-4.655237"><ele>69.6</ele></trkpt>
    <trkpt lat="48.371223" lon="-4.655410"><ele>70.0</ele></trkpt>
    <trkpt lat="48.371081" lon="-4.655439"><ele>70.4</ele></trkpt>
    <trkpt lat="48.370811" lon="-4.655159"><ele>71.2</ele></trkpt>
    <trkpt lat="48.370766" lon="-4.655014"><ele>71.2</ele></trkpt>
    <trkpt lat="48.370800" lon="-4.654791"><ele>70.8</ele></trkpt>
    <trkpt lat="48.371067" lon="-4.654025"><ele>70.0</ele></trkpt>
    <trkpt lat="48.371168" lon="-4.653920"><ele>69.8</ele></trkpt>
    <trkpt lat="48.371262" lon="-4.653935"><ele>69.6</ele></trkpt>
    <trkpt lat="48.371578" lon="-4.654285"><ele>68.8</ele></trkpt>
    <trkpt lat="48.371485" lon="-4.654768"><ele>69.4</ele></trkpt>
    <trkpt lat="48.371317" lon="-4.655305"><ele>69.6</ele></trkpt>
    <trkpt lat="48.371188" lon="-4.655427"><ele>70.0</ele></trkpt>
    <trkpt lat="48.371036" lon="-4.655419"><ele>70.6</ele></trkpt>
    <trkpt lat="48.370832" lon="-4.655171"><ele>71.2</ele></trkpt>
    <trkpt lat="48.370789" lon="-4.655028"><ele>71.4</ele></trkpt>
    <trkpt lat="48.370815" lon="-4.654854"><ele>71.2</ele></trkpt>
    <trkpt lat="48.371086" lon="-4.654002"><ele>70.6</ele></trkpt>
    <trkpt lat="48.371181" lon="-4.653904"><ele>70.6</ele></trkpt>
    <trkpt lat="48.371305" lon="-4.653930"><ele>70.6</ele></trkpt>
    <trkpt lat="48.371582" lon="-4.654251"><ele>68.8</ele></trkpt>
    <trkpt lat="48.371582" lon="-4.654301"><ele>68.8</ele></trkpt>
    <trkpt lat="48.371479" lon="-4.654833"><ele>69.4</ele></trkpt>
    <trkpt lat="48.371289" lon="-4.655361"><ele>69.6</ele></trkpt>
    <trkpt lat="48.371170" lon="-4.655484"><ele>69.8</ele></trkpt>
    <trkpt lat="48.370989" lon="-4.655453"><ele>70.0</ele></trkpt>
    <trkpt lat="48.370828" lon="-4.655178"><ele>70.2</ele></trkpt>
    <trkpt lat="48.370787" lon="-4.654938"><ele>70.2</ele></trkpt>
    <trkpt lat="48.370913" lon="-4.654344"><ele>70.0</ele></trkpt>
    <trkpt lat="48.371016" lon="-4.654052"><ele>69.8</ele></trkpt>
    <trkpt lat="48.371117" lon="-4.653922"><ele>69.6</ele></trkpt>
    <trkpt lat="48.371208" lon="-4.653893"><ele>69.4</ele></trkpt>
    <trkpt lat="48.371587" lon="-4.654244"><ele>68.8</ele></trkpt>
    <trkpt lat="48.371477" lon="-4.654810"><ele>69.2</ele></trkpt>
    <trkpt lat="48.371335" lon="-4.655273"><ele>69.4</ele></trkpt>
    <trkpt lat="48.371210" lon="-4.655427"><ele>69.4</ele></trkpt>
    <trkpt lat="48.371053" lon="-4.655432"><ele>69.6</ele></trkpt>
    <trkpt lat="48.370942" lon="-4.655367"><ele>69.8</ele></trkpt>
    <trkpt lat="48.370871" lon="-4.655271"><ele>69.8</ele></trkpt>
    <trkpt lat="48.370798" lon="-4.655116"><ele>70.0</ele></trkpt>
    <trkpt lat="48.370783" lon="-4.654998"><ele>70.0</ele></trkpt>
    <trkpt lat="48.370818" lon="-4.654760"><ele>70.2</ele></trkpt>
    <trkpt lat="48.371111" lon="-4.653958"><ele>70.2</ele></trkpt>
    <trkpt lat="48.371157" lon="-4.653889"><ele>70.0</ele></trkpt>
    <trkpt lat="48.371235" lon="-4.653872"><ele>70.0</ele></trkpt>
    <trkpt lat="48.371588" lon="-4.654253"><ele>68.8</ele></trkpt>
    <trkpt lat="48.371296" lon="-4.655286"><ele>69.4</ele></trkpt>
    <trkpt lat="48.371186" lon="-4.655372"><ele>69.6</ele></trkpt>
    <trkpt lat="48.370990" lon="-4.655350"><ele>69.8</ele></trkpt>
    <trkpt lat="48.370916" lon="-4.655299"><ele>70.0</ele></trkpt>
    <trkpt lat="48.370818" lon="-4.655151"><ele>70.0</ele></trkpt>
    <trkpt lat="48.370787" lon="-4.654973"><ele>70.2</ele></trkpt>
    <trkpt lat="48.370895" lon="-4.654550"><ele>70.2</ele></trkpt>
    <trkpt lat="48.371079" lon="-4.654011"><ele>69.8</ele></trkpt>
    <trkpt lat="48.371161" lon="-4.653908"><ele>69.6</ele></trkpt>
    <trkpt lat="48.371224" lon="-4.653898"><ele>69.4</ele></trkpt>
    <trkpt lat="48.371598" lon="-4.654239"><ele>68.8</ele></trkpt>
    <trkpt lat="48.371470" lon="-4.654798"><ele>69.4</ele></trkpt>
    <trkpt lat="48.371317" lon="-4.655285"><ele>69.6</ele></trkpt>
    <trkpt lat="48.371195" lon="-4.655418"><ele>69.6</ele></trkpt>
    <trkpt lat="48.371011" lon="-4.655385"><ele>69.8</ele></trkpt>
    <trkpt lat="48.370841" lon="-4.655211"><ele>70.2</ele></trkpt>
    <trkpt lat="48.370795" lon="-4.655059"><ele>70.4</ele></trkpt>
    <trkpt lat="48.370973" lon="-4.654283"><ele>70.8</ele></trkpt>
    <trkpt lat="48.371079" lon="-4.653994"><ele>70.6</ele></trkpt>
    <trkpt lat="48.371156" lon="-4.653901"><ele>70.4</ele></trkpt>
    <trkpt lat="48.371219" lon="-4.653901"><ele>70.2</ele></trkpt>
    <trkpt lat="48.371351" lon="-4.653985"><ele>70.0</ele></trkpt>
    <trkpt lat="48.371599" lon="-4.654256"><ele>69.0</ele></trkpt>
    <trkpt lat="48.371334" lon="-4.655243"><ele>69.6</ele></trkpt>
    <trkpt lat="48.371194" lon="-4.655431"><ele>70.0</ele></trkpt>
    <trkpt lat="48.371015" lon="-4.655410"><ele>70.4</ele></trkpt>
    <trkpt lat="48.370817" lon="-4.655170"><ele>71.2</ele></trkpt>
    <trkpt lat="48.370785" lon="-4.655018"><ele>71.4</ele></trkpt>
    <trkpt lat="48.370990" lon="-4.654252"><ele>71.6</ele></trkpt>
    <trkpt lat="48.371096" lon="-4.653973"><ele>70.8</ele></trkpt>
    <trkpt lat="48.371200" lon="-4.653907"><ele>70.2</ele></trkpt>
    <trkpt lat="48.371383" lon="-4.653998"><ele>69.2</ele></trkpt>
    <trkpt lat="48.371585" lon="-4.654246"><ele>68.8</ele></trkpt>
    <trkpt lat="48.371428" lon="-4.654876"><ele>69.6</ele></trkpt>
    <trkpt lat="48.371266" lon="-4.655356"><ele>69.6</ele></trkpt>
    <trkpt lat="48.371183" lon="-4.655453"><ele>69.6</ele></trkpt>
    <trkpt lat="48.371049" lon="-4.655449"><ele>69.8</ele></trkpt>
    <trkpt lat="48.370950" lon="-4.655385"><ele>70.0</ele></trkpt>
    <trkpt lat="48.370852" lon="-4.655243"><ele>70.2</ele></trkpt>
    <trkpt lat="48.370786" lon="-4.655033"><ele>70.4</ele></trkpt>
    <trkpt lat="48.370810" lon="-4.654854"><ele>70.6</ele></trkpt>
    <trkpt lat="48.371068" lon="-4.654018"><ele>70.6</ele></trkpt>
    <trkpt lat="48.371141" lon="-4.653929"><ele>70.4</ele></trkpt>
    <trkpt lat="48.371237" lon="-4.653942"><ele>70.2</ele></trkpt>
    <trkpt lat="48.371447" lon="-4.654048"><ele>70.0</ele></trkpt>
    <trkpt lat="48.371617" lon="-4.654195"><ele>68.8</ele></trkpt>
    <trkpt lat="48.371612" lon="-4.654253"><ele>68.8</ele></trkpt>
    <trkpt lat="48.371389" lon="-4.655103"><ele>69.4</ele></trkpt>
    <trkpt lat="48.371276" lon="-4.655377"><ele>69.6</ele></trkpt>
    <trkpt lat="48.371204" lon="-4.655434"><ele>69.6</ele></trkpt>
    <trkpt lat="48.371085" lon="-4.655450"><ele>69.8</ele></trkpt>
    <trkpt lat="48.370941" lon="-4.655381"><ele>70.0</ele></trkpt>
    <trkpt lat="48.370872" lon="-4.655288"><ele>70.2</ele></trkpt>
    <trkpt lat="48.370791" lon="-4.655112"><ele>70.4</ele></trkpt>
    <trkpt lat="48.370783" lon="-4.654929"><ele>70.4</ele></trkpt>
    <trkpt lat="48.371006" lon="-4.654156"><ele>71.0</ele></trkpt>
    <trkpt lat="48.371091" lon="-4.653985"><ele>70.6</ele></trkpt>
    <trkpt lat="48.371187" lon="-4.653922"><ele>70.4</ele></trkpt>
    <trkpt lat="48.371343" lon="-4.653944"><ele>70.0</ele></trkpt>
    <trkpt lat="48.371601" lon="-4.654255"><ele>68.8</ele></trkpt>
    <trkpt lat="48.371540" lon="-4.654585"><ele>69.2</ele></trkpt>
    <trkpt lat="48.371330" lon="-4.655302"><ele>69.6</ele></trkpt>
    <trkpt lat="48.371245" lon="-4.655455"><ele>69.6</ele></trkpt>
    <trkpt lat="48.371165" lon="-4.655491"><ele>69.8</ele></trkpt>
    <trkpt lat="48.371048" lon="-4.655442"><ele>70.0</ele></trkpt>
    <trkpt lat="48.370900" lon="-4.655334"><ele>70.4</ele></trkpt>
    <trkpt lat="48.370805" lon="-4.655180"><ele>70.8</ele></trkpt>
    <trkpt lat="48.370772" lon="-4.655058"><ele>71.0</ele></trkpt>
    <trkpt lat="48.370786" lon="-4.654873"><ele>71.2</ele></trkpt>
    <trkpt lat="48.370899" lon="-4.654577"><ele>71.2</ele></trkpt>
    <trkpt lat="48.371023" lon="-4.654112"><ele>70.6</ele></trkpt>
    <trkpt lat="48.371117" lon="-4.653952"><ele>70.2</ele></trkpt>
    <trkpt lat="48.371222" lon="-4.653924"><ele>70.2</ele></trkpt>
    <trkpt lat="48.371502" lon="-4.654023"><ele>69.8</ele></trkpt>
    <trkpt lat="48.371618" lon="-4.654187"><ele>68.8</ele></trkpt>
    <trkpt lat="48.372029" lon="-4.654117"><ele>67.8</ele></trkpt>
    <trkpt lat="48.372101" lon="-4.654052"><ele>67.6</ele></trkpt>
    <trkpt lat="48.372161" lon="-4.653624"><ele>67.8</ele></trkpt>
    <trkpt lat="48.372157" lon="-4.652523"><ele>67.6</ele></trkpt>
    <trkpt lat="48.372116" lon="-4.651663"><ele>67.0</ele></trkpt>
    <trkpt lat="48.372434" lon="-4.650374"><ele>65.4</ele></trkpt>
    <trkpt lat="48.372556" lon="-4.650099"><ele>64.6</ele></trkpt>
    <trkpt lat="48.372619" lon="-4.650048"><ele>64.4</ele></trkpt>
    <trkpt lat="48.372724" lon="-4.650062"><ele>63.8</ele></trkpt>
    <trkpt lat="48.373130" lon="-4.650324"><ele>62.4</ele></trkpt>
    <trkpt lat="48.373213" lon="-4.650456"><ele>62.2</ele></trkpt>
    <trkpt lat="48.373278" lon="-4.650733"><ele>61.4</ele></trkpt>
    <trkpt lat="48.373323" lon="-4.650775"><ele>61.2</ele></trkpt>
    <trkpt lat="48.373608" lon="-4.650549"><ele>60.8</ele></trkpt>
    <trkpt lat="48.373834" lon="-4.650733"><ele>60.4</ele></trkpt>
    <trkpt lat="48.374162" lon="-4.650798"><ele>59.6</ele></trkpt>
    <trkpt lat="48.374296" lon="-4.650719"><ele>59.0</ele></trkpt>
    <trkpt lat="48.374563" lon="-4.650432"><ele>57.2</ele></trkpt>
    <trkpt lat="48.374596" lon="-4.650314"><ele>56.8</ele></trkpt>
    <trkpt lat="48.374583" lon="-4.650186"><ele>56.8</ele></trkpt>
    <trkpt lat="48.374395" lon="-4.649808"><ele>56.6</ele></trkpt>
    <trkpt lat="48.375030" lon="-4.649015"><ele>55.2</ele></trkpt>
    <trkpt lat="48.375820" lon="-4.647605"><ele>51.6</ele></trkpt>
    <trkpt lat="48.376173" lon="-4.647052"><ele>51.0</ele></trkpt>
    <trkpt lat="48.376276" lon="-4.646796"><ele>51.6</ele></trkpt>
    <trkpt lat="48.376342" lon="-4.646049"><ele>51.8</ele></trkpt>
    <trkpt lat="48.376335" lon="-4.645688"><ele>51.6</ele></trkpt>
    <trkpt lat="48.376279" lon="-4.645544"><ele>51.8</ele></trkpt>
    <trkpt lat="48.376018" lon="-4.645305"><ele>52.8</ele></trkpt>
    <trkpt lat="48.375944" lon="-4.645177"><ele>53.0</ele></trkpt>
    <trkpt lat="48.375961" lon="-4.644882"><ele>52.8</ele></trkpt>
    <trkpt lat="48.375940" lon="-4.644620"><ele>52.8</ele></trkpt>
    <trkpt lat="48.375740" lon="-4.643861"><ele>52.8</ele></trkpt>
    <trkpt lat="48.375748" lon="-4.643769"><ele>52.4</ele></trkpt>
    <trkpt lat="48.375818" lon="-4.643683"><ele>52.2</ele></trkpt>
    <trkpt lat="48.375933" lon="-4.643636"><ele>51.8</ele></trkpt>
    <trkpt lat="48.376736" lon="-4.643524"><ele>50.6</ele></trkpt>
    <trkpt lat="48.376832" lon="-4.643399"><ele>50.4</ele></trkpt>
    <trkpt lat="48.376857" lon="-4.643187"><ele>50.4</ele></trkpt>
    <trkpt lat="48.376827" lon="-4.642685"><ele>51.0</ele></trkpt>
    <trkpt lat="48.376773" lon="-4.642486"><ele>51.4</ele></trkpt>
    <trkpt lat="48.376693" lon="-4.642358"><ele>51.6</ele></trkpt>
    <trkpt lat="48.376297" lon="-4.641928"><ele>51.6</ele></trkpt>
    <trkpt lat="48.375973" lon="-4.642026"><ele>52.0</ele></trkpt>
    <trkpt lat="48.375642" lon="-4.642366"><ele>52.2</ele></trkpt>
    <trkpt lat="48.375473" lon="-4.642290"><ele>51.8</ele></trkpt>
    <trkpt lat="48.375072" lon="-4.642327"><ele>51.6</ele></trkpt>
    <trkpt lat="48.374685" lon="-4.642248"><ele>51.8</ele></trkpt>
    <trkpt lat="48.374262" lon="-4.642032"><ele>51.2</ele></trkpt>
    <trkpt lat="48.374065" lon="-4.641641"><ele>51.0</ele></trkpt>
    <trkpt lat="48.373904" lon="-4.641500"><ele>50.8</ele></trkpt>
    <trkpt lat="48.373766" lon="-4.641232"><ele>51.0</ele></trkpt>
    <trkpt lat="48.373643" lon="-4.641105"><ele>51.2</ele></trkpt>
    <trkpt lat="48.373529" lon="-4.641069"><ele>51.2</ele></trkpt>
    <trkpt lat="48.373392" lon="-4.641147"><ele>51.8</ele></trkpt>
    <trkpt lat="48.373269" lon="-4.641522"><ele>52.4</ele></trkpt>
    <trkpt lat="48.373189" lon="-4.641660"><ele>52.2</ele></trkpt>
    <trkpt lat="48.372866" lon="-4.641820"><ele>51.8</ele></trkpt>
    <trkpt lat="48.372621" lon="-4.641279"><ele>53.0</ele></trkpt>
    <trkpt lat="48.372519" lon="-4.640689"><ele>54.0</ele></trkpt>
    <trkpt lat="48.372442" lon="-4.640566"><ele>54.4</ele></trkpt>
    <trkpt lat="48.372107" lon="-4.640505"><ele>55.4</ele></trkpt>
    <trkpt lat="48.371510" lon="-4.640557"><ele>58.0</ele></trkpt>
    <trkpt lat="48.371077" lon="-4.640319"><ele>59.4</ele></trkpt>
    <trkpt lat="48.370684" lon="-4.639988"><ele>60.4</ele></trkpt>
    <trkpt lat="48.370582" lon="-4.639979"><ele>60.6</ele></trkpt>
    <trkpt lat="48.370336" lon="-4.640051"><ele>61.2</ele></trkpt>
  </trkseg></trk>
</gpx>
