<?xml version="1.0" encoding="UTF-8"?>
<gpx version="1.1" creator="tcap-parcours" xmlns="http://www.topografix.com/GPX/1/1">
  <metadata><name>Fractionné plat Dreizoc – Gorrequear – 14 × 1'30</name></metadata>
  <trk><name>Fractionné plat Dreizoc – Gorrequear – 14 × 1'30</name><trkseg>
    <trkpt lat="48.370034" lon="-4.640346"><ele>60.6</ele></trkpt>
    <trkpt lat="48.369993" lon="-4.640861"><ele>60.6</ele></trkpt>
    <trkpt lat="48.369879" lon="-4.641077"><ele>60.6</ele></trkpt>
    <trkpt lat="48.369775" lon="-4.641400"><ele>60.6</ele></trkpt>
    <trkpt lat="48.369640" lon="-4.641560"><ele>61.0</ele></trkpt>
    <trkpt lat="48.369564" lon="-4.642006"><ele>62.2</ele></trkpt>
    <trkpt lat="48.369557" lon="-4.642128"><ele>62.2</ele></trkpt>
    <trkpt lat="48.369652" lon="-4.642635"><ele>61.4</ele></trkpt>
    <trkpt lat="48.369549" lon="-4.642926"><ele>60.4</ele></trkpt>
    <trkpt lat="48.369620" lon="-4.643083"><ele>60.0</ele></trkpt>
    <trkpt lat="48.369593" lon="-4.643677"><ele>59.4</ele></trkpt>
    <trkpt lat="48.369452" lon="-4.644331"><ele>58.2</ele></trkpt>
    <trkpt lat="48.369306" lon="-4.644840"><ele>57.8</ele></trkpt>
    <trkpt lat="48.369266" lon="-4.645155"><ele>57.0</ele></trkpt>
    <trkpt lat="48.369277" lon="-4.645637"><ele>57.0</ele></trkpt>
    <trkpt lat="48.369229" lon="-4.646032"><ele>57.6</ele></trkpt>
    <trkpt lat="48.369098" lon="-4.646547"><ele>58.4</ele></trkpt>
    <trkpt lat="48.369080" lon="-4.647063"><ele>60.0</ele></trkpt>
    <trkpt lat="48.368940" lon="-4.647378"><ele>61.4</ele></trkpt>
    <trkpt lat="48.368642" lon="-4.647596"><ele>63.4</ele></trkpt>
    <trkpt lat="48.368576" lon="-4.647740"><ele>63.8</ele></trkpt>
    <trkpt lat="48.368593" lon="-4.647902"><ele>64.2</ele></trkpt>
    <trkpt lat="48.368813" lon="-4.648510"><ele>65.2</ele></trkpt>
    <trkpt lat="48.368883" lon="-4.648877"><ele>66.2</ele></trkpt>
    <trkpt lat="48.368904" lon="-4.649411"><ele>66.8</ele></trkpt>
    <trkpt lat="48.368787" lon="-4.650222"><ele>68.0</ele></trkpt>
    <trkpt lat="48.368707" lon="-4.650450"><ele>69.0</ele></trkpt>
    <trkpt lat="48.368554" lon="-4.650699"><ele>69.4</ele></trkpt>
    <trkpt lat="48.367829" lon="-4.651515"><ele>71.0</ele></trkpt>
    <trkpt lat="48.367715" lon="-4.651766"><ele>71.6</ele></trkpt>
    <trkpt lat="48.367518" lon="-4.652474"><ele>72.6</ele></trkpt>
    <trkpt lat="48.367363" lon="-4.652871"><ele>72.2</ele></trkpt>
    <trkpt lat="48.367227" lon="-4.652973"><ele>72.2</ele></trkpt>
    <trkpt lat="48.366964" lon="-4.652992"><ele>73.0</ele></trkpt>
    <trkpt lat="48.366747" lon="-4.653241"><ele>73.4</ele></trkpt>
    <trkpt lat="48.366700" lon="-4.653397"><ele>73.4</ele></trkpt>
    <trkpt lat="48.366840" lon="-4.653542"><ele>73.0</ele></trkpt>
    <trkpt lat="48.367525" lon="-4.653765"><ele>71.2</ele></trkpt>
    <trkpt lat="48.367680" lon="-4.653871"><ele>71.6</ele></trkpt>
    <trkpt lat="48.368355" lon="-4.654902"><ele>76.0</ele></trkpt>
    <trkpt lat="48.368581" lon="-4.655349"><ele>76.6</ele></trkpt>
    <trkpt lat="48.368738" lon="-4.655574"><ele>77.0</ele></trkpt>
    <trkpt lat="48.369654" lon="-4.656463"><ele>76.4</ele></trkpt>
    <trkpt lat="48.370104" lon="-4.656817"><ele>73.4</ele></trkpt>
    <trkpt lat="48.370245" lon="-4.656806"><ele>72.4</ele></trkpt>
    <trkpt lat="48.370801" lon="-4.657071"><ele>68.6</ele></trkpt>
    <trkpt lat="48.371157" lon="-4.657151"><ele>68.2</ele></trkpt>
    <trkpt lat="48.371547" lon="-4.657040"><ele>67.6</ele></trkpt>
    <trkpt lat="48.371987" lon="-4.657055"><ele>65.4</ele></trkpt>
    <trkpt lat="48.372948" lon="-4.657129"><ele>62.2</ele></trkpt>
    <trkpt lat="48.373348" lon="-4.657266"><ele>60.6</ele></trkpt>
    <trkpt lat="48.373552" lon="-4.657393"><ele>59.6</ele></trkpt>
    <trkpt lat="48.374035" lon="-4.657820"><ele>58.6</ele></trkpt>
    <trkpt lat="48.374545" lon="-4.658364"><ele>58.8</ele></trkpt>
    <trkpt lat="48.375716" lon="-4.659225"><ele>63.6</ele></trkpt>
    <trkpt lat="48.375863" lon="-4.659362"><ele>65.0</ele></trkpt>
    <trkpt lat="48.376036" lon="-4.659624"><ele>66.8</ele></trkpt>
    <trkpt lat="48.376129" lon="-4.659676"><ele>67.4</ele></trkpt>
    <trkpt lat="48.376027" lon="-4.659597"><ele>67.8</ele></trkpt>
    <trkpt lat="48.375892" lon="-4.659380"><ele>66.4</ele></trkpt>
    <trkpt lat="48.375641" lon="-4.659102"><ele>64.6</ele></trkpt>
    <trkpt lat="48.374490" lon="-4.658203"><ele>59.4</ele></trkpt>
    <trkpt lat="48.373888" lon="-4.657593"><ele>59.0</ele></trkpt>
    <trkpt lat="48.373545" lon="-4.657308"><ele>60.0</ele></trkpt>
    <trkpt lat="48.373092" lon="-4.657087"><ele>61.8</ele></trkpt>
    <trkpt lat="48.372513" lon="-4.657009"><ele>64.0</ele></trkpt>
    <trkpt lat="48.371980" lon="-4.657001"><ele>66.0</ele></trkpt>
    <trkpt lat="48.371910" lon="-4.656853"><ele>66.4</ele></trkpt>
    <trkpt lat="48.372041" lon="-4.655938"><ele>67.0</ele></trkpt>
    <trkpt lat="48.371717" lon="-4.655816"><ele>67.6</ele></trkpt>
    <trkpt lat="48.371277" lon="-4.655538"><ele>69.6</ele></trkpt>
    <trkpt lat="48.371608" lon="-4.654243"><ele>68.6</ele></trkpt>
    <trkpt lat="48.371417" lon="-4.655083"><ele>69.4</ele></trkpt>
    <trkpt lat="48.371285" lon="-4.655482"><ele>70.0</ele></trkpt>
    <trkpt lat="48.370860" lon="-4.655212"><ele>70.2</ele></trkpt>
    <trkpt lat="48.370793" lon="-4.655127"><ele>70.2</ele></trkpt>
    <trkpt lat="48.370773" lon="-4.655040"><ele>70.0</ele></trkpt>
    <trkpt lat="48.371118" lon="-4.653879"><ele>70.0</ele></trkpt>
    <trkpt lat="48.371191" lon="-4.653860"><ele>69.4</ele></trkpt>
    <trkpt lat="48.371572" lon="-4.654118"><ele>68.2</ele></trkpt>
    <trkpt lat="48.371598" lon="-4.654261"><ele>68.6</ele></trkpt>
    <trkpt lat="48.371553" lon="-4.654505"><ele>69.0</ele></trkpt>
    <trkpt lat="48.371290" lon="-4.655418"><ele>70.2</ele></trkpt>
    <trkpt lat="48.371186" lon="-4.655468"><ele>70.4</ele></trkpt>
    <trkpt lat="48.371096" lon="-4.655434"><ele>70.6</ele></trkpt>
    <trkpt lat="48.370817" lon="-4.655214"><ele>70.6</ele></trkpt>
    <trkpt lat="48.370761" lon="-4.655124"><ele>70.4</ele></trkpt>
    <trkpt lat="48.370804" lon="-4.654860"><ele>70.0</ele></trkpt>
    <trkpt lat="48.370963" lon="-4.654352"><ele>70.0</ele></trkpt>
    <trkpt lat="48.371098" lon="-4.653945"><ele>70.2</ele></trkpt>
    <trkpt lat="48.371152" lon="-4.653887"><ele>70.2</ele></trkpt>
    <trkpt lat="48.371605" lon="-4.654226"><ele>68.6</ele></trkpt>
    <trkpt lat="48.371404" lon="-4.655129"><ele>70.0</ele></trkpt>
    <trkpt lat="48.371322" lon="-4.655382"><ele>69.4</ele></trkpt>
    <trkpt lat="48.371251" lon="-4.655470"><ele>69.2</ele></trkpt>
    <trkpt lat="48.370977" lon="-4.655314"><ele>69.4</ele></trkpt>
    <trkpt lat="48.370767" lon="-4.655133"><ele>70.2</ele></trkpt>
    <trkpt lat="48.370769" lon="-4.655022"><ele>70.2</ele></trkpt>
    <trkpt lat="48.370982" lon="-4.654191"><ele>69.2</ele></trkpt>
    <trkpt lat="48.371123" lon="-4.653871"><ele>69.0</ele></trkpt>
    <trkpt lat="48.371557" lon="-4.654152"><ele>68.4</ele></trkpt>
    <trkpt lat="48.371618" lon="-4.654239"><ele>68.6</ele></trkpt>
    <trkpt lat="48.371346" lon="-4.655258"><ele>70.2</ele></trkpt>
    <trkpt lat="48.371258" lon="-4.655467"><ele>69.8</ele></trkpt>
    <trkpt lat="48.370903" lon="-4.655241"><ele>69.2</ele></trkpt>
    <trkpt lat="48.370756" lon="-4.655089"><ele>69.2</ele></trkpt>
    <trkpt lat="48.370984" lon="-4.654217"><ele>69.2</ele></trkpt>
    <trkpt lat="48.371091" lon="-4.653940"><ele>69.2</ele></trkpt>
    <trkpt lat="48.371154" lon="-4.653876"><ele>69.2</ele></trkpt>
    <trkpt lat="48.371552" lon="-4.654128"><ele>68.6</ele></trkpt>
    <trkpt lat="48.371406" lon="-4.654478"><ele>69.0</ele></trkpt>
    <trkpt lat="48.371132" lon="-4.655430"><ele>69.2</ele></trkpt>
    <trkpt lat="48.371175" lon="-4.655370"><ele>70.0</ele></trkpt>
    <trkpt lat="48.371517" lon="-4.654082"><ele>69.0</ele></trkpt>
    <trkpt lat="48.371199" lon="-4.655365"><ele>69.8</ele></trkpt>
    <trkpt lat="48.371179" lon="-4.655311"><ele>69.6</ele></trkpt>
    <trkpt lat="48.371222" lon="-4.655091"><ele>69.6</ele></trkpt>
    <trkpt lat="48.371445" lon="-4.654117"><ele>69.4</ele></trkpt>
    <trkpt lat="48.371602" lon="-4.654232"><ele>68.8</ele></trkpt>
    <trkpt lat="48.371372" lon="-4.655238"><ele>69.4</ele></trkpt>
    <trkpt lat="48.371277" lon="-4.655475"><ele>69.6</ele></trkpt>
    <trkpt lat="48.371172" lon="-4.655507"><ele>69.6</ele></trkpt>
    <trkpt lat="48.371060" lon="-4.655442"><ele>69.4</ele></trkpt>
    <trkpt lat="48.370835" lon="-4.655204"><ele>69.2</ele></trkpt>
    <trkpt lat="48.370771" lon="-4.655071"><ele>69.2</ele></trkpt>
    <trkpt lat="48.371040" lon="-4.654058"><ele>69.6</ele></trkpt>
    <trkpt lat="48.371103" lon="-4.653901"><ele>69.6</ele></trkpt>
    <trkpt lat="48.371170" lon="-4.653872"><ele>69.6</ele></trkpt>
    <trkpt lat="48.371563" lon="-4.654184"><ele>69.0</ele></trkpt>
    <trkpt lat="48.371607" lon="-4.654269"><ele>68.8</ele></trkpt>
    <trkpt lat="48.371315" lon="-4.655312"><ele>70.2</ele></trkpt>
    <trkpt lat="48.371257" lon="-4.655406"><ele>70.2</ele></trkpt>
    <trkpt lat="48.371168" lon="-4.655407"><ele>70.0</ele></trkpt>
    <trkpt lat="48.370880" lon="-4.655226"><ele>69.4</ele></trkpt>
    <trkpt lat="48.370775" lon="-4.655066"><ele>69.4</ele></trkpt>
    <trkpt lat="48.370814" lon="-4.654828"><ele>69.6</ele></trkpt>
    <trkpt lat="48.371027" lon="-4.654083"><ele>70.0</ele></trkpt>
    <trkpt lat="48.371096" lon="-4.653911"><ele>70.0</ele></trkpt>
    <trkpt lat="48.371167" lon="-4.653892"><ele>70.0</ele></trkpt>
    <trkpt lat="48.371484" lon="-4.654122"><ele>69.8</ele></trkpt>
    <trkpt lat="48.371594" lon="-4.654260"><ele>69.4</ele></trkpt>
    <trkpt lat="48.371333" lon="-4.655272"><ele>69.8</ele></trkpt>
    <trkpt lat="48.371263" lon="-4.655426"><ele>69.8</ele></trkpt>
    <trkpt lat="48.371207" lon="-4.655451"><ele>69.8</ele></trkpt>
    <trkpt lat="48.370822" lon="-4.655172"><ele>70.0</ele></trkpt>
    <trkpt lat="48.370780" lon="-4.655059"><ele>70.0</ele></trkpt>
    <trkpt lat="48.371058" lon="-4.654049"><ele>70.0</ele></trkpt>
    <trkpt lat="48.371107" lon="-4.653923"><ele>69.8</ele></trkpt>
    <trkpt lat="48.371171" lon="-4.653890"><ele>69.6</ele></trkpt>
    <trkpt lat="48.371413" lon="-4.654059"><ele>69.6</ele></trkpt>
    <trkpt lat="48.371606" lon="-4.654262"><ele>69.4</ele></trkpt>
    <trkpt lat="48.371589" lon="-4.654414"><ele>69.4</ele></trkpt>
    <trkpt lat="48.371331" lon="-4.655285"><ele>69.2</ele></trkpt>
    <trkpt lat="48.371265" lon="-4.655423"><ele>69.2</ele></trkpt>
    <trkpt lat="48.371208" lon="-4.655428"><ele>69.0</ele></trkpt>
    <trkpt lat="48.370825" lon="-4.655164"><ele>69.2</ele></trkpt>
    <trkpt lat="48.370774" lon="-4.655062"><ele>69.4</ele></trkpt>
    <trkpt lat="48.370839" lon="-4.654709"><ele>69.6</ele></trkpt>
    <trkpt lat="48.371043" lon="-4.654032"><ele>70.2</ele></trkpt>
    <trkpt lat="48.371126" lon="-4.653893"><ele>70.2</ele></trkpt>
    <trkpt lat="48.371209" lon="-4.653896"><ele>70.2</ele></trkpt>
    <trkpt lat="48.371553" lon="-4.654151"><ele>69.4</ele></trkpt>
    <trkpt lat="48.371610" lon="-4.654278"><ele>69.0</ele></trkpt>
    <trkpt lat="48.371291" lon="-4.655371"><ele>68.8</ele></trkpt>
    <trkpt lat="48.371223" lon="-4.655443"><ele>68.8</ele></trkpt>
    <trkpt lat="48.371127" lon="-4.655404"><ele>68.8</ele></trkpt>
    <trkpt lat="48.370830" lon="-4.655150"><ele>69.2</ele></trkpt>
    <trkpt lat="48.370776" lon="-4.655014"><ele>69.2</ele></trkpt>
    <trkpt lat="48.370913" lon="-4.654531"><ele>69.6</ele></trkpt>
    <trkpt lat="48.370988" lon="-4.654413"><ele>69.8</ele></trkpt>
    <trkpt lat="48.370971" lon="-4.654351"><ele>69.6</ele></trkpt>
    <trkpt lat="48.371008" lon="-4.654140"><ele>69.6</ele></trkpt>
    <trkpt lat="48.371099" lon="-4.653906"><ele>69.4</ele></trkpt>
    <trkpt lat="48.371146" lon="-4.653875"><ele>69.4</ele></trkpt>
    <trkpt lat="48.371231" lon="-4.653917"><ele>69.2</ele></trkpt>
    <trkpt lat="48.371524" lon="-4.654160"><ele>68.8</ele></trkpt>
    <trkpt lat="48.371586" lon="-4.654292"><ele>68.6</ele></trkpt>
    <trkpt lat="48.371324" lon="-4.655315"><ele>70.4</ele></trkpt>
    <trkpt lat="48.371249" lon="-4.655431"><ele>70.2</ele></trkpt>
    <trkpt lat="48.371125" lon="-4.655379"><ele>69.8</ele></trkpt>
    <trkpt lat="48.370812" lon="-4.655138"><ele>69.2</ele></trkpt>
    <trkpt lat="48.370774" lon="-4.655043"><ele>69.2</ele></trkpt>
    <trkpt lat="48.370793" lon="-4.654906"><ele>69.2</ele></trkpt>
    <trkpt lat="48.371100" lon="-4.653942"><ele>69.8</ele></trkpt>
    <trkpt lat="48.371152" lon="-4.653874"><ele>69.6</ele></trkpt>
    <trkpt lat="48.371208" lon="-4.653885"><ele>69.4</ele></trkpt>
    <trkpt lat="48.371616" lon="-4.654238"><ele>69.2</ele></trkpt>
    <trkpt lat="48.371330" lon="-4.655308"><ele>70.4</ele></trkpt>
    <trkpt lat="48.371276" lon="-4.655433"><ele>70.2</ele></trkpt>
    <trkpt lat="48.371231" lon="-4.655465"><ele>70.0</ele></trkpt>
    <trkpt lat="48.370881" lon="-4.655236"><ele>69.2</ele></trkpt>
    <trkpt lat="48.370810" lon="-4.655163"><ele>69.2</ele></trkpt>
    <trkpt lat="48.370787" lon="-4.655083"><ele>69.2</ele></trkpt>
    <trkpt lat="48.370813" lon="-4.654848"><ele>69.2</ele></trkpt>
    <trkpt lat="48.371114" lon="-4.653897"><ele>69.8</ele></trkpt>
    <trkpt lat="48.371211" lon="-4.653899"><ele>70.0</ele></trkpt>
    <trkpt lat="48.371524" lon="-4.654138"><ele>69.2</ele></trkpt>
    <trkpt lat="48.371604" lon="-4.654266"><ele>69.0</ele></trkpt>
    <trkpt lat="48.371583" lon="-4.654427"><ele>69.0</ele></trkpt>
    <trkpt lat="48.371320" lon="-4.655310"><ele>69.4</ele></trkpt>
    <trkpt lat="48.371255" lon="-4.655416"><ele>69.4</ele></trkpt>
    <trkpt lat="48.371183" lon="-4.655427"><ele>69.4</ele></trkpt>
    <trkpt lat="48.370921" lon="-4.655252"><ele>69.4</ele></trkpt>
    <trkpt lat="48.370809" lon="-4.655148"><ele>69.2</ele></trkpt>
    <trkpt lat="48.370778" lon="-4.655066"><ele>69.0</ele></trkpt>
    <trkpt lat="48.370805" lon="-4.654870"><ele>69.0</ele></trkpt>
    <trkpt lat="48.370943" lon="-4.654471"><ele>69.4</ele></trkpt>
    <trkpt lat="48.371055" lon="-4.654019"><ele>70.2</ele></trkpt>
    <trkpt lat="48.371115" lon="-4.653909"><ele>70.2</ele></trkpt>
    <trkpt lat="48.371193" lon="-4.653901"><ele>70.4</ele></trkpt>
    <trkpt lat="48.371456" lon="-4.654076"><ele>70.0</ele></trkpt>
    <trkpt lat="48.371599" lon="-4.654244"><ele>69.6</ele></trkpt>
    <trkpt lat="48.371577" lon="-4.654419"><ele>69.2</ele></trkpt>
    <trkpt lat="48.371309" lon="-4.655338"><ele>68.8</ele></trkpt>
    <trkpt lat="48.371254" lon="-4.655435"><ele>68.6</ele></trkpt>
    <trkpt lat="48.371200" lon="-4.655447"><ele>68.6</ele></trkpt>
    <trkpt lat="48.370875" lon="-4.655187"><ele>68.6</ele></trkpt>
    <trkpt lat="48.370787" lon="-4.655038"><ele>68.8</ele></trkpt>
    <trkpt lat="48.370823" lon="-4.654833"><ele>69.4</ele></trkpt>
    <trkpt lat="48.371122" lon="-4.653925"><ele>70.6</ele></trkpt>
    <trkpt lat="48.371201" lon="-4.653891"><ele>70.4</ele></trkpt>
    <trkpt lat="48.371557" lon="-4.654166"><ele>69.2</ele></trkpt>
    <trkpt lat="48.371607" lon="-4.654250"><ele>69.4</ele></trkpt>
    <trkpt lat="48.371333" lon="-4.655277"><ele>68.8</ele></trkpt>
    <trkpt lat="48.371281" lon="-4.655393"><ele>68.8</ele></trkpt>
    <trkpt lat="48.371227" lon="-4.655426"><ele>68.8</ele></trkpt>
    <trkpt lat="48.370832" lon="-4.655156"><ele>68.4</ele></trkpt>
    <trkpt lat="48.370783" lon="-4.655048"><ele>68.4</ele></trkpt>
    <trkpt lat="48.370798" lon="-4.654883"><ele>68.4</ele></trkpt>
    <trkpt lat="48.371632" lon="-4.654153"><ele>68.8</ele></trkpt>
    <trkpt lat="48.372045" lon="-4.654113"><ele>67.6</ele></trkpt>
    <trkpt lat="48.372096" lon="-4.654072"><ele>67.4</ele></trkpt>
    <trkpt lat="48.372149" lon="-4.653584"><ele>66.8</ele></trkpt>
    <trkpt lat="48.372129" lon="-4.653010"><ele>66.4</ele></trkpt>
    <trkpt lat="48.372169" lon="-4.652799"><ele>66.8</ele></trkpt>
    <trkpt lat="48.372123" lon="-4.651893"><ele>66.4</ele></trkpt>
    <trkpt lat="48.372155" lon="-4.651488"><ele>65.8</ele></trkpt>
    <trkpt lat="48.372428" lon="-4.650440"><ele>64.6</ele></trkpt>
    <trkpt lat="48.372577" lon="-4.650098"><ele>63.8</ele></trkpt>
    <trkpt lat="48.372639" lon="-4.650068"><ele>63.6</ele></trkpt>
    <trkpt lat="48.372740" lon="-4.650105"><ele>63.0</ele></trkpt>
    <trkpt lat="48.373110" lon="-4.650425"><ele>61.4</ele></trkpt>
    <trkpt lat="48.373247" lon="-4.650836"><ele>60.2</ele></trkpt>
    <trkpt lat="48.373296" lon="-4.650883"><ele>59.8</ele></trkpt>
    <trkpt lat="48.373370" lon="-4.650842"><ele>59.4</ele></trkpt>
    <trkpt lat="48.373615" lon="-4.650565"><ele>59.8</ele></trkpt>
    <trkpt lat="48.373853" lon="-4.650759"><ele>60.0</ele></trkpt>
    <trkpt lat="48.374177" lon="-4.650794"><ele>59.2</ele></trkpt>
    <trkpt lat="48.374528" lon="-4.650398"><ele>55.8</ele></trkpt>
    <trkpt lat="48.374533" lon="-4.650215"><ele>55.2</ele></trkpt>
    <trkpt lat="48.374364" lon="-4.649818"><ele>56.0</ele></trkpt>
    <trkpt lat="48.374423" lon="-4.649813"><ele>56.2</ele></trkpt>
    <trkpt lat="48.374800" lon="-4.649315"><ele>54.6</ele></trkpt>
    <trkpt lat="48.375009" lon="-4.649016"><ele>54.4</ele></trkpt>
    <trkpt lat="48.375066" lon="-4.648842"><ele>54.0</ele></trkpt>
    <trkpt lat="48.375038" lon="-4.648753"><ele>54.0</ele></trkpt>
    <trkpt lat="48.374731" lon="-4.648568"><ele>54.0</ele></trkpt>
    <trkpt lat="48.374694" lon="-4.648442"><ele>53.8</ele></trkpt>
    <trkpt lat="48.374702" lon="-4.648266"><ele>53.4</ele></trkpt>
    <trkpt lat="48.374898" lon="-4.647677"><ele>52.2</ele></trkpt>
    <trkpt lat="48.374962" lon="-4.647237"><ele>52.4</ele></trkpt>
    <trkpt lat="48.375076" lon="-4.647114"><ele>52.6</ele></trkpt>
    <trkpt lat="48.375261" lon="-4.646573"><ele>53.0</ele></trkpt>
    <trkpt lat="48.375308" lon="-4.646110"><ele>52.0</ele></trkpt>
    <trkpt lat="48.375468" lon="-4.645602"><ele>52.6</ele></trkpt>
    <trkpt lat="48.375493" lon="-4.645380"><ele>52.6</ele></trkpt>
    <trkpt lat="48.375391" lon="-4.645005"><ele>52.6</ele></trkpt>
    <trkpt lat="48.375114" lon="-4.644368"><ele>53.8</ele></trkpt>
    <trkpt lat="48.375062" lon="-4.644169"><ele>53.6</ele></trkpt>
    <trkpt lat="48.374831" lon="-4.644074"><ele>54.2</ele></trkpt>
    <trkpt lat="48.374644" lon="-4.643665"><ele>53.8</ele></trkpt>
    <trkpt lat="48.374380" lon="-4.643624"><ele>53.4</ele></trkpt>
    <trkpt lat="48.374247" lon="-4.643556"><ele>53.2</ele></trkpt>
    <trkpt lat="48.374089" lon="-4.643154"><ele>52.2</ele></trkpt>
    <trkpt lat="48.373954" lon="-4.642993"><ele>51.8</ele></trkpt>
    <trkpt lat="48.373908" lon="-4.642987"><ele>51.8</ele></trkpt>
    <trkpt lat="48.373743" lon="-4.643125"><ele>52.0</ele></trkpt>
    <trkpt lat="48.373553" lon="-4.643113"><ele>52.2</ele></trkpt>
    <trkpt lat="48.372991" lon="-4.642512"><ele>51.4</ele></trkpt>
    <trkpt lat="48.372937" lon="-4.642060"><ele>51.4</ele></trkpt>
    <trkpt lat="48.372876" lon="-4.641847"><ele>51.4</ele></trkpt>
    <trkpt lat="48.372651" lon="-4.641343"><ele>52.2</ele></trkpt>
    <trkpt lat="48.372570" lon="-4.640758"><ele>53.0</ele></trkpt>
    <trkpt lat="48.372512" lon="-4.640608"><ele>53.6</ele></trkpt>
    <trkpt lat="48.371509" lon="-4.640569"><ele>57.0</ele></trkpt>
    <trkpt lat="48.370971" lon="-4.640273"><ele>58.2</ele></trkpt>
    <trkpt lat="48.370676" lon="-4.640003"><ele>59.0</ele></trkpt>
    <trkpt lat="48.370394" lon="-4.640138"><ele>60.4</ele></trkpt>
    <trkpt lat="48.370243" lon="-4.640158"><ele>60.8</ele></trkpt>
  </trkseg></trk>
</gpx>
