<?xml version="1.0" encoding="UTF-8"?>
<gpx version="1.1" creator="tcap-parcours" xmlns="http://www.topografix.com/GPX/1/1">
  <metadata><name>fractionne-dreizoc-6</name></metadata>
  <trk><name>fractionne-dreizoc-6</name><trkseg>
    <trkpt lat="48.370023" lon="-4.640281"><ele>60.2</ele></trkpt>
    <trkpt lat="48.370031" lon="-4.640726"><ele>60.4</ele></trkpt>
    <trkpt lat="48.370002" lon="-4.640963"><ele>60.6</ele></trkpt>
    <trkpt lat="48.369907" lon="-4.641278"><ele>60.8</ele></trkpt>
    <trkpt lat="48.369698" lon="-4.641732"><ele>61.0</ele></trkpt>
    <trkpt lat="48.369620" lon="-4.642054"><ele>60.6</ele></trkpt>
    <trkpt lat="48.369671" lon="-4.642564"><ele>59.6</ele></trkpt>
    <trkpt lat="48.369643" lon="-4.642827"><ele>59.6</ele></trkpt>
    <trkpt lat="48.369637" lon="-4.643692"><ele>59.8</ele></trkpt>
    <trkpt lat="48.369494" lon="-4.644308"><ele>58.2</ele></trkpt>
    <trkpt lat="48.369262" lon="-4.645094"><ele>58.2</ele></trkpt>
    <trkpt lat="48.369281" lon="-4.645606"><ele>57.8</ele></trkpt>
    <trkpt lat="48.369226" lon="-4.646071"><ele>57.6</ele></trkpt>
    <trkpt lat="48.369071" lon="-4.646604"><ele>58.6</ele></trkpt>
    <trkpt lat="48.369069" lon="-4.647121"><ele>60.8</ele></trkpt>
    <trkpt lat="48.369020" lon="-4.647276"><ele>61.4</ele></trkpt>
    <trkpt lat="48.368932" lon="-4.647420"><ele>62.0</ele></trkpt>
    <trkpt lat="48.368665" lon="-4.647605"><ele>63.2</ele></trkpt>
    <trkpt lat="48.368604" lon="-4.647746"><ele>63.8</ele></trkpt>
    <trkpt lat="48.368615" lon="-4.647854"><ele>64.2</ele></trkpt>
    <trkpt lat="48.368847" lon="-4.648588"><ele>65.0</ele></trkpt>
    <trkpt lat="48.368901" lon="-4.648980"><ele>65.4</ele></trkpt>
    <trkpt lat="48.368927" lon="-4.649459"><ele>66.8</ele></trkpt>
    <trkpt lat="48.368817" lon="-4.650238"><ele>67.8</ele></trkpt>
    <trkpt lat="48.368634" lon="-4.650612"><ele>69.2</ele></trkpt>
    <trkpt lat="48.368098" lon="-4.651190"><ele>70.2</ele></trkpt>
    <trkpt lat="48.367814" lon="-4.651604"><ele>72.4</ele></trkpt>
    <trkpt lat="48.367603" lon="-4.652187"><ele>73.2</ele></trkpt>
    <trkpt lat="48.367463" lon="-4.652714"><ele>72.8</ele></trkpt>
    <trkpt lat="48.367373" lon="-4.652917"><ele>72.2</ele></trkpt>
    <trkpt lat="48.367295" lon="-4.652978"><ele>72.0</ele></trkpt>
    <trkpt lat="48.366958" lon="-4.653006"><ele>72.4</ele></trkpt>
    <trkpt lat="48.366785" lon="-4.653216"><ele>73.0</ele></trkpt>
    <trkpt lat="48.366736" lon="-4.653328"><ele>73.0</ele></trkpt>
    <trkpt lat="48.366733" lon="-4.653418"><ele>73.0</ele></trkpt>
    <trkpt lat="48.366814" lon="-4.653500"><ele>73.2</ele></trkpt>
    <trkpt lat="48.367489" lon="-4.653737"><ele>74.0</ele></trkpt>
    <trkpt lat="48.367694" lon="-4.653863"><ele>74.0</ele></trkpt>
    <trkpt lat="48.368875" lon="-4.655775"><ele>77.6</ele></trkpt>
    <trkpt lat="48.369002" lon="-4.655827"><ele>76.6</ele></trkpt>
    <trkpt lat="48.369292" lon="-4.656067"><ele>76.8</ele></trkpt>
    <trkpt lat="48.369957" lon="-4.656710"><ele>75.0</ele></trkpt>
    <trkpt lat="48.370158" lon="-4.656815"><ele>74.0</ele></trkpt>
    <trkpt lat="48.370384" lon="-4.656720"><ele>72.6</ele></trkpt>
    <trkpt lat="48.370609" lon="-4.656863"><ele>71.6</ele></trkpt>
    <trkpt lat="48.370963" lon="-4.656996"><ele>70.6</ele></trkpt>
    <trkpt lat="48.372683" lon="-4.657076"><ele>64.6</ele></trkpt>
    <trkpt lat="48.373169" lon="-4.657182"><ele>62.8</ele></trkpt>
    <trkpt lat="48.373403" lon="-4.657282"><ele>61.2</ele></trkpt>
    <trkpt lat="48.373621" lon="-4.657429"><ele>59.8</ele></trkpt>
    <trkpt lat="48.374169" lon="-4.657927"><ele>59.0</ele></trkpt>
    <trkpt lat="48.374637" lon="-4.658422"><ele>59.4</ele></trkpt>
    <trkpt lat="48.375750" lon="-4.659209"><ele>64.0</ele></trkpt>
    <trkpt lat="48.375878" lon="-4.659347"><ele>65.0</ele></trkpt>
    <trkpt lat="48.375993" lon="-4.659572"><ele>66.6</ele></trkpt>
    <trkpt lat="48.376086" lon="-4.659671"><ele>68.2</ele></trkpt>
    <trkpt lat="48.376205" lon="-4.659639"><ele>69.8</ele></trkpt>
    <trkpt lat="48.376494" lon="-4.659271"><ele>72.6</ele></trkpt>
    <trkpt lat="48.376748" lon="-4.659060"><ele>73.6</ele></trkpt>
    <trkpt lat="48.377532" lon="-4.658797"><ele>75.6</ele></trkpt>
    <trkpt lat="48.377883" lon="-4.658448"><ele>75.8</ele></trkpt>
    <trkpt lat="48.378040" lon="-4.658468"><ele>76.4</ele></trkpt>
    <trkpt lat="48.378337" lon="-4.658702"><ele>77.6</ele></trkpt>
    <trkpt lat="48.378690" lon="-4.658530"><ele>76.8</ele></trkpt>
    <trkpt lat="48.378771" lon="-4.658346"><ele>76.4</ele></trkpt>
    <trkpt lat="48.378943" lon="-4.657023"><ele>72.8</ele></trkpt>
    <trkpt lat="48.378988" lon="-4.656411"><ele>70.8</ele></trkpt>
    <trkpt lat="48.378967" lon="-4.656280"><ele>70.6</ele></trkpt>
    <trkpt lat="48.378741" lon="-4.656120"><ele>70.0</ele></trkpt>
    <trkpt lat="48.377941" lon="-4.655842"><ele>67.0</ele></trkpt>
    <trkpt lat="48.377744" lon="-4.655750"><ele>65.6</ele></trkpt>
    <trkpt lat="48.377635" lon="-4.655652"><ele>64.8</ele></trkpt>
    <trkpt lat="48.377558" lon="-4.655501"><ele>64.0</ele></trkpt>
    <trkpt lat="48.377502" lon="-4.655248"><ele>63.0</ele></trkpt>
    <trkpt lat="48.377399" lon="-4.653962"><ele>60.6</ele></trkpt>
    <trkpt lat="48.377354" lon="-4.653660"><ele>60.0</ele></trkpt>
    <trkpt lat="48.377301" lon="-4.653521"><ele>60.0</ele></trkpt>
    <trkpt lat="48.377111" lon="-4.653322"><ele>60.4</ele></trkpt>
    <trkpt lat="48.376600" lon="-4.653059"><ele>60.2</ele></trkpt>
    <trkpt lat="48.375995" lon="-4.652570"><ele>58.4</ele></trkpt>
    <trkpt lat="48.375749" lon="-4.652237"><ele>57.8</ele></trkpt>
    <trkpt lat="48.374989" lon="-4.651009"><ele>58.0</ele></trkpt>
    <trkpt lat="48.374855" lon="-4.650843"><ele>58.4</ele></trkpt>
    <trkpt lat="48.374806" lon="-4.650885"><ele>58.4</ele></trkpt>
    <trkpt lat="48.374798" lon="-4.651014"><ele>58.4</ele></trkpt>
    <trkpt lat="48.374988" lon="-4.652063"><ele>57.4</ele></trkpt>
    <trkpt lat="48.375061" lon="-4.652700"><ele>58.6</ele></trkpt>
    <trkpt lat="48.375065" lon="-4.652865"><ele>58.8</ele></trkpt>
    <trkpt lat="48.375039" lon="-4.652937"><ele>58.8</ele></trkpt>
    <trkpt lat="48.374960" lon="-4.652964"><ele>59.0</ele></trkpt>
    <trkpt lat="48.374529" lon="-4.652889"><ele>59.8</ele></trkpt>
    <trkpt lat="48.374213" lon="-4.652908"><ele>59.4</ele></trkpt>
    <trkpt lat="48.373975" lon="-4.652869"><ele>59.4</ele></trkpt>
    <trkpt lat="48.373658" lon="-4.652754"><ele>61.0</ele></trkpt>
    <trkpt lat="48.373398" lon="-4.652467"><ele>62.0</ele></trkpt>
    <trkpt lat="48.373131" lon="-4.652286"><ele>63.0</ele></trkpt>
    <trkpt lat="48.372817" lon="-4.652310"><ele>64.8</ele></trkpt>
    <trkpt lat="48.372355" lon="-4.652187"><ele>66.6</ele></trkpt>
    <trkpt lat="48.372178" lon="-4.652180"><ele>67.2</ele></trkpt>
    <trkpt lat="48.372125" lon="-4.652303"><ele>67.6</ele></trkpt>
    <trkpt lat="48.372130" lon="-4.653684"><ele>68.0</ele></trkpt>
    <trkpt lat="48.372071" lon="-4.654128"><ele>67.8</ele></trkpt>
    <trkpt lat="48.371781" lon="-4.654138"><ele>68.0</ele></trkpt>
    <trkpt lat="48.371616" lon="-4.654216"><ele>68.8</ele></trkpt>
    <trkpt lat="48.371489" lon="-4.654874"><ele>69.4</ele></trkpt>
    <trkpt lat="48.371508" lon="-4.654321"><ele>68.8</ele></trkpt>
    <trkpt lat="48.371218" lon="-4.655470"><ele>70.0</ele></trkpt>
    <trkpt lat="48.371211" lon="-4.655393"><ele>69.6</ele></trkpt>
    <trkpt lat="48.371274" lon="-4.655097"><ele>69.6</ele></trkpt>
    <trkpt lat="48.371514" lon="-4.654111"><ele>69.6</ele></trkpt>
    <trkpt lat="48.371558" lon="-4.654104"><ele>69.2</ele></trkpt>
    <trkpt lat="48.371229" lon="-4.655375"><ele>69.6</ele></trkpt>
    <trkpt lat="48.371485" lon="-4.654225"><ele>69.4</ele></trkpt>
    <trkpt lat="48.371497" lon="-4.654184"><ele>69.4</ele></trkpt>
    <trkpt lat="48.371542" lon="-4.654183"><ele>69.2</ele></trkpt>
    <trkpt lat="48.371279" lon="-4.655286"><ele>69.6</ele></trkpt>
    <trkpt lat="48.371222" lon="-4.655390"><ele>69.6</ele></trkpt>
    <trkpt lat="48.371514" lon="-4.654194"><ele>69.6</ele></trkpt>
    <trkpt lat="48.371610" lon="-4.654218"><ele>68.8</ele></trkpt>
    <trkpt lat="48.371598" lon="-4.654381"><ele>68.8</ele></trkpt>
    <trkpt lat="48.371387" lon="-4.655238"><ele>69.4</ele></trkpt>
    <trkpt lat="48.371297" lon="-4.655461"><ele>69.6</ele></trkpt>
    <trkpt lat="48.371112" lon="-4.655431"><ele>70.2</ele></trkpt>
    <trkpt lat="48.370785" lon="-4.655110"><ele>71.0</ele></trkpt>
    <trkpt lat="48.370779" lon="-4.654973"><ele>71.0</ele></trkpt>
    <trkpt lat="48.371026" lon="-4.654099"><ele>70.2</ele></trkpt>
    <trkpt lat="48.371106" lon="-4.653921"><ele>70.4</ele></trkpt>
    <trkpt lat="48.371171" lon="-4.653897"><ele>70.4</ele></trkpt>
    <trkpt lat="48.371536" lon="-4.654136"><ele>69.6</ele></trkpt>
    <trkpt lat="48.371609" lon="-4.654241"><ele>69.4</ele></trkpt>
    <trkpt lat="48.371587" lon="-4.654448"><ele>69.2</ele></trkpt>
    <trkpt lat="48.371398" lon="-4.655201"><ele>69.4</ele></trkpt>
    <trkpt lat="48.371317" lon="-4.655423"><ele>69.6</ele></trkpt>
    <trkpt lat="48.371224" lon="-4.655463"><ele>69.6</ele></trkpt>
    <trkpt lat="48.370941" lon="-4.655257"><ele>70.2</ele></trkpt>
    <trkpt lat="48.370789" lon="-4.655050"><ele>69.8</ele></trkpt>
    <trkpt lat="48.370806" lon="-4.654867"><ele>69.8</ele></trkpt>
    <trkpt lat="48.371020" lon="-4.654149"><ele>70.4</ele></trkpt>
    <trkpt lat="48.371108" lon="-4.653920"><ele>70.8</ele></trkpt>
    <trkpt lat="48.371165" lon="-4.653888"><ele>70.8</ele></trkpt>
    <trkpt lat="48.371494" lon="-4.654113"><ele>70.4</ele></trkpt>
    <trkpt lat="48.371606" lon="-4.654263"><ele>70.2</ele></trkpt>
    <trkpt lat="48.371362" lon="-4.655209"><ele>69.6</ele></trkpt>
    <trkpt lat="48.371283" lon="-4.655416"><ele>69.6</ele></trkpt>
    <trkpt lat="48.371210" lon="-4.655446"><ele>69.8</ele></trkpt>
    <trkpt lat="48.370855" lon="-4.655171"><ele>70.6</ele></trkpt>
    <trkpt lat="48.370796" lon="-4.655076"><ele>70.6</ele></trkpt>
    <trkpt lat="48.370815" lon="-4.654853"><ele>70.4</ele></trkpt>
    <trkpt lat="48.371038" lon="-4.654082"><ele>70.6</ele></trkpt>
    <trkpt lat="48.371125" lon="-4.653896"><ele>70.6</ele></trkpt>
    <trkpt lat="48.371193" lon="-4.653899"><ele>70.4</ele></trkpt>
    <trkpt lat="48.371487" lon="-4.654120"><ele>70.0</ele></trkpt>
    <trkpt lat="48.371591" lon="-4.654224"><ele>70.0</ele></trkpt>
    <trkpt lat="48.371608" lon="-4.654327"><ele>69.8</ele></trkpt>
    <trkpt lat="48.371388" lon="-4.655168"><ele>69.6</ele></trkpt>
    <trkpt lat="48.371289" lon="-4.655399"><ele>69.6</ele></trkpt>
    <trkpt lat="48.371202" lon="-4.655413"><ele>69.6</ele></trkpt>
    <trkpt lat="48.370833" lon="-4.655152"><ele>70.2</ele></trkpt>
    <trkpt lat="48.370792" lon="-4.655094"><ele>70.2</ele></trkpt>
    <trkpt lat="48.370790" lon="-4.654959"><ele>70.2</ele></trkpt>
    <trkpt lat="48.371108" lon="-4.653920"><ele>70.4</ele></trkpt>
    <trkpt lat="48.371192" lon="-4.653898"><ele>70.4</ele></trkpt>
    <trkpt lat="48.371568" lon="-4.654195"><ele>69.2</ele></trkpt>
    <trkpt lat="48.371603" lon="-4.654284"><ele>69.2</ele></trkpt>
    <trkpt lat="48.371594" lon="-4.654383"><ele>69.2</ele></trkpt>
    <trkpt lat="48.371287" lon="-4.655407"><ele>68.4</ele></trkpt>
    <trkpt lat="48.371198" lon="-4.655427"><ele>68.4</ele></trkpt>
    <trkpt lat="48.370872" lon="-4.655201"><ele>69.8</ele></trkpt>
    <trkpt lat="48.370806" lon="-4.655133"><ele>70.2</ele></trkpt>
    <trkpt lat="48.370790" lon="-4.655019"><ele>70.4</ele></trkpt>
    <trkpt lat="48.370916" lon="-4.654563"><ele>70.0</ele></trkpt>
    <trkpt lat="48.371614" lon="-4.654283"><ele>68.8</ele></trkpt>
    <trkpt lat="48.371350" lon="-4.655307"><ele>69.4</ele></trkpt>
    <trkpt lat="48.371293" lon="-4.655425"><ele>69.6</ele></trkpt>
    <trkpt lat="48.371231" lon="-4.655453"><ele>69.6</ele></trkpt>
    <trkpt lat="48.370926" lon="-4.655249"><ele>70.2</ele></trkpt>
    <trkpt lat="48.370781" lon="-4.655068"><ele>70.4</ele></trkpt>
    <trkpt lat="48.371034" lon="-4.654083"><ele>70.6</ele></trkpt>
    <trkpt lat="48.371120" lon="-4.653905"><ele>70.8</ele></trkpt>
    <trkpt lat="48.371189" lon="-4.653890"><ele>71.0</ele></trkpt>
    <trkpt lat="48.371541" lon="-4.654119"><ele>70.6</ele></trkpt>
    <trkpt lat="48.371621" lon="-4.654258"><ele>70.2</ele></trkpt>
    <trkpt lat="48.371348" lon="-4.655269"><ele>70.4</ele></trkpt>
    <trkpt lat="48.371282" lon="-4.655404"><ele>70.2</ele></trkpt>
    <trkpt lat="48.371199" lon="-4.655419"><ele>70.0</ele></trkpt>
    <trkpt lat="48.370883" lon="-4.655211"><ele>70.2</ele></trkpt>
    <trkpt lat="48.370783" lon="-4.655086"><ele>70.2</ele></trkpt>
    <trkpt lat="48.371079" lon="-4.653971"><ele>70.4</ele></trkpt>
    <trkpt lat="48.371126" lon="-4.653897"><ele>70.4</ele></trkpt>
    <trkpt lat="48.371202" lon="-4.653891"><ele>70.6</ele></trkpt>
    <trkpt lat="48.371525" lon="-4.654143"><ele>70.2</ele></trkpt>
    <trkpt lat="48.371617" lon="-4.654274"><ele>70.0</ele></trkpt>
    <trkpt lat="48.371342" lon="-4.655273"><ele>69.8</ele></trkpt>
    <trkpt lat="48.371247" lon="-4.655430"><ele>69.8</ele></trkpt>
    <trkpt lat="48.371159" lon="-4.655410"><ele>69.8</ele></trkpt>
    <trkpt lat="48.370834" lon="-4.655163"><ele>70.0</ele></trkpt>
    <trkpt lat="48.370784" lon="-4.655030"><ele>70.2</ele></trkpt>
    <trkpt lat="48.371091" lon="-4.653936"><ele>70.6</ele></trkpt>
    <trkpt lat="48.371149" lon="-4.653891"><ele>70.6</ele></trkpt>
    <trkpt lat="48.371229" lon="-4.653919"><ele>70.6</ele></trkpt>
    <trkpt lat="48.371525" lon="-4.654139"><ele>70.4</ele></trkpt>
    <trkpt lat="48.371607" lon="-4.654254"><ele>70.0</ele></trkpt>
    <trkpt lat="48.371596" lon="-4.654392"><ele>70.0</ele></trkpt>
    <trkpt lat="48.371340" lon="-4.655281"><ele>69.0</ele></trkpt>
    <trkpt lat="48.371267" lon="-4.655419"><ele>68.8</ele></trkpt>
    <trkpt lat="48.371213" lon="-4.655437"><ele>68.8</ele></trkpt>
    <trkpt lat="48.370862" lon="-4.655159"><ele>70.0</ele></trkpt>
    <trkpt lat="48.370794" lon="-4.655037"><ele>70.4</ele></trkpt>
    <trkpt lat="48.370827" lon="-4.654813"><ele>70.6</ele></trkpt>
    <trkpt lat="48.371040" lon="-4.654080"><ele>70.2</ele></trkpt>
    <trkpt lat="48.371109" lon="-4.653933"><ele>70.2</ele></trkpt>
    <trkpt lat="48.371200" lon="-4.653915"><ele>70.4</ele></trkpt>
    <trkpt lat="48.371498" lon="-4.654155"><ele>70.8</ele></trkpt>
    <trkpt lat="48.371587" lon="-4.654253"><ele>70.6</ele></trkpt>
    <trkpt lat="48.371607" lon="-4.654324"><ele>70.6</ele></trkpt>
    <trkpt lat="48.371336" lon="-4.655302"><ele>69.8</ele></trkpt>
    <trkpt lat="48.371274" lon="-4.655418"><ele>69.8</ele></trkpt>
    <trkpt lat="48.371214" lon="-4.655439"><ele>69.6</ele></trkpt>
    <trkpt lat="48.371107" lon="-4.655383"><ele>69.6</ele></trkpt>
    <trkpt lat="48.370839" lon="-4.655125"><ele>69.4</ele></trkpt>
    <trkpt lat="48.370803" lon="-4.655037"><ele>69.4</ele></trkpt>
    <trkpt lat="48.370814" lon="-4.654882"><ele>69.2</ele></trkpt>
    <trkpt lat="48.371678" lon="-4.654137"><ele>68.8</ele></trkpt>
    <trkpt lat="48.371812" lon="-4.654092"><ele>68.4</ele></trkpt>
    <trkpt lat="48.372065" lon="-4.654098"><ele>67.6</ele></trkpt>
    <trkpt lat="48.372115" lon="-4.654058"><ele>67.6</ele></trkpt>
    <trkpt lat="48.372152" lon="-4.653800"><ele>67.2</ele></trkpt>
    <trkpt lat="48.372125" lon="-4.653345"><ele>67.4</ele></trkpt>
    <trkpt lat="48.372156" lon="-4.652465"><ele>66.8</ele></trkpt>
    <trkpt lat="48.372124" lon="-4.651908"><ele>66.8</ele></trkpt>
    <trkpt lat="48.372148" lon="-4.651571"><ele>66.0</ele></trkpt>
    <trkpt lat="48.372296" lon="-4.650945"><ele>65.2</ele></trkpt>
    <trkpt lat="48.372471" lon="-4.650345"><ele>64.0</ele></trkpt>
    <trkpt lat="48.372559" lon="-4.650146"><ele>64.0</ele></trkpt>
    <trkpt lat="48.372657" lon="-4.650086"><ele>63.8</ele></trkpt>
    <trkpt lat="48.372856" lon="-4.650205"><ele>63.0</ele></trkpt>
    <trkpt lat="48.373195" lon="-4.650597"><ele>61.2</ele></trkpt>
    <trkpt lat="48.373319" lon="-4.650872"><ele>60.8</ele></trkpt>
    <trkpt lat="48.373611" lon="-4.650593"><ele>60.8</ele></trkpt>
    <trkpt lat="48.373667" lon="-4.650610"><ele>60.6</ele></trkpt>
    <trkpt lat="48.373831" lon="-4.650784"><ele>60.2</ele></trkpt>
    <trkpt lat="48.374024" lon="-4.650826"><ele>59.8</ele></trkpt>
    <trkpt lat="48.374193" lon="-4.650802"><ele>59.4</ele></trkpt>
    <trkpt lat="48.374326" lon="-4.650684"><ele>58.8</ele></trkpt>
    <trkpt lat="48.374510" lon="-4.650459"><ele>58.0</ele></trkpt>
    <trkpt lat="48.374340" lon="-4.649926"><ele>57.6</ele></trkpt>
    <trkpt lat="48.373872" lon="-4.649206"><ele>57.0</ele></trkpt>
    <trkpt lat="48.373363" lon="-4.648418"><ele>56.3</ele></trkpt>
    <trkpt lat="48.373270" lon="-4.648207"><ele>56.2</ele></trkpt>
    <trkpt lat="48.373293" lon="-4.648161"><ele>56.1</ele></trkpt>
    <trkpt lat="48.373531" lon="-4.647677"><ele>55.7</ele></trkpt>
    <trkpt lat="48.373620" lon="-4.647473"><ele>55.6</ele></trkpt>
    <trkpt lat="48.373818" lon="-4.646807"><ele>55.1</ele></trkpt>
    <trkpt lat="48.373999" lon="-4.646315"><ele>54.8</ele></trkpt>
    <trkpt lat="48.374054" lon="-4.646174"><ele>54.7</ele></trkpt>
    <trkpt lat="48.374155" lon="-4.645919"><ele>54.5</ele></trkpt>
    <trkpt lat="48.374416" lon="-4.645306"><ele>54.0</ele></trkpt>
    <trkpt lat="48.374477" lon="-4.645248"><ele>54.0</ele></trkpt>
    <trkpt lat="48.374528" lon="-4.645133"><ele>53.9</ele></trkpt>
    <trkpt lat="48.374565" lon="-4.645124"><ele>53.9</ele></trkpt>
    <trkpt lat="48.374594" lon="-4.645088"><ele>53.8</ele></trkpt>
    <trkpt lat="48.374609" lon="-4.645080"><ele>53.8</ele></trkpt>
    <trkpt lat="48.374652" lon="-4.645058"><ele>53.8</ele></trkpt>
    <trkpt lat="48.374809" lon="-4.645037"><ele>53.6</ele></trkpt>
    <trkpt lat="48.375016" lon="-4.644965"><ele>53.4</ele></trkpt>
    <trkpt lat="48.375186" lon="-4.644876"><ele>53.2</ele></trkpt>
    <trkpt lat="48.375289" lon="-4.644799"><ele>53.1</ele></trkpt>
    <trkpt lat="48.375446" lon="-4.645273"><ele>52.8</ele></trkpt>
    <trkpt lat="48.375502" lon="-4.645368"><ele>52.7</ele></trkpt>
    <trkpt lat="48.375568" lon="-4.645405"><ele>52.7</ele></trkpt>
    <trkpt lat="48.375646" lon="-4.645393"><ele>52.6</ele></trkpt>
    <trkpt lat="48.375855" lon="-4.645303"><ele>52.4</ele></trkpt>
    <trkpt lat="48.375928" lon="-4.645284"><ele>52.3</ele></trkpt>
    <trkpt lat="48.375988" lon="-4.645320"><ele>52.3</ele></trkpt>
    <trkpt lat="48.376252" lon="-4.645536"><ele>52.0</ele></trkpt>
    <trkpt lat="48.376299" lon="-4.645624"><ele>51.9</ele></trkpt>
    <trkpt lat="48.376317" lon="-4.645752"><ele>51.8</ele></trkpt>
    <trkpt lat="48.376304" lon="-4.645905"><ele>51.7</ele></trkpt>
    <trkpt lat="48.376213" lon="-4.646833"><ele>51.1</ele></trkpt>
    <trkpt lat="48.376171" lon="-4.646971"><ele>51.0</ele></trkpt>
    <trkpt lat="48.376150" lon="-4.647030"><ele>51.0</ele></trkpt>
    <trkpt lat="48.376191" lon="-4.647029"><ele>51.0</ele></trkpt>
    <trkpt lat="48.376282" lon="-4.646621"><ele>50.8</ele></trkpt>
    <trkpt lat="48.376327" lon="-4.645725"><ele>50.6</ele></trkpt>
    <trkpt lat="48.376311" lon="-4.645622"><ele>50.8</ele></trkpt>
    <trkpt lat="48.376250" lon="-4.645510"><ele>51.4</ele></trkpt>
    <trkpt lat="48.376014" lon="-4.645307"><ele>52.4</ele></trkpt>
    <trkpt lat="48.375923" lon="-4.645285"><ele>52.6</ele></trkpt>
    <trkpt lat="48.375674" lon="-4.645370"><ele>52.4</ele></trkpt>
    <trkpt lat="48.375540" lon="-4.645330"><ele>52.4</ele></trkpt>
    <trkpt lat="48.375471" lon="-4.645225"><ele>52.8</ele></trkpt>
    <trkpt lat="48.375052" lon="-4.644163"><ele>54.4</ele></trkpt>
    <trkpt lat="48.374845" lon="-4.644050"><ele>55.2</ele></trkpt>
    <trkpt lat="48.374687" lon="-4.643670"><ele>55.6</ele></trkpt>
    <trkpt lat="48.374345" lon="-4.643615"><ele>55.0</ele></trkpt>
    <trkpt lat="48.374246" lon="-4.643550"><ele>54.4</ele></trkpt>
    <trkpt lat="48.374107" lon="-4.643230"><ele>52.4</ele></trkpt>
    <trkpt lat="48.374085" lon="-4.643110"><ele>52.0</ele></trkpt>
    <trkpt lat="48.374241" lon="-4.642943"><ele>51.6</ele></trkpt>
    <trkpt lat="48.374274" lon="-4.642851"><ele>51.6</ele></trkpt>
    <trkpt lat="48.374300" lon="-4.642459"><ele>51.6</ele></trkpt>
    <trkpt lat="48.374262" lon="-4.642066"><ele>51.2</ele></trkpt>
    <trkpt lat="48.374091" lon="-4.641643"><ele>51.2</ele></trkpt>
    <trkpt lat="48.373925" lon="-4.641523"><ele>50.8</ele></trkpt>
    <trkpt lat="48.373848" lon="-4.641334"><ele>50.8</ele></trkpt>
    <trkpt lat="48.373737" lon="-4.641198"><ele>50.8</ele></trkpt>
    <trkpt lat="48.373577" lon="-4.641102"><ele>51.0</ele></trkpt>
    <trkpt lat="48.373419" lon="-4.641108"><ele>51.4</ele></trkpt>
    <trkpt lat="48.373294" lon="-4.641533"><ele>51.8</ele></trkpt>
    <trkpt lat="48.373224" lon="-4.641676"><ele>52.2</ele></trkpt>
    <trkpt lat="48.373030" lon="-4.641809"><ele>52.8</ele></trkpt>
    <trkpt lat="48.372904" lon="-4.641835"><ele>53.0</ele></trkpt>
    <trkpt lat="48.372780" lon="-4.641682"><ele>52.8</ele></trkpt>
    <trkpt lat="48.372665" lon="-4.641383"><ele>52.6</ele></trkpt>
    <trkpt lat="48.372613" lon="-4.641161"><ele>52.4</ele></trkpt>
    <trkpt lat="48.372565" lon="-4.640690"><ele>53.4</ele></trkpt>
    <trkpt lat="48.372512" lon="-4.640580"><ele>54.2</ele></trkpt>
    <trkpt lat="48.371544" lon="-4.640572"><ele>57.2</ele></trkpt>
    <trkpt lat="48.371023" lon="-4.640302"><ele>58.4</ele></trkpt>
    <trkpt lat="48.370696" lon="-4.640014"><ele>60.0</ele></trkpt>
    <trkpt lat="48.370349" lon="-4.640167"><ele>62.0</ele></trkpt>
  </trkseg></trk>
</gpx>
