<?xml version="1.0" encoding="UTF-8"?>
<gpx version="1.1" creator="tcap-parcours" xmlns="http://www.topografix.com/GPX/1/1">
  <metadata><name>fractionne-dreizoc-3</name></metadata>
  <trk><name>fractionne-dreizoc-3</name><trkseg>
    <trkpt lat="48.370151" lon="-4.640642"><ele>63.0</ele></trkpt>
    <trkpt lat="48.370018" lon="-4.641210"><ele>59.4</ele></trkpt>
    <trkpt lat="48.369819" lon="-4.641682"><ele>59.6</ele></trkpt>
    <trkpt lat="48.369672" lon="-4.642263"><ele>60.2</ele></trkpt>
    <trkpt lat="48.369617" lon="-4.642676"><ele>59.8</ele></trkpt>
    <trkpt lat="48.369574" lon="-4.642782"><ele>59.6</ele></trkpt>
    <trkpt lat="48.369447" lon="-4.642936"><ele>59.8</ele></trkpt>
    <trkpt lat="48.368075" lon="-4.642808"><ele>67.4</ele></trkpt>
    <trkpt lat="48.367855" lon="-4.642688"><ele>68.2</ele></trkpt>
    <trkpt lat="48.366898" lon="-4.642374"><ele>68.8</ele></trkpt>
    <trkpt lat="48.366381" lon="-4.642250"><ele>68.6</ele></trkpt>
    <trkpt lat="48.366139" lon="-4.642309"><ele>68.2</ele></trkpt>
    <trkpt lat="48.365961" lon="-4.642121"><ele>67.8</ele></trkpt>
    <trkpt lat="48.365845" lon="-4.642074"><ele>67.6</ele></trkpt>
    <trkpt lat="48.365753" lon="-4.642096"><ele>67.6</ele></trkpt>
    <trkpt lat="48.365692" lon="-4.642216"><ele>67.8</ele></trkpt>
    <trkpt lat="48.365611" lon="-4.642972"><ele>67.2</ele></trkpt>
    <trkpt lat="48.365529" lon="-4.643299"><ele>67.6</ele></trkpt>
    <trkpt lat="48.364920" lon="-4.644567"><ele>68.8</ele></trkpt>
    <trkpt lat="48.364656" lon="-4.645520"><ele>69.6</ele></trkpt>
    <trkpt lat="48.364124" lon="-4.646895"><ele>71.6</ele></trkpt>
    <trkpt lat="48.364111" lon="-4.647005"><ele>71.6</ele></trkpt>
    <trkpt lat="48.364149" lon="-4.647113"><ele>71.6</ele></trkpt>
    <trkpt lat="48.364544" lon="-4.647685"><ele>71.0</ele></trkpt>
    <trkpt lat="48.364773" lon="-4.648089"><ele>70.8</ele></trkpt>
    <trkpt lat="48.365208" lon="-4.649295"><ele>70.2</ele></trkpt>
    <trkpt lat="48.365328" lon="-4.649513"><ele>70.4</ele></trkpt>
    <trkpt lat="48.365651" lon="-4.649952"><ele>70.6</ele></trkpt>
    <trkpt lat="48.366355" lon="-4.651349"><ele>73.8</ele></trkpt>
    <trkpt lat="48.367071" lon="-4.652643"><ele>73.8</ele></trkpt>
    <trkpt lat="48.367095" lon="-4.652744"><ele>73.4</ele></trkpt>
    <trkpt lat="48.367083" lon="-4.652846"><ele>73.0</ele></trkpt>
    <trkpt lat="48.366754" lon="-4.653191"><ele>72.8</ele></trkpt>
    <trkpt lat="48.366701" lon="-4.653310"><ele>73.0</ele></trkpt>
    <trkpt lat="48.366715" lon="-4.653410"><ele>72.8</ele></trkpt>
    <trkpt lat="48.366986" lon="-4.653613"><ele>72.2</ele></trkpt>
    <trkpt lat="48.367438" lon="-4.653758"><ele>72.4</ele></trkpt>
    <trkpt lat="48.367687" lon="-4.653934"><ele>72.6</ele></trkpt>
    <trkpt lat="48.368313" lon="-4.654898"><ele>75.2</ele></trkpt>
    <trkpt lat="48.368717" lon="-4.655600"><ele>78.2</ele></trkpt>
    <trkpt lat="48.369232" lon="-4.656133"><ele>79.2</ele></trkpt>
    <trkpt lat="48.369895" lon="-4.656690"><ele>75.6</ele></trkpt>
    <trkpt lat="48.370006" lon="-4.656873"><ele>73.6</ele></trkpt>
    <trkpt lat="48.370082" lon="-4.656884"><ele>73.4</ele></trkpt>
    <trkpt lat="48.370186" lon="-4.656775"><ele>73.2</ele></trkpt>
    <trkpt lat="48.370331" lon="-4.656705"><ele>72.4</ele></trkpt>
    <trkpt lat="48.370553" lon="-4.656837"><ele>71.6</ele></trkpt>
    <trkpt lat="48.370917" lon="-4.656971"><ele>70.2</ele></trkpt>
    <trkpt lat="48.372756" lon="-4.657111"><ele>63.4</ele></trkpt>
    <trkpt lat="48.373380" lon="-4.657294"><ele>60.6</ele></trkpt>
    <trkpt lat="48.373615" lon="-4.657467"><ele>60.0</ele></trkpt>
    <trkpt lat="48.374490" lon="-4.658354"><ele>60.4</ele></trkpt>
    <trkpt lat="48.375684" lon="-4.659212"><ele>64.2</ele></trkpt>
    <trkpt lat="48.376047" lon="-4.659716"><ele>67.2</ele></trkpt>
    <trkpt lat="48.376164" lon="-4.659684"><ele>68.6</ele></trkpt>
    <trkpt lat="48.376397" lon="-4.659382"><ele>71.0</ele></trkpt>
    <trkpt lat="48.376660" lon="-4.659134"><ele>74.0</ele></trkpt>
    <trkpt lat="48.376933" lon="-4.658995"><ele>74.4</ele></trkpt>
    <trkpt lat="48.377510" lon="-4.658814"><ele>75.6</ele></trkpt>
    <trkpt lat="48.377848" lon="-4.658452"><ele>74.6</ele></trkpt>
    <trkpt lat="48.377999" lon="-4.658463"><ele>75.0</ele></trkpt>
    <trkpt lat="48.378197" lon="-4.658688"><ele>76.0</ele></trkpt>
    <trkpt lat="48.378284" lon="-4.658736"><ele>76.2</ele></trkpt>
    <trkpt lat="48.378381" lon="-4.658717"><ele>76.4</ele></trkpt>
    <trkpt lat="48.378684" lon="-4.658518"><ele>76.4</ele></trkpt>
    <trkpt lat="48.378736" lon="-4.658430"><ele>76.2</ele></trkpt>
    <trkpt lat="48.378782" lon="-4.658228"><ele>75.8</ele></trkpt>
    <trkpt lat="48.378956" lon="-4.656837"><ele>72.4</ele></trkpt>
    <trkpt lat="48.378970" lon="-4.656295"><ele>71.0</ele></trkpt>
    <trkpt lat="48.378725" lon="-4.656086"><ele>70.4</ele></trkpt>
    <trkpt lat="48.377826" lon="-4.655783"><ele>65.4</ele></trkpt>
    <trkpt lat="48.377622" lon="-4.655630"><ele>64.0</ele></trkpt>
    <trkpt lat="48.377554" lon="-4.655511"><ele>63.4</ele></trkpt>
    <trkpt lat="48.377510" lon="-4.655337"><ele>63.0</ele></trkpt>
    <trkpt lat="48.377384" lon="-4.653798"><ele>60.2</ele></trkpt>
    <trkpt lat="48.377307" lon="-4.653490"><ele>59.2</ele></trkpt>
    <trkpt lat="48.377173" lon="-4.653338"><ele>59.0</ele></trkpt>
    <trkpt lat="48.376566" lon="-4.653011"><ele>59.2</ele></trkpt>
    <trkpt lat="48.375980" lon="-4.652551"><ele>58.0</ele></trkpt>
    <trkpt lat="48.375631" lon="-4.652062"><ele>56.8</ele></trkpt>
    <trkpt lat="48.374854" lon="-4.650829"><ele>56.6</ele></trkpt>
    <trkpt lat="48.374792" lon="-4.650851"><ele>56.8</ele></trkpt>
    <trkpt lat="48.374779" lon="-4.650921"><ele>57.0</ele></trkpt>
    <trkpt lat="48.374965" lon="-4.651933"><ele>56.8</ele></trkpt>
    <trkpt lat="48.375035" lon="-4.652779"><ele>57.6</ele></trkpt>
    <trkpt lat="48.375008" lon="-4.652904"><ele>58.2</ele></trkpt>
    <trkpt lat="48.374913" lon="-4.652932"><ele>58.8</ele></trkpt>
    <trkpt lat="48.374627" lon="-4.652904"><ele>59.2</ele></trkpt>
    <trkpt lat="48.374249" lon="-4.652806"><ele>59.2</ele></trkpt>
    <trkpt lat="48.373633" lon="-4.652729"><ele>60.0</ele></trkpt>
    <trkpt lat="48.373359" lon="-4.652404"><ele>62.4</ele></trkpt>
    <trkpt lat="48.373091" lon="-4.652231"><ele>63.4</ele></trkpt>
    <trkpt lat="48.372827" lon="-4.652250"><ele>64.4</ele></trkpt>
    <trkpt lat="48.372252" lon="-4.652140"><ele>66.6</ele></trkpt>
    <trkpt lat="48.372165" lon="-4.652156"><ele>67.0</ele></trkpt>
    <trkpt lat="48.372118" lon="-4.652286"><ele>67.2</ele></trkpt>
    <trkpt lat="48.372132" lon="-4.652908"><ele>67.6</ele></trkpt>
    <trkpt lat="48.372099" lon="-4.653158"><ele>67.4</ele></trkpt>
    <trkpt lat="48.372080" lon="-4.653934"><ele>67.6</ele></trkpt>
    <trkpt lat="48.372042" lon="-4.654118"><ele>67.4</ele></trkpt>
    <trkpt lat="48.371972" lon="-4.654163"><ele>67.2</ele></trkpt>
    <trkpt lat="48.371393" lon="-4.654161"><ele>72.2</ele></trkpt>
    <trkpt lat="48.371097" lon="-4.655327"><ele>70.2</ele></trkpt>
    <trkpt lat="48.371370" lon="-4.654159"><ele>69.2</ele></trkpt>
    <trkpt lat="48.371105" lon="-4.655345"><ele>69.2</ele></trkpt>
    <trkpt lat="48.371211" lon="-4.654760"><ele>69.6</ele></trkpt>
    <trkpt lat="48.371413" lon="-4.654032"><ele>69.4</ele></trkpt>
    <trkpt lat="48.371237" lon="-4.654921"><ele>69.6</ele></trkpt>
    <trkpt lat="48.371139" lon="-4.655279"><ele>69.2</ele></trkpt>
    <trkpt lat="48.371098" lon="-4.655325"><ele>70.2</ele></trkpt>
    <trkpt lat="48.371449" lon="-4.654107"><ele>67.4</ele></trkpt>
    <trkpt lat="48.371574" lon="-4.654217"><ele>71.6</ele></trkpt>
    <trkpt lat="48.371588" lon="-4.654389"><ele>70.0</ele></trkpt>
    <trkpt lat="48.371347" lon="-4.655294"><ele>70.0</ele></trkpt>
    <trkpt lat="48.371245" lon="-4.655483"><ele>70.0</ele></trkpt>
    <trkpt lat="48.371132" lon="-4.655508"><ele>70.0</ele></trkpt>
    <trkpt lat="48.370981" lon="-4.655435"><ele>70.0</ele></trkpt>
    <trkpt lat="48.370778" lon="-4.655145"><ele>70.2</ele></trkpt>
    <trkpt lat="48.370759" lon="-4.655035"><ele>70.0</ele></trkpt>
    <trkpt lat="48.370789" lon="-4.654859"><ele>69.8</ele></trkpt>
    <trkpt lat="48.371083" lon="-4.653951"><ele>70.0</ele></trkpt>
    <trkpt lat="48.371150" lon="-4.653888"><ele>69.8</ele></trkpt>
    <trkpt lat="48.371476" lon="-4.654118"><ele>69.8</ele></trkpt>
    <trkpt lat="48.371583" lon="-4.654264"><ele>69.6</ele></trkpt>
    <trkpt lat="48.371560" lon="-4.654459"><ele>70.0</ele></trkpt>
    <trkpt lat="48.371321" lon="-4.655271"><ele>70.0</ele></trkpt>
    <trkpt lat="48.371232" lon="-4.655415"><ele>70.0</ele></trkpt>
    <trkpt lat="48.371132" lon="-4.655404"><ele>70.0</ele></trkpt>
    <trkpt lat="48.370841" lon="-4.655200"><ele>69.8</ele></trkpt>
    <trkpt lat="48.370766" lon="-4.655043"><ele>69.8</ele></trkpt>
    <trkpt lat="48.370785" lon="-4.654833"><ele>69.8</ele></trkpt>
    <trkpt lat="48.371050" lon="-4.654016"><ele>70.0</ele></trkpt>
    <trkpt lat="48.371099" lon="-4.653916"><ele>70.2</ele></trkpt>
    <trkpt lat="48.371156" lon="-4.653888"><ele>70.2</ele></trkpt>
    <trkpt lat="48.371521" lon="-4.654128"><ele>70.0</ele></trkpt>
    <trkpt lat="48.371593" lon="-4.654235"><ele>70.0</ele></trkpt>
    <trkpt lat="48.371586" lon="-4.654374"><ele>69.8</ele></trkpt>
    <trkpt lat="48.371393" lon="-4.655112"><ele>70.0</ele></trkpt>
    <trkpt lat="48.371290" lon="-4.655391"><ele>70.2</ele></trkpt>
    <trkpt lat="48.371208" lon="-4.655443"><ele>70.2</ele></trkpt>
    <trkpt lat="48.370897" lon="-4.655231"><ele>70.4</ele></trkpt>
    <trkpt lat="48.370781" lon="-4.655050"><ele>70.4</ele></trkpt>
    <trkpt lat="48.370817" lon="-4.654768"><ele>70.2</ele></trkpt>
    <trkpt lat="48.371078" lon="-4.653966"><ele>70.0</ele></trkpt>
    <trkpt lat="48.371150" lon="-4.653885"><ele>69.8</ele></trkpt>
    <trkpt lat="48.371490" lon="-4.654094"><ele>70.0</ele></trkpt>
    <trkpt lat="48.371594" lon="-4.654227"><ele>70.0</ele></trkpt>
    <trkpt lat="48.371572" lon="-4.654417"><ele>70.2</ele></trkpt>
    <trkpt lat="48.371337" lon="-4.655243"><ele>69.6</ele></trkpt>
    <trkpt lat="48.371275" lon="-4.655366"><ele>69.4</ele></trkpt>
    <trkpt lat="48.371183" lon="-4.655404"><ele>69.2</ele></trkpt>
    <trkpt lat="48.370852" lon="-4.655188"><ele>69.8</ele></trkpt>
    <trkpt lat="48.370767" lon="-4.655038"><ele>69.8</ele></trkpt>
    <trkpt lat="48.370776" lon="-4.654888"><ele>69.6</ele></trkpt>
    <trkpt lat="48.370884" lon="-4.654512"><ele>66.8</ele></trkpt>
    <trkpt lat="48.371615" lon="-4.654237"><ele>71.6</ele></trkpt>
    <trkpt lat="48.371575" lon="-4.654524"><ele>70.2</ele></trkpt>
    <trkpt lat="48.371392" lon="-4.655189"><ele>69.8</ele></trkpt>
    <trkpt lat="48.371285" lon="-4.655439"><ele>69.8</ele></trkpt>
    <trkpt lat="48.371177" lon="-4.655485"><ele>70.0</ele></trkpt>
    <trkpt lat="48.370987" lon="-4.655381"><ele>70.2</ele></trkpt>
    <trkpt lat="48.370811" lon="-4.655190"><ele>70.2</ele></trkpt>
    <trkpt lat="48.370752" lon="-4.655073"><ele>70.2</ele></trkpt>
    <trkpt lat="48.370769" lon="-4.654913"><ele>70.2</ele></trkpt>
    <trkpt lat="48.371051" lon="-4.654038"><ele>70.0</ele></trkpt>
    <trkpt lat="48.371138" lon="-4.653874"><ele>70.0</ele></trkpt>
    <trkpt lat="48.371478" lon="-4.654057"><ele>70.0</ele></trkpt>
    <trkpt lat="48.371601" lon="-4.654218"><ele>70.0</ele></trkpt>
    <trkpt lat="48.371570" lon="-4.654430"><ele>70.2</ele></trkpt>
    <trkpt lat="48.371327" lon="-4.655302"><ele>70.0</ele></trkpt>
    <trkpt lat="48.371261" lon="-4.655426"><ele>70.2</ele></trkpt>
    <trkpt lat="48.371199" lon="-4.655443"><ele>70.2</ele></trkpt>
    <trkpt lat="48.370852" lon="-4.655215"><ele>70.2</ele></trkpt>
    <trkpt lat="48.370765" lon="-4.655064"><ele>70.4</ele></trkpt>
    <trkpt lat="48.370778" lon="-4.654899"><ele>70.4</ele></trkpt>
    <trkpt lat="48.370935" lon="-4.654505"><ele>70.4</ele></trkpt>
    <trkpt lat="48.371061" lon="-4.654053"><ele>70.2</ele></trkpt>
    <trkpt lat="48.371136" lon="-4.653909"><ele>70.0</ele></trkpt>
    <trkpt lat="48.371206" lon="-4.653896"><ele>69.8</ele></trkpt>
    <trkpt lat="48.371541" lon="-4.654133"><ele>69.8</ele></trkpt>
    <trkpt lat="48.371610" lon="-4.654242"><ele>70.0</ele></trkpt>
    <trkpt lat="48.371415" lon="-4.655015"><ele>70.0</ele></trkpt>
    <trkpt lat="48.371309" lon="-4.655316"><ele>70.0</ele></trkpt>
    <trkpt lat="48.371231" lon="-4.655421"><ele>70.0</ele></trkpt>
    <trkpt lat="48.371125" lon="-4.655404"><ele>70.0</ele></trkpt>
    <trkpt lat="48.370861" lon="-4.655189"><ele>70.0</ele></trkpt>
    <trkpt lat="48.370792" lon="-4.655078"><ele>70.0</ele></trkpt>
    <trkpt lat="48.370778" lon="-4.654989"><ele>69.8</ele></trkpt>
    <trkpt lat="48.370812" lon="-4.654809"><ele>69.6</ele></trkpt>
    <trkpt lat="48.370971" lon="-4.654373"><ele>70.2</ele></trkpt>
    <trkpt lat="48.371023" lon="-4.654115"><ele>70.4</ele></trkpt>
    <trkpt lat="48.371107" lon="-4.653938"><ele>70.0</ele></trkpt>
    <trkpt lat="48.371192" lon="-4.653888"><ele>69.8</ele></trkpt>
    <trkpt lat="48.371384" lon="-4.654008"><ele>70.0</ele></trkpt>
    <trkpt lat="48.371545" lon="-4.654152"><ele>70.0</ele></trkpt>
    <trkpt lat="48.371596" lon="-4.654292"><ele>70.2</ele></trkpt>
    <trkpt lat="48.371330" lon="-4.655256"><ele>70.0</ele></trkpt>
    <trkpt lat="48.371265" lon="-4.655380"><ele>69.8</ele></trkpt>
    <trkpt lat="48.371163" lon="-4.655423"><ele>69.8</ele></trkpt>
    <trkpt lat="48.370911" lon="-4.655267"><ele>70.2</ele></trkpt>
    <trkpt lat="48.370783" lon="-4.655089"><ele>70.2</ele></trkpt>
    <trkpt lat="48.370776" lon="-4.654927"><ele>70.0</ele></trkpt>
    <trkpt lat="48.370891" lon="-4.654563"><ele>67.0</ele></trkpt>
    <trkpt lat="48.371630" lon="-4.654185"><ele>70.8</ele></trkpt>
    <trkpt lat="48.372043" lon="-4.654085"><ele>66.8</ele></trkpt>
    <trkpt lat="48.372101" lon="-4.654019"><ele>66.6</ele></trkpt>
    <trkpt lat="48.372127" lon="-4.653667"><ele>66.4</ele></trkpt>
    <trkpt lat="48.372116" lon="-4.653000"><ele>66.6</ele></trkpt>
    <trkpt lat="48.372160" lon="-4.652569"><ele>66.6</ele></trkpt>
    <trkpt lat="48.372119" lon="-4.651610"><ele>66.0</ele></trkpt>
    <trkpt lat="48.372410" lon="-4.650483"><ele>64.4</ele></trkpt>
    <trkpt lat="48.372569" lon="-4.650119"><ele>64.2</ele></trkpt>
    <trkpt lat="48.372624" lon="-4.650091"><ele>64.0</ele></trkpt>
    <trkpt lat="48.372778" lon="-4.650138"><ele>63.2</ele></trkpt>
    <trkpt lat="48.373115" lon="-4.650466"><ele>61.6</ele></trkpt>
    <trkpt lat="48.373159" lon="-4.650538"><ele>61.4</ele></trkpt>
    <trkpt lat="48.373230" lon="-4.650828"><ele>61.0</ele></trkpt>
    <trkpt lat="48.373285" lon="-4.650900"><ele>61.0</ele></trkpt>
    <trkpt lat="48.373623" lon="-4.650585"><ele>60.0</ele></trkpt>
    <trkpt lat="48.373873" lon="-4.650813"><ele>59.4</ele></trkpt>
    <trkpt lat="48.374148" lon="-4.650831"><ele>58.6</ele></trkpt>
    <trkpt lat="48.374530" lon="-4.650433"><ele>57.2</ele></trkpt>
    <trkpt lat="48.374340" lon="-4.649926"><ele>56.9</ele></trkpt>
    <trkpt lat="48.373872" lon="-4.649206"><ele>56.4</ele></trkpt>
    <trkpt lat="48.373363" lon="-4.648418"><ele>55.8</ele></trkpt>
    <trkpt lat="48.373270" lon="-4.648207"><ele>55.7</ele></trkpt>
    <trkpt lat="48.373293" lon="-4.648161"><ele>55.7</ele></trkpt>
    <trkpt lat="48.373531" lon="-4.647677"><ele>55.3</ele></trkpt>
    <trkpt lat="48.373620" lon="-4.647473"><ele>55.2</ele></trkpt>
    <trkpt lat="48.373818" lon="-4.646807"><ele>54.8</ele></trkpt>
    <trkpt lat="48.373999" lon="-4.646315"><ele>54.6</ele></trkpt>
    <trkpt lat="48.374054" lon="-4.646174"><ele>54.5</ele></trkpt>
    <trkpt lat="48.374155" lon="-4.645919"><ele>54.3</ele></trkpt>
    <trkpt lat="48.374416" lon="-4.645306"><ele>53.9</ele></trkpt>
    <trkpt lat="48.374477" lon="-4.645248"><ele>53.9</ele></trkpt>
    <trkpt lat="48.374528" lon="-4.645133"><ele>53.8</ele></trkpt>
    <trkpt lat="48.374565" lon="-4.645124"><ele>53.8</ele></trkpt>
    <trkpt lat="48.374594" lon="-4.645088"><ele>53.8</ele></trkpt>
    <trkpt lat="48.374609" lon="-4.645080"><ele>53.7</ele></trkpt>
    <trkpt lat="48.374652" lon="-4.645058"><ele>53.7</ele></trkpt>
    <trkpt lat="48.374809" lon="-4.645037"><ele>53.6</ele></trkpt>
    <trkpt lat="48.375016" lon="-4.644965"><ele>53.4</ele></trkpt>
    <trkpt lat="48.375186" lon="-4.644876"><ele>53.3</ele></trkpt>
    <trkpt lat="48.375289" lon="-4.644799"><ele>53.2</ele></trkpt>
    <trkpt lat="48.375365" lon="-4.644866"><ele>53.2</ele></trkpt>
    <trkpt lat="48.375129" lon="-4.644271"><ele>53.4</ele></trkpt>
    <trkpt lat="48.375149" lon="-4.644159"><ele>53.4</ele></trkpt>
    <trkpt lat="48.375314" lon="-4.644018"><ele>53.2</ele></trkpt>
    <trkpt lat="48.375252" lon="-4.643711"><ele>53.0</ele></trkpt>
    <trkpt lat="48.375195" lon="-4.643616"><ele>53.2</ele></trkpt>
    <trkpt lat="48.375079" lon="-4.643549"><ele>53.2</ele></trkpt>
    <trkpt lat="48.375021" lon="-4.643378"><ele>52.8</ele></trkpt>
    <trkpt lat="48.374902" lon="-4.643357"><ele>52.6</ele></trkpt>
    <trkpt lat="48.374774" lon="-4.643258"><ele>52.8</ele></trkpt>
    <trkpt lat="48.374726" lon="-4.643058"><ele>52.6</ele></trkpt>
    <trkpt lat="48.374670" lon="-4.642956"><ele>52.6</ele></trkpt>
    <trkpt lat="48.374456" lon="-4.642841"><ele>52.2</ele></trkpt>
    <trkpt lat="48.374439" lon="-4.642650"><ele>52.0</ele></trkpt>
    <trkpt lat="48.374259" lon="-4.642229"><ele>50.6</ele></trkpt>
    <trkpt lat="48.374230" lon="-4.642040"><ele>50.4</ele></trkpt>
    <trkpt lat="48.374132" lon="-4.641745"><ele>49.6</ele></trkpt>
    <trkpt lat="48.374056" lon="-4.641613"><ele>49.2</ele></trkpt>
    <trkpt lat="48.373908" lon="-4.641514"><ele>48.8</ele></trkpt>
    <trkpt lat="48.373815" lon="-4.641303"><ele>49.0</ele></trkpt>
    <trkpt lat="48.373693" lon="-4.641141"><ele>49.6</ele></trkpt>
    <trkpt lat="48.373534" lon="-4.641062"><ele>49.6</ele></trkpt>
    <trkpt lat="48.373419" lon="-4.641076"><ele>49.6</ele></trkpt>
    <trkpt lat="48.373365" lon="-4.641152"><ele>49.6</ele></trkpt>
    <trkpt lat="48.373205" lon="-4.641610"><ele>49.8</ele></trkpt>
    <trkpt lat="48.372976" lon="-4.641771"><ele>51.0</ele></trkpt>
    <trkpt lat="48.372872" lon="-4.641789"><ele>51.6</ele></trkpt>
    <trkpt lat="48.372766" lon="-4.641672"><ele>52.4</ele></trkpt>
    <trkpt lat="48.372631" lon="-4.641376"><ele>52.4</ele></trkpt>
    <trkpt lat="48.372576" lon="-4.641138"><ele>52.4</ele></trkpt>
    <trkpt lat="48.372547" lon="-4.640677"><ele>52.0</ele></trkpt>
    <trkpt lat="48.372484" lon="-4.640571"><ele>52.0</ele></trkpt>
    <trkpt lat="48.371818" lon="-4.640510"><ele>54.2</ele></trkpt>
    <trkpt lat="48.371520" lon="-4.640535"><ele>55.6</ele></trkpt>
    <trkpt lat="48.371121" lon="-4.640345"><ele>57.0</ele></trkpt>
    <trkpt lat="48.370891" lon="-4.640184"><ele>57.4</ele></trkpt>
    <trkpt lat="48.370695" lon="-4.639988"><ele>57.6</ele></trkpt>
    <trkpt lat="48.370226" lon="-4.640094"><ele>60.2</ele></trkpt>
    <trkpt lat="48.370225" lon="-4.640142"><ele>60.6</ele></trkpt>
    <trkpt lat="48.370275" lon="-4.640066"><ele>58.4</ele></trkpt>
  </trkseg></trk>
</gpx>
