<?xml version="1.0" encoding="UTF-8"?>
<gpx version="1.1" creator="tcap-parcours" xmlns="http://www.topografix.com/GPX/1/1">
  <metadata><name>fractionne-dreizoc-2</name></metadata>
  <trk><name>fractionne-dreizoc-2</name><trkseg>
    <trkpt lat="48.370228" lon="-4.640466"><ele>62.8</ele></trkpt>
    <trkpt lat="48.369754" lon="-4.642061"><ele>60.4</ele></trkpt>
    <trkpt lat="48.369639" lon="-4.642736"><ele>60.0</ele></trkpt>
    <trkpt lat="48.369493" lon="-4.642985"><ele>60.4</ele></trkpt>
    <trkpt lat="48.368047" lon="-4.642828"><ele>68.0</ele></trkpt>
    <trkpt lat="48.366915" lon="-4.642384"><ele>69.0</ele></trkpt>
    <trkpt lat="48.366383" lon="-4.642257"><ele>69.2</ele></trkpt>
    <trkpt lat="48.366175" lon="-4.642330"><ele>68.4</ele></trkpt>
    <trkpt lat="48.365913" lon="-4.642109"><ele>67.6</ele></trkpt>
    <trkpt lat="48.365811" lon="-4.642096"><ele>67.4</ele></trkpt>
    <trkpt lat="48.365741" lon="-4.642139"><ele>67.6</ele></trkpt>
    <trkpt lat="48.365700" lon="-4.642244"><ele>67.8</ele></trkpt>
    <trkpt lat="48.365634" lon="-4.642848"><ele>67.6</ele></trkpt>
    <trkpt lat="48.365456" lon="-4.643518"><ele>67.4</ele></trkpt>
    <trkpt lat="48.365021" lon="-4.644317"><ele>69.2</ele></trkpt>
    <trkpt lat="48.364606" lon="-4.645668"><ele>70.2</ele></trkpt>
    <trkpt lat="48.364110" lon="-4.646905"><ele>72.2</ele></trkpt>
    <trkpt lat="48.364099" lon="-4.647020"><ele>72.2</ele></trkpt>
    <trkpt lat="48.364129" lon="-4.647098"><ele>72.2</ele></trkpt>
    <trkpt lat="48.364560" lon="-4.647714"><ele>71.8</ele></trkpt>
    <trkpt lat="48.364757" lon="-4.648054"><ele>71.4</ele></trkpt>
    <trkpt lat="48.364974" lon="-4.648560"><ele>70.6</ele></trkpt>
    <trkpt lat="48.365307" lon="-4.649493"><ele>70.4</ele></trkpt>
    <trkpt lat="48.365600" lon="-4.649860"><ele>71.4</ele></trkpt>
    <trkpt lat="48.366614" lon="-4.651835"><ele>76.0</ele></trkpt>
    <trkpt lat="48.367090" lon="-4.652694"><ele>73.0</ele></trkpt>
    <trkpt lat="48.367099" lon="-4.652800"><ele>72.8</ele></trkpt>
    <trkpt lat="48.367072" lon="-4.652869"><ele>73.0</ele></trkpt>
    <trkpt lat="48.366841" lon="-4.653098"><ele>73.0</ele></trkpt>
    <trkpt lat="48.366731" lon="-4.653259"><ele>73.0</ele></trkpt>
    <trkpt lat="48.366699" lon="-4.653363"><ele>73.0</ele></trkpt>
    <trkpt lat="48.366719" lon="-4.653464"><ele>73.0</ele></trkpt>
    <trkpt lat="48.366844" lon="-4.653545"><ele>73.2</ele></trkpt>
    <trkpt lat="48.367515" lon="-4.653759"><ele>73.2</ele></trkpt>
    <trkpt lat="48.367647" lon="-4.653851"><ele>73.0</ele></trkpt>
    <trkpt lat="48.368287" lon="-4.654846"><ele>76.4</ele></trkpt>
    <trkpt lat="48.368734" lon="-4.655616"><ele>77.8</ele></trkpt>
    <trkpt lat="48.370007" lon="-4.656703"><ele>74.8</ele></trkpt>
    <trkpt lat="48.370490" lon="-4.656912"><ele>72.4</ele></trkpt>
    <trkpt lat="48.371065" lon="-4.657007"><ele>68.6</ele></trkpt>
    <trkpt lat="48.372451" lon="-4.657067"><ele>64.6</ele></trkpt>
    <trkpt lat="48.372931" lon="-4.657117"><ele>63.6</ele></trkpt>
    <trkpt lat="48.373218" lon="-4.657200"><ele>63.4</ele></trkpt>
    <trkpt lat="48.373656" lon="-4.657486"><ele>60.4</ele></trkpt>
    <trkpt lat="48.374595" lon="-4.658410"><ele>59.0</ele></trkpt>
    <trkpt lat="48.375554" lon="-4.659101"><ele>63.4</ele></trkpt>
    <trkpt lat="48.375781" lon="-4.659322"><ele>65.2</ele></trkpt>
    <trkpt lat="48.376067" lon="-4.659701"><ele>68.4</ele></trkpt>
    <trkpt lat="48.376177" lon="-4.659681"><ele>69.0</ele></trkpt>
    <trkpt lat="48.376410" lon="-4.659359"><ele>71.0</ele></trkpt>
    <trkpt lat="48.376640" lon="-4.659143"><ele>69.8</ele></trkpt>
    <trkpt lat="48.377544" lon="-4.658800"><ele>75.4</ele></trkpt>
    <trkpt lat="48.377855" lon="-4.658469"><ele>75.4</ele></trkpt>
    <trkpt lat="48.378010" lon="-4.658487"><ele>76.4</ele></trkpt>
    <trkpt lat="48.378248" lon="-4.658722"><ele>77.6</ele></trkpt>
    <trkpt lat="48.378320" lon="-4.658747"><ele>77.8</ele></trkpt>
    <trkpt lat="48.378684" lon="-4.658542"><ele>76.4</ele></trkpt>
    <trkpt lat="48.378755" lon="-4.658395"><ele>76.4</ele></trkpt>
    <trkpt lat="48.378827" lon="-4.657813"><ele>74.8</ele></trkpt>
    <trkpt lat="48.378964" lon="-4.656580"><ele>72.0</ele></trkpt>
    <trkpt lat="48.378956" lon="-4.656294"><ele>71.6</ele></trkpt>
    <trkpt lat="48.378875" lon="-4.656193"><ele>71.2</ele></trkpt>
    <trkpt lat="48.378712" lon="-4.656086"><ele>70.0</ele></trkpt>
    <trkpt lat="48.377842" lon="-4.655814"><ele>65.4</ele></trkpt>
    <trkpt lat="48.377634" lon="-4.655676"><ele>64.2</ele></trkpt>
    <trkpt lat="48.377544" lon="-4.655491"><ele>63.6</ele></trkpt>
    <trkpt lat="48.377492" lon="-4.655256"><ele>63.0</ele></trkpt>
    <trkpt lat="48.377403" lon="-4.654572"><ele>61.8</ele></trkpt>
    <trkpt lat="48.377346" lon="-4.653737"><ele>60.4</ele></trkpt>
    <trkpt lat="48.377270" lon="-4.653477"><ele>60.2</ele></trkpt>
    <trkpt lat="48.377116" lon="-4.653323"><ele>60.0</ele></trkpt>
    <trkpt lat="48.376764" lon="-4.653159"><ele>60.2</ele></trkpt>
    <trkpt lat="48.376430" lon="-4.652941"><ele>60.6</ele></trkpt>
    <trkpt lat="48.375959" lon="-4.652548"><ele>58.2</ele></trkpt>
    <trkpt lat="48.375662" lon="-4.652122"><ele>57.4</ele></trkpt>
    <trkpt lat="48.375264" lon="-4.651433"><ele>56.8</ele></trkpt>
    <trkpt lat="48.374860" lon="-4.650828"><ele>58.4</ele></trkpt>
    <trkpt lat="48.374799" lon="-4.650848"><ele>58.4</ele></trkpt>
    <trkpt lat="48.374785" lon="-4.650954"><ele>58.4</ele></trkpt>
    <trkpt lat="48.374893" lon="-4.651421"><ele>57.2</ele></trkpt>
    <trkpt lat="48.374982" lon="-4.651998"><ele>56.8</ele></trkpt>
    <trkpt lat="48.375051" lon="-4.652722"><ele>58.2</ele></trkpt>
    <trkpt lat="48.375034" lon="-4.652902"><ele>58.6</ele></trkpt>
    <trkpt lat="48.374949" lon="-4.652937"><ele>59.0</ele></trkpt>
    <trkpt lat="48.374687" lon="-4.652925"><ele>59.2</ele></trkpt>
    <trkpt lat="48.374360" lon="-4.652841"><ele>59.6</ele></trkpt>
    <trkpt lat="48.373665" lon="-4.652750"><ele>60.4</ele></trkpt>
    <trkpt lat="48.373351" lon="-4.652398"><ele>61.8</ele></trkpt>
    <trkpt lat="48.373119" lon="-4.652261"><ele>63.0</ele></trkpt>
    <trkpt lat="48.373013" lon="-4.652243"><ele>63.4</ele></trkpt>
    <trkpt lat="48.372820" lon="-4.652288"><ele>64.4</ele></trkpt>
    <trkpt lat="48.372356" lon="-4.652163"><ele>66.0</ele></trkpt>
    <trkpt lat="48.372178" lon="-4.652172"><ele>66.6</ele></trkpt>
    <trkpt lat="48.372114" lon="-4.652297"><ele>67.2</ele></trkpt>
    <trkpt lat="48.372133" lon="-4.652702"><ele>67.6</ele></trkpt>
    <trkpt lat="48.372096" lon="-4.653169"><ele>67.8</ele></trkpt>
    <trkpt lat="48.372110" lon="-4.653735"><ele>68.2</ele></trkpt>
    <trkpt lat="48.372061" lon="-4.654105"><ele>68.0</ele></trkpt>
    <trkpt lat="48.371408" lon="-4.654138"><ele>72.0</ele></trkpt>
    <trkpt lat="48.371121" lon="-4.655276"><ele>69.0</ele></trkpt>
    <trkpt lat="48.371334" lon="-4.654307"><ele>69.0</ele></trkpt>
    <trkpt lat="48.371410" lon="-4.654097"><ele>70.6</ele></trkpt>
    <trkpt lat="48.371169" lon="-4.655097"><ele>69.4</ele></trkpt>
    <trkpt lat="48.371099" lon="-4.655276"><ele>70.2</ele></trkpt>
    <trkpt lat="48.371381" lon="-4.654117"><ele>67.6</ele></trkpt>
    <trkpt lat="48.371577" lon="-4.654259"><ele>71.4</ele></trkpt>
    <trkpt lat="48.371563" lon="-4.654419"><ele>69.4</ele></trkpt>
    <trkpt lat="48.371338" lon="-4.655235"><ele>69.4</ele></trkpt>
    <trkpt lat="48.371209" lon="-4.655421"><ele>69.4</ele></trkpt>
    <trkpt lat="48.371028" lon="-4.655383"><ele>69.6</ele></trkpt>
    <trkpt lat="48.370787" lon="-4.655140"><ele>70.2</ele></trkpt>
    <trkpt lat="48.370781" lon="-4.654987"><ele>69.8</ele></trkpt>
    <trkpt lat="48.370882" lon="-4.654656"><ele>67.0</ele></trkpt>
    <trkpt lat="48.371485" lon="-4.654091"><ele>72.0</ele></trkpt>
    <trkpt lat="48.371579" lon="-4.654204"><ele>69.8</ele></trkpt>
    <trkpt lat="48.371574" lon="-4.654480"><ele>69.0</ele></trkpt>
    <trkpt lat="48.371440" lon="-4.655048"><ele>69.4</ele></trkpt>
    <trkpt lat="48.371316" lon="-4.655356"><ele>69.4</ele></trkpt>
    <trkpt lat="48.371186" lon="-4.655469"><ele>69.4</ele></trkpt>
    <trkpt lat="48.370843" lon="-4.655213"><ele>70.2</ele></trkpt>
    <trkpt lat="48.370775" lon="-4.655048"><ele>70.2</ele></trkpt>
    <trkpt lat="48.370823" lon="-4.654826"><ele>69.4</ele></trkpt>
    <trkpt lat="48.371117" lon="-4.653941"><ele>73.0</ele></trkpt>
    <trkpt lat="48.371304" lon="-4.653939"><ele>70.6</ele></trkpt>
    <trkpt lat="48.371498" lon="-4.654052"><ele>69.8</ele></trkpt>
    <trkpt lat="48.371595" lon="-4.654154"><ele>69.4</ele></trkpt>
    <trkpt lat="48.371623" lon="-4.654236"><ele>69.2</ele></trkpt>
    <trkpt lat="48.371551" lon="-4.654646"><ele>69.2</ele></trkpt>
    <trkpt lat="48.371314" lon="-4.655284"><ele>70.4</ele></trkpt>
    <trkpt lat="48.371224" lon="-4.655391"><ele>70.4</ele></trkpt>
    <trkpt lat="48.371110" lon="-4.655376"><ele>70.4</ele></trkpt>
    <trkpt lat="48.370812" lon="-4.655148"><ele>70.8</ele></trkpt>
    <trkpt lat="48.370780" lon="-4.655010"><ele>70.6</ele></trkpt>
    <trkpt lat="48.370810" lon="-4.654842"><ele>70.2</ele></trkpt>
    <trkpt lat="48.371134" lon="-4.653937"><ele>72.4</ele></trkpt>
    <trkpt lat="48.371236" lon="-4.653922"><ele>70.8</ele></trkpt>
    <trkpt lat="48.371366" lon="-4.653979"><ele>70.2</ele></trkpt>
    <trkpt lat="48.371559" lon="-4.654205"><ele>69.4</ele></trkpt>
    <trkpt lat="48.371584" lon="-4.654357"><ele>69.2</ele></trkpt>
    <trkpt lat="48.371483" lon="-4.654836"><ele>69.4</ele></trkpt>
    <trkpt lat="48.371310" lon="-4.655293"><ele>69.6</ele></trkpt>
    <trkpt lat="48.371223" lon="-4.655417"><ele>69.6</ele></trkpt>
    <trkpt lat="48.371150" lon="-4.655420"><ele>69.6</ele></trkpt>
    <trkpt lat="48.370896" lon="-4.655270"><ele>69.6</ele></trkpt>
    <trkpt lat="48.370792" lon="-4.655134"><ele>69.8</ele></trkpt>
    <trkpt lat="48.370786" lon="-4.654990"><ele>69.6</ele></trkpt>
    <trkpt lat="48.370888" lon="-4.654608"><ele>67.2</ele></trkpt>
    <trkpt lat="48.371612" lon="-4.654264"><ele>71.2</ele></trkpt>
    <trkpt lat="48.371420" lon="-4.655123"><ele>69.2</ele></trkpt>
    <trkpt lat="48.371324" lon="-4.655345"><ele>69.2</ele></trkpt>
    <trkpt lat="48.371151" lon="-4.655392"><ele>69.2</ele></trkpt>
    <trkpt lat="48.370888" lon="-4.655246"><ele>69.8</ele></trkpt>
    <trkpt lat="48.370821" lon="-4.655148"><ele>70.0</ele></trkpt>
    <trkpt lat="48.370793" lon="-4.655032"><ele>70.0</ele></trkpt>
    <trkpt lat="48.370884" lon="-4.654587"><ele>66.6</ele></trkpt>
    <trkpt lat="48.371361" lon="-4.654044"><ele>72.6</ele></trkpt>
    <trkpt lat="48.371539" lon="-4.654231"><ele>69.6</ele></trkpt>
    <trkpt lat="48.371568" lon="-4.654412"><ele>69.2</ele></trkpt>
    <trkpt lat="48.371451" lon="-4.654982"><ele>69.2</ele></trkpt>
    <trkpt lat="48.371304" lon="-4.655373"><ele>68.8</ele></trkpt>
    <trkpt lat="48.371236" lon="-4.655439"><ele>68.8</ele></trkpt>
    <trkpt lat="48.371101" lon="-4.655406"><ele>68.8</ele></trkpt>
    <trkpt lat="48.370895" lon="-4.655236"><ele>69.0</ele></trkpt>
    <trkpt lat="48.370791" lon="-4.655068"><ele>69.0</ele></trkpt>
    <trkpt lat="48.370791" lon="-4.654896"><ele>68.4</ele></trkpt>
    <trkpt lat="48.370871" lon="-4.654608"><ele>66.0</ele></trkpt>
    <trkpt lat="48.371193" lon="-4.653941"><ele>73.0</ele></trkpt>
    <trkpt lat="48.371490" lon="-4.654123"><ele>69.8</ele></trkpt>
    <trkpt lat="48.371579" lon="-4.654294"><ele>69.2</ele></trkpt>
    <trkpt lat="48.371563" lon="-4.654497"><ele>69.0</ele></trkpt>
    <trkpt lat="48.371352" lon="-4.655246"><ele>70.0</ele></trkpt>
    <trkpt lat="48.371269" lon="-4.655407"><ele>70.0</ele></trkpt>
    <trkpt lat="48.371195" lon="-4.655437"><ele>70.0</ele></trkpt>
    <trkpt lat="48.370935" lon="-4.655288"><ele>69.8</ele></trkpt>
    <trkpt lat="48.370770" lon="-4.655120"><ele>70.0</ele></trkpt>
    <trkpt lat="48.370762" lon="-4.654965"><ele>69.8</ele></trkpt>
    <trkpt lat="48.370865" lon="-4.654675"><ele>67.8</ele></trkpt>
    <trkpt lat="48.371232" lon="-4.653949"><ele>72.8</ele></trkpt>
    <trkpt lat="48.371542" lon="-4.654119"><ele>69.6</ele></trkpt>
    <trkpt lat="48.371603" lon="-4.654221"><ele>69.4</ele></trkpt>
    <trkpt lat="48.371617" lon="-4.654322"><ele>69.2</ele></trkpt>
    <trkpt lat="48.371567" lon="-4.654624"><ele>69.0</ele></trkpt>
    <trkpt lat="48.371383" lon="-4.655161"><ele>69.4</ele></trkpt>
    <trkpt lat="48.371261" lon="-4.655312"><ele>69.8</ele></trkpt>
    <trkpt lat="48.371159" lon="-4.655338"><ele>70.0</ele></trkpt>
    <trkpt lat="48.370903" lon="-4.655221"><ele>70.2</ele></trkpt>
    <trkpt lat="48.370798" lon="-4.655086"><ele>70.2</ele></trkpt>
    <trkpt lat="48.370799" lon="-4.654927"><ele>69.8</ele></trkpt>
    <trkpt lat="48.370906" lon="-4.654603"><ele>67.6</ele></trkpt>
    <trkpt lat="48.371673" lon="-4.654193"><ele>71.2</ele></trkpt>
    <trkpt lat="48.372096" lon="-4.654098"><ele>67.4</ele></trkpt>
    <trkpt lat="48.372133" lon="-4.653797"><ele>67.0</ele></trkpt>
    <trkpt lat="48.372135" lon="-4.653045"><ele>66.8</ele></trkpt>
    <trkpt lat="48.372163" lon="-4.652677"><ele>66.6</ele></trkpt>
    <trkpt lat="48.372126" lon="-4.651568"><ele>66.8</ele></trkpt>
    <trkpt lat="48.372367" lon="-4.650667"><ele>64.2</ele></trkpt>
    <trkpt lat="48.372555" lon="-4.650173"><ele>63.6</ele></trkpt>
    <trkpt lat="48.372617" lon="-4.650117"><ele>63.6</ele></trkpt>
    <trkpt lat="48.372712" lon="-4.650139"><ele>63.2</ele></trkpt>
    <trkpt lat="48.373105" lon="-4.650504"><ele>61.8</ele></trkpt>
    <trkpt lat="48.373203" lon="-4.650787"><ele>61.0</ele></trkpt>
    <trkpt lat="48.373276" lon="-4.650857"><ele>60.6</ele></trkpt>
    <trkpt lat="48.373610" lon="-4.650573"><ele>60.0</ele></trkpt>
    <trkpt lat="48.373838" lon="-4.650753"><ele>60.2</ele></trkpt>
    <trkpt lat="48.374127" lon="-4.650836"><ele>60.0</ele></trkpt>
    <trkpt lat="48.374482" lon="-4.650504"><ele>58.4</ele></trkpt>
    <trkpt lat="48.374530" lon="-4.650433"><ele>58.0</ele></trkpt>
    <trkpt lat="48.374340" lon="-4.649926"><ele>57.6</ele></trkpt>
    <trkpt lat="48.373872" lon="-4.649206"><ele>57.0</ele></trkpt>
    <trkpt lat="48.373363" lon="-4.648418"><ele>56.3</ele></trkpt>
    <trkpt lat="48.373270" lon="-4.648207"><ele>56.1</ele></trkpt>
    <trkpt lat="48.373293" lon="-4.648161"><ele>56.1</ele></trkpt>
    <trkpt lat="48.373531" lon="-4.647677"><ele>55.7</ele></trkpt>
    <trkpt lat="48.373620" lon="-4.647473"><ele>55.5</ele></trkpt>
    <trkpt lat="48.373818" lon="-4.646807"><ele>55.1</ele></trkpt>
    <trkpt lat="48.373999" lon="-4.646315"><ele>54.7</ele></trkpt>
    <trkpt lat="48.374054" lon="-4.646174"><ele>54.6</ele></trkpt>
    <trkpt lat="48.374155" lon="-4.645919"><ele>54.4</ele></trkpt>
    <trkpt lat="48.374416" lon="-4.645306"><ele>53.9</ele></trkpt>
    <trkpt lat="48.374477" lon="-4.645248"><ele>53.9</ele></trkpt>
    <trkpt lat="48.374528" lon="-4.645133"><ele>53.8</ele></trkpt>
    <trkpt lat="48.374565" lon="-4.645124"><ele>53.7</ele></trkpt>
    <trkpt lat="48.374594" lon="-4.645088"><ele>53.7</ele></trkpt>
    <trkpt lat="48.374609" lon="-4.645080"><ele>53.7</ele></trkpt>
    <trkpt lat="48.374652" lon="-4.645058"><ele>53.6</ele></trkpt>
    <trkpt lat="48.374809" lon="-4.645037"><ele>53.5</ele></trkpt>
    <trkpt lat="48.375016" lon="-4.644965"><ele>53.3</ele></trkpt>
    <trkpt lat="48.375186" lon="-4.644876"><ele>53.1</ele></trkpt>
    <trkpt lat="48.375289" lon="-4.644799"><ele>53.0</ele></trkpt>
    <trkpt lat="48.375446" lon="-4.645273"><ele>52.7</ele></trkpt>
    <trkpt lat="48.375502" lon="-4.645368"><ele>52.6</ele></trkpt>
    <trkpt lat="48.375568" lon="-4.645405"><ele>52.5</ele></trkpt>
    <trkpt lat="48.375646" lon="-4.645393"><ele>52.4</ele></trkpt>
    <trkpt lat="48.375855" lon="-4.645303"><ele>52.2</ele></trkpt>
    <trkpt lat="48.375928" lon="-4.645284"><ele>52.2</ele></trkpt>
    <trkpt lat="48.375988" lon="-4.645320"><ele>52.1</ele></trkpt>
    <trkpt lat="48.376252" lon="-4.645536"><ele>51.8</ele></trkpt>
    <trkpt lat="48.376299" lon="-4.645624"><ele>51.7</ele></trkpt>
    <trkpt lat="48.376317" lon="-4.645752"><ele>51.6</ele></trkpt>
    <trkpt lat="48.376304" lon="-4.645905"><ele>51.5</ele></trkpt>
    <trkpt lat="48.376213" lon="-4.646833"><ele>50.9</ele></trkpt>
    <trkpt lat="48.376171" lon="-4.646971"><ele>50.8</ele></trkpt>
    <trkpt lat="48.376150" lon="-4.647030"><ele>50.8</ele></trkpt>
    <trkpt lat="48.376177" lon="-4.647051"><ele>50.8</ele></trkpt>
    <trkpt lat="48.376286" lon="-4.646659"><ele>51.0</ele></trkpt>
    <trkpt lat="48.376352" lon="-4.645817"><ele>51.2</ele></trkpt>
    <trkpt lat="48.376328" lon="-4.645649"><ele>51.2</ele></trkpt>
    <trkpt lat="48.376274" lon="-4.645529"><ele>51.2</ele></trkpt>
    <trkpt lat="48.375923" lon="-4.645172"><ele>52.2</ele></trkpt>
    <trkpt lat="48.375959" lon="-4.644964"><ele>52.0</ele></trkpt>
    <trkpt lat="48.375916" lon="-4.644629"><ele>51.4</ele></trkpt>
    <trkpt lat="48.375761" lon="-4.643966"><ele>53.4</ele></trkpt>
    <trkpt lat="48.375582" lon="-4.643869"><ele>54.0</ele></trkpt>
    <trkpt lat="48.375316" lon="-4.643862"><ele>54.4</ele></trkpt>
    <trkpt lat="48.375193" lon="-4.643623"><ele>54.2</ele></trkpt>
    <trkpt lat="48.375086" lon="-4.643522"><ele>53.8</ele></trkpt>
    <trkpt lat="48.375020" lon="-4.643363"><ele>53.4</ele></trkpt>
    <trkpt lat="48.374759" lon="-4.643262"><ele>53.6</ele></trkpt>
    <trkpt lat="48.374599" lon="-4.642960"><ele>52.6</ele></trkpt>
    <trkpt lat="48.374437" lon="-4.642835"><ele>51.6</ele></trkpt>
    <trkpt lat="48.374160" lon="-4.641780"><ele>50.2</ele></trkpt>
    <trkpt lat="48.374053" lon="-4.641617"><ele>50.0</ele></trkpt>
    <trkpt lat="48.373904" lon="-4.641515"><ele>50.0</ele></trkpt>
    <trkpt lat="48.373812" lon="-4.641294"><ele>50.6</ele></trkpt>
    <trkpt lat="48.373715" lon="-4.641172"><ele>50.6</ele></trkpt>
    <trkpt lat="48.373552" lon="-4.641081"><ele>50.2</ele></trkpt>
    <trkpt lat="48.373411" lon="-4.641100"><ele>50.0</ele></trkpt>
    <trkpt lat="48.373357" lon="-4.641177"><ele>50.0</ele></trkpt>
    <trkpt lat="48.373291" lon="-4.641427"><ele>50.2</ele></trkpt>
    <trkpt lat="48.373205" lon="-4.641612"><ele>50.8</ele></trkpt>
    <trkpt lat="48.372869" lon="-4.641795"><ele>52.6</ele></trkpt>
    <trkpt lat="48.372778" lon="-4.641706"><ele>53.2</ele></trkpt>
    <trkpt lat="48.372673" lon="-4.641451"><ele>53.2</ele></trkpt>
    <trkpt lat="48.372539" lon="-4.640684"><ele>53.0</ele></trkpt>
    <trkpt lat="48.372476" lon="-4.640579"><ele>53.6</ele></trkpt>
    <trkpt lat="48.371794" lon="-4.640511"><ele>56.6</ele></trkpt>
    <trkpt lat="48.371506" lon="-4.640531"><ele>57.6</ele></trkpt>
    <trkpt lat="48.371067" lon="-4.640344"><ele>58.6</ele></trkpt>
    <trkpt lat="48.370675" lon="-4.640000"><ele>61.2</ele></trkpt>
    <trkpt lat="48.370567" lon="-4.639987"><ele>61.2</ele></trkpt>
    <trkpt lat="48.370370" lon="-4.640051"><ele>59.6</ele></trkpt>
  </trkseg></trk>
</gpx>
