<?xml version="1.0" encoding="UTF-8"?>
<gpx version="1.1" creator="tcap-parcours" xmlns="http://www.topografix.com/GPX/1/1">
  <metadata><name>Fractionné plat Dreizoc – Gorrequear – 8 × 3'</name></metadata>
  <trk><name>Fractionné plat Dreizoc – Gorrequear – 8 × 3'</name><trkseg>
    <trkpt lat="48.370080" lon="-4.640494"><ele>60.6</ele></trkpt>
    <trkpt lat="48.369769" lon="-4.641422"><ele>60.0</ele></trkpt>
    <trkpt lat="48.369654" lon="-4.641604"><ele>61.2</ele></trkpt>
    <trkpt lat="48.369592" lon="-4.641897"><ele>62.0</ele></trkpt>
    <trkpt lat="48.369587" lon="-4.642071"><ele>62.0</ele></trkpt>
    <trkpt lat="48.369652" lon="-4.642632"><ele>61.2</ele></trkpt>
    <trkpt lat="48.369611" lon="-4.642892"><ele>60.8</ele></trkpt>
    <trkpt lat="48.369622" lon="-4.643612"><ele>59.8</ele></trkpt>
    <trkpt lat="48.369477" lon="-4.644323"><ele>58.8</ele></trkpt>
    <trkpt lat="48.369320" lon="-4.644784"><ele>59.4</ele></trkpt>
    <trkpt lat="48.369251" lon="-4.645093"><ele>59.4</ele></trkpt>
    <trkpt lat="48.369286" lon="-4.645580"><ele>58.2</ele></trkpt>
    <trkpt lat="48.369218" lon="-4.646093"><ele>58.0</ele></trkpt>
    <trkpt lat="48.369070" lon="-4.646521"><ele>59.4</ele></trkpt>
    <trkpt lat="48.369076" lon="-4.647046"><ele>60.6</ele></trkpt>
    <trkpt lat="48.368929" lon="-4.647388"><ele>62.2</ele></trkpt>
    <trkpt lat="48.368826" lon="-4.647509"><ele>63.0</ele></trkpt>
    <trkpt lat="48.368637" lon="-4.647634"><ele>64.4</ele></trkpt>
    <trkpt lat="48.368580" lon="-4.647750"><ele>65.0</ele></trkpt>
    <trkpt lat="48.368600" lon="-4.647914"><ele>65.4</ele></trkpt>
    <trkpt lat="48.368730" lon="-4.648212"><ele>65.8</ele></trkpt>
    <trkpt lat="48.368827" lon="-4.648546"><ele>66.2</ele></trkpt>
    <trkpt lat="48.368900" lon="-4.648922"><ele>66.0</ele></trkpt>
    <trkpt lat="48.368910" lon="-4.649408"><ele>66.8</ele></trkpt>
    <trkpt lat="48.368850" lon="-4.649726"><ele>67.0</ele></trkpt>
    <trkpt lat="48.368821" lon="-4.650198"><ele>68.0</ele></trkpt>
    <trkpt lat="48.368592" lon="-4.650646"><ele>69.8</ele></trkpt>
    <trkpt lat="48.368004" lon="-4.651301"><ele>71.4</ele></trkpt>
    <trkpt lat="48.367800" lon="-4.651586"><ele>71.8</ele></trkpt>
    <trkpt lat="48.367657" lon="-4.651945"><ele>72.6</ele></trkpt>
    <trkpt lat="48.367493" lon="-4.652562"><ele>73.0</ele></trkpt>
    <trkpt lat="48.367363" lon="-4.652886"><ele>73.0</ele></trkpt>
    <trkpt lat="48.367283" lon="-4.652954"><ele>73.0</ele></trkpt>
    <trkpt lat="48.367043" lon="-4.652971"><ele>73.6</ele></trkpt>
    <trkpt lat="48.366901" lon="-4.653047"><ele>74.0</ele></trkpt>
    <trkpt lat="48.366734" lon="-4.653298"><ele>74.4</ele></trkpt>
    <trkpt lat="48.366720" lon="-4.653402"><ele>74.2</ele></trkpt>
    <trkpt lat="48.366745" lon="-4.653475"><ele>74.2</ele></trkpt>
    <trkpt lat="48.367010" lon="-4.653648"><ele>73.8</ele></trkpt>
    <trkpt lat="48.367493" lon="-4.653801"><ele>73.6</ele></trkpt>
    <trkpt lat="48.367676" lon="-4.653915"><ele>73.8</ele></trkpt>
    <trkpt lat="48.368750" lon="-4.655627"><ele>77.6</ele></trkpt>
    <trkpt lat="48.369262" lon="-4.656150"><ele>79.6</ele></trkpt>
    <trkpt lat="48.370078" lon="-4.656845"><ele>74.4</ele></trkpt>
    <trkpt lat="48.370253" lon="-4.656830"><ele>73.6</ele></trkpt>
    <trkpt lat="48.370630" lon="-4.657031"><ele>71.4</ele></trkpt>
    <trkpt lat="48.371030" lon="-4.657170"><ele>68.6</ele></trkpt>
    <trkpt lat="48.371314" lon="-4.657148"><ele>68.4</ele></trkpt>
    <trkpt lat="48.371524" lon="-4.657029"><ele>68.4</ele></trkpt>
    <trkpt lat="48.371648" lon="-4.657026"><ele>68.2</ele></trkpt>
    <trkpt lat="48.372901" lon="-4.657122"><ele>63.4</ele></trkpt>
    <trkpt lat="48.373374" lon="-4.657318"><ele>61.6</ele></trkpt>
    <trkpt lat="48.373724" lon="-4.657567"><ele>59.6</ele></trkpt>
    <trkpt lat="48.374635" lon="-4.658456"><ele>60.4</ele></trkpt>
    <trkpt lat="48.375699" lon="-4.659222"><ele>65.4</ele></trkpt>
    <trkpt lat="48.376095" lon="-4.659718"><ele>69.4</ele></trkpt>
    <trkpt lat="48.376204" lon="-4.659667"><ele>70.2</ele></trkpt>
    <trkpt lat="48.376437" lon="-4.659348"><ele>71.8</ele></trkpt>
    <trkpt lat="48.376602" lon="-4.659187"><ele>72.8</ele></trkpt>
    <trkpt lat="48.376995" lon="-4.658962"><ele>74.8</ele></trkpt>
    <trkpt lat="48.377545" lon="-4.658830"><ele>76.0</ele></trkpt>
    <trkpt lat="48.377869" lon="-4.658475"><ele>75.8</ele></trkpt>
    <trkpt lat="48.378006" lon="-4.658494"><ele>76.2</ele></trkpt>
    <trkpt lat="48.378319" lon="-4.658755"><ele>77.6</ele></trkpt>
    <trkpt lat="48.378447" lon="-4.658714"><ele>77.6</ele></trkpt>
    <trkpt lat="48.378696" lon="-4.658520"><ele>77.0</ele></trkpt>
    <trkpt lat="48.378757" lon="-4.658387"><ele>76.6</ele></trkpt>
    <trkpt lat="48.378929" lon="-4.657150"><ele>73.8</ele></trkpt>
    <trkpt lat="48.378988" lon="-4.656392"><ele>71.8</ele></trkpt>
    <trkpt lat="48.378974" lon="-4.656279"><ele>71.6</ele></trkpt>
    <trkpt lat="48.378812" lon="-4.656134"><ele>71.0</ele></trkpt>
    <trkpt lat="48.377943" lon="-4.655839"><ele>68.0</ele></trkpt>
    <trkpt lat="48.377649" lon="-4.655653"><ele>65.4</ele></trkpt>
    <trkpt lat="48.377570" lon="-4.655492"><ele>64.2</ele></trkpt>
    <trkpt lat="48.377520" lon="-4.655237"><ele>62.8</ele></trkpt>
    <trkpt lat="48.377378" lon="-4.653769"><ele>59.6</ele></trkpt>
    <trkpt lat="48.377293" lon="-4.653503"><ele>59.6</ele></trkpt>
    <trkpt lat="48.377123" lon="-4.653330"><ele>59.8</ele></trkpt>
    <trkpt lat="48.376497" lon="-4.652985"><ele>60.2</ele></trkpt>
    <trkpt lat="48.375932" lon="-4.652492"><ele>58.2</ele></trkpt>
    <trkpt lat="48.374834" lon="-4.650799"><ele>57.6</ele></trkpt>
    <trkpt lat="48.374801" lon="-4.650818"><ele>57.6</ele></trkpt>
    <trkpt lat="48.374788" lon="-4.650917"><ele>57.8</ele></trkpt>
    <trkpt lat="48.375000" lon="-4.652283"><ele>58.0</ele></trkpt>
    <trkpt lat="48.375048" lon="-4.652799"><ele>59.0</ele></trkpt>
    <trkpt lat="48.375033" lon="-4.652938"><ele>59.4</ele></trkpt>
    <trkpt lat="48.374891" lon="-4.652977"><ele>59.8</ele></trkpt>
    <trkpt lat="48.373681" lon="-4.652810"><ele>60.2</ele></trkpt>
    <trkpt lat="48.373334" lon="-4.652413"><ele>62.2</ele></trkpt>
    <trkpt lat="48.373095" lon="-4.652265"><ele>62.8</ele></trkpt>
    <trkpt lat="48.372852" lon="-4.652305"><ele>63.8</ele></trkpt>
    <trkpt lat="48.372424" lon="-4.652202"><ele>66.2</ele></trkpt>
    <trkpt lat="48.372181" lon="-4.652193"><ele>67.0</ele></trkpt>
    <trkpt lat="48.372121" lon="-4.652293"><ele>67.4</ele></trkpt>
    <trkpt lat="48.372140" lon="-4.652927"><ele>67.6</ele></trkpt>
    <trkpt lat="48.372102" lon="-4.653244"><ele>68.0</ele></trkpt>
    <trkpt lat="48.372114" lon="-4.653798"><ele>68.4</ele></trkpt>
    <trkpt lat="48.372068" lon="-4.654102"><ele>68.4</ele></trkpt>
    <trkpt lat="48.372008" lon="-4.654168"><ele>68.4</ele></trkpt>
    <trkpt lat="48.371763" lon="-4.654159"><ele>68.4</ele></trkpt>
    <trkpt lat="48.371463" lon="-4.654249"><ele>69.4</ele></trkpt>
    <trkpt lat="48.371178" lon="-4.655357"><ele>69.8</ele></trkpt>
    <trkpt lat="48.371471" lon="-4.654103"><ele>69.8</ele></trkpt>
    <trkpt lat="48.371425" lon="-4.654186"><ele>69.6</ele></trkpt>
    <trkpt lat="48.371198" lon="-4.655249"><ele>69.8</ele></trkpt>
    <trkpt lat="48.371155" lon="-4.655323"><ele>69.6</ele></trkpt>
    <trkpt lat="48.371437" lon="-4.654095"><ele>70.2</ele></trkpt>
    <trkpt lat="48.371595" lon="-4.654232"><ele>69.0</ele></trkpt>
    <trkpt lat="48.371562" lon="-4.654433"><ele>69.0</ele></trkpt>
    <trkpt lat="48.371327" lon="-4.655341"><ele>69.4</ele></trkpt>
    <trkpt lat="48.371266" lon="-4.655457"><ele>69.4</ele></trkpt>
    <trkpt lat="48.371198" lon="-4.655467"><ele>69.4</ele></trkpt>
    <trkpt lat="48.370978" lon="-4.655330"><ele>69.4</ele></trkpt>
    <trkpt lat="48.370817" lon="-4.655150"><ele>69.2</ele></trkpt>
    <trkpt lat="48.370778" lon="-4.655025"><ele>69.4</ele></trkpt>
    <trkpt lat="48.370803" lon="-4.654853"><ele>69.6</ele></trkpt>
    <trkpt lat="48.371075" lon="-4.654005"><ele>69.8</ele></trkpt>
    <trkpt lat="48.371129" lon="-4.653910"><ele>69.8</ele></trkpt>
    <trkpt lat="48.371220" lon="-4.653912"><ele>69.6</ele></trkpt>
    <trkpt lat="48.371384" lon="-4.654023"><ele>69.6</ele></trkpt>
    <trkpt lat="48.371570" lon="-4.654218"><ele>69.2</ele></trkpt>
    <trkpt lat="48.371578" lon="-4.654389"><ele>69.0</ele></trkpt>
    <trkpt lat="48.371471" lon="-4.654737"><ele>68.6</ele></trkpt>
    <trkpt lat="48.371638" lon="-4.654223"><ele>69.0</ele></trkpt>
    <trkpt lat="48.371599" lon="-4.654240"><ele>69.0</ele></trkpt>
    <trkpt lat="48.371302" lon="-4.655372"><ele>70.0</ele></trkpt>
    <trkpt lat="48.371209" lon="-4.655422"><ele>70.0</ele></trkpt>
    <trkpt lat="48.371010" lon="-4.655337"><ele>70.0</ele></trkpt>
    <trkpt lat="48.370803" lon="-4.655144"><ele>69.8</ele></trkpt>
    <trkpt lat="48.370769" lon="-4.655012"><ele>69.8</ele></trkpt>
    <trkpt lat="48.371084" lon="-4.653965"><ele>70.2</ele></trkpt>
    <trkpt lat="48.371159" lon="-4.653892"><ele>70.0</ele></trkpt>
    <trkpt lat="48.371229" lon="-4.653911"><ele>69.6</ele></trkpt>
    <trkpt lat="48.371588" lon="-4.654221"><ele>69.0</ele></trkpt>
    <trkpt lat="48.371589" lon="-4.654374"><ele>69.2</ele></trkpt>
    <trkpt lat="48.371471" lon="-4.654765"><ele>70.4</ele></trkpt>
    <trkpt lat="48.371614" lon="-4.654249"><ele>69.0</ele></trkpt>
    <trkpt lat="48.371595" lon="-4.654219"><ele>69.0</ele></trkpt>
    <trkpt lat="48.371570" lon="-4.654271"><ele>69.0</ele></trkpt>
    <trkpt lat="48.371315" lon="-4.655339"><ele>69.2</ele></trkpt>
    <trkpt lat="48.371222" lon="-4.655422"><ele>69.2</ele></trkpt>
    <trkpt lat="48.371079" lon="-4.655372"><ele>69.2</ele></trkpt>
    <trkpt lat="48.370860" lon="-4.655190"><ele>69.2</ele></trkpt>
    <trkpt lat="48.370787" lon="-4.655031"><ele>69.2</ele></trkpt>
    <trkpt lat="48.371023" lon="-4.654140"><ele>69.6</ele></trkpt>
    <trkpt lat="48.371120" lon="-4.653910"><ele>69.6</ele></trkpt>
    <trkpt lat="48.371213" lon="-4.653901"><ele>69.4</ele></trkpt>
    <trkpt lat="48.371569" lon="-4.654209"><ele>68.8</ele></trkpt>
    <trkpt lat="48.371587" lon="-4.654347"><ele>68.8</ele></trkpt>
    <trkpt lat="48.371495" lon="-4.654754"><ele>68.6</ele></trkpt>
    <trkpt lat="48.371614" lon="-4.654228"><ele>68.8</ele></trkpt>
    <trkpt lat="48.371566" lon="-4.654298"><ele>68.8</ele></trkpt>
    <trkpt lat="48.371259" lon="-4.655431"><ele>70.0</ele></trkpt>
    <trkpt lat="48.371155" lon="-4.655435"><ele>70.0</ele></trkpt>
    <trkpt lat="48.370778" lon="-4.655102"><ele>70.0</ele></trkpt>
    <trkpt lat="48.370781" lon="-4.654956"><ele>69.8</ele></trkpt>
    <trkpt lat="48.371071" lon="-4.654029"><ele>69.4</ele></trkpt>
    <trkpt lat="48.371125" lon="-4.653915"><ele>69.2</ele></trkpt>
    <trkpt lat="48.371182" lon="-4.653889"><ele>69.0</ele></trkpt>
    <trkpt lat="48.371483" lon="-4.654081"><ele>68.2</ele></trkpt>
    <trkpt lat="48.371580" lon="-4.654209"><ele>68.0</ele></trkpt>
    <trkpt lat="48.371578" lon="-4.654394"><ele>67.8</ele></trkpt>
    <trkpt lat="48.371475" lon="-4.654718"><ele>68.0</ele></trkpt>
    <trkpt lat="48.371597" lon="-4.654250"><ele>68.8</ele></trkpt>
    <trkpt lat="48.371357" lon="-4.655237"><ele>69.6</ele></trkpt>
    <trkpt lat="48.371293" lon="-4.655420"><ele>69.8</ele></trkpt>
    <trkpt lat="48.371200" lon="-4.655472"><ele>69.8</ele></trkpt>
    <trkpt lat="48.370936" lon="-4.655273"><ele>69.8</ele></trkpt>
    <trkpt lat="48.370819" lon="-4.655130"><ele>70.0</ele></trkpt>
    <trkpt lat="48.370789" lon="-4.655036"><ele>70.0</ele></trkpt>
    <trkpt lat="48.370809" lon="-4.654863"><ele>70.0</ele></trkpt>
    <trkpt lat="48.371061" lon="-4.654024"><ele>69.2</ele></trkpt>
    <trkpt lat="48.371118" lon="-4.653920"><ele>69.0</ele></trkpt>
    <trkpt lat="48.371206" lon="-4.653892"><ele>68.4</ele></trkpt>
    <trkpt lat="48.371487" lon="-4.654117"><ele>67.4</ele></trkpt>
    <trkpt lat="48.371575" lon="-4.654234"><ele>67.6</ele></trkpt>
    <trkpt lat="48.371583" lon="-4.654369"><ele>67.6</ele></trkpt>
    <trkpt lat="48.371472" lon="-4.654787"><ele>68.4</ele></trkpt>
    <trkpt lat="48.371620" lon="-4.654253"><ele>68.6</ele></trkpt>
    <trkpt lat="48.371594" lon="-4.654257"><ele>68.8</ele></trkpt>
    <trkpt lat="48.371297" lon="-4.655350"><ele>69.6</ele></trkpt>
    <trkpt lat="48.371220" lon="-4.655451"><ele>69.8</ele></trkpt>
    <trkpt lat="48.371147" lon="-4.655439"><ele>69.8</ele></trkpt>
    <trkpt lat="48.370853" lon="-4.655175"><ele>69.6</ele></trkpt>
    <trkpt lat="48.370769" lon="-4.655022"><ele>69.6</ele></trkpt>
    <trkpt lat="48.370779" lon="-4.654918"><ele>69.6</ele></trkpt>
    <trkpt lat="48.371082" lon="-4.654003"><ele>70.2</ele></trkpt>
    <trkpt lat="48.371140" lon="-4.653910"><ele>70.2</ele></trkpt>
    <trkpt lat="48.371227" lon="-4.653910"><ele>70.0</ele></trkpt>
    <trkpt lat="48.371415" lon="-4.654058"><ele>69.8</ele></trkpt>
    <trkpt lat="48.371581" lon="-4.654276"><ele>69.2</ele></trkpt>
    <trkpt lat="48.371573" lon="-4.654415"><ele>68.8</ele></trkpt>
    <trkpt lat="48.371481" lon="-4.654765"><ele>68.0</ele></trkpt>
    <trkpt lat="48.371620" lon="-4.654266"><ele>68.8</ele></trkpt>
    <trkpt lat="48.371602" lon="-4.654245"><ele>69.0</ele></trkpt>
    <trkpt lat="48.371562" lon="-4.654304"><ele>69.2</ele></trkpt>
    <trkpt lat="48.371312" lon="-4.655288"><ele>70.0</ele></trkpt>
    <trkpt lat="48.371246" lon="-4.655412"><ele>70.2</ele></trkpt>
    <trkpt lat="48.371174" lon="-4.655421"><ele>70.4</ele></trkpt>
    <trkpt lat="48.370870" lon="-4.655200"><ele>70.4</ele></trkpt>
    <trkpt lat="48.370783" lon="-4.655076"><ele>70.2</ele></trkpt>
    <trkpt lat="48.370809" lon="-4.654849"><ele>70.0</ele></trkpt>
    <trkpt lat="48.371082" lon="-4.653977"><ele>70.2</ele></trkpt>
    <trkpt lat="48.371144" lon="-4.653890"><ele>70.2</ele></trkpt>
    <trkpt lat="48.371242" lon="-4.653909"><ele>70.0</ele></trkpt>
    <trkpt lat="48.371575" lon="-4.654205"><ele>68.8</ele></trkpt>
    <trkpt lat="48.371593" lon="-4.654328"><ele>68.6</ele></trkpt>
    <trkpt lat="48.371503" lon="-4.654695"><ele>68.0</ele></trkpt>
    <trkpt lat="48.371612" lon="-4.654256"><ele>68.6</ele></trkpt>
    <trkpt lat="48.371564" lon="-4.654354"><ele>68.8</ele></trkpt>
    <trkpt lat="48.371335" lon="-4.655234"><ele>69.6</ele></trkpt>
    <trkpt lat="48.371251" lon="-4.655407"><ele>69.4</ele></trkpt>
    <trkpt lat="48.371180" lon="-4.655423"><ele>69.2</ele></trkpt>
    <trkpt lat="48.370995" lon="-4.655343"><ele>68.8</ele></trkpt>
    <trkpt lat="48.370821" lon="-4.655151"><ele>68.8</ele></trkpt>
    <trkpt lat="48.370774" lon="-4.655015"><ele>68.8</ele></trkpt>
    <trkpt lat="48.370895" lon="-4.654522"><ele>70.0</ele></trkpt>
    <trkpt lat="48.371098" lon="-4.653947"><ele>70.6</ele></trkpt>
    <trkpt lat="48.371148" lon="-4.653890"><ele>70.2</ele></trkpt>
    <trkpt lat="48.371213" lon="-4.653890"><ele>69.6</ele></trkpt>
    <trkpt lat="48.371570" lon="-4.654216"><ele>67.6</ele></trkpt>
    <trkpt lat="48.371580" lon="-4.654373"><ele>67.4</ele></trkpt>
    <trkpt lat="48.371486" lon="-4.654724"><ele>67.2</ele></trkpt>
    <trkpt lat="48.371658" lon="-4.654142"><ele>68.8</ele></trkpt>
    <trkpt lat="48.372071" lon="-4.654078"><ele>67.4</ele></trkpt>
    <trkpt lat="48.372112" lon="-4.654029"><ele>67.2</ele></trkpt>
    <trkpt lat="48.372155" lon="-4.652515"><ele>66.6</ele></trkpt>
    <trkpt lat="48.372123" lon="-4.651863"><ele>66.2</ele></trkpt>
    <trkpt lat="48.372141" lon="-4.651657"><ele>66.2</ele></trkpt>
    <trkpt lat="48.372353" lon="-4.650670"><ele>64.6</ele></trkpt>
    <trkpt lat="48.372451" lon="-4.650348"><ele>63.6</ele></trkpt>
    <trkpt lat="48.372565" lon="-4.650119"><ele>63.4</ele></trkpt>
    <trkpt lat="48.372622" lon="-4.650086"><ele>63.2</ele></trkpt>
    <trkpt lat="48.372741" lon="-4.650118"><ele>62.8</ele></trkpt>
    <trkpt lat="48.373087" lon="-4.650425"><ele>61.2</ele></trkpt>
    <trkpt lat="48.373164" lon="-4.650547"><ele>61.2</ele></trkpt>
    <trkpt lat="48.373233" lon="-4.650796"><ele>61.4</ele></trkpt>
    <trkpt lat="48.373288" lon="-4.650862"><ele>61.6</ele></trkpt>
    <trkpt lat="48.373590" lon="-4.650548"><ele>60.6</ele></trkpt>
    <trkpt lat="48.373840" lon="-4.650757"><ele>59.6</ele></trkpt>
    <trkpt lat="48.374164" lon="-4.650799"><ele>59.2</ele></trkpt>
    <trkpt lat="48.374271" lon="-4.650720"><ele>58.8</ele></trkpt>
    <trkpt lat="48.374530" lon="-4.650416"><ele>56.2</ele></trkpt>
    <trkpt lat="48.374534" lon="-4.650251"><ele>55.8</ele></trkpt>
    <trkpt lat="48.374391" lon="-4.649991"><ele>55.8</ele></trkpt>
    <trkpt lat="48.374359" lon="-4.649845"><ele>56.4</ele></trkpt>
    <trkpt lat="48.374436" lon="-4.649804"><ele>56.4</ele></trkpt>
    <trkpt lat="48.375171" lon="-4.648744"><ele>53.2</ele></trkpt>
    <trkpt lat="48.376099" lon="-4.647103"><ele>49.8</ele></trkpt>
    <trkpt lat="48.376224" lon="-4.646751"><ele>50.4</ele></trkpt>
    <trkpt lat="48.376314" lon="-4.645674"><ele>50.0</ele></trkpt>
    <trkpt lat="48.376235" lon="-4.645510"><ele>50.4</ele></trkpt>
    <trkpt lat="48.375916" lon="-4.645241"><ele>51.8</ele></trkpt>
    <trkpt lat="48.375956" lon="-4.644970"><ele>52.2</ele></trkpt>
    <trkpt lat="48.375901" lon="-4.644598"><ele>50.6</ele></trkpt>
    <trkpt lat="48.375751" lon="-4.643997"><ele>51.2</ele></trkpt>
    <trkpt lat="48.375751" lon="-4.643840"><ele>51.6</ele></trkpt>
    <trkpt lat="48.375801" lon="-4.643749"><ele>51.6</ele></trkpt>
    <trkpt lat="48.375930" lon="-4.643678"><ele>51.6</ele></trkpt>
    <trkpt lat="48.376733" lon="-4.643574"><ele>49.8</ele></trkpt>
    <trkpt lat="48.376809" lon="-4.643457"><ele>49.8</ele></trkpt>
    <trkpt lat="48.376836" lon="-4.643270"><ele>50.2</ele></trkpt>
    <trkpt lat="48.376796" lon="-4.642680"><ele>50.8</ele></trkpt>
    <trkpt lat="48.376762" lon="-4.642523"><ele>50.2</ele></trkpt>
    <trkpt lat="48.376662" lon="-4.642338"><ele>49.2</ele></trkpt>
    <trkpt lat="48.376316" lon="-4.641895"><ele>49.2</ele></trkpt>
    <trkpt lat="48.376047" lon="-4.641959"><ele>49.8</ele></trkpt>
    <trkpt lat="48.375648" lon="-4.642366"><ele>50.0</ele></trkpt>
    <trkpt lat="48.375486" lon="-4.642266"><ele>50.2</ele></trkpt>
    <trkpt lat="48.375109" lon="-4.642288"><ele>50.4</ele></trkpt>
    <trkpt lat="48.374653" lon="-4.642208"><ele>50.8</ele></trkpt>
    <trkpt lat="48.374249" lon="-4.641994"><ele>49.8</ele></trkpt>
    <trkpt lat="48.374083" lon="-4.641635"><ele>49.2</ele></trkpt>
    <trkpt lat="48.373920" lon="-4.641520"><ele>49.6</ele></trkpt>
    <trkpt lat="48.373776" lon="-4.641207"><ele>50.0</ele></trkpt>
    <trkpt lat="48.373655" lon="-4.641096"><ele>49.8</ele></trkpt>
    <trkpt lat="48.373482" lon="-4.641040"><ele>50.0</ele></trkpt>
    <trkpt lat="48.373381" lon="-4.641115"><ele>50.0</ele></trkpt>
    <trkpt lat="48.373276" lon="-4.641503"><ele>50.2</ele></trkpt>
    <trkpt lat="48.373211" lon="-4.641635"><ele>50.4</ele></trkpt>
    <trkpt lat="48.372899" lon="-4.641805"><ele>51.2</ele></trkpt>
    <trkpt lat="48.372765" lon="-4.641669"><ele>51.6</ele></trkpt>
    <trkpt lat="48.372595" lon="-4.641276"><ele>51.4</ele></trkpt>
    <trkpt lat="48.372561" lon="-4.641099"><ele>51.4</ele></trkpt>
    <trkpt lat="48.372543" lon="-4.640704"><ele>53.0</ele></trkpt>
    <trkpt lat="48.372487" lon="-4.640588"><ele>53.8</ele></trkpt>
    <trkpt lat="48.372257" lon="-4.640547"><ele>55.0</ele></trkpt>
    <trkpt lat="48.371454" lon="-4.640548"><ele>57.2</ele></trkpt>
    <trkpt lat="48.371007" lon="-4.640294"><ele>58.8</ele></trkpt>
    <trkpt lat="48.370643" lon="-4.639991"><ele>59.6</ele></trkpt>
    <trkpt lat="48.370366" lon="-4.640065"><ele>60.6</ele></trkpt>
  </trkseg></trk>
</gpx>
