<?xml version="1.0" encoding="UTF-8"?>
<gpx version="1.1" creator="tcap-parcours" xmlns="http://www.topografix.com/GPX/1/1">
  <metadata><name>Fractionné vallonné Neiz Vran – Déolen – 6 × 2'20</name></metadata>
  <trk><name>Fractionné vallonné Neiz Vran – Déolen – 6 × 2'20</name><trkseg>
    <trkpt lat="48.368059" lon="-4.642872"><ele>70.6</ele></trkpt>
    <trkpt lat="48.366510" lon="-4.642268"><ele>69.4</ele></trkpt>
    <trkpt lat="48.366149" lon="-4.642288"><ele>68.8</ele></trkpt>
    <trkpt lat="48.365954" lon="-4.642103"><ele>68.4</ele></trkpt>
    <trkpt lat="48.365606" lon="-4.642002"><ele>67.8</ele></trkpt>
    <trkpt lat="48.364979" lon="-4.641522"><ele>66.6</ele></trkpt>
    <trkpt lat="48.364712" lon="-4.641417"><ele>66.6</ele></trkpt>
    <trkpt lat="48.362848" lon="-4.641198"><ele>69.6</ele></trkpt>
    <trkpt lat="48.362482" lon="-4.641219"><ele>70.2</ele></trkpt>
    <trkpt lat="48.361340" lon="-4.641406"><ele>72.0</ele></trkpt>
    <trkpt lat="48.361101" lon="-4.641524"><ele>72.0</ele></trkpt>
    <trkpt lat="48.360772" lon="-4.641781"><ele>71.8</ele></trkpt>
    <trkpt lat="48.360361" lon="-4.642382"><ele>71.6</ele></trkpt>
    <trkpt lat="48.360114" lon="-4.642622"><ele>71.6</ele></trkpt>
    <trkpt lat="48.359838" lon="-4.642748"><ele>71.4</ele></trkpt>
    <trkpt lat="48.359724" lon="-4.642864"><ele>71.4</ele></trkpt>
    <trkpt lat="48.359551" lon="-4.642872"><ele>71.6</ele></trkpt>
    <trkpt lat="48.359274" lon="-4.643004"><ele>72.2</ele></trkpt>
    <trkpt lat="48.359099" lon="-4.643119"><ele>72.8</ele></trkpt>
    <trkpt lat="48.358899" lon="-4.643360"><ele>73.6</ele></trkpt>
    <trkpt lat="48.358834" lon="-4.643366"><ele>73.8</ele></trkpt>
    <trkpt lat="48.358615" lon="-4.643262"><ele>74.2</ele></trkpt>
    <trkpt lat="48.358456" lon="-4.643322"><ele>74.8</ele></trkpt>
    <trkpt lat="48.358070" lon="-4.643785"><ele>77.0</ele></trkpt>
    <trkpt lat="48.357892" lon="-4.644165"><ele>78.2</ele></trkpt>
    <trkpt lat="48.357616" lon="-4.644612"><ele>79.2</ele></trkpt>
    <trkpt lat="48.357264" lon="-4.644599"><ele>79.8</ele></trkpt>
    <trkpt lat="48.356791" lon="-4.644433"><ele>80.4</ele></trkpt>
    <trkpt lat="48.356637" lon="-4.644460"><ele>80.4</ele></trkpt>
    <trkpt lat="48.356472" lon="-4.644585"><ele>80.4</ele></trkpt>
    <trkpt lat="48.356168" lon="-4.644984"><ele>80.6</ele></trkpt>
    <trkpt lat="48.355900" lon="-4.645245"><ele>79.8</ele></trkpt>
    <trkpt lat="48.354850" lon="-4.645829"><ele>76.4</ele></trkpt>
    <trkpt lat="48.354466" lon="-4.645951"><ele>75.4</ele></trkpt>
    <trkpt lat="48.354274" lon="-4.645901"><ele>75.2</ele></trkpt>
    <trkpt lat="48.353504" lon="-4.645474"><ele>74.4</ele></trkpt>
    <trkpt lat="48.352694" lon="-4.645249"><ele>75.8</ele></trkpt>
    <trkpt lat="48.352245" lon="-4.645285"><ele>76.4</ele></trkpt>
    <trkpt lat="48.351879" lon="-4.645493"><ele>75.8</ele></trkpt>
    <trkpt lat="48.351556" lon="-4.645753"><ele>75.4</ele></trkpt>
    <trkpt lat="48.351399" lon="-4.645756"><ele>75.4</ele></trkpt>
    <trkpt lat="48.350492" lon="-4.645219"><ele>74.2</ele></trkpt>
    <trkpt lat="48.350254" lon="-4.644979"><ele>72.8</ele></trkpt>
    <trkpt lat="48.350137" lon="-4.644742"><ele>72.0</ele></trkpt>
    <trkpt lat="48.349822" lon="-4.643453"><ele>68.4</ele></trkpt>
    <trkpt lat="48.349756" lon="-4.643328"><ele>68.0</ele></trkpt>
    <trkpt lat="48.349645" lon="-4.643318"><ele>67.6</ele></trkpt>
    <trkpt lat="48.349297" lon="-4.643736"><ele>66.4</ele></trkpt>
    <trkpt lat="48.348251" lon="-4.644749"><ele>64.2</ele></trkpt>
    <trkpt lat="48.347631" lon="-4.645181"><ele>62.4</ele></trkpt>
    <trkpt lat="48.346420" lon="-4.645674"><ele>56.6</ele></trkpt>
    <trkpt lat="48.346344" lon="-4.645792"><ele>54.0</ele></trkpt>
    <trkpt lat="48.346558" lon="-4.646501"><ele>56.0</ele></trkpt>
    <trkpt lat="48.346706" lon="-4.647333"><ele>55.8</ele></trkpt>
    <trkpt lat="48.346856" lon="-4.647770"><ele>55.2</ele></trkpt>
    <trkpt lat="48.347134" lon="-4.649440"><ele>53.0</ele></trkpt>
    <trkpt lat="48.347500" lon="-4.650358"><ele>52.6</ele></trkpt>
    <trkpt lat="48.347666" lon="-4.650891"><ele>54.8</ele></trkpt>
    <trkpt lat="48.347905" lon="-4.651079"><ele>55.4</ele></trkpt>
    <trkpt lat="48.348536" lon="-4.652111"><ele>49.0</ele></trkpt>
    <trkpt lat="48.348612" lon="-4.652284"><ele>47.0</ele></trkpt>
    <trkpt lat="48.348475" lon="-4.652802"><ele>45.6</ele></trkpt>
    <trkpt lat="48.348517" lon="-4.652968"><ele>44.2</ele></trkpt>
    <trkpt lat="48.348398" lon="-4.653123"><ele>43.6</ele></trkpt>
    <trkpt lat="48.348331" lon="-4.653282"><ele>43.2</ele></trkpt>
    <trkpt lat="48.348370" lon="-4.653490"><ele>41.0</ele></trkpt>
    <trkpt lat="48.348292" lon="-4.653624"><ele>40.0</ele></trkpt>
    <trkpt lat="48.348205" lon="-4.653692"><ele>40.0</ele></trkpt>
    <trkpt lat="48.347934" lon="-4.653807"><ele>41.6</ele></trkpt>
    <trkpt lat="48.347665" lon="-4.653750"><ele>43.2</ele></trkpt>
    <trkpt lat="48.347511" lon="-4.653671"><ele>44.2</ele></trkpt>
    <trkpt lat="48.347386" lon="-4.653518"><ele>45.2</ele></trkpt>
    <trkpt lat="48.347240" lon="-4.653420"><ele>45.8</ele></trkpt>
    <trkpt lat="48.347113" lon="-4.653209"><ele>45.8</ele></trkpt>
    <trkpt lat="48.347258" lon="-4.653059"><ele>48.2</ele></trkpt>
    <trkpt lat="48.347299" lon="-4.652965"><ele>49.8</ele></trkpt>
    <trkpt lat="48.347255" lon="-4.652568"><ele>52.2</ele></trkpt>
    <trkpt lat="48.347338" lon="-4.652081"><ele>54.0</ele></trkpt>
    <trkpt lat="48.347416" lon="-4.651993"><ele>55.0</ele></trkpt>
    <trkpt lat="48.347539" lon="-4.652016"><ele>56.6</ele></trkpt>
    <trkpt lat="48.347646" lon="-4.651972"><ele>58.2</ele></trkpt>
    <trkpt lat="48.347745" lon="-4.651841"><ele>59.2</ele></trkpt>
    <trkpt lat="48.347767" lon="-4.651724"><ele>59.4</ele></trkpt>
    <trkpt lat="48.347626" lon="-4.651204"><ele>56.8</ele></trkpt>
    <trkpt lat="48.347631" lon="-4.650803"><ele>55.2</ele></trkpt>
    <trkpt lat="48.347088" lon="-4.649334"><ele>52.0</ele></trkpt>
    <trkpt lat="48.347038" lon="-4.648854"><ele>53.0</ele></trkpt>
    <trkpt lat="48.346853" lon="-4.647794"><ele>54.4</ele></trkpt>
    <trkpt lat="48.346646" lon="-4.647159"><ele>55.4</ele></trkpt>
    <trkpt lat="48.346378" lon="-4.645690"><ele>54.0</ele></trkpt>
    <trkpt lat="48.346407" lon="-4.645957"><ele>56.8</ele></trkpt>
    <trkpt lat="48.346553" lon="-4.646490"><ele>56.4</ele></trkpt>
    <trkpt lat="48.346723" lon="-4.647369"><ele>56.4</ele></trkpt>
    <trkpt lat="48.346904" lon="-4.648016"><ele>55.0</ele></trkpt>
    <trkpt lat="48.347142" lon="-4.649437"><ele>53.2</ele></trkpt>
    <trkpt lat="48.347348" lon="-4.649950"><ele>52.2</ele></trkpt>
    <trkpt lat="48.347654" lon="-4.650878"><ele>55.2</ele></trkpt>
    <trkpt lat="48.347902" lon="-4.651119"><ele>55.8</ele></trkpt>
    <trkpt lat="48.348303" lon="-4.651792"><ele>53.6</ele></trkpt>
    <trkpt lat="48.348532" lon="-4.652107"><ele>49.8</ele></trkpt>
    <trkpt lat="48.348593" lon="-4.652293"><ele>47.8</ele></trkpt>
    <trkpt lat="48.348468" lon="-4.652832"><ele>45.8</ele></trkpt>
    <trkpt lat="48.348481" lon="-4.652977"><ele>45.0</ele></trkpt>
    <trkpt lat="48.348324" lon="-4.653270"><ele>43.6</ele></trkpt>
    <trkpt lat="48.348344" lon="-4.653494"><ele>41.8</ele></trkpt>
    <trkpt lat="48.348192" lon="-4.653663"><ele>40.6</ele></trkpt>
    <trkpt lat="48.347890" lon="-4.653806"><ele>42.0</ele></trkpt>
    <trkpt lat="48.347700" lon="-4.653793"><ele>43.2</ele></trkpt>
    <trkpt lat="48.347547" lon="-4.653704"><ele>44.4</ele></trkpt>
    <trkpt lat="48.347228" lon="-4.653408"><ele>46.0</ele></trkpt>
    <trkpt lat="48.347125" lon="-4.653225"><ele>46.0</ele></trkpt>
    <trkpt lat="48.347130" lon="-4.653170"><ele>46.2</ele></trkpt>
    <trkpt lat="48.347273" lon="-4.653057"><ele>48.4</ele></trkpt>
    <trkpt lat="48.347312" lon="-4.652977"><ele>49.8</ele></trkpt>
    <trkpt lat="48.347272" lon="-4.652520"><ele>52.4</ele></trkpt>
    <trkpt lat="48.347361" lon="-4.652064"><ele>54.6</ele></trkpt>
    <trkpt lat="48.347417" lon="-4.651994"><ele>55.2</ele></trkpt>
    <trkpt lat="48.347565" lon="-4.652010"><ele>57.2</ele></trkpt>
    <trkpt lat="48.347667" lon="-4.651962"><ele>58.6</ele></trkpt>
    <trkpt lat="48.347739" lon="-4.651859"><ele>59.6</ele></trkpt>
    <trkpt lat="48.347765" lon="-4.651708"><ele>59.8</ele></trkpt>
    <trkpt lat="48.347632" lon="-4.651200"><ele>57.4</ele></trkpt>
    <trkpt lat="48.347631" lon="-4.650789"><ele>55.6</ele></trkpt>
    <trkpt lat="48.347370" lon="-4.650063"><ele>52.6</ele></trkpt>
    <trkpt lat="48.347169" lon="-4.649603"><ele>51.8</ele></trkpt>
    <trkpt lat="48.347091" lon="-4.649334"><ele>52.2</ele></trkpt>
    <trkpt lat="48.346854" lon="-4.647894"><ele>54.2</ele></trkpt>
    <trkpt lat="48.346649" lon="-4.647192"><ele>55.2</ele></trkpt>
    <trkpt lat="48.346366" lon="-4.645823"><ele>58.6</ele></trkpt>
    <trkpt lat="48.346562" lon="-4.646528"><ele>56.0</ele></trkpt>
    <trkpt lat="48.346700" lon="-4.647278"><ele>56.2</ele></trkpt>
    <trkpt lat="48.346897" lon="-4.647969"><ele>55.0</ele></trkpt>
    <trkpt lat="48.347112" lon="-4.649317"><ele>53.4</ele></trkpt>
    <trkpt lat="48.347472" lon="-4.650338"><ele>52.4</ele></trkpt>
    <trkpt lat="48.347591" lon="-4.650776"><ele>54.2</ele></trkpt>
    <trkpt lat="48.347676" lon="-4.650947"><ele>54.8</ele></trkpt>
    <trkpt lat="48.347906" lon="-4.651087"><ele>55.4</ele></trkpt>
    <trkpt lat="48.348195" lon="-4.651586"><ele>54.6</ele></trkpt>
    <trkpt lat="48.348509" lon="-4.652040"><ele>50.0</ele></trkpt>
    <trkpt lat="48.348614" lon="-4.652302"><ele>47.2</ele></trkpt>
    <trkpt lat="48.348468" lon="-4.652815"><ele>45.8</ele></trkpt>
    <trkpt lat="48.348501" lon="-4.652993"><ele>44.6</ele></trkpt>
    <trkpt lat="48.348321" lon="-4.653298"><ele>43.2</ele></trkpt>
    <trkpt lat="48.348358" lon="-4.653494"><ele>41.6</ele></trkpt>
    <trkpt lat="48.348285" lon="-4.653603"><ele>40.6</ele></trkpt>
    <trkpt lat="48.348168" lon="-4.653689"><ele>40.2</ele></trkpt>
    <trkpt lat="48.347929" lon="-4.653801"><ele>41.6</ele></trkpt>
    <trkpt lat="48.347685" lon="-4.653772"><ele>43.2</ele></trkpt>
    <trkpt lat="48.347533" lon="-4.653680"><ele>44.2</ele></trkpt>
    <trkpt lat="48.347212" lon="-4.653385"><ele>45.8</ele></trkpt>
    <trkpt lat="48.347109" lon="-4.653210"><ele>45.8</ele></trkpt>
    <trkpt lat="48.347120" lon="-4.653158"><ele>46.0</ele></trkpt>
    <trkpt lat="48.347249" lon="-4.653083"><ele>48.0</ele></trkpt>
    <trkpt lat="48.347308" lon="-4.652979"><ele>49.6</ele></trkpt>
    <trkpt lat="48.347256" lon="-4.652596"><ele>52.2</ele></trkpt>
    <trkpt lat="48.347367" lon="-4.652059"><ele>54.4</ele></trkpt>
    <trkpt lat="48.347428" lon="-4.651994"><ele>55.2</ele></trkpt>
    <trkpt lat="48.347574" lon="-4.652015"><ele>57.2</ele></trkpt>
    <trkpt lat="48.347657" lon="-4.651976"><ele>58.4</ele></trkpt>
    <trkpt lat="48.347746" lon="-4.651842"><ele>59.4</ele></trkpt>
    <trkpt lat="48.347774" lon="-4.651695"><ele>59.6</ele></trkpt>
    <trkpt lat="48.347631" lon="-4.651255"><ele>57.6</ele></trkpt>
    <trkpt lat="48.347640" lon="-4.650842"><ele>55.8</ele></trkpt>
    <trkpt lat="48.347601" lon="-4.650659"><ele>55.0</ele></trkpt>
    <trkpt lat="48.347087" lon="-4.649315"><ele>52.2</ele></trkpt>
    <trkpt lat="48.346839" lon="-4.647805"><ele>54.6</ele></trkpt>
    <trkpt lat="48.346634" lon="-4.647134"><ele>55.4</ele></trkpt>
    <trkpt lat="48.346355" lon="-4.645794"><ele>58.4</ele></trkpt>
    <trkpt lat="48.346554" lon="-4.646442"><ele>56.0</ele></trkpt>
    <trkpt lat="48.346671" lon="-4.647151"><ele>55.8</ele></trkpt>
    <trkpt lat="48.346875" lon="-4.647880"><ele>54.8</ele></trkpt>
    <trkpt lat="48.347104" lon="-4.649294"><ele>53.2</ele></trkpt>
    <trkpt lat="48.347160" lon="-4.649501"><ele>52.8</ele></trkpt>
    <trkpt lat="48.347438" lon="-4.650206"><ele>52.0</ele></trkpt>
    <trkpt lat="48.347646" lon="-4.650867"><ele>54.6</ele></trkpt>
    <trkpt lat="48.347701" lon="-4.650950"><ele>55.0</ele></trkpt>
    <trkpt lat="48.347910" lon="-4.651103"><ele>55.2</ele></trkpt>
    <trkpt lat="48.348597" lon="-4.652293"><ele>47.4</ele></trkpt>
    <trkpt lat="48.348477" lon="-4.652819"><ele>45.6</ele></trkpt>
    <trkpt lat="48.348498" lon="-4.652988"><ele>44.6</ele></trkpt>
    <trkpt lat="48.348321" lon="-4.653302"><ele>43.4</ele></trkpt>
    <trkpt lat="48.348345" lon="-4.653509"><ele>41.4</ele></trkpt>
    <trkpt lat="48.348185" lon="-4.653674"><ele>40.4</ele></trkpt>
    <trkpt lat="48.347935" lon="-4.653805"><ele>41.6</ele></trkpt>
    <trkpt lat="48.347679" lon="-4.653770"><ele>43.2</ele></trkpt>
    <trkpt lat="48.347516" lon="-4.653679"><ele>44.4</ele></trkpt>
    <trkpt lat="48.347241" lon="-4.653419"><ele>46.0</ele></trkpt>
    <trkpt lat="48.347132" lon="-4.653234"><ele>46.0</ele></trkpt>
    <trkpt lat="48.347134" lon="-4.653158"><ele>46.4</ele></trkpt>
    <trkpt lat="48.347285" lon="-4.653051"><ele>48.6</ele></trkpt>
    <trkpt lat="48.347321" lon="-4.652980"><ele>49.8</ele></trkpt>
    <trkpt lat="48.347267" lon="-4.652558"><ele>52.4</ele></trkpt>
    <trkpt lat="48.347353" lon="-4.652071"><ele>54.6</ele></trkpt>
    <trkpt lat="48.347426" lon="-4.651986"><ele>55.4</ele></trkpt>
    <trkpt lat="48.347571" lon="-4.652001"><ele>57.0</ele></trkpt>
    <trkpt lat="48.347689" lon="-4.651943"><ele>58.8</ele></trkpt>
    <trkpt lat="48.347752" lon="-4.651840"><ele>59.6</ele></trkpt>
    <trkpt lat="48.347769" lon="-4.651701"><ele>59.6</ele></trkpt>
    <trkpt lat="48.347651" lon="-4.651291"><ele>57.8</ele></trkpt>
    <trkpt lat="48.347612" lon="-4.650786"><ele>55.4</ele></trkpt>
    <trkpt lat="48.347096" lon="-4.649338"><ele>52.0</ele></trkpt>
    <trkpt lat="48.346888" lon="-4.648054"><ele>54.4</ele></trkpt>
    <trkpt lat="48.346606" lon="-4.647086"><ele>54.8</ele></trkpt>
    <trkpt lat="48.346525" lon="-4.646479"><ele>55.0</ele></trkpt>
    <trkpt lat="48.346347" lon="-4.645663"><ele>58.4</ele></trkpt>
    <trkpt lat="48.347666" lon="-4.645206"><ele>61.8</ele></trkpt>
    <trkpt lat="48.348064" lon="-4.644852"><ele>62.8</ele></trkpt>
    <trkpt lat="48.348369" lon="-4.644648"><ele>63.6</ele></trkpt>
    <trkpt lat="48.349654" lon="-4.643357"><ele>66.4</ele></trkpt>
    <trkpt lat="48.349748" lon="-4.643350"><ele>66.6</ele></trkpt>
    <trkpt lat="48.349804" lon="-4.643433"><ele>67.0</ele></trkpt>
    <trkpt lat="48.350063" lon="-4.644633"><ele>70.6</ele></trkpt>
    <trkpt lat="48.350247" lon="-4.645034"><ele>71.8</ele></trkpt>
    <trkpt lat="48.350531" lon="-4.645314"><ele>73.2</ele></trkpt>
    <trkpt lat="48.351422" lon="-4.645851"><ele>74.6</ele></trkpt>
    <trkpt lat="48.351495" lon="-4.645864"><ele>74.6</ele></trkpt>
    <trkpt lat="48.351596" lon="-4.645814"><ele>74.6</ele></trkpt>
    <trkpt lat="48.351892" lon="-4.645505"><ele>74.6</ele></trkpt>
    <trkpt lat="48.352049" lon="-4.645396"><ele>75.0</ele></trkpt>
    <trkpt lat="48.352418" lon="-4.645300"><ele>75.6</ele></trkpt>
    <trkpt lat="48.353062" lon="-4.645413"><ele>75.0</ele></trkpt>
    <trkpt lat="48.353509" lon="-4.645585"><ele>74.2</ele></trkpt>
    <trkpt lat="48.354138" lon="-4.645937"><ele>74.2</ele></trkpt>
    <trkpt lat="48.354533" lon="-4.646015"><ele>74.6</ele></trkpt>
    <trkpt lat="48.354725" lon="-4.645957"><ele>74.8</ele></trkpt>
    <trkpt lat="48.355162" lon="-4.645677"><ele>76.0</ele></trkpt>
    <trkpt lat="48.355829" lon="-4.645353"><ele>78.4</ele></trkpt>
    <trkpt lat="48.356034" lon="-4.645191"><ele>79.2</ele></trkpt>
    <trkpt lat="48.356509" lon="-4.644611"><ele>79.8</ele></trkpt>
    <trkpt lat="48.356634" lon="-4.644517"><ele>79.6</ele></trkpt>
    <trkpt lat="48.356848" lon="-4.644493"><ele>79.4</ele></trkpt>
    <trkpt lat="48.357262" lon="-4.644677"><ele>79.4</ele></trkpt>
    <trkpt lat="48.357507" lon="-4.644739"><ele>79.0</ele></trkpt>
    <trkpt lat="48.357595" lon="-4.644723"><ele>78.8</ele></trkpt>
    <trkpt lat="48.358137" lon="-4.643742"><ele>77.0</ele></trkpt>
    <trkpt lat="48.358459" lon="-4.643366"><ele>74.8</ele></trkpt>
    <trkpt lat="48.358610" lon="-4.643289"><ele>74.2</ele></trkpt>
    <trkpt lat="48.358849" lon="-4.643393"><ele>73.4</ele></trkpt>
    <trkpt lat="48.358932" lon="-4.643385"><ele>73.0</ele></trkpt>
    <trkpt lat="48.359208" lon="-4.643106"><ele>72.4</ele></trkpt>
    <trkpt lat="48.359786" lon="-4.642924"><ele>71.2</ele></trkpt>
    <trkpt lat="48.359907" lon="-4.642821"><ele>71.0</ele></trkpt>
    <trkpt lat="48.360118" lon="-4.642725"><ele>71.0</ele></trkpt>
    <trkpt lat="48.360443" lon="-4.642356"><ele>71.2</ele></trkpt>
    <trkpt lat="48.360773" lon="-4.641839"><ele>71.4</ele></trkpt>
    <trkpt lat="48.360958" lon="-4.641673"><ele>71.6</ele></trkpt>
    <trkpt lat="48.361151" lon="-4.641562"><ele>71.6</ele></trkpt>
    <trkpt lat="48.362329" lon="-4.641313"><ele>70.2</ele></trkpt>
    <trkpt lat="48.362811" lon="-4.641274"><ele>69.2</ele></trkpt>
    <trkpt lat="48.363986" lon="-4.641450"><ele>67.2</ele></trkpt>
    <trkpt lat="48.364801" lon="-4.641520"><ele>66.0</ele></trkpt>
    <trkpt lat="48.365037" lon="-4.641628"><ele>66.0</ele></trkpt>
    <trkpt lat="48.365634" lon="-4.642093"><ele>67.0</ele></trkpt>
    <trkpt lat="48.365951" lon="-4.642157"><ele>67.2</ele></trkpt>
    <trkpt lat="48.366164" lon="-4.642369"><ele>67.6</ele></trkpt>
    <trkpt lat="48.366443" lon="-4.642321"><ele>68.0</ele></trkpt>
    <trkpt lat="48.367145" lon="-4.642596"><ele>68.8</ele></trkpt>
    <trkpt lat="48.367733" lon="-4.642752"><ele>68.6</ele></trkpt>
    <trkpt lat="48.368114" lon="-4.642920"><ele>67.8</ele></trkpt>
    <trkpt lat="48.368882" lon="-4.642994"><ele>64.2</ele></trkpt>
    <trkpt lat="48.369478" lon="-4.642993"><ele>61.0</ele></trkpt>
    <trkpt lat="48.369594" lon="-4.642933"><ele>60.6</ele></trkpt>
    <trkpt lat="48.369675" lon="-4.642692"><ele>60.4</ele></trkpt>
    <trkpt lat="48.369798" lon="-4.642084"><ele>60.2</ele></trkpt>
    <trkpt lat="48.370176" lon="-4.640657"><ele>57.6</ele></trkpt>
  </trkseg></trk>
</gpx>
