<?xml version="1.0" encoding="UTF-8"?>
<gpx version="1.1" creator="tcap-parcours" xmlns="http://www.topografix.com/GPX/1/1">
  <metadata><name>The Goat of the Côte – 15,3 km</name></metadata>
  <trk><name>The Goat of the Côte – 15,3 km</name><trkseg>
    <trkpt lat="48.346281" lon="-4.642968"><ele>46.2</ele></trkpt>
    <trkpt lat="48.346388" lon="-4.642240"><ele>43.8</ele></trkpt>
    <trkpt lat="48.346530" lon="-4.641811"><ele>41.2</ele></trkpt>
    <trkpt lat="48.347610" lon="-4.641309"><ele>46.8</ele></trkpt>
    <trkpt lat="48.348090" lon="-4.640945"><ele>47.4</ele></trkpt>
    <trkpt lat="48.348323" lon="-4.640874"><ele>47.4</ele></trkpt>
    <trkpt lat="48.348698" lon="-4.640907"><ele>49.0</ele></trkpt>
    <trkpt lat="48.349034" lon="-4.640645"><ele>50.2</ele></trkpt>
    <trkpt lat="48.349317" lon="-4.640589"><ele>49.6</ele></trkpt>
    <trkpt lat="48.349754" lon="-4.640133"><ele>47.0</ele></trkpt>
    <trkpt lat="48.350158" lon="-4.639611"><ele>42.6</ele></trkpt>
    <trkpt lat="48.350287" lon="-4.639524"><ele>41.2</ele></trkpt>
    <trkpt lat="48.350687" lon="-4.638895"><ele>32.0</ele></trkpt>
    <trkpt lat="48.350720" lon="-4.638684"><ele>29.4</ele></trkpt>
    <trkpt lat="48.350641" lon="-4.638417"><ele>28.8</ele></trkpt>
    <trkpt lat="48.350493" lon="-4.638225"><ele>30.8</ele></trkpt>
    <trkpt lat="48.350246" lon="-4.638066"><ele>34.0</ele></trkpt>
    <trkpt lat="48.349916" lon="-4.638005"><ele>36.2</ele></trkpt>
    <trkpt lat="48.349618" lon="-4.638171"><ele>35.2</ele></trkpt>
    <trkpt lat="48.349283" lon="-4.638263"><ele>35.0</ele></trkpt>
    <trkpt lat="48.348889" lon="-4.638478"><ele>34.2</ele></trkpt>
    <trkpt lat="48.348482" lon="-4.638613"><ele>29.6</ele></trkpt>
    <trkpt lat="48.348241" lon="-4.638797"><ele>28.4</ele></trkpt>
    <trkpt lat="48.347996" lon="-4.638891"><ele>27.8</ele></trkpt>
    <trkpt lat="48.347733" lon="-4.639283"><ele>21.0</ele></trkpt>
    <trkpt lat="48.347583" lon="-4.639427"><ele>17.4</ele></trkpt>
    <trkpt lat="48.347458" lon="-4.639611"><ele>14.0</ele></trkpt>
    <trkpt lat="48.347460" lon="-4.639662"><ele>13.4</ele></trkpt>
    <trkpt lat="48.347503" lon="-4.639677"><ele>13.2</ele></trkpt>
    <trkpt lat="48.347645" lon="-4.639637"><ele>12.6</ele></trkpt>
    <trkpt lat="48.347670" lon="-4.639807"><ele>12.2</ele></trkpt>
    <trkpt lat="48.347459" lon="-4.639997"><ele>11.8</ele></trkpt>
    <trkpt lat="48.347277" lon="-4.640330"><ele>13.6</ele></trkpt>
    <trkpt lat="48.347112" lon="-4.640447"><ele>14.0</ele></trkpt>
    <trkpt lat="48.346830" lon="-4.640515"><ele>12.8</ele></trkpt>
    <trkpt lat="48.346253" lon="-4.640998"><ele>16.6</ele></trkpt>
    <trkpt lat="48.345812" lon="-4.641631"><ele>20.0</ele></trkpt>
    <trkpt lat="48.345598" lon="-4.642053"><ele>23.6</ele></trkpt>
    <trkpt lat="48.345523" lon="-4.642483"><ele>27.8</ele></trkpt>
    <trkpt lat="48.345516" lon="-4.642749"><ele>29.6</ele></trkpt>
    <trkpt lat="48.345898" lon="-4.642760"><ele>35.8</ele></trkpt>
    <trkpt lat="48.346019" lon="-4.642864"><ele>38.6</ele></trkpt>
    <trkpt lat="48.346237" lon="-4.643272"><ele>45.8</ele></trkpt>
    <trkpt lat="48.346288" lon="-4.643113"><ele>46.8</ele></trkpt>
    <trkpt lat="48.346382" lon="-4.642293"><ele>44.4</ele></trkpt>
    <trkpt lat="48.346476" lon="-4.641954"><ele>42.4</ele></trkpt>
    <trkpt lat="48.346557" lon="-4.641833"><ele>42.0</ele></trkpt>
    <trkpt lat="48.346747" lon="-4.641689"><ele>42.2</ele></trkpt>
    <trkpt lat="48.347676" lon="-4.641261"><ele>48.0</ele></trkpt>
    <trkpt lat="48.348156" lon="-4.640915"><ele>47.8</ele></trkpt>
    <trkpt lat="48.348361" lon="-4.640892"><ele>47.8</ele></trkpt>
    <trkpt lat="48.348680" lon="-4.640925"><ele>49.2</ele></trkpt>
    <trkpt lat="48.348939" lon="-4.640701"><ele>49.6</ele></trkpt>
    <trkpt lat="48.349272" lon="-4.640615"><ele>49.8</ele></trkpt>
    <trkpt lat="48.350072" lon="-4.639715"><ele>43.0</ele></trkpt>
    <trkpt lat="48.350381" lon="-4.639441"><ele>40.8</ele></trkpt>
    <trkpt lat="48.350474" lon="-4.639236"><ele>38.2</ele></trkpt>
    <trkpt lat="48.350718" lon="-4.638889"><ele>32.8</ele></trkpt>
    <trkpt lat="48.350759" lon="-4.638686"><ele>30.8</ele></trkpt>
    <trkpt lat="48.350719" lon="-4.638546"><ele>29.8</ele></trkpt>
    <trkpt lat="48.350602" lon="-4.638330"><ele>29.8</ele></trkpt>
    <trkpt lat="48.350445" lon="-4.638154"><ele>31.8</ele></trkpt>
    <trkpt lat="48.350213" lon="-4.638035"><ele>35.0</ele></trkpt>
    <trkpt lat="48.349908" lon="-4.637979"><ele>36.2</ele></trkpt>
    <trkpt lat="48.349598" lon="-4.638202"><ele>35.0</ele></trkpt>
    <trkpt lat="48.349199" lon="-4.638309"><ele>35.0</ele></trkpt>
    <trkpt lat="48.348007" lon="-4.638888"><ele>27.2</ele></trkpt>
    <trkpt lat="48.347456" lon="-4.639629"><ele>14.2</ele></trkpt>
    <trkpt lat="48.347490" lon="-4.639690"><ele>13.8</ele></trkpt>
    <trkpt lat="48.347648" lon="-4.639676"><ele>12.4</ele></trkpt>
    <trkpt lat="48.347664" lon="-4.639764"><ele>11.8</ele></trkpt>
    <trkpt lat="48.347643" lon="-4.639830"><ele>11.4</ele></trkpt>
    <trkpt lat="48.347524" lon="-4.639915"><ele>10.8</ele></trkpt>
    <trkpt lat="48.347199" lon="-4.640371"><ele>13.0</ele></trkpt>
    <trkpt lat="48.346830" lon="-4.640549"><ele>12.6</ele></trkpt>
    <trkpt lat="48.346202" lon="-4.641100"><ele>17.2</ele></trkpt>
    <trkpt lat="48.345648" lon="-4.641884"><ele>21.8</ele></trkpt>
    <trkpt lat="48.345540" lon="-4.642214"><ele>24.6</ele></trkpt>
    <trkpt lat="48.345514" lon="-4.642610"><ele>28.4</ele></trkpt>
    <trkpt lat="48.345541" lon="-4.642782"><ele>30.6</ele></trkpt>
    <trkpt lat="48.345616" lon="-4.642810"><ele>31.8</ele></trkpt>
    <trkpt lat="48.345827" lon="-4.642729"><ele>36.0</ele></trkpt>
    <trkpt lat="48.345980" lon="-4.642892"><ele>39.8</ele></trkpt>
    <trkpt lat="48.346226" lon="-4.643268"><ele>45.4</ele></trkpt>
    <trkpt lat="48.346259" lon="-4.643205"><ele>46.2</ele></trkpt>
    <trkpt lat="48.346288" lon="-4.642699"><ele>45.6</ele></trkpt>
    <trkpt lat="48.346341" lon="-4.642357"><ele>44.2</ele></trkpt>
    <trkpt lat="48.346533" lon="-4.641809"><ele>40.8</ele></trkpt>
    <trkpt lat="48.346759" lon="-4.641671"><ele>40.4</ele></trkpt>
    <trkpt lat="48.347144" lon="-4.641527"><ele>42.6</ele></trkpt>
    <trkpt lat="48.348131" lon="-4.640909"><ele>46.2</ele></trkpt>
    <trkpt lat="48.348671" lon="-4.640917"><ele>48.4</ele></trkpt>
    <trkpt lat="48.348748" lon="-4.640883"><ele>48.8</ele></trkpt>
    <trkpt lat="48.348971" lon="-4.640652"><ele>49.4</ele></trkpt>
    <trkpt lat="48.349273" lon="-4.640628"><ele>49.6</ele></trkpt>
    <trkpt lat="48.350139" lon="-4.639650"><ele>42.4</ele></trkpt>
    <trkpt lat="48.350310" lon="-4.639542"><ele>40.8</ele></trkpt>
    <trkpt lat="48.350431" lon="-4.639293"><ele>37.4</ele></trkpt>
    <trkpt lat="48.350726" lon="-4.638980"><ele>33.4</ele></trkpt>
    <trkpt lat="48.350788" lon="-4.638814"><ele>31.4</ele></trkpt>
    <trkpt lat="48.350767" lon="-4.638682"><ele>30.2</ele></trkpt>
    <trkpt lat="48.350652" lon="-4.638433"><ele>29.0</ele></trkpt>
    <trkpt lat="48.350481" lon="-4.638221"><ele>30.6</ele></trkpt>
    <trkpt lat="48.350188" lon="-4.638044"><ele>34.6</ele></trkpt>
    <trkpt lat="48.349906" lon="-4.638010"><ele>36.0</ele></trkpt>
    <trkpt lat="48.349630" lon="-4.638174"><ele>35.4</ele></trkpt>
    <trkpt lat="48.349132" lon="-4.638327"><ele>35.6</ele></trkpt>
    <trkpt lat="48.348484" lon="-4.638613"><ele>31.0</ele></trkpt>
    <trkpt lat="48.348173" lon="-4.638824"><ele>28.4</ele></trkpt>
    <trkpt lat="48.348003" lon="-4.638877"><ele>27.2</ele></trkpt>
    <trkpt lat="48.347465" lon="-4.639616"><ele>14.4</ele></trkpt>
    <trkpt lat="48.347457" lon="-4.639657"><ele>13.8</ele></trkpt>
    <trkpt lat="48.347485" lon="-4.639682"><ele>13.4</ele></trkpt>
    <trkpt lat="48.347652" lon="-4.639670"><ele>12.0</ele></trkpt>
    <trkpt lat="48.347670" lon="-4.639795"><ele>11.4</ele></trkpt>
    <trkpt lat="48.347495" lon="-4.639937"><ele>11.2</ele></trkpt>
    <trkpt lat="48.347289" lon="-4.640289"><ele>13.2</ele></trkpt>
    <trkpt lat="48.347164" lon="-4.640388"><ele>13.6</ele></trkpt>
    <trkpt lat="48.346832" lon="-4.640513"><ele>12.4</ele></trkpt>
    <trkpt lat="48.346468" lon="-4.640795"><ele>14.2</ele></trkpt>
    <trkpt lat="48.346163" lon="-4.641103"><ele>16.4</ele></trkpt>
    <trkpt lat="48.345896" lon="-4.641480"><ele>18.8</ele></trkpt>
    <trkpt lat="48.345672" lon="-4.641845"><ele>21.4</ele></trkpt>
    <trkpt lat="48.345560" lon="-4.642140"><ele>24.0</ele></trkpt>
    <trkpt lat="48.345530" lon="-4.642662"><ele>30.2</ele></trkpt>
    <trkpt lat="48.345549" lon="-4.642770"><ele>31.2</ele></trkpt>
    <trkpt lat="48.345609" lon="-4.642795"><ele>32.2</ele></trkpt>
    <trkpt lat="48.345809" lon="-4.642736"><ele>35.6</ele></trkpt>
    <trkpt lat="48.346226" lon="-4.643246"><ele>46.0</ele></trkpt>
    <trkpt lat="48.346278" lon="-4.643167"><ele>46.4</ele></trkpt>
    <trkpt lat="48.346388" lon="-4.642323"><ele>44.2</ele></trkpt>
    <trkpt lat="48.346560" lon="-4.641852"><ele>40.4</ele></trkpt>
    <trkpt lat="48.346942" lon="-4.641620"><ele>42.0</ele></trkpt>
    <trkpt lat="48.347857" lon="-4.641191"><ele>47.4</ele></trkpt>
    <trkpt lat="48.348191" lon="-4.640920"><ele>47.2</ele></trkpt>
    <trkpt lat="48.348316" lon="-4.640900"><ele>47.2</ele></trkpt>
    <trkpt lat="48.348693" lon="-4.640967"><ele>49.2</ele></trkpt>
    <trkpt lat="48.348763" lon="-4.640930"><ele>49.6</ele></trkpt>
    <trkpt lat="48.348983" lon="-4.640658"><ele>50.2</ele></trkpt>
    <trkpt lat="48.349280" lon="-4.640621"><ele>49.2</ele></trkpt>
    <trkpt lat="48.349967" lon="-4.639807"><ele>43.0</ele></trkpt>
    <trkpt lat="48.350308" lon="-4.639538"><ele>40.8</ele></trkpt>
    <trkpt lat="48.350458" lon="-4.639233"><ele>37.4</ele></trkpt>
    <trkpt lat="48.350700" lon="-4.638947"><ele>32.8</ele></trkpt>
    <trkpt lat="48.350747" lon="-4.638781"><ele>31.0</ele></trkpt>
    <trkpt lat="48.350634" lon="-4.638422"><ele>30.0</ele></trkpt>
    <trkpt lat="48.350442" lon="-4.638191"><ele>31.2</ele></trkpt>
    <trkpt lat="48.350168" lon="-4.638040"><ele>34.4</ele></trkpt>
    <trkpt lat="48.349885" lon="-4.638011"><ele>35.2</ele></trkpt>
    <trkpt lat="48.349601" lon="-4.638197"><ele>35.2</ele></trkpt>
    <trkpt lat="48.348463" lon="-4.638603"><ele>31.2</ele></trkpt>
    <trkpt lat="48.347956" lon="-4.638912"><ele>27.2</ele></trkpt>
    <trkpt lat="48.347472" lon="-4.639590"><ele>14.6</ele></trkpt>
    <trkpt lat="48.347480" lon="-4.639673"><ele>13.6</ele></trkpt>
    <trkpt lat="48.347659" lon="-4.639640"><ele>12.0</ele></trkpt>
    <trkpt lat="48.347671" lon="-4.639774"><ele>10.8</ele></trkpt>
    <trkpt lat="48.347455" lon="-4.639989"><ele>10.4</ele></trkpt>
    <trkpt lat="48.347287" lon="-4.640274"><ele>12.0</ele></trkpt>
    <trkpt lat="48.347114" lon="-4.640403"><ele>12.4</ele></trkpt>
    <trkpt lat="48.346811" lon="-4.640508"><ele>11.4</ele></trkpt>
    <trkpt lat="48.346230" lon="-4.641029"><ele>15.6</ele></trkpt>
    <trkpt lat="48.345917" lon="-4.641456"><ele>17.8</ele></trkpt>
    <trkpt lat="48.345832" lon="-4.641664"><ele>19.0</ele></trkpt>
    <trkpt lat="48.345673" lon="-4.641865"><ele>20.2</ele></trkpt>
    <trkpt lat="48.345589" lon="-4.642054"><ele>21.8</ele></trkpt>
    <trkpt lat="48.345510" lon="-4.642646"><ele>28.0</ele></trkpt>
    <trkpt lat="48.345540" lon="-4.642769"><ele>29.2</ele></trkpt>
    <trkpt lat="48.345802" lon="-4.642736"><ele>34.4</ele></trkpt>
    <trkpt lat="48.346216" lon="-4.643258"><ele>45.2</ele></trkpt>
    <trkpt lat="48.346272" lon="-4.643194"><ele>46.4</ele></trkpt>
    <trkpt lat="48.346352" lon="-4.642563"><ele>45.8</ele></trkpt>
    <trkpt lat="48.346441" lon="-4.642158"><ele>43.8</ele></trkpt>
    <trkpt lat="48.346509" lon="-4.641942"><ele>42.6</ele></trkpt>
    <trkpt lat="48.346588" lon="-4.641825"><ele>42.0</ele></trkpt>
    <trkpt lat="48.346793" lon="-4.641681"><ele>42.2</ele></trkpt>
    <trkpt lat="48.347878" lon="-4.641184"><ele>49.0</ele></trkpt>
    <trkpt lat="48.348182" lon="-4.640947"><ele>49.0</ele></trkpt>
    <trkpt lat="48.348709" lon="-4.640914"><ele>49.8</ele></trkpt>
    <trkpt lat="48.348969" lon="-4.640648"><ele>49.4</ele></trkpt>
    <trkpt lat="48.349272" lon="-4.640604"><ele>49.0</ele></trkpt>
    <trkpt lat="48.350134" lon="-4.639670"><ele>44.0</ele></trkpt>
    <trkpt lat="48.350339" lon="-4.639503"><ele>41.8</ele></trkpt>
    <trkpt lat="48.350470" lon="-4.639239"><ele>38.2</ele></trkpt>
    <trkpt lat="48.350702" lon="-4.638944"><ele>33.2</ele></trkpt>
    <trkpt lat="48.350735" lon="-4.638814"><ele>31.8</ele></trkpt>
    <trkpt lat="48.350719" lon="-4.638699"><ele>31.0</ele></trkpt>
    <trkpt lat="48.350617" lon="-4.638450"><ele>30.4</ele></trkpt>
    <trkpt lat="48.350421" lon="-4.638185"><ele>31.8</ele></trkpt>
    <trkpt lat="48.350183" lon="-4.638047"><ele>35.4</ele></trkpt>
    <trkpt lat="48.349905" lon="-4.638013"><ele>37.2</ele></trkpt>
    <trkpt lat="48.349821" lon="-4.638035"><ele>36.8</ele></trkpt>
    <trkpt lat="48.349598" lon="-4.638248"><ele>35.2</ele></trkpt>
    <trkpt lat="48.349032" lon="-4.638392"><ele>35.0</ele></trkpt>
    <trkpt lat="48.348777" lon="-4.638532"><ele>33.4</ele></trkpt>
    <trkpt lat="48.348442" lon="-4.638634"><ele>31.0</ele></trkpt>
    <trkpt lat="48.348048" lon="-4.638887"><ele>28.0</ele></trkpt>
    <trkpt lat="48.347804" lon="-4.639155"><ele>23.8</ele></trkpt>
    <trkpt lat="48.347464" lon="-4.639625"><ele>15.2</ele></trkpt>
    <trkpt lat="48.347461" lon="-4.639663"><ele>14.6</ele></trkpt>
    <trkpt lat="48.347497" lon="-4.639682"><ele>14.2</ele></trkpt>
    <trkpt lat="48.347649" lon="-4.639632"><ele>12.8</ele></trkpt>
    <trkpt lat="48.347655" lon="-4.639765"><ele>12.4</ele></trkpt>
    <trkpt lat="48.347478" lon="-4.639964"><ele>12.4</ele></trkpt>
    <trkpt lat="48.347271" lon="-4.640346"><ele>15.0</ele></trkpt>
    <trkpt lat="48.347134" lon="-4.640446"><ele>15.2</ele></trkpt>
    <trkpt lat="48.346839" lon="-4.640553"><ele>14.0</ele></trkpt>
    <trkpt lat="48.346539" lon="-4.640797"><ele>15.8</ele></trkpt>
    <trkpt lat="48.346232" lon="-4.641078"><ele>18.2</ele></trkpt>
    <trkpt lat="48.345916" lon="-4.641486"><ele>20.8</ele></trkpt>
    <trkpt lat="48.345656" lon="-4.641888"><ele>23.4</ele></trkpt>
    <trkpt lat="48.345556" lon="-4.642102"><ele>24.4</ele></trkpt>
    <trkpt lat="48.345500" lon="-4.642639"><ele>29.6</ele></trkpt>
    <trkpt lat="48.345514" lon="-4.642763"><ele>30.8</ele></trkpt>
    <trkpt lat="48.345591" lon="-4.642795"><ele>32.2</ele></trkpt>
    <trkpt lat="48.345785" lon="-4.642733"><ele>36.4</ele></trkpt>
    <trkpt lat="48.346199" lon="-4.643221"><ele>46.0</ele></trkpt>
    <trkpt lat="48.346242" lon="-4.643199"><ele>45.8</ele></trkpt>
    <trkpt lat="48.346242" lon="-4.643022"><ele>45.4</ele></trkpt>
    <trkpt lat="48.346320" lon="-4.642441"><ele>44.2</ele></trkpt>
    <trkpt lat="48.346437" lon="-4.641989"><ele>42.0</ele></trkpt>
    <trkpt lat="48.346537" lon="-4.641823"><ele>41.4</ele></trkpt>
    <trkpt lat="48.346817" lon="-4.641641"><ele>42.2</ele></trkpt>
    <trkpt lat="48.347758" lon="-4.641243"><ele>47.8</ele></trkpt>
    <trkpt lat="48.348137" lon="-4.640973"><ele>48.6</ele></trkpt>
    <trkpt lat="48.348739" lon="-4.640909"><ele>50.0</ele></trkpt>
    <trkpt lat="48.348993" lon="-4.640648"><ele>49.6</ele></trkpt>
    <trkpt lat="48.349255" lon="-4.640613"><ele>49.2</ele></trkpt>
    <trkpt lat="48.349941" lon="-4.639842"><ele>44.4</ele></trkpt>
    <trkpt lat="48.350312" lon="-4.639522"><ele>42.0</ele></trkpt>
    <trkpt lat="48.350416" lon="-4.639286"><ele>39.0</ele></trkpt>
    <trkpt lat="48.350671" lon="-4.638928"><ele>33.0</ele></trkpt>
    <trkpt lat="48.350728" lon="-4.638740"><ele>30.8</ele></trkpt>
    <trkpt lat="48.350603" lon="-4.638413"><ele>29.8</ele></trkpt>
    <trkpt lat="48.350375" lon="-4.638180"><ele>32.6</ele></trkpt>
    <trkpt lat="48.350149" lon="-4.638054"><ele>35.2</ele></trkpt>
    <trkpt lat="48.349867" lon="-4.638032"><ele>36.6</ele></trkpt>
    <trkpt lat="48.349637" lon="-4.638204"><ele>36.2</ele></trkpt>
    <trkpt lat="48.349105" lon="-4.638361"><ele>36.2</ele></trkpt>
    <trkpt lat="48.348822" lon="-4.638531"><ele>34.6</ele></trkpt>
    <trkpt lat="48.348475" lon="-4.638642"><ele>31.6</ele></trkpt>
    <trkpt lat="48.348197" lon="-4.638834"><ele>29.8</ele></trkpt>
    <trkpt lat="48.348014" lon="-4.638912"><ele>28.2</ele></trkpt>
    <trkpt lat="48.347833" lon="-4.639103"><ele>25.0</ele></trkpt>
    <trkpt lat="48.347464" lon="-4.639629"><ele>15.4</ele></trkpt>
    <trkpt lat="48.347485" lon="-4.639676"><ele>14.8</ele></trkpt>
    <trkpt lat="48.347634" lon="-4.639637"><ele>13.4</ele></trkpt>
    <trkpt lat="48.347642" lon="-4.639799"><ele>12.8</ele></trkpt>
    <trkpt lat="48.347286" lon="-4.640336"><ele>15.0</ele></trkpt>
    <trkpt lat="48.346962" lon="-4.640529"><ele>14.2</ele></trkpt>
    <trkpt lat="48.346818" lon="-4.640562"><ele>14.2</ele></trkpt>
    <trkpt lat="48.346375" lon="-4.640914"><ele>18.0</ele></trkpt>
    <trkpt lat="48.346122" lon="-4.641216"><ele>20.4</ele></trkpt>
    <trkpt lat="48.345694" lon="-4.641854"><ele>24.0</ele></trkpt>
    <trkpt lat="48.345550" lon="-4.642205"><ele>26.4</ele></trkpt>
    <trkpt lat="48.345514" lon="-4.642570"><ele>29.6</ele></trkpt>
    <trkpt lat="48.345534" lon="-4.642805"><ele>32.0</ele></trkpt>
    <trkpt lat="48.345620" lon="-4.642823"><ele>33.0</ele></trkpt>
    <trkpt lat="48.345816" lon="-4.642756"><ele>36.2</ele></trkpt>
    <trkpt lat="48.346178" lon="-4.643193"><ele>45.8</ele></trkpt>
    <trkpt lat="48.346273" lon="-4.643248"><ele>47.8</ele></trkpt>
    <trkpt lat="48.346267" lon="-4.643059"><ele>46.0</ele></trkpt>
    <trkpt lat="48.346413" lon="-4.642228"><ele>44.2</ele></trkpt>
    <trkpt lat="48.346479" lon="-4.641983"><ele>43.0</ele></trkpt>
    <trkpt lat="48.346593" lon="-4.641802"><ele>42.4</ele></trkpt>
    <trkpt lat="48.346832" lon="-4.641627"><ele>42.8</ele></trkpt>
    <trkpt lat="48.347620" lon="-4.641294"><ele>48.0</ele></trkpt>
    <trkpt lat="48.348175" lon="-4.640928"><ele>49.2</ele></trkpt>
    <trkpt lat="48.348695" lon="-4.640869"><ele>48.8</ele></trkpt>
    <trkpt lat="48.348947" lon="-4.640614"><ele>49.4</ele></trkpt>
    <trkpt lat="48.349258" lon="-4.640594"><ele>49.2</ele></trkpt>
    <trkpt lat="48.349899" lon="-4.639866"><ele>43.8</ele></trkpt>
    <trkpt lat="48.350297" lon="-4.639493"><ele>40.8</ele></trkpt>
    <trkpt lat="48.350438" lon="-4.639233"><ele>37.8</ele></trkpt>
    <trkpt lat="48.350682" lon="-4.638906"><ele>32.2</ele></trkpt>
    <trkpt lat="48.350712" lon="-4.638766"><ele>30.8</ele></trkpt>
    <trkpt lat="48.350608" lon="-4.638436"><ele>30.2</ele></trkpt>
    <trkpt lat="48.350413" lon="-4.638225"><ele>32.2</ele></trkpt>
    <trkpt lat="48.350106" lon="-4.638067"><ele>35.6</ele></trkpt>
    <trkpt lat="48.349870" lon="-4.638057"><ele>36.8</ele></trkpt>
    <trkpt lat="48.349581" lon="-4.638243"><ele>36.2</ele></trkpt>
    <trkpt lat="48.348920" lon="-4.638522"><ele>34.0</ele></trkpt>
    <trkpt lat="48.348441" lon="-4.638671"><ele>31.0</ele></trkpt>
    <trkpt lat="48.348213" lon="-4.638838"><ele>29.6</ele></trkpt>
    <trkpt lat="48.347991" lon="-4.638942"><ele>27.8</ele></trkpt>
    <trkpt lat="48.347472" lon="-4.639635"><ele>15.8</ele></trkpt>
    <trkpt lat="48.347470" lon="-4.639672"><ele>15.4</ele></trkpt>
    <trkpt lat="48.347509" lon="-4.639689"><ele>15.0</ele></trkpt>
    <trkpt lat="48.347641" lon="-4.639663"><ele>14.0</ele></trkpt>
    <trkpt lat="48.347659" lon="-4.639809"><ele>13.6</ele></trkpt>
    <trkpt lat="48.347478" lon="-4.640030"><ele>13.8</ele></trkpt>
    <trkpt lat="48.347271" lon="-4.640368"><ele>15.6</ele></trkpt>
    <trkpt lat="48.347119" lon="-4.640486"><ele>15.8</ele></trkpt>
    <trkpt lat="48.346824" lon="-4.640596"><ele>15.2</ele></trkpt>
    <trkpt lat="48.346250" lon="-4.641060"><ele>18.6</ele></trkpt>
    <trkpt lat="48.346049" lon="-4.641295"><ele>20.0</ele></trkpt>
    <trkpt lat="48.345597" lon="-4.642043"><ele>24.6</ele></trkpt>
    <trkpt lat="48.345522" lon="-4.642379"><ele>26.6</ele></trkpt>
    <trkpt lat="48.345517" lon="-4.642774"><ele>30.4</ele></trkpt>
    <trkpt lat="48.345559" lon="-4.642798"><ele>31.2</ele></trkpt>
    <trkpt lat="48.345785" lon="-4.642745"><ele>36.2</ele></trkpt>
    <trkpt lat="48.345986" lon="-4.642940"><ele>41.8</ele></trkpt>
    <trkpt lat="48.346151" lon="-4.643178"><ele>45.8</ele></trkpt>
    <trkpt lat="48.346272" lon="-4.643216"><ele>46.4</ele></trkpt>
    <trkpt lat="48.346419" lon="-4.642367"><ele>45.6</ele></trkpt>
    <trkpt lat="48.346520" lon="-4.641975"><ele>43.6</ele></trkpt>
    <trkpt lat="48.346579" lon="-4.641845"><ele>43.4</ele></trkpt>
    <trkpt lat="48.346686" lon="-4.641729"><ele>43.4</ele></trkpt>
    <trkpt lat="48.347689" lon="-4.641269"><ele>50.0</ele></trkpt>
    <trkpt lat="48.348179" lon="-4.640928"><ele>49.6</ele></trkpt>
    <trkpt lat="48.348680" lon="-4.640937"><ele>50.6</ele></trkpt>
    <trkpt lat="48.348954" lon="-4.640630"><ele>49.4</ele></trkpt>
    <trkpt lat="48.349294" lon="-4.640576"><ele>48.6</ele></trkpt>
    <trkpt lat="48.349728" lon="-4.640134"><ele>46.4</ele></trkpt>
    <trkpt lat="48.349959" lon="-4.639837"><ele>44.6</ele></trkpt>
    <trkpt lat="48.350296" lon="-4.639518"><ele>42.0</ele></trkpt>
    <trkpt lat="48.350459" lon="-4.639235"><ele>38.8</ele></trkpt>
    <trkpt lat="48.350670" lon="-4.638990"><ele>34.0</ele></trkpt>
    <trkpt lat="48.350743" lon="-4.638776"><ele>31.2</ele></trkpt>
    <trkpt lat="48.350645" lon="-4.638450"><ele>30.6</ele></trkpt>
    <trkpt lat="48.350422" lon="-4.638194"><ele>32.8</ele></trkpt>
    <trkpt lat="48.350234" lon="-4.638095"><ele>34.8</ele></trkpt>
    <trkpt lat="48.349898" lon="-4.638059"><ele>36.4</ele></trkpt>
    <trkpt lat="48.349577" lon="-4.638262"><ele>36.2</ele></trkpt>
    <trkpt lat="48.348520" lon="-4.638664"><ele>32.2</ele></trkpt>
    <trkpt lat="48.348217" lon="-4.638870"><ele>29.4</ele></trkpt>
    <trkpt lat="48.348027" lon="-4.638949"><ele>27.2</ele></trkpt>
    <trkpt lat="48.347462" lon="-4.639640"><ele>15.8</ele></trkpt>
    <trkpt lat="48.347485" lon="-4.639688"><ele>15.4</ele></trkpt>
    <trkpt lat="48.347651" lon="-4.639624"><ele>14.8</ele></trkpt>
    <trkpt lat="48.347664" lon="-4.639785"><ele>14.4</ele></trkpt>
    <trkpt lat="48.347500" lon="-4.639987"><ele>14.2</ele></trkpt>
    <trkpt lat="48.347338" lon="-4.640298"><ele>14.6</ele></trkpt>
    <trkpt lat="48.347127" lon="-4.640481"><ele>14.6</ele></trkpt>
    <trkpt lat="48.346841" lon="-4.640583"><ele>14.6</ele></trkpt>
    <trkpt lat="48.346314" lon="-4.641027"><ele>18.6</ele></trkpt>
    <trkpt lat="48.345712" lon="-4.641866"><ele>23.4</ele></trkpt>
    <trkpt lat="48.345549" lon="-4.642234"><ele>25.8</ele></trkpt>
    <trkpt lat="48.345519" lon="-4.642790"><ele>31.2</ele></trkpt>
    <trkpt lat="48.345583" lon="-4.642810"><ele>32.2</ele></trkpt>
    <trkpt lat="48.345819" lon="-4.642743"><ele>36.6</ele></trkpt>
    <trkpt lat="48.346012" lon="-4.642935"><ele>42.2</ele></trkpt>
    <trkpt lat="48.346140" lon="-4.643150"><ele>46.0</ele></trkpt>
    <trkpt lat="48.346256" lon="-4.643262"><ele>48.8</ele></trkpt>
    <trkpt lat="48.346243" lon="-4.643197"><ele>45.8</ele></trkpt>
    <trkpt lat="48.346399" lon="-4.642303"><ele>44.4</ele></trkpt>
    <trkpt lat="48.346510" lon="-4.641947"><ele>42.6</ele></trkpt>
    <trkpt lat="48.346585" lon="-4.641817"><ele>42.2</ele></trkpt>
    <trkpt lat="48.346809" lon="-4.641645"><ele>42.8</ele></trkpt>
    <trkpt lat="48.347219" lon="-4.641494"><ele>46.2</ele></trkpt>
    <trkpt lat="48.347870" lon="-4.641171"><ele>50.6</ele></trkpt>
    <trkpt lat="48.348183" lon="-4.640896"><ele>49.0</ele></trkpt>
    <trkpt lat="48.348703" lon="-4.640888"><ele>49.8</ele></trkpt>
    <trkpt lat="48.348950" lon="-4.640641"><ele>50.2</ele></trkpt>
    <trkpt lat="48.349205" lon="-4.640643"><ele>50.4</ele></trkpt>
    <trkpt lat="48.349310" lon="-4.640589"><ele>50.4</ele></trkpt>
    <trkpt lat="48.349859" lon="-4.640005"><ele>45.0</ele></trkpt>
    <trkpt lat="48.350047" lon="-4.639755"><ele>43.2</ele></trkpt>
    <trkpt lat="48.350348" lon="-4.639477"><ele>41.2</ele></trkpt>
    <trkpt lat="48.350470" lon="-4.639208"><ele>38.6</ele></trkpt>
    <trkpt lat="48.350716" lon="-4.638891"><ele>33.0</ele></trkpt>
    <trkpt lat="48.350744" lon="-4.638734"><ele>31.2</ele></trkpt>
    <trkpt lat="48.350651" lon="-4.638466"><ele>30.0</ele></trkpt>
    <trkpt lat="48.350376" lon="-4.638156"><ele>32.8</ele></trkpt>
    <trkpt lat="48.350199" lon="-4.638058"><ele>34.8</ele></trkpt>
    <trkpt lat="48.349889" lon="-4.638051"><ele>36.2</ele></trkpt>
    <trkpt lat="48.349640" lon="-4.638224"><ele>35.6</ele></trkpt>
    <trkpt lat="48.348521" lon="-4.638678"><ele>31.2</ele></trkpt>
    <trkpt lat="48.348040" lon="-4.638948"><ele>27.2</ele></trkpt>
    <trkpt lat="48.347468" lon="-4.639621"><ele>14.8</ele></trkpt>
    <trkpt lat="48.347480" lon="-4.639662"><ele>14.6</ele></trkpt>
    <trkpt lat="48.347641" lon="-4.639604"><ele>13.8</ele></trkpt>
    <trkpt lat="48.347659" lon="-4.639793"><ele>13.0</ele></trkpt>
    <trkpt lat="48.347533" lon="-4.639932"><ele>12.8</ele></trkpt>
    <trkpt lat="48.347303" lon="-4.640336"><ele>14.4</ele></trkpt>
    <trkpt lat="48.347145" lon="-4.640467"><ele>14.8</ele></trkpt>
    <trkpt lat="48.346840" lon="-4.640580"><ele>14.2</ele></trkpt>
    <trkpt lat="48.346377" lon="-4.640969"><ele>17.4</ele></trkpt>
    <trkpt lat="48.346131" lon="-4.641243"><ele>19.2</ele></trkpt>
    <trkpt lat="48.345757" lon="-4.641775"><ele>21.6</ele></trkpt>
    <trkpt lat="48.345626" lon="-4.642007"><ele>22.6</ele></trkpt>
    <trkpt lat="48.345556" lon="-4.642219"><ele>25.0</ele></trkpt>
    <trkpt lat="48.345522" lon="-4.642644"><ele>30.0</ele></trkpt>
    <trkpt lat="48.345536" lon="-4.642782"><ele>31.8</ele></trkpt>
    <trkpt lat="48.345591" lon="-4.642804"><ele>33.0</ele></trkpt>
    <trkpt lat="48.345800" lon="-4.642746"><ele>37.0</ele></trkpt>
    <trkpt lat="48.346198" lon="-4.643204"><ele>46.4</ele></trkpt>
    <trkpt lat="48.346273" lon="-4.643192"><ele>46.2</ele></trkpt>
    <trkpt lat="48.346360" lon="-4.642482"><ele>45.4</ele></trkpt>
    <trkpt lat="48.346457" lon="-4.642056"><ele>43.6</ele></trkpt>
    <trkpt lat="48.346545" lon="-4.641875"><ele>42.8</ele></trkpt>
    <trkpt lat="48.346694" lon="-4.641697"><ele>42.2</ele></trkpt>
    <trkpt lat="48.346815" lon="-4.641612"><ele>42.2</ele></trkpt>
    <trkpt lat="48.347269" lon="-4.641452"><ele>45.8</ele></trkpt>
    <trkpt lat="48.347764" lon="-4.641199"><ele>48.6</ele></trkpt>
    <trkpt lat="48.348130" lon="-4.640896"><ele>48.0</ele></trkpt>
    <trkpt lat="48.348657" lon="-4.640886"><ele>49.0</ele></trkpt>
    <trkpt lat="48.348980" lon="-4.640633"><ele>49.2</ele></trkpt>
    <trkpt lat="48.349301" lon="-4.640587"><ele>48.8</ele></trkpt>
    <trkpt lat="48.350288" lon="-4.639528"><ele>42.0</ele></trkpt>
    <trkpt lat="48.350456" lon="-4.639245"><ele>39.0</ele></trkpt>
    <trkpt lat="48.350697" lon="-4.638989"><ele>34.6</ele></trkpt>
    <trkpt lat="48.350767" lon="-4.638770"><ele>31.8</ele></trkpt>
    <trkpt lat="48.350690" lon="-4.638532"><ele>30.4</ele></trkpt>
    <trkpt lat="48.350496" lon="-4.638229"><ele>31.4</ele></trkpt>
    <trkpt lat="48.350286" lon="-4.638101"><ele>33.8</ele></trkpt>
    <trkpt lat="48.349921" lon="-4.638051"><ele>36.8</ele></trkpt>
    <trkpt lat="48.349620" lon="-4.638228"><ele>36.4</ele></trkpt>
    <trkpt lat="48.349062" lon="-4.638411"><ele>35.8</ele></trkpt>
    <trkpt lat="48.348528" lon="-4.638656"><ele>31.2</ele></trkpt>
    <trkpt lat="48.348009" lon="-4.638947"><ele>27.0</ele></trkpt>
    <trkpt lat="48.347471" lon="-4.639618"><ele>15.8</ele></trkpt>
    <trkpt lat="48.347468" lon="-4.639656"><ele>15.4</ele></trkpt>
    <trkpt lat="48.347501" lon="-4.639672"><ele>15.0</ele></trkpt>
    <trkpt lat="48.347642" lon="-4.639645"><ele>14.2</ele></trkpt>
    <trkpt lat="48.347661" lon="-4.639790"><ele>13.8</ele></trkpt>
    <trkpt lat="48.347308" lon="-4.640338"><ele>14.8</ele></trkpt>
    <trkpt lat="48.347145" lon="-4.640466"><ele>14.6</ele></trkpt>
    <trkpt lat="48.346853" lon="-4.640571"><ele>14.2</ele></trkpt>
    <trkpt lat="48.346371" lon="-4.640948"><ele>18.0</ele></trkpt>
    <trkpt lat="48.346120" lon="-4.641245"><ele>20.0</ele></trkpt>
    <trkpt lat="48.345633" lon="-4.641964"><ele>23.6</ele></trkpt>
    <trkpt lat="48.345533" lon="-4.642368"><ele>26.8</ele></trkpt>
    <trkpt lat="48.345532" lon="-4.642773"><ele>31.4</ele></trkpt>
    <trkpt lat="48.345616" lon="-4.642794"><ele>32.8</ele></trkpt>
    <trkpt lat="48.345806" lon="-4.642741"><ele>37.8</ele></trkpt>
    <trkpt lat="48.345984" lon="-4.642917"><ele>41.8</ele></trkpt>
    <trkpt lat="48.346241" lon="-4.643263"><ele>47.0</ele></trkpt>
  </trkseg></trk>
</gpx>
