<?xml version="1.0" encoding="UTF-8"?>
<gpx version="1.1" creator="tcap-parcours" xmlns="http://www.topografix.com/GPX/1/1">
  <metadata><name>Le GR34 depuis le Technopôle, jusqu'au Trez-Hir – 30 km jusqu'au Trez-Hir</name></metadata>
  <trk><name>Le GR34 depuis le Technopôle, jusqu'au Trez-Hir – 30 km jusqu'au Trez-Hir</name><trkseg>
    <trkpt lat="48.370261" lon="-4.640248"><ele>59.8</ele></trkpt>
    <trkpt lat="48.370704" lon="-4.640003"><ele>59.2</ele></trkpt>
    <trkpt lat="48.370795" lon="-4.640059"><ele>58.8</ele></trkpt>
    <trkpt lat="48.370966" lon="-4.640292"><ele>58.2</ele></trkpt>
    <trkpt lat="48.371548" lon="-4.640592"><ele>57.2</ele></trkpt>
    <trkpt lat="48.372146" lon="-4.640579"><ele>55.0</ele></trkpt>
    <trkpt lat="48.372553" lon="-4.640623"><ele>53.8</ele></trkpt>
    <trkpt lat="48.372641" lon="-4.640542"><ele>53.6</ele></trkpt>
    <trkpt lat="48.372768" lon="-4.640205"><ele>53.2</ele></trkpt>
    <trkpt lat="48.372943" lon="-4.639895"><ele>53.0</ele></trkpt>
    <trkpt lat="48.373146" lon="-4.639819"><ele>52.2</ele></trkpt>
    <trkpt lat="48.373234" lon="-4.639526"><ele>51.2</ele></trkpt>
    <trkpt lat="48.373303" lon="-4.639464"><ele>51.0</ele></trkpt>
    <trkpt lat="48.373544" lon="-4.639487"><ele>50.6</ele></trkpt>
    <trkpt lat="48.374337" lon="-4.639956"><ele>50.0</ele></trkpt>
    <trkpt lat="48.374566" lon="-4.640000"><ele>49.6</ele></trkpt>
    <trkpt lat="48.374789" lon="-4.639626"><ele>48.6</ele></trkpt>
    <trkpt lat="48.375025" lon="-4.639405"><ele>49.2</ele></trkpt>
    <trkpt lat="48.375597" lon="-4.638633"><ele>49.0</ele></trkpt>
    <trkpt lat="48.375688" lon="-4.638416"><ele>49.0</ele></trkpt>
    <trkpt lat="48.375670" lon="-4.638194"><ele>49.2</ele></trkpt>
    <trkpt lat="48.375578" lon="-4.638117"><ele>49.2</ele></trkpt>
    <trkpt lat="48.375202" lon="-4.638025"><ele>48.8</ele></trkpt>
    <trkpt lat="48.375154" lon="-4.637928"><ele>48.8</ele></trkpt>
    <trkpt lat="48.375474" lon="-4.635852"><ele>49.4</ele></trkpt>
    <trkpt lat="48.375640" lon="-4.635094"><ele>50.0</ele></trkpt>
    <trkpt lat="48.375649" lon="-4.634947"><ele>50.0</ele></trkpt>
    <trkpt lat="48.375605" lon="-4.634772"><ele>50.2</ele></trkpt>
    <trkpt lat="48.375975" lon="-4.633861"><ele>50.6</ele></trkpt>
    <trkpt lat="48.376125" lon="-4.633567"><ele>50.2</ele></trkpt>
    <trkpt lat="48.376208" lon="-4.633282"><ele>50.0</ele></trkpt>
    <trkpt lat="48.377814" lon="-4.633308"><ele>46.6</ele></trkpt>
    <trkpt lat="48.377972" lon="-4.633281"><ele>47.0</ele></trkpt>
    <trkpt lat="48.378029" lon="-4.633211"><ele>47.4</ele></trkpt>
    <trkpt lat="48.378020" lon="-4.632843"><ele>48.2</ele></trkpt>
    <trkpt lat="48.378186" lon="-4.631971"><ele>50.0</ele></trkpt>
    <trkpt lat="48.378191" lon="-4.631343"><ele>50.2</ele></trkpt>
    <trkpt lat="48.377792" lon="-4.630139"><ele>51.0</ele></trkpt>
    <trkpt lat="48.377714" lon="-4.629778"><ele>51.4</ele></trkpt>
    <trkpt lat="48.377603" lon="-4.628483"><ele>50.6</ele></trkpt>
    <trkpt lat="48.377660" lon="-4.627866"><ele>48.8</ele></trkpt>
    <trkpt lat="48.377719" lon="-4.627620"><ele>48.4</ele></trkpt>
    <trkpt lat="48.377956" lon="-4.627008"><ele>48.2</ele></trkpt>
    <trkpt lat="48.378332" lon="-4.626335"><ele>48.2</ele></trkpt>
    <trkpt lat="48.378921" lon="-4.625568"><ele>49.6</ele></trkpt>
    <trkpt lat="48.379196" lon="-4.625286"><ele>50.0</ele></trkpt>
    <trkpt lat="48.379431" lon="-4.624959"><ele>50.6</ele></trkpt>
    <trkpt lat="48.379544" lon="-4.624733"><ele>51.6</ele></trkpt>
    <trkpt lat="48.379695" lon="-4.624341"><ele>53.2</ele></trkpt>
    <trkpt lat="48.379922" lon="-4.623881"><ele>54.0</ele></trkpt>
    <trkpt lat="48.379935" lon="-4.623523"><ele>55.0</ele></trkpt>
    <trkpt lat="48.380057" lon="-4.623246"><ele>55.2</ele></trkpt>
    <trkpt lat="48.380122" lon="-4.622916"><ele>56.0</ele></trkpt>
    <trkpt lat="48.380308" lon="-4.622554"><ele>57.6</ele></trkpt>
    <trkpt lat="48.380410" lon="-4.622092"><ele>60.2</ele></trkpt>
    <trkpt lat="48.380288" lon="-4.621730"><ele>60.2</ele></trkpt>
    <trkpt lat="48.379938" lon="-4.621078"><ele>60.4</ele></trkpt>
    <trkpt lat="48.379850" lon="-4.621058"><ele>60.4</ele></trkpt>
    <trkpt lat="48.379218" lon="-4.621207"><ele>58.2</ele></trkpt>
    <trkpt lat="48.378929" lon="-4.621057"><ele>57.4</ele></trkpt>
    <trkpt lat="48.378431" lon="-4.620906"><ele>56.0</ele></trkpt>
    <trkpt lat="48.378337" lon="-4.620817"><ele>55.6</ele></trkpt>
    <trkpt lat="48.378328" lon="-4.620710"><ele>55.4</ele></trkpt>
    <trkpt lat="48.378400" lon="-4.620459"><ele>56.0</ele></trkpt>
    <trkpt lat="48.378592" lon="-4.620237"><ele>56.6</ele></trkpt>
    <trkpt lat="48.378628" lon="-4.620143"><ele>57.0</ele></trkpt>
    <trkpt lat="48.378668" lon="-4.619420"><ele>58.2</ele></trkpt>
    <trkpt lat="48.378730" lon="-4.619365"><ele>58.4</ele></trkpt>
    <trkpt lat="48.378899" lon="-4.619373"><ele>58.8</ele></trkpt>
    <trkpt lat="48.378962" lon="-4.619268"><ele>59.0</ele></trkpt>
    <trkpt lat="48.378974" lon="-4.618912"><ele>60.0</ele></trkpt>
    <trkpt lat="48.378919" lon="-4.618661"><ele>60.6</ele></trkpt>
    <trkpt lat="48.378340" lon="-4.618674"><ele>60.6</ele></trkpt>
    <trkpt lat="48.378159" lon="-4.618621"><ele>61.0</ele></trkpt>
    <trkpt lat="48.377935" lon="-4.618673"><ele>60.8</ele></trkpt>
    <trkpt lat="48.377351" lon="-4.618644"><ele>59.6</ele></trkpt>
    <trkpt lat="48.377139" lon="-4.618567"><ele>58.8</ele></trkpt>
    <trkpt lat="48.376990" lon="-4.618347"><ele>58.8</ele></trkpt>
    <trkpt lat="48.377160" lon="-4.617508"><ele>59.6</ele></trkpt>
    <trkpt lat="48.377247" lon="-4.617248"><ele>61.0</ele></trkpt>
    <trkpt lat="48.377304" lon="-4.616912"><ele>62.4</ele></trkpt>
    <trkpt lat="48.377434" lon="-4.616431"><ele>64.4</ele></trkpt>
    <trkpt lat="48.377550" lon="-4.616161"><ele>65.0</ele></trkpt>
    <trkpt lat="48.377844" lon="-4.615690"><ele>66.6</ele></trkpt>
    <trkpt lat="48.377957" lon="-4.615392"><ele>66.4</ele></trkpt>
    <trkpt lat="48.377927" lon="-4.615132"><ele>65.6</ele></trkpt>
    <trkpt lat="48.377832" lon="-4.614757"><ele>63.6</ele></trkpt>
    <trkpt lat="48.377415" lon="-4.613916"><ele>58.2</ele></trkpt>
    <trkpt lat="48.377418" lon="-4.613787"><ele>57.8</ele></trkpt>
    <trkpt lat="48.377472" lon="-4.613583"><ele>57.6</ele></trkpt>
    <trkpt lat="48.377749" lon="-4.613240"><ele>58.0</ele></trkpt>
    <trkpt lat="48.377862" lon="-4.612854"><ele>58.4</ele></trkpt>
    <trkpt lat="48.377917" lon="-4.612113"><ele>58.0</ele></trkpt>
    <trkpt lat="48.378048" lon="-4.610991"><ele>58.4</ele></trkpt>
    <trkpt lat="48.378004" lon="-4.610717"><ele>58.6</ele></trkpt>
    <trkpt lat="48.377686" lon="-4.610305"><ele>59.4</ele></trkpt>
    <trkpt lat="48.377484" lon="-4.609777"><ele>59.4</ele></trkpt>
    <trkpt lat="48.377439" lon="-4.609433"><ele>59.2</ele></trkpt>
    <trkpt lat="48.377421" lon="-4.608179"><ele>60.0</ele></trkpt>
    <trkpt lat="48.376953" lon="-4.607733"><ele>60.6</ele></trkpt>
    <trkpt lat="48.376287" lon="-4.606666"><ele>63.6</ele></trkpt>
    <trkpt lat="48.376016" lon="-4.605901"><ele>65.0</ele></trkpt>
    <trkpt lat="48.375838" lon="-4.605200"><ele>66.0</ele></trkpt>
    <trkpt lat="48.375760" lon="-4.604690"><ele>67.2</ele></trkpt>
    <trkpt lat="48.375696" lon="-4.604468"><ele>67.8</ele></trkpt>
    <trkpt lat="48.375549" lon="-4.604143"><ele>68.0</ele></trkpt>
    <trkpt lat="48.375289" lon="-4.603736"><ele>68.8</ele></trkpt>
    <trkpt lat="48.375191" lon="-4.603512"><ele>69.6</ele></trkpt>
    <trkpt lat="48.375158" lon="-4.603025"><ele>70.4</ele></trkpt>
    <trkpt lat="48.374902" lon="-4.602814"><ele>71.2</ele></trkpt>
    <trkpt lat="48.374176" lon="-4.601907"><ele>74.2</ele></trkpt>
    <trkpt lat="48.373099" lon="-4.600206"><ele>80.6</ele></trkpt>
    <trkpt lat="48.372309" lon="-4.599075"><ele>86.2</ele></trkpt>
    <trkpt lat="48.371934" lon="-4.598416"><ele>88.8</ele></trkpt>
    <trkpt lat="48.371766" lon="-4.597943"><ele>89.8</ele></trkpt>
    <trkpt lat="48.371604" lon="-4.597600"><ele>89.6</ele></trkpt>
    <trkpt lat="48.371576" lon="-4.597321"><ele>89.4</ele></trkpt>
    <trkpt lat="48.371612" lon="-4.595801"><ele>91.2</ele></trkpt>
    <trkpt lat="48.371568" lon="-4.594183"><ele>92.2</ele></trkpt>
    <trkpt lat="48.371666" lon="-4.593426"><ele>93.0</ele></trkpt>
    <trkpt lat="48.371790" lon="-4.592861"><ele>92.6</ele></trkpt>
    <trkpt lat="48.371946" lon="-4.591532"><ele>93.6</ele></trkpt>
    <trkpt lat="48.371878" lon="-4.591303"><ele>93.4</ele></trkpt>
    <trkpt lat="48.371929" lon="-4.591121"><ele>92.8</ele></trkpt>
    <trkpt lat="48.371909" lon="-4.591011"><ele>92.8</ele></trkpt>
    <trkpt lat="48.371308" lon="-4.590050"><ele>92.0</ele></trkpt>
    <trkpt lat="48.371381" lon="-4.589804"><ele>92.8</ele></trkpt>
    <trkpt lat="48.371361" lon="-4.589380"><ele>93.2</ele></trkpt>
    <trkpt lat="48.371513" lon="-4.588991"><ele>91.6</ele></trkpt>
    <trkpt lat="48.371609" lon="-4.588616"><ele>91.4</ele></trkpt>
    <trkpt lat="48.371628" lon="-4.588406"><ele>91.6</ele></trkpt>
    <trkpt lat="48.371597" lon="-4.588130"><ele>92.0</ele></trkpt>
    <trkpt lat="48.371652" lon="-4.587843"><ele>92.2</ele></trkpt>
    <trkpt lat="48.371910" lon="-4.587248"><ele>90.6</ele></trkpt>
    <trkpt lat="48.371924" lon="-4.587112"><ele>90.4</ele></trkpt>
    <trkpt lat="48.371496" lon="-4.586672"><ele>88.6</ele></trkpt>
    <trkpt lat="48.370781" lon="-4.585654"><ele>82.0</ele></trkpt>
    <trkpt lat="48.370698" lon="-4.585609"><ele>81.6</ele></trkpt>
    <trkpt lat="48.370602" lon="-4.585622"><ele>81.2</ele></trkpt>
    <trkpt lat="48.370317" lon="-4.585856"><ele>80.0</ele></trkpt>
    <trkpt lat="48.369893" lon="-4.585371"><ele>75.0</ele></trkpt>
    <trkpt lat="48.369870" lon="-4.584904"><ele>72.2</ele></trkpt>
    <trkpt lat="48.369787" lon="-4.584579"><ele>70.6</ele></trkpt>
    <trkpt lat="48.369457" lon="-4.584310"><ele>67.2</ele></trkpt>
    <trkpt lat="48.369149" lon="-4.583942"><ele>64.4</ele></trkpt>
    <trkpt lat="48.368839" lon="-4.583396"><ele>62.8</ele></trkpt>
    <trkpt lat="48.368826" lon="-4.582985"><ele>61.2</ele></trkpt>
    <trkpt lat="48.368775" lon="-4.582846"><ele>61.0</ele></trkpt>
    <trkpt lat="48.368591" lon="-4.582645"><ele>60.8</ele></trkpt>
    <trkpt lat="48.367859" lon="-4.582147"><ele>58.2</ele></trkpt>
    <trkpt lat="48.367601" lon="-4.581833"><ele>58.0</ele></trkpt>
    <trkpt lat="48.367206" lon="-4.580923"><ele>60.4</ele></trkpt>
    <trkpt lat="48.367107" lon="-4.580433"><ele>61.0</ele></trkpt>
    <trkpt lat="48.367081" lon="-4.579890"><ele>60.6</ele></trkpt>
    <trkpt lat="48.367049" lon="-4.579726"><ele>61.0</ele></trkpt>
    <trkpt lat="48.367001" lon="-4.579659"><ele>61.6</ele></trkpt>
    <trkpt lat="48.366823" lon="-4.579581"><ele>62.8</ele></trkpt>
    <trkpt lat="48.366778" lon="-4.579488"><ele>62.8</ele></trkpt>
    <trkpt lat="48.366814" lon="-4.579016"><ele>60.2</ele></trkpt>
    <trkpt lat="48.366735" lon="-4.578179"><ele>52.0</ele></trkpt>
    <trkpt lat="48.366765" lon="-4.576905"><ele>47.6</ele></trkpt>
    <trkpt lat="48.366946" lon="-4.576155"><ele>45.8</ele></trkpt>
    <trkpt lat="48.367065" lon="-4.575783"><ele>45.0</ele></trkpt>
    <trkpt lat="48.367135" lon="-4.575172"><ele>41.6</ele></trkpt>
    <trkpt lat="48.367245" lon="-4.575076"><ele>40.4</ele></trkpt>
    <trkpt lat="48.367412" lon="-4.574791"><ele>40.2</ele></trkpt>
    <trkpt lat="48.367595" lon="-4.574934"><ele>42.0</ele></trkpt>
    <trkpt lat="48.367701" lon="-4.574830"><ele>43.2</ele></trkpt>
    <trkpt lat="48.368071" lon="-4.574676"><ele>48.0</ele></trkpt>
    <trkpt lat="48.368436" lon="-4.574226"><ele>51.4</ele></trkpt>
    <trkpt lat="48.368623" lon="-4.574047"><ele>52.6</ele></trkpt>
    <trkpt lat="48.368629" lon="-4.573787"><ele>54.2</ele></trkpt>
    <trkpt lat="48.368578" lon="-4.573666"><ele>54.6</ele></trkpt>
    <trkpt lat="48.368502" lon="-4.573602"><ele>54.8</ele></trkpt>
    <trkpt lat="48.368300" lon="-4.573561"><ele>54.6</ele></trkpt>
    <trkpt lat="48.368120" lon="-4.573601"><ele>54.0</ele></trkpt>
    <trkpt lat="48.367954" lon="-4.573569"><ele>53.6</ele></trkpt>
    <trkpt lat="48.367801" lon="-4.573472"><ele>53.0</ele></trkpt>
    <trkpt lat="48.367566" lon="-4.573473"><ele>51.0</ele></trkpt>
    <trkpt lat="48.367453" lon="-4.573404"><ele>50.0</ele></trkpt>
    <trkpt lat="48.367405" lon="-4.573296"><ele>49.4</ele></trkpt>
    <trkpt lat="48.367347" lon="-4.572265"><ele>49.4</ele></trkpt>
    <trkpt lat="48.367368" lon="-4.572052"><ele>50.6</ele></trkpt>
    <trkpt lat="48.367468" lon="-4.571946"><ele>52.2</ele></trkpt>
    <trkpt lat="48.367845" lon="-4.571884"><ele>56.4</ele></trkpt>
    <trkpt lat="48.367888" lon="-4.571846"><ele>56.8</ele></trkpt>
    <trkpt lat="48.367812" lon="-4.571682"><ele>57.6</ele></trkpt>
    <trkpt lat="48.367804" lon="-4.571381"><ele>57.8</ele></trkpt>
    <trkpt lat="48.367726" lon="-4.570901"><ele>57.0</ele></trkpt>
    <trkpt lat="48.367661" lon="-4.570234"><ele>56.0</ele></trkpt>
    <trkpt lat="48.367715" lon="-4.569813"><ele>56.6</ele></trkpt>
    <trkpt lat="48.367850" lon="-4.569222"><ele>57.6</ele></trkpt>
    <trkpt lat="48.367901" lon="-4.568452"><ele>58.0</ele></trkpt>
    <trkpt lat="48.368073" lon="-4.567632"><ele>53.4</ele></trkpt>
    <trkpt lat="48.368140" lon="-4.567470"><ele>51.6</ele></trkpt>
    <trkpt lat="48.368400" lon="-4.567270"><ele>48.6</ele></trkpt>
    <trkpt lat="48.368698" lon="-4.566873"><ele>52.0</ele></trkpt>
    <trkpt lat="48.369114" lon="-4.566703"><ele>54.0</ele></trkpt>
    <trkpt lat="48.369266" lon="-4.566551"><ele>55.0</ele></trkpt>
    <trkpt lat="48.369288" lon="-4.566435"><ele>55.8</ele></trkpt>
    <trkpt lat="48.369207" lon="-4.566364"><ele>56.6</ele></trkpt>
    <trkpt lat="48.368430" lon="-4.566310"><ele>61.6</ele></trkpt>
    <trkpt lat="48.368284" lon="-4.566164"><ele>62.4</ele></trkpt>
    <trkpt lat="48.368212" lon="-4.565881"><ele>63.8</ele></trkpt>
    <trkpt lat="48.368082" lon="-4.565742"><ele>63.4</ele></trkpt>
    <trkpt lat="48.367792" lon="-4.565864"><ele>60.0</ele></trkpt>
    <trkpt lat="48.367424" lon="-4.565817"><ele>54.4</ele></trkpt>
    <trkpt lat="48.367081" lon="-4.565855"><ele>49.0</ele></trkpt>
    <trkpt lat="48.366734" lon="-4.565942"><ele>44.0</ele></trkpt>
    <trkpt lat="48.366420" lon="-4.566104"><ele>40.2</ele></trkpt>
    <trkpt lat="48.365980" lon="-4.566022"><ele>37.0</ele></trkpt>
    <trkpt lat="48.365780" lon="-4.565908"><ele>35.6</ele></trkpt>
    <trkpt lat="48.365614" lon="-4.565524"><ele>33.4</ele></trkpt>
    <trkpt lat="48.365497" lon="-4.565017"><ele>31.2</ele></trkpt>
    <trkpt lat="48.365279" lon="-4.564456"><ele>30.2</ele></trkpt>
    <trkpt lat="48.365151" lon="-4.564009"><ele>31.2</ele></trkpt>
    <trkpt lat="48.365131" lon="-4.563842"><ele>31.8</ele></trkpt>
    <trkpt lat="48.365148" lon="-4.563580"><ele>32.8</ele></trkpt>
    <trkpt lat="48.365049" lon="-4.563059"><ele>34.2</ele></trkpt>
    <trkpt lat="48.365012" lon="-4.562569"><ele>35.6</ele></trkpt>
    <trkpt lat="48.364914" lon="-4.562091"><ele>38.0</ele></trkpt>
    <trkpt lat="48.364956" lon="-4.561885"><ele>39.4</ele></trkpt>
    <trkpt lat="48.364924" lon="-4.561694"><ele>39.2</ele></trkpt>
    <trkpt lat="48.364675" lon="-4.561303"><ele>36.8</ele></trkpt>
    <trkpt lat="48.364466" lon="-4.561258"><ele>34.4</ele></trkpt>
    <trkpt lat="48.364064" lon="-4.560802"><ele>26.2</ele></trkpt>
    <trkpt lat="48.363995" lon="-4.560688"><ele>24.2</ele></trkpt>
    <trkpt lat="48.363947" lon="-4.560480"><ele>20.0</ele></trkpt>
    <trkpt lat="48.363829" lon="-4.560518"><ele>17.8</ele></trkpt>
    <trkpt lat="48.363730" lon="-4.560486"><ele>15.2</ele></trkpt>
    <trkpt lat="48.363776" lon="-4.559923"><ele>12.8</ele></trkpt>
    <trkpt lat="48.363638" lon="-4.559176"><ele>15.6</ele></trkpt>
    <trkpt lat="48.363516" lon="-4.558879"><ele>16.0</ele></trkpt>
    <trkpt lat="48.363416" lon="-4.558450"><ele>16.0</ele></trkpt>
    <trkpt lat="48.363088" lon="-4.557432"><ele>15.6</ele></trkpt>
    <trkpt lat="48.362842" lon="-4.556364"><ele>15.4</ele></trkpt>
    <trkpt lat="48.362634" lon="-4.555758"><ele>14.2</ele></trkpt>
    <trkpt lat="48.362565" lon="-4.555629"><ele>13.8</ele></trkpt>
    <trkpt lat="48.362030" lon="-4.555096"><ele>7.4</ele></trkpt>
    <trkpt lat="48.361819" lon="-4.554570"><ele>5.6</ele></trkpt>
    <trkpt lat="48.361438" lon="-4.554411"><ele>5.0</ele></trkpt>
    <trkpt lat="48.361341" lon="-4.554516"><ele>5.6</ele></trkpt>
    <trkpt lat="48.361095" lon="-4.554969"><ele>8.8</ele></trkpt>
    <trkpt lat="48.361017" lon="-4.555035"><ele>10.0</ele></trkpt>
    <trkpt lat="48.360855" lon="-4.555062"><ele>12.4</ele></trkpt>
    <trkpt lat="48.360258" lon="-4.555305"><ele>31.2</ele></trkpt>
    <trkpt lat="48.360011" lon="-4.555289"><ele>29.4</ele></trkpt>
    <trkpt lat="48.359734" lon="-4.555330"><ele>27.6</ele></trkpt>
    <trkpt lat="48.359112" lon="-4.555848"><ele>32.4</ele></trkpt>
    <trkpt lat="48.357745" lon="-4.556720"><ele>37.2</ele></trkpt>
    <trkpt lat="48.356987" lon="-4.557573"><ele>36.6</ele></trkpt>
    <trkpt lat="48.356809" lon="-4.557916"><ele>34.8</ele></trkpt>
    <trkpt lat="48.356626" lon="-4.558123"><ele>34.8</ele></trkpt>
    <trkpt lat="48.356224" lon="-4.558382"><ele>35.4</ele></trkpt>
    <trkpt lat="48.355690" lon="-4.558631"><ele>33.0</ele></trkpt>
    <trkpt lat="48.355409" lon="-4.558865"><ele>31.4</ele></trkpt>
    <trkpt lat="48.355398" lon="-4.558958"><ele>31.0</ele></trkpt>
    <trkpt lat="48.355433" lon="-4.559055"><ele>30.6</ele></trkpt>
    <trkpt lat="48.355707" lon="-4.559160"><ele>27.2</ele></trkpt>
    <trkpt lat="48.355734" lon="-4.559366"><ele>24.8</ele></trkpt>
    <trkpt lat="48.355902" lon="-4.559492"><ele>24.2</ele></trkpt>
    <trkpt lat="48.356367" lon="-4.560245"><ele>26.8</ele></trkpt>
    <trkpt lat="48.356531" lon="-4.560751"><ele>27.4</ele></trkpt>
    <trkpt lat="48.356537" lon="-4.561095"><ele>26.2</ele></trkpt>
    <trkpt lat="48.356455" lon="-4.561675"><ele>23.6</ele></trkpt>
    <trkpt lat="48.356448" lon="-4.562146"><ele>23.0</ele></trkpt>
    <trkpt lat="48.356471" lon="-4.562254"><ele>23.4</ele></trkpt>
    <trkpt lat="48.356554" lon="-4.562356"><ele>24.4</ele></trkpt>
    <trkpt lat="48.356738" lon="-4.563208"><ele>27.0</ele></trkpt>
    <trkpt lat="48.356712" lon="-4.563324"><ele>26.4</ele></trkpt>
    <trkpt lat="48.356564" lon="-4.563641"><ele>25.0</ele></trkpt>
    <trkpt lat="48.356581" lon="-4.563958"><ele>26.0</ele></trkpt>
    <trkpt lat="48.356534" lon="-4.564187"><ele>25.6</ele></trkpt>
    <trkpt lat="48.356399" lon="-4.564454"><ele>25.0</ele></trkpt>
    <trkpt lat="48.356309" lon="-4.565009"><ele>23.8</ele></trkpt>
    <trkpt lat="48.356035" lon="-4.565505"><ele>20.8</ele></trkpt>
    <trkpt lat="48.355846" lon="-4.565635"><ele>21.2</ele></trkpt>
    <trkpt lat="48.355627" lon="-4.565956"><ele>19.0</ele></trkpt>
    <trkpt lat="48.355307" lon="-4.566574"><ele>16.2</ele></trkpt>
    <trkpt lat="48.355154" lon="-4.566960"><ele>17.0</ele></trkpt>
    <trkpt lat="48.355147" lon="-4.567188"><ele>18.4</ele></trkpt>
    <trkpt lat="48.355188" lon="-4.567342"><ele>19.0</ele></trkpt>
    <trkpt lat="48.355158" lon="-4.567453"><ele>19.2</ele></trkpt>
    <trkpt lat="48.354765" lon="-4.567234"><ele>15.2</ele></trkpt>
    <trkpt lat="48.354589" lon="-4.567219"><ele>13.6</ele></trkpt>
    <trkpt lat="48.354252" lon="-4.567331"><ele>12.2</ele></trkpt>
    <trkpt lat="48.353892" lon="-4.567130"><ele>10.2</ele></trkpt>
    <trkpt lat="48.353779" lon="-4.567111"><ele>9.8</ele></trkpt>
    <trkpt lat="48.353596" lon="-4.567177"><ele>9.8</ele></trkpt>
    <trkpt lat="48.353211" lon="-4.567548"><ele>12.2</ele></trkpt>
    <trkpt lat="48.352997" lon="-4.567606"><ele>14.0</ele></trkpt>
    <trkpt lat="48.352994" lon="-4.567716"><ele>15.2</ele></trkpt>
    <trkpt lat="48.353111" lon="-4.568244"><ele>22.4</ele></trkpt>
    <trkpt lat="48.353058" lon="-4.568507"><ele>25.6</ele></trkpt>
    <trkpt lat="48.352522" lon="-4.569117"><ele>24.6</ele></trkpt>
    <trkpt lat="48.351973" lon="-4.569381"><ele>15.2</ele></trkpt>
    <trkpt lat="48.351930" lon="-4.569491"><ele>13.8</ele></trkpt>
    <trkpt lat="48.351892" lon="-4.569817"><ele>11.2</ele></trkpt>
    <trkpt lat="48.351799" lon="-4.570059"><ele>9.2</ele></trkpt>
    <trkpt lat="48.351720" lon="-4.570153"><ele>8.8</ele></trkpt>
    <trkpt lat="48.351664" lon="-4.570335"><ele>10.2</ele></trkpt>
    <trkpt lat="48.351648" lon="-4.570620"><ele>12.8</ele></trkpt>
    <trkpt lat="48.351699" lon="-4.571156"><ele>18.4</ele></trkpt>
    <trkpt lat="48.351815" lon="-4.571823"><ele>23.4</ele></trkpt>
    <trkpt lat="48.351884" lon="-4.571967"><ele>25.2</ele></trkpt>
    <trkpt lat="48.351635" lon="-4.571922"><ele>27.0</ele></trkpt>
    <trkpt lat="48.351382" lon="-4.571989"><ele>27.4</ele></trkpt>
    <trkpt lat="48.351101" lon="-4.572353"><ele>31.2</ele></trkpt>
    <trkpt lat="48.350952" lon="-4.572398"><ele>32.0</ele></trkpt>
    <trkpt lat="48.350846" lon="-4.572391"><ele>32.4</ele></trkpt>
    <trkpt lat="48.350725" lon="-4.572320"><ele>32.8</ele></trkpt>
    <trkpt lat="48.350403" lon="-4.571851"><ele>32.2</ele></trkpt>
    <trkpt lat="48.350343" lon="-4.571807"><ele>32.0</ele></trkpt>
    <trkpt lat="48.350131" lon="-4.571904"><ele>32.6</ele></trkpt>
    <trkpt lat="48.350064" lon="-4.572013"><ele>33.8</ele></trkpt>
    <trkpt lat="48.350156" lon="-4.572145"><ele>36.4</ele></trkpt>
    <trkpt lat="48.350179" lon="-4.572254"><ele>37.6</ele></trkpt>
    <trkpt lat="48.350172" lon="-4.572379"><ele>38.8</ele></trkpt>
    <trkpt lat="48.350093" lon="-4.572513"><ele>40.6</ele></trkpt>
    <trkpt lat="48.350069" lon="-4.572625"><ele>41.6</ele></trkpt>
    <trkpt lat="48.350157" lon="-4.572978"><ele>43.0</ele></trkpt>
    <trkpt lat="48.350041" lon="-4.573207"><ele>41.8</ele></trkpt>
    <trkpt lat="48.349983" lon="-4.573601"><ele>40.6</ele></trkpt>
    <trkpt lat="48.349967" lon="-4.573985"><ele>40.2</ele></trkpt>
    <trkpt lat="48.349770" lon="-4.575380"><ele>36.2</ele></trkpt>
    <trkpt lat="48.349757" lon="-4.575786"><ele>35.6</ele></trkpt>
    <trkpt lat="48.349631" lon="-4.576657"><ele>34.6</ele></trkpt>
    <trkpt lat="48.349667" lon="-4.577512"><ele>38.2</ele></trkpt>
    <trkpt lat="48.349480" lon="-4.578814"><ele>35.8</ele></trkpt>
    <trkpt lat="48.349321" lon="-4.579388"><ele>35.6</ele></trkpt>
    <trkpt lat="48.349260" lon="-4.579888"><ele>36.8</ele></trkpt>
    <trkpt lat="48.349083" lon="-4.580497"><ele>37.4</ele></trkpt>
    <trkpt lat="48.348842" lon="-4.580914"><ele>35.6</ele></trkpt>
    <trkpt lat="48.348667" lon="-4.581511"><ele>33.8</ele></trkpt>
    <trkpt lat="48.348561" lon="-4.582243"><ele>31.8</ele></trkpt>
    <trkpt lat="48.348523" lon="-4.582854"><ele>32.2</ele></trkpt>
    <trkpt lat="48.348434" lon="-4.583408"><ele>29.2</ele></trkpt>
    <trkpt lat="48.348376" lon="-4.583627"><ele>27.2</ele></trkpt>
    <trkpt lat="48.348303" lon="-4.583770"><ele>25.6</ele></trkpt>
    <trkpt lat="48.348079" lon="-4.584688"><ele>17.8</ele></trkpt>
    <trkpt lat="48.348280" lon="-4.584970"><ele>23.8</ele></trkpt>
    <trkpt lat="48.348517" lon="-4.585550"><ele>26.4</ele></trkpt>
    <trkpt lat="48.348706" lon="-4.586147"><ele>17.0</ele></trkpt>
    <trkpt lat="48.348775" lon="-4.586222"><ele>14.4</ele></trkpt>
    <trkpt lat="48.348804" lon="-4.586355"><ele>12.4</ele></trkpt>
    <trkpt lat="48.348933" lon="-4.586534"><ele>9.8</ele></trkpt>
    <trkpt lat="48.348914" lon="-4.586619"><ele>8.8</ele></trkpt>
    <trkpt lat="48.348791" lon="-4.586802"><ele>7.2</ele></trkpt>
    <trkpt lat="48.348754" lon="-4.587065"><ele>7.0</ele></trkpt>
    <trkpt lat="48.348776" lon="-4.587197"><ele>7.4</ele></trkpt>
    <trkpt lat="48.348955" lon="-4.587425"><ele>13.6</ele></trkpt>
    <trkpt lat="48.348901" lon="-4.587458"><ele>15.8</ele></trkpt>
    <trkpt lat="48.348939" lon="-4.587511"><ele>17.4</ele></trkpt>
    <trkpt lat="48.348914" lon="-4.587638"><ele>21.4</ele></trkpt>
    <trkpt lat="48.349081" lon="-4.587722"><ele>26.2</ele></trkpt>
    <trkpt lat="48.349503" lon="-4.587762"><ele>32.0</ele></trkpt>
    <trkpt lat="48.349753" lon="-4.587902"><ele>33.8</ele></trkpt>
    <trkpt lat="48.349829" lon="-4.588038"><ele>35.0</ele></trkpt>
    <trkpt lat="48.349987" lon="-4.588612"><ele>39.0</ele></trkpt>
    <trkpt lat="48.349968" lon="-4.588847"><ele>40.8</ele></trkpt>
    <trkpt lat="48.349838" lon="-4.589029"><ele>44.6</ele></trkpt>
    <trkpt lat="48.349651" lon="-4.589156"><ele>48.8</ele></trkpt>
    <trkpt lat="48.349536" lon="-4.589417"><ele>51.4</ele></trkpt>
    <trkpt lat="48.349382" lon="-4.589597"><ele>52.8</ele></trkpt>
    <trkpt lat="48.348526" lon="-4.589346"><ele>55.8</ele></trkpt>
    <trkpt lat="48.348428" lon="-4.589393"><ele>56.2</ele></trkpt>
    <trkpt lat="48.348096" lon="-4.589704"><ele>57.6</ele></trkpt>
    <trkpt lat="48.348067" lon="-4.589674"><ele>57.6</ele></trkpt>
    <trkpt lat="48.348034" lon="-4.589450"><ele>57.4</ele></trkpt>
    <trkpt lat="48.347949" lon="-4.589343"><ele>57.4</ele></trkpt>
    <trkpt lat="48.347518" lon="-4.589032"><ele>58.2</ele></trkpt>
    <trkpt lat="48.347167" lon="-4.588973"><ele>56.6</ele></trkpt>
    <trkpt lat="48.346802" lon="-4.589312"><ele>48.8</ele></trkpt>
    <trkpt lat="48.346262" lon="-4.590312"><ele>47.0</ele></trkpt>
    <trkpt lat="48.345675" lon="-4.591036"><ele>47.6</ele></trkpt>
    <trkpt lat="48.345437" lon="-4.591699"><ele>48.8</ele></trkpt>
    <trkpt lat="48.345315" lon="-4.592233"><ele>50.6</ele></trkpt>
    <trkpt lat="48.345086" lon="-4.592816"><ele>51.4</ele></trkpt>
    <trkpt lat="48.345031" lon="-4.593051"><ele>51.4</ele></trkpt>
    <trkpt lat="48.344953" lon="-4.593621"><ele>53.2</ele></trkpt>
    <trkpt lat="48.345005" lon="-4.593876"><ele>56.4</ele></trkpt>
    <trkpt lat="48.344994" lon="-4.594190"><ele>58.0</ele></trkpt>
    <trkpt lat="48.344918" lon="-4.594385"><ele>57.8</ele></trkpt>
    <trkpt lat="48.344930" lon="-4.594566"><ele>57.2</ele></trkpt>
    <trkpt lat="48.344892" lon="-4.594934"><ele>54.2</ele></trkpt>
    <trkpt lat="48.344677" lon="-4.595412"><ele>51.4</ele></trkpt>
    <trkpt lat="48.344464" lon="-4.596412"><ele>40.6</ele></trkpt>
    <trkpt lat="48.344084" lon="-4.596958"><ele>22.6</ele></trkpt>
    <trkpt lat="48.344089" lon="-4.597175"><ele>18.8</ele></trkpt>
    <trkpt lat="48.344137" lon="-4.597244"><ele>17.6</ele></trkpt>
    <trkpt lat="48.344205" lon="-4.597728"><ele>20.6</ele></trkpt>
    <trkpt lat="48.344273" lon="-4.597830"><ele>23.0</ele></trkpt>
    <trkpt lat="48.343489" lon="-4.597876"><ele>27.0</ele></trkpt>
    <trkpt lat="48.342973" lon="-4.598438"><ele>32.6</ele></trkpt>
    <trkpt lat="48.342848" lon="-4.598662"><ele>36.2</ele></trkpt>
    <trkpt lat="48.342187" lon="-4.599534"><ele>36.4</ele></trkpt>
    <trkpt lat="48.341843" lon="-4.600243"><ele>41.8</ele></trkpt>
    <trkpt lat="48.341748" lon="-4.600651"><ele>42.2</ele></trkpt>
    <trkpt lat="48.341641" lon="-4.600945"><ele>37.2</ele></trkpt>
    <trkpt lat="48.341703" lon="-4.601487"><ele>39.0</ele></trkpt>
    <trkpt lat="48.341677" lon="-4.601885"><ele>39.4</ele></trkpt>
    <trkpt lat="48.341637" lon="-4.602071"><ele>39.6</ele></trkpt>
    <trkpt lat="48.341422" lon="-4.602532"><ele>41.0</ele></trkpt>
    <trkpt lat="48.341240" lon="-4.602819"><ele>40.2</ele></trkpt>
    <trkpt lat="48.341089" lon="-4.603453"><ele>41.6</ele></trkpt>
    <trkpt lat="48.340902" lon="-4.603783"><ele>42.0</ele></trkpt>
    <trkpt lat="48.340747" lon="-4.603943"><ele>39.6</ele></trkpt>
    <trkpt lat="48.340564" lon="-4.604251"><ele>34.8</ele></trkpt>
    <trkpt lat="48.340350" lon="-4.604797"><ele>34.4</ele></trkpt>
    <trkpt lat="48.340214" lon="-4.605017"><ele>35.2</ele></trkpt>
    <trkpt lat="48.340106" lon="-4.605313"><ele>33.2</ele></trkpt>
    <trkpt lat="48.339916" lon="-4.605456"><ele>29.2</ele></trkpt>
    <trkpt lat="48.339661" lon="-4.605452"><ele>24.8</ele></trkpt>
    <trkpt lat="48.339480" lon="-4.605618"><ele>22.2</ele></trkpt>
    <trkpt lat="48.339399" lon="-4.605808"><ele>22.2</ele></trkpt>
    <trkpt lat="48.339234" lon="-4.606400"><ele>25.6</ele></trkpt>
    <trkpt lat="48.339202" lon="-4.606853"><ele>34.4</ele></trkpt>
    <trkpt lat="48.339049" lon="-4.607015"><ele>35.4</ele></trkpt>
    <trkpt lat="48.339061" lon="-4.607124"><ele>36.0</ele></trkpt>
    <trkpt lat="48.339138" lon="-4.607208"><ele>38.2</ele></trkpt>
    <trkpt lat="48.339168" lon="-4.607190"><ele>39.2</ele></trkpt>
    <trkpt lat="48.339175" lon="-4.607238"><ele>39.8</ele></trkpt>
    <trkpt lat="48.338930" lon="-4.607957"><ele>36.8</ele></trkpt>
    <trkpt lat="48.338892" lon="-4.608265"><ele>37.8</ele></trkpt>
    <trkpt lat="48.338756" lon="-4.608827"><ele>39.0</ele></trkpt>
    <trkpt lat="48.338830" lon="-4.609016"><ele>38.8</ele></trkpt>
    <trkpt lat="48.338917" lon="-4.609606"><ele>40.2</ele></trkpt>
    <trkpt lat="48.339059" lon="-4.610248"><ele>39.0</ele></trkpt>
    <trkpt lat="48.339151" lon="-4.610535"><ele>37.0</ele></trkpt>
    <trkpt lat="48.339210" lon="-4.610970"><ele>34.4</ele></trkpt>
    <trkpt lat="48.339358" lon="-4.611242"><ele>31.0</ele></trkpt>
    <trkpt lat="48.339385" lon="-4.611458"><ele>30.4</ele></trkpt>
    <trkpt lat="48.339030" lon="-4.612128"><ele>31.0</ele></trkpt>
    <trkpt lat="48.338826" lon="-4.612375"><ele>30.0</ele></trkpt>
    <trkpt lat="48.338751" lon="-4.612529"><ele>29.4</ele></trkpt>
    <trkpt lat="48.338688" lon="-4.612827"><ele>28.8</ele></trkpt>
    <trkpt lat="48.338661" lon="-4.613410"><ele>31.0</ele></trkpt>
    <trkpt lat="48.338622" lon="-4.613495"><ele>31.2</ele></trkpt>
    <trkpt lat="48.338638" lon="-4.613776"><ele>29.4</ele></trkpt>
    <trkpt lat="48.338587" lon="-4.613992"><ele>27.2</ele></trkpt>
    <trkpt lat="48.338405" lon="-4.614274"><ele>24.6</ele></trkpt>
    <trkpt lat="48.338169" lon="-4.614512"><ele>22.2</ele></trkpt>
    <trkpt lat="48.338052" lon="-4.614575"><ele>20.8</ele></trkpt>
    <trkpt lat="48.337803" lon="-4.614401"><ele>17.6</ele></trkpt>
    <trkpt lat="48.337431" lon="-4.614460"><ele>9.6</ele></trkpt>
    <trkpt lat="48.337208" lon="-4.614257"><ele>7.2</ele></trkpt>
    <trkpt lat="48.337035" lon="-4.614176"><ele>7.0</ele></trkpt>
    <trkpt lat="48.336960" lon="-4.614194"><ele>7.0</ele></trkpt>
    <trkpt lat="48.336766" lon="-4.614356"><ele>7.2</ele></trkpt>
    <trkpt lat="48.336500" lon="-4.614337"><ele>7.4</ele></trkpt>
    <trkpt lat="48.336506" lon="-4.614394"><ele>7.4</ele></trkpt>
    <trkpt lat="48.336534" lon="-4.614403"><ele>7.4</ele></trkpt>
    <trkpt lat="48.336652" lon="-4.614297"><ele>7.4</ele></trkpt>
    <trkpt lat="48.336802" lon="-4.614308"><ele>7.4</ele></trkpt>
    <trkpt lat="48.337081" lon="-4.614187"><ele>7.6</ele></trkpt>
    <trkpt lat="48.337494" lon="-4.614433"><ele>9.2</ele></trkpt>
    <trkpt lat="48.337879" lon="-4.614395"><ele>16.6</ele></trkpt>
    <trkpt lat="48.337991" lon="-4.614510"><ele>18.4</ele></trkpt>
    <trkpt lat="48.338100" lon="-4.614550"><ele>20.2</ele></trkpt>
    <trkpt lat="48.338404" lon="-4.614280"><ele>23.8</ele></trkpt>
    <trkpt lat="48.338643" lon="-4.613950"><ele>27.8</ele></trkpt>
    <trkpt lat="48.338720" lon="-4.613743"><ele>30.8</ele></trkpt>
    <trkpt lat="48.338762" lon="-4.613729"><ele>31.8</ele></trkpt>
    <trkpt lat="48.338865" lon="-4.613955"><ele>34.2</ele></trkpt>
    <trkpt lat="48.338928" lon="-4.614298"><ele>33.4</ele></trkpt>
    <trkpt lat="48.338692" lon="-4.614681"><ele>26.4</ele></trkpt>
    <trkpt lat="48.338680" lon="-4.614785"><ele>25.4</ele></trkpt>
    <trkpt lat="48.339079" lon="-4.615186"><ele>18.0</ele></trkpt>
    <trkpt lat="48.339171" lon="-4.615249"><ele>16.0</ele></trkpt>
    <trkpt lat="48.339388" lon="-4.615264"><ele>12.4</ele></trkpt>
    <trkpt lat="48.339511" lon="-4.615328"><ele>10.8</ele></trkpt>
    <trkpt lat="48.339847" lon="-4.615388"><ele>9.0</ele></trkpt>
    <trkpt lat="48.340279" lon="-4.615352"><ele>14.0</ele></trkpt>
    <trkpt lat="48.340768" lon="-4.615510"><ele>27.6</ele></trkpt>
    <trkpt lat="48.340419" lon="-4.615720"><ele>31.6</ele></trkpt>
    <trkpt lat="48.340256" lon="-4.615911"><ele>35.2</ele></trkpt>
    <trkpt lat="48.340088" lon="-4.616153"><ele>37.6</ele></trkpt>
    <trkpt lat="48.339848" lon="-4.616611"><ele>39.4</ele></trkpt>
    <trkpt lat="48.339632" lon="-4.616870"><ele>35.6</ele></trkpt>
    <trkpt lat="48.339537" lon="-4.617128"><ele>33.6</ele></trkpt>
    <trkpt lat="48.339397" lon="-4.617673"><ele>29.6</ele></trkpt>
    <trkpt lat="48.339357" lon="-4.617963"><ele>28.6</ele></trkpt>
    <trkpt lat="48.339376" lon="-4.618556"><ele>28.4</ele></trkpt>
    <trkpt lat="48.339502" lon="-4.619035"><ele>28.2</ele></trkpt>
    <trkpt lat="48.339434" lon="-4.619206"><ele>24.8</ele></trkpt>
    <trkpt lat="48.339423" lon="-4.619637"><ele>23.6</ele></trkpt>
    <trkpt lat="48.339315" lon="-4.620137"><ele>25.4</ele></trkpt>
    <trkpt lat="48.339316" lon="-4.620529"><ele>29.8</ele></trkpt>
    <trkpt lat="48.339222" lon="-4.621412"><ele>33.2</ele></trkpt>
    <trkpt lat="48.339306" lon="-4.622064"><ele>33.2</ele></trkpt>
    <trkpt lat="48.339430" lon="-4.622337"><ele>37.4</ele></trkpt>
    <trkpt lat="48.339492" lon="-4.623004"><ele>36.4</ele></trkpt>
    <trkpt lat="48.339463" lon="-4.623215"><ele>35.0</ele></trkpt>
    <trkpt lat="48.339471" lon="-4.623538"><ele>31.4</ele></trkpt>
    <trkpt lat="48.339334" lon="-4.623765"><ele>30.2</ele></trkpt>
    <trkpt lat="48.339308" lon="-4.623878"><ele>30.8</ele></trkpt>
    <trkpt lat="48.339321" lon="-4.623965"><ele>31.4</ele></trkpt>
    <trkpt lat="48.339425" lon="-4.624077"><ele>32.2</ele></trkpt>
    <trkpt lat="48.339597" lon="-4.624140"><ele>33.0</ele></trkpt>
    <trkpt lat="48.340409" lon="-4.624104"><ele>38.0</ele></trkpt>
    <trkpt lat="48.340641" lon="-4.624245"><ele>39.4</ele></trkpt>
    <trkpt lat="48.340799" lon="-4.624450"><ele>40.0</ele></trkpt>
    <trkpt lat="48.340798" lon="-4.624786"><ele>40.8</ele></trkpt>
    <trkpt lat="48.340941" lon="-4.625157"><ele>43.4</ele></trkpt>
    <trkpt lat="48.341008" lon="-4.625794"><ele>46.4</ele></trkpt>
    <trkpt lat="48.341209" lon="-4.626341"><ele>50.6</ele></trkpt>
    <trkpt lat="48.341357" lon="-4.626514"><ele>52.4</ele></trkpt>
    <trkpt lat="48.342034" lon="-4.626839"><ele>54.0</ele></trkpt>
    <trkpt lat="48.342158" lon="-4.626982"><ele>54.4</ele></trkpt>
    <trkpt lat="48.342163" lon="-4.627493"><ele>55.8</ele></trkpt>
    <trkpt lat="48.342121" lon="-4.627608"><ele>56.2</ele></trkpt>
    <trkpt lat="48.341577" lon="-4.627754"><ele>58.4</ele></trkpt>
    <trkpt lat="48.341459" lon="-4.627864"><ele>59.4</ele></trkpt>
    <trkpt lat="48.341486" lon="-4.628197"><ele>59.8</ele></trkpt>
    <trkpt lat="48.341444" lon="-4.628936"><ele>59.0</ele></trkpt>
    <trkpt lat="48.341406" lon="-4.629015"><ele>58.8</ele></trkpt>
    <trkpt lat="48.341239" lon="-4.629131"><ele>58.2</ele></trkpt>
    <trkpt lat="48.341186" lon="-4.629300"><ele>57.4</ele></trkpt>
    <trkpt lat="48.341239" lon="-4.629550"><ele>56.4</ele></trkpt>
    <trkpt lat="48.341426" lon="-4.630047"><ele>54.6</ele></trkpt>
    <trkpt lat="48.341477" lon="-4.630344"><ele>53.0</ele></trkpt>
    <trkpt lat="48.341475" lon="-4.630500"><ele>52.4</ele></trkpt>
    <trkpt lat="48.341437" lon="-4.630590"><ele>52.2</ele></trkpt>
    <trkpt lat="48.341369" lon="-4.630643"><ele>51.8</ele></trkpt>
    <trkpt lat="48.341160" lon="-4.630609"><ele>51.8</ele></trkpt>
    <trkpt lat="48.341115" lon="-4.630689"><ele>52.2</ele></trkpt>
    <trkpt lat="48.341112" lon="-4.630789"><ele>52.8</ele></trkpt>
    <trkpt lat="48.341187" lon="-4.630876"><ele>53.6</ele></trkpt>
    <trkpt lat="48.341328" lon="-4.630943"><ele>53.8</ele></trkpt>
    <trkpt lat="48.341613" lon="-4.630798"><ele>49.2</ele></trkpt>
    <trkpt lat="48.341831" lon="-4.630753"><ele>46.6</ele></trkpt>
    <trkpt lat="48.342162" lon="-4.630831"><ele>46.0</ele></trkpt>
    <trkpt lat="48.342243" lon="-4.630942"><ele>46.2</ele></trkpt>
    <trkpt lat="48.342252" lon="-4.631238"><ele>45.2</ele></trkpt>
    <trkpt lat="48.342402" lon="-4.631473"><ele>42.4</ele></trkpt>
    <trkpt lat="48.342612" lon="-4.631626"><ele>36.6</ele></trkpt>
    <trkpt lat="48.342783" lon="-4.631658"><ele>30.0</ele></trkpt>
    <trkpt lat="48.343034" lon="-4.631904"><ele>24.4</ele></trkpt>
    <trkpt lat="48.343526" lon="-4.632061"><ele>21.8</ele></trkpt>
    <trkpt lat="48.343699" lon="-4.632320"><ele>17.6</ele></trkpt>
    <trkpt lat="48.343976" lon="-4.632336"><ele>13.8</ele></trkpt>
    <trkpt lat="48.344120" lon="-4.632474"><ele>12.4</ele></trkpt>
    <trkpt lat="48.344141" lon="-4.632559"><ele>12.6</ele></trkpt>
    <trkpt lat="48.344110" lon="-4.632660"><ele>13.2</ele></trkpt>
    <trkpt lat="48.343966" lon="-4.632723"><ele>15.2</ele></trkpt>
    <trkpt lat="48.343859" lon="-4.632843"><ele>17.4</ele></trkpt>
    <trkpt lat="48.343511" lon="-4.633455"><ele>25.6</ele></trkpt>
    <trkpt lat="48.342931" lon="-4.633928"><ele>27.6</ele></trkpt>
    <trkpt lat="48.342878" lon="-4.634200"><ele>30.6</ele></trkpt>
    <trkpt lat="48.342884" lon="-4.634327"><ele>32.0</ele></trkpt>
    <trkpt lat="48.343000" lon="-4.634597"><ele>35.6</ele></trkpt>
    <trkpt lat="48.343050" lon="-4.634975"><ele>36.4</ele></trkpt>
    <trkpt lat="48.343232" lon="-4.635172"><ele>35.8</ele></trkpt>
    <trkpt lat="48.343382" lon="-4.635474"><ele>35.2</ele></trkpt>
    <trkpt lat="48.343441" lon="-4.635501"><ele>35.2</ele></trkpt>
    <trkpt lat="48.343578" lon="-4.635431"><ele>35.2</ele></trkpt>
    <trkpt lat="48.343643" lon="-4.635450"><ele>35.2</ele></trkpt>
    <trkpt lat="48.343859" lon="-4.635777"><ele>34.4</ele></trkpt>
    <trkpt lat="48.344066" lon="-4.635838"><ele>34.2</ele></trkpt>
    <trkpt lat="48.344176" lon="-4.635965"><ele>34.2</ele></trkpt>
    <trkpt lat="48.344207" lon="-4.636100"><ele>33.8</ele></trkpt>
    <trkpt lat="48.344183" lon="-4.636535"><ele>33.2</ele></trkpt>
    <trkpt lat="48.344247" lon="-4.636556"><ele>33.4</ele></trkpt>
    <trkpt lat="48.344486" lon="-4.636385"><ele>34.2</ele></trkpt>
    <trkpt lat="48.344597" lon="-4.636401"><ele>34.4</ele></trkpt>
    <trkpt lat="48.344737" lon="-4.636760"><ele>34.8</ele></trkpt>
    <trkpt lat="48.344784" lon="-4.637330"><ele>34.2</ele></trkpt>
    <trkpt lat="48.344926" lon="-4.637752"><ele>32.6</ele></trkpt>
    <trkpt lat="48.344978" lon="-4.638276"><ele>32.6</ele></trkpt>
    <trkpt lat="48.345095" lon="-4.638509"><ele>32.4</ele></trkpt>
    <trkpt lat="48.345169" lon="-4.638588"><ele>32.4</ele></trkpt>
    <trkpt lat="48.345330" lon="-4.638641"><ele>32.2</ele></trkpt>
    <trkpt lat="48.345489" lon="-4.638629"><ele>31.6</ele></trkpt>
    <trkpt lat="48.345753" lon="-4.638804"><ele>29.2</ele></trkpt>
    <trkpt lat="48.345781" lon="-4.638936"><ele>27.8</ele></trkpt>
    <trkpt lat="48.345766" lon="-4.639487"><ele>22.6</ele></trkpt>
    <trkpt lat="48.345881" lon="-4.639810"><ele>20.8</ele></trkpt>
    <trkpt lat="48.345973" lon="-4.639877"><ele>20.2</ele></trkpt>
    <trkpt lat="48.346379" lon="-4.639894"><ele>17.0</ele></trkpt>
    <trkpt lat="48.346865" lon="-4.639764"><ele>12.8</ele></trkpt>
    <trkpt lat="48.347233" lon="-4.639771"><ele>10.8</ele></trkpt>
    <trkpt lat="48.347627" lon="-4.639617"><ele>12.2</ele></trkpt>
    <trkpt lat="48.347673" lon="-4.639670"><ele>12.0</ele></trkpt>
    <trkpt lat="48.347656" lon="-4.639808"><ele>11.6</ele></trkpt>
    <trkpt lat="48.347449" lon="-4.639995"><ele>11.0</ele></trkpt>
    <trkpt lat="48.347259" lon="-4.640317"><ele>12.2</ele></trkpt>
    <trkpt lat="48.347135" lon="-4.640404"><ele>12.6</ele></trkpt>
    <trkpt lat="48.346829" lon="-4.640513"><ele>11.4</ele></trkpt>
    <trkpt lat="48.346231" lon="-4.641066"><ele>16.4</ele></trkpt>
    <trkpt lat="48.345682" lon="-4.641828"><ele>21.0</ele></trkpt>
    <trkpt lat="48.345550" lon="-4.642206"><ele>23.6</ele></trkpt>
    <trkpt lat="48.345520" lon="-4.642751"><ele>29.2</ele></trkpt>
    <trkpt lat="48.345612" lon="-4.642788"><ele>30.8</ele></trkpt>
    <trkpt lat="48.345765" lon="-4.642713"><ele>33.4</ele></trkpt>
    <trkpt lat="48.345906" lon="-4.642829"><ele>37.2</ele></trkpt>
    <trkpt lat="48.346227" lon="-4.643240"><ele>45.4</ele></trkpt>
    <trkpt lat="48.346259" lon="-4.643479"><ele>46.8</ele></trkpt>
    <trkpt lat="48.346253" lon="-4.643731"><ele>47.8</ele></trkpt>
    <trkpt lat="48.346178" lon="-4.643936"><ele>48.6</ele></trkpt>
    <trkpt lat="48.345817" lon="-4.644033"><ele>46.4</ele></trkpt>
    <trkpt lat="48.345696" lon="-4.644158"><ele>44.8</ele></trkpt>
    <trkpt lat="48.345642" lon="-4.644333"><ele>43.8</ele></trkpt>
    <trkpt lat="48.345710" lon="-4.645006"><ele>45.0</ele></trkpt>
    <trkpt lat="48.345594" lon="-4.645477"><ele>48.0</ele></trkpt>
    <trkpt lat="48.345733" lon="-4.645792"><ele>48.6</ele></trkpt>
    <trkpt lat="48.345670" lon="-4.646180"><ele>45.2</ele></trkpt>
    <trkpt lat="48.345872" lon="-4.646804"><ele>44.6</ele></trkpt>
    <trkpt lat="48.345896" lon="-4.646999"><ele>44.6</ele></trkpt>
    <trkpt lat="48.345880" lon="-4.647097"><ele>44.4</ele></trkpt>
    <trkpt lat="48.345670" lon="-4.647512"><ele>39.8</ele></trkpt>
    <trkpt lat="48.345618" lon="-4.647779"><ele>37.4</ele></trkpt>
    <trkpt lat="48.345736" lon="-4.648374"><ele>37.0</ele></trkpt>
    <trkpt lat="48.345993" lon="-4.648795"><ele>41.4</ele></trkpt>
    <trkpt lat="48.346164" lon="-4.649450"><ele>45.6</ele></trkpt>
    <trkpt lat="48.346138" lon="-4.649601"><ele>44.2</ele></trkpt>
    <trkpt lat="48.345989" lon="-4.649958"><ele>37.6</ele></trkpt>
    <trkpt lat="48.345798" lon="-4.650302"><ele>34.6</ele></trkpt>
    <trkpt lat="48.345766" lon="-4.650455"><ele>34.0</ele></trkpt>
    <trkpt lat="48.345772" lon="-4.650608"><ele>33.4</ele></trkpt>
    <trkpt lat="48.345811" lon="-4.650708"><ele>33.2</ele></trkpt>
    <trkpt lat="48.345963" lon="-4.650900"><ele>33.0</ele></trkpt>
    <trkpt lat="48.346061" lon="-4.651294"><ele>33.4</ele></trkpt>
    <trkpt lat="48.346358" lon="-4.651649"><ele>37.2</ele></trkpt>
    <trkpt lat="48.346375" lon="-4.651765"><ele>38.0</ele></trkpt>
    <trkpt lat="48.346351" lon="-4.651963"><ele>38.6</ele></trkpt>
    <trkpt lat="48.346429" lon="-4.652186"><ele>39.2</ele></trkpt>
    <trkpt lat="48.346569" lon="-4.652369"><ele>39.0</ele></trkpt>
    <trkpt lat="48.346859" lon="-4.652634"><ele>41.8</ele></trkpt>
    <trkpt lat="48.347049" lon="-4.653186"><ele>44.0</ele></trkpt>
    <trkpt lat="48.347279" lon="-4.653462"><ele>44.0</ele></trkpt>
    <trkpt lat="48.347644" lon="-4.653749"><ele>43.0</ele></trkpt>
    <trkpt lat="48.347939" lon="-4.653790"><ele>41.2</ele></trkpt>
    <trkpt lat="48.348211" lon="-4.653675"><ele>38.2</ele></trkpt>
    <trkpt lat="48.348454" lon="-4.654044"><ele>34.0</ele></trkpt>
    <trkpt lat="48.348597" lon="-4.654564"><ele>34.2</ele></trkpt>
    <trkpt lat="48.348820" lon="-4.654839"><ele>30.4</ele></trkpt>
    <trkpt lat="48.348945" lon="-4.655173"><ele>29.8</ele></trkpt>
    <trkpt lat="48.348960" lon="-4.655468"><ele>33.2</ele></trkpt>
    <trkpt lat="48.348859" lon="-4.655894"><ele>35.0</ele></trkpt>
    <trkpt lat="48.348905" lon="-4.656307"><ele>35.0</ele></trkpt>
    <trkpt lat="48.348960" lon="-4.656407"><ele>35.0</ele></trkpt>
    <trkpt lat="48.349207" lon="-4.656543"><ele>34.4</ele></trkpt>
    <trkpt lat="48.349314" lon="-4.656674"><ele>34.8</ele></trkpt>
    <trkpt lat="48.349393" lon="-4.656870"><ele>35.0</ele></trkpt>
    <trkpt lat="48.349482" lon="-4.657528"><ele>29.0</ele></trkpt>
    <trkpt lat="48.349517" lon="-4.657628"><ele>28.0</ele></trkpt>
    <trkpt lat="48.349712" lon="-4.657826"><ele>25.8</ele></trkpt>
    <trkpt lat="48.349865" lon="-4.658094"><ele>25.0</ele></trkpt>
    <trkpt lat="48.350005" lon="-4.658187"><ele>24.0</ele></trkpt>
    <trkpt lat="48.350109" lon="-4.658315"><ele>22.8</ele></trkpt>
    <trkpt lat="48.350365" lon="-4.658775"><ele>22.0</ele></trkpt>
    <trkpt lat="48.350488" lon="-4.659092"><ele>19.6</ele></trkpt>
    <trkpt lat="48.350429" lon="-4.659488"><ele>16.8</ele></trkpt>
    <trkpt lat="48.350438" lon="-4.659617"><ele>16.2</ele></trkpt>
    <trkpt lat="48.350762" lon="-4.660095"><ele>18.0</ele></trkpt>
    <trkpt lat="48.350774" lon="-4.660492"><ele>19.6</ele></trkpt>
    <trkpt lat="48.351012" lon="-4.660859"><ele>22.2</ele></trkpt>
    <trkpt lat="48.350940" lon="-4.661096"><ele>22.4</ele></trkpt>
    <trkpt lat="48.350946" lon="-4.661520"><ele>22.6</ele></trkpt>
    <trkpt lat="48.351023" lon="-4.661565"><ele>24.6</ele></trkpt>
    <trkpt lat="48.351106" lon="-4.661525"><ele>26.0</ele></trkpt>
    <trkpt lat="48.351226" lon="-4.661949"><ele>28.0</ele></trkpt>
    <trkpt lat="48.351388" lon="-4.662229"><ele>28.2</ele></trkpt>
    <trkpt lat="48.351570" lon="-4.662448"><ele>29.2</ele></trkpt>
    <trkpt lat="48.351734" lon="-4.662721"><ele>29.2</ele></trkpt>
    <trkpt lat="48.351850" lon="-4.662783"><ele>29.4</ele></trkpt>
    <trkpt lat="48.352661" lon="-4.662869"><ele>31.4</ele></trkpt>
    <trkpt lat="48.353597" lon="-4.662733"><ele>38.0</ele></trkpt>
    <trkpt lat="48.353807" lon="-4.662731"><ele>38.0</ele></trkpt>
    <trkpt lat="48.353897" lon="-4.662774"><ele>37.4</ele></trkpt>
    <trkpt lat="48.353884" lon="-4.662908"><ele>37.0</ele></trkpt>
    <trkpt lat="48.353655" lon="-4.663499"><ele>34.8</ele></trkpt>
    <trkpt lat="48.353412" lon="-4.664290"><ele>32.4</ele></trkpt>
    <trkpt lat="48.353256" lon="-4.664924"><ele>28.2</ele></trkpt>
    <trkpt lat="48.353119" lon="-4.666831"><ele>16.6</ele></trkpt>
    <trkpt lat="48.353109" lon="-4.667556"><ele>15.2</ele></trkpt>
    <trkpt lat="48.353040" lon="-4.668755"><ele>15.8</ele></trkpt>
    <trkpt lat="48.353036" lon="-4.669142"><ele>15.8</ele></trkpt>
    <trkpt lat="48.353075" lon="-4.669552"><ele>15.8</ele></trkpt>
    <trkpt lat="48.353210" lon="-4.670209"><ele>15.8</ele></trkpt>
    <trkpt lat="48.353513" lon="-4.671057"><ele>13.6</ele></trkpt>
    <trkpt lat="48.353536" lon="-4.671456"><ele>13.4</ele></trkpt>
    <trkpt lat="48.353584" lon="-4.671639"><ele>13.4</ele></trkpt>
    <trkpt lat="48.353819" lon="-4.672183"><ele>11.6</ele></trkpt>
    <trkpt lat="48.354020" lon="-4.672393"><ele>12.0</ele></trkpt>
    <trkpt lat="48.354286" lon="-4.672584"><ele>11.8</ele></trkpt>
    <trkpt lat="48.354439" lon="-4.672916"><ele>10.6</ele></trkpt>
    <trkpt lat="48.354592" lon="-4.673414"><ele>10.4</ele></trkpt>
    <trkpt lat="48.354633" lon="-4.673713"><ele>9.4</ele></trkpt>
    <trkpt lat="48.354633" lon="-4.674736"><ele>9.6</ele></trkpt>
    <trkpt lat="48.354788" lon="-4.675345"><ele>11.8</ele></trkpt>
    <trkpt lat="48.354893" lon="-4.676225"><ele>14.0</ele></trkpt>
    <trkpt lat="48.355051" lon="-4.676571"><ele>15.4</ele></trkpt>
    <trkpt lat="48.355158" lon="-4.677034"><ele>16.4</ele></trkpt>
    <trkpt lat="48.355167" lon="-4.677394"><ele>16.2</ele></trkpt>
    <trkpt lat="48.355212" lon="-4.677615"><ele>16.4</ele></trkpt>
    <trkpt lat="48.355363" lon="-4.678039"><ele>16.6</ele></trkpt>
    <trkpt lat="48.355695" lon="-4.678389"><ele>10.6</ele></trkpt>
    <trkpt lat="48.355874" lon="-4.678646"><ele>8.6</ele></trkpt>
    <trkpt lat="48.355964" lon="-4.678853"><ele>7.6</ele></trkpt>
    <trkpt lat="48.356031" lon="-4.678899"><ele>7.4</ele></trkpt>
    <trkpt lat="48.356171" lon="-4.678899"><ele>6.6</ele></trkpt>
    <trkpt lat="48.356091" lon="-4.680251"><ele>8.8</ele></trkpt>
    <trkpt lat="48.356016" lon="-4.680639"><ele>10.2</ele></trkpt>
    <trkpt lat="48.356014" lon="-4.680800"><ele>12.0</ele></trkpt>
    <trkpt lat="48.355901" lon="-4.680994"><ele>15.0</ele></trkpt>
    <trkpt lat="48.355743" lon="-4.681193"><ele>16.4</ele></trkpt>
    <trkpt lat="48.355627" lon="-4.681273"><ele>16.8</ele></trkpt>
    <trkpt lat="48.355367" lon="-4.681628"><ele>18.0</ele></trkpt>
    <trkpt lat="48.355315" lon="-4.681764"><ele>18.8</ele></trkpt>
    <trkpt lat="48.355300" lon="-4.682023"><ele>21.2</ele></trkpt>
    <trkpt lat="48.355265" lon="-4.682113"><ele>22.0</ele></trkpt>
    <trkpt lat="48.355000" lon="-4.682346"><ele>22.0</ele></trkpt>
    <trkpt lat="48.354769" lon="-4.682257"><ele>21.0</ele></trkpt>
    <trkpt lat="48.354644" lon="-4.682392"><ele>21.6</ele></trkpt>
    <trkpt lat="48.354595" lon="-4.682535"><ele>22.8</ele></trkpt>
    <trkpt lat="48.354595" lon="-4.683696"><ele>29.0</ele></trkpt>
    <trkpt lat="48.354550" lon="-4.684632"><ele>29.8</ele></trkpt>
    <trkpt lat="48.354608" lon="-4.685464"><ele>31.4</ele></trkpt>
    <trkpt lat="48.354557" lon="-4.686198"><ele>30.0</ele></trkpt>
    <trkpt lat="48.354554" lon="-4.687270"><ele>24.6</ele></trkpt>
    <trkpt lat="48.354779" lon="-4.688187"><ele>19.8</ele></trkpt>
    <trkpt lat="48.354750" lon="-4.688817"><ele>17.0</ele></trkpt>
    <trkpt lat="48.354770" lon="-4.689010"><ele>16.2</ele></trkpt>
    <trkpt lat="48.354856" lon="-4.689308"><ele>14.8</ele></trkpt>
    <trkpt lat="48.354824" lon="-4.689403"><ele>14.0</ele></trkpt>
    <trkpt lat="48.354674" lon="-4.689575"><ele>11.8</ele></trkpt>
    <trkpt lat="48.354629" lon="-4.689811"><ele>10.2</ele></trkpt>
    <trkpt lat="48.354677" lon="-4.690068"><ele>8.8</ele></trkpt>
    <trkpt lat="48.354853" lon="-4.690371"><ele>7.4</ele></trkpt>
    <trkpt lat="48.354883" lon="-4.691094"><ele>10.2</ele></trkpt>
    <trkpt lat="48.354898" lon="-4.691153"><ele>11.0</ele></trkpt>
    <trkpt lat="48.354926" lon="-4.691152"><ele>11.8</ele></trkpt>
    <trkpt lat="48.354626" lon="-4.691467"><ele>16.0</ele></trkpt>
    <trkpt lat="48.354511" lon="-4.691650"><ele>16.6</ele></trkpt>
    <trkpt lat="48.354452" lon="-4.691876"><ele>18.0</ele></trkpt>
    <trkpt lat="48.354327" lon="-4.692050"><ele>17.4</ele></trkpt>
    <trkpt lat="48.354082" lon="-4.692145"><ele>15.8</ele></trkpt>
    <trkpt lat="48.353878" lon="-4.692335"><ele>16.2</ele></trkpt>
    <trkpt lat="48.353694" lon="-4.692808"><ele>18.2</ele></trkpt>
    <trkpt lat="48.353623" lon="-4.693235"><ele>16.4</ele></trkpt>
    <trkpt lat="48.353597" lon="-4.693615"><ele>16.2</ele></trkpt>
    <trkpt lat="48.353640" lon="-4.694258"><ele>16.4</ele></trkpt>
    <trkpt lat="48.353581" lon="-4.694723"><ele>16.2</ele></trkpt>
    <trkpt lat="48.353377" lon="-4.695146"><ele>18.0</ele></trkpt>
    <trkpt lat="48.353350" lon="-4.695371"><ele>20.0</ele></trkpt>
    <trkpt lat="48.353125" lon="-4.695650"><ele>17.2</ele></trkpt>
    <trkpt lat="48.353011" lon="-4.695737"><ele>15.0</ele></trkpt>
    <trkpt lat="48.352833" lon="-4.696025"><ele>12.4</ele></trkpt>
    <trkpt lat="48.352707" lon="-4.696346"><ele>12.2</ele></trkpt>
    <trkpt lat="48.352504" lon="-4.696537"><ele>13.8</ele></trkpt>
    <trkpt lat="48.352429" lon="-4.696692"><ele>14.2</ele></trkpt>
    <trkpt lat="48.352413" lon="-4.696911"><ele>15.2</ele></trkpt>
    <trkpt lat="48.352760" lon="-4.697427"><ele>22.8</ele></trkpt>
    <trkpt lat="48.352419" lon="-4.698114"><ele>21.0</ele></trkpt>
    <trkpt lat="48.352389" lon="-4.698255"><ele>20.8</ele></trkpt>
    <trkpt lat="48.352396" lon="-4.698568"><ele>21.4</ele></trkpt>
    <trkpt lat="48.352535" lon="-4.699103"><ele>23.0</ele></trkpt>
    <trkpt lat="48.352504" lon="-4.699477"><ele>22.2</ele></trkpt>
    <trkpt lat="48.352458" lon="-4.699560"><ele>21.8</ele></trkpt>
    <trkpt lat="48.352361" lon="-4.699625"><ele>20.6</ele></trkpt>
    <trkpt lat="48.352165" lon="-4.699616"><ele>18.0</ele></trkpt>
    <trkpt lat="48.351805" lon="-4.699696"><ele>14.2</ele></trkpt>
    <trkpt lat="48.351596" lon="-4.699650"><ele>12.2</ele></trkpt>
    <trkpt lat="48.351404" lon="-4.699663"><ele>10.4</ele></trkpt>
    <trkpt lat="48.350926" lon="-4.699814"><ele>6.4</ele></trkpt>
    <trkpt lat="48.350526" lon="-4.700370"><ele>7.0</ele></trkpt>
    <trkpt lat="48.350144" lon="-4.701057"><ele>7.4</ele></trkpt>
    <trkpt lat="48.349726" lon="-4.701484"><ele>7.2</ele></trkpt>
    <trkpt lat="48.349376" lon="-4.701880"><ele>7.8</ele></trkpt>
    <trkpt lat="48.349185" lon="-4.702152"><ele>8.2</ele></trkpt>
    <trkpt lat="48.348754" lon="-4.702607"><ele>8.4</ele></trkpt>
    <trkpt lat="48.348711" lon="-4.702691"><ele>8.4</ele></trkpt>
    <trkpt lat="48.348701" lon="-4.702815"><ele>8.0</ele></trkpt>
    <trkpt lat="48.348381" lon="-4.703263"><ele>8.6</ele></trkpt>
    <trkpt lat="48.348147" lon="-4.703521"><ele>8.2</ele></trkpt>
    <trkpt lat="48.347936" lon="-4.703626"><ele>6.6</ele></trkpt>
    <trkpt lat="48.347486" lon="-4.703974"><ele>6.0</ele></trkpt>
    <trkpt lat="48.347106" lon="-4.704197"><ele>6.4</ele></trkpt>
    <trkpt lat="48.346805" lon="-4.704253"><ele>5.0</ele></trkpt>
    <trkpt lat="48.346564" lon="-4.704187"><ele>4.8</ele></trkpt>
    <trkpt lat="48.346159" lon="-4.704268"><ele>6.2</ele></trkpt>
    <trkpt lat="48.346081" lon="-4.704318"><ele>6.4</ele></trkpt>
    <trkpt lat="48.345773" lon="-4.704837"><ele>4.8</ele></trkpt>
    <trkpt lat="48.345757" lon="-4.704794"><ele>5.0</ele></trkpt>
    <trkpt lat="48.345794" lon="-4.704727"><ele>4.8</ele></trkpt>
    <trkpt lat="48.345906" lon="-4.704642"><ele>4.8</ele></trkpt>
    <trkpt lat="48.345962" lon="-4.704547"><ele>5.0</ele></trkpt>
    <trkpt lat="48.345994" lon="-4.704229"><ele>5.2</ele></trkpt>
    <trkpt lat="48.346125" lon="-4.704250"><ele>4.8</ele></trkpt>
    <trkpt lat="48.346169" lon="-4.704204"><ele>5.0</ele></trkpt>
    <trkpt lat="48.346308" lon="-4.703445"><ele>5.0</ele></trkpt>
    <trkpt lat="48.346361" lon="-4.703305"><ele>4.6</ele></trkpt>
    <trkpt lat="48.346467" lon="-4.703180"><ele>3.8</ele></trkpt>
    <trkpt lat="48.347141" lon="-4.702694"><ele>2.4</ele></trkpt>
    <trkpt lat="48.347675" lon="-4.702401"><ele>2.4</ele></trkpt>
    <trkpt lat="48.348200" lon="-4.702012"><ele>3.2</ele></trkpt>
    <trkpt lat="48.348838" lon="-4.701690"><ele>2.4</ele></trkpt>
    <trkpt lat="48.349148" lon="-4.701443"><ele>2.2</ele></trkpt>
    <trkpt lat="48.349383" lon="-4.701179"><ele>1.8</ele></trkpt>
    <trkpt lat="48.349746" lon="-4.700905"><ele>2.8</ele></trkpt>
    <trkpt lat="48.349908" lon="-4.700705"><ele>3.2</ele></trkpt>
    <trkpt lat="48.350798" lon="-4.699082"><ele>3.2</ele></trkpt>
    <trkpt lat="48.351338" lon="-4.698181"><ele>1.6</ele></trkpt>
    <trkpt lat="48.351511" lon="-4.697735"><ele>2.4</ele></trkpt>
    <trkpt lat="48.351858" lon="-4.697100"><ele>2.0</ele></trkpt>
    <trkpt lat="48.351976" lon="-4.696787"><ele>1.4</ele></trkpt>
    <trkpt lat="48.352211" lon="-4.696559"><ele>1.8</ele></trkpt>
    <trkpt lat="48.352312" lon="-4.696200"><ele>2.6</ele></trkpt>
    <trkpt lat="48.352787" lon="-4.695660"><ele>3.6</ele></trkpt>
    <trkpt lat="48.352944" lon="-4.695568"><ele>4.2</ele></trkpt>
    <trkpt lat="48.353271" lon="-4.695110"><ele>10.8</ele></trkpt>
    <trkpt lat="48.353567" lon="-4.694767"><ele>14.2</ele></trkpt>
    <trkpt lat="48.353621" lon="-4.694626"><ele>15.2</ele></trkpt>
    <trkpt lat="48.353640" lon="-4.694418"><ele>16.2</ele></trkpt>
    <trkpt lat="48.353664" lon="-4.693780"><ele>18.2</ele></trkpt>
    <trkpt lat="48.353630" lon="-4.693272"><ele>19.4</ele></trkpt>
    <trkpt lat="48.353792" lon="-4.692575"><ele>17.4</ele></trkpt>
    <trkpt lat="48.353972" lon="-4.692207"><ele>15.8</ele></trkpt>
    <trkpt lat="48.354425" lon="-4.691989"><ele>18.2</ele></trkpt>
    <trkpt lat="48.354570" lon="-4.691760"><ele>17.4</ele></trkpt>
    <trkpt lat="48.354631" lon="-4.691580"><ele>16.4</ele></trkpt>
    <trkpt lat="48.354928" lon="-4.691177"><ele>12.2</ele></trkpt>
    <trkpt lat="48.354877" lon="-4.691075"><ele>10.2</ele></trkpt>
    <trkpt lat="48.354846" lon="-4.690318"><ele>7.2</ele></trkpt>
    <trkpt lat="48.354662" lon="-4.689996"><ele>9.2</ele></trkpt>
    <trkpt lat="48.354607" lon="-4.689741"><ele>11.0</ele></trkpt>
    <trkpt lat="48.354643" lon="-4.689563"><ele>12.0</ele></trkpt>
    <trkpt lat="48.354816" lon="-4.689335"><ele>13.8</ele></trkpt>
    <trkpt lat="48.354851" lon="-4.689221"><ele>14.8</ele></trkpt>
    <trkpt lat="48.354758" lon="-4.688764"><ele>17.6</ele></trkpt>
    <trkpt lat="48.354789" lon="-4.688148"><ele>20.0</ele></trkpt>
    <trkpt lat="48.354566" lon="-4.687293"><ele>24.2</ele></trkpt>
    <trkpt lat="48.354632" lon="-4.685326"><ele>31.8</ele></trkpt>
    <trkpt lat="48.354600" lon="-4.685235"><ele>31.4</ele></trkpt>
    <trkpt lat="48.354538" lon="-4.685185"><ele>30.8</ele></trkpt>
    <trkpt lat="48.353975" lon="-4.685238"><ele>25.0</ele></trkpt>
    <trkpt lat="48.353777" lon="-4.685154"><ele>22.2</ele></trkpt>
    <trkpt lat="48.353684" lon="-4.684999"><ele>20.6</ele></trkpt>
    <trkpt lat="48.353631" lon="-4.684653"><ele>19.2</ele></trkpt>
    <trkpt lat="48.353738" lon="-4.684442"><ele>18.6</ele></trkpt>
    <trkpt lat="48.353777" lon="-4.684288"><ele>18.2</ele></trkpt>
    <trkpt lat="48.353887" lon="-4.684215"><ele>18.4</ele></trkpt>
    <trkpt lat="48.353938" lon="-4.684106"><ele>18.4</ele></trkpt>
    <trkpt lat="48.353956" lon="-4.683966"><ele>18.2</ele></trkpt>
    <trkpt lat="48.353915" lon="-4.683594"><ele>17.2</ele></trkpt>
    <trkpt lat="48.354052" lon="-4.683080"><ele>16.4</ele></trkpt>
    <trkpt lat="48.354140" lon="-4.682961"><ele>16.8</ele></trkpt>
    <trkpt lat="48.354324" lon="-4.682877"><ele>19.2</ele></trkpt>
    <trkpt lat="48.354392" lon="-4.682802"><ele>20.4</ele></trkpt>
    <trkpt lat="48.354434" lon="-4.682687"><ele>20.8</ele></trkpt>
    <trkpt lat="48.354438" lon="-4.682453"><ele>20.6</ele></trkpt>
    <trkpt lat="48.354687" lon="-4.682160"><ele>18.4</ele></trkpt>
    <trkpt lat="48.354976" lon="-4.682353"><ele>20.8</ele></trkpt>
    <trkpt lat="48.355105" lon="-4.682311"><ele>21.4</ele></trkpt>
    <trkpt lat="48.355313" lon="-4.682020"><ele>21.8</ele></trkpt>
    <trkpt lat="48.355359" lon="-4.681706"><ele>19.8</ele></trkpt>
    <trkpt lat="48.355441" lon="-4.681494"><ele>18.0</ele></trkpt>
    <trkpt lat="48.355686" lon="-4.681222"><ele>16.0</ele></trkpt>
    <trkpt lat="48.355793" lon="-4.681153"><ele>15.4</ele></trkpt>
    <trkpt lat="48.356023" lon="-4.680867"><ele>14.2</ele></trkpt>
    <trkpt lat="48.356101" lon="-4.680266"><ele>9.4</ele></trkpt>
    <trkpt lat="48.356203" lon="-4.680000"><ele>8.0</ele></trkpt>
    <trkpt lat="48.356249" lon="-4.678998"><ele>7.0</ele></trkpt>
    <trkpt lat="48.356161" lon="-4.678868"><ele>7.4</ele></trkpt>
    <trkpt lat="48.355975" lon="-4.678815"><ele>7.6</ele></trkpt>
    <trkpt lat="48.355770" lon="-4.678434"><ele>10.2</ele></trkpt>
    <trkpt lat="48.355506" lon="-4.678184"><ele>15.4</ele></trkpt>
    <trkpt lat="48.355293" lon="-4.677889"><ele>18.2</ele></trkpt>
    <trkpt lat="48.355171" lon="-4.677398"><ele>17.8</ele></trkpt>
    <trkpt lat="48.355140" lon="-4.676895"><ele>16.0</ele></trkpt>
    <trkpt lat="48.354881" lon="-4.676119"><ele>13.6</ele></trkpt>
    <trkpt lat="48.354830" lon="-4.675599"><ele>12.4</ele></trkpt>
    <trkpt lat="48.354699" lon="-4.674825"><ele>9.6</ele></trkpt>
    <trkpt lat="48.354611" lon="-4.673454"><ele>10.2</ele></trkpt>
    <trkpt lat="48.354429" lon="-4.672897"><ele>11.4</ele></trkpt>
    <trkpt lat="48.354272" lon="-4.672542"><ele>12.0</ele></trkpt>
    <trkpt lat="48.354177" lon="-4.672427"><ele>12.2</ele></trkpt>
    <trkpt lat="48.353825" lon="-4.672162"><ele>12.0</ele></trkpt>
    <trkpt lat="48.353665" lon="-4.671883"><ele>12.2</ele></trkpt>
    <trkpt lat="48.353525" lon="-4.671471"><ele>13.4</ele></trkpt>
    <trkpt lat="48.353467" lon="-4.670960"><ele>14.8</ele></trkpt>
    <trkpt lat="48.352960" lon="-4.669910"><ele>12.8</ele></trkpt>
    <trkpt lat="48.352832" lon="-4.669552"><ele>12.4</ele></trkpt>
    <trkpt lat="48.352732" lon="-4.669050"><ele>13.0</ele></trkpt>
    <trkpt lat="48.352736" lon="-4.668456"><ele>13.0</ele></trkpt>
    <trkpt lat="48.352825" lon="-4.668051"><ele>12.0</ele></trkpt>
    <trkpt lat="48.353039" lon="-4.667849"><ele>13.2</ele></trkpt>
    <trkpt lat="48.353134" lon="-4.667635"><ele>14.6</ele></trkpt>
    <trkpt lat="48.353157" lon="-4.667320"><ele>15.6</ele></trkpt>
    <trkpt lat="48.353140" lon="-4.666831"><ele>16.0</ele></trkpt>
    <trkpt lat="48.353231" lon="-4.666000"><ele>21.8</ele></trkpt>
    <trkpt lat="48.353254" lon="-4.665516"><ele>25.4</ele></trkpt>
    <trkpt lat="48.353433" lon="-4.664301"><ele>32.8</ele></trkpt>
    <trkpt lat="48.353599" lon="-4.663767"><ele>33.6</ele></trkpt>
    <trkpt lat="48.353651" lon="-4.663655"><ele>34.0</ele></trkpt>
    <trkpt lat="48.353813" lon="-4.663474"><ele>35.2</ele></trkpt>
    <trkpt lat="48.354482" lon="-4.661522"><ele>42.8</ele></trkpt>
    <trkpt lat="48.354784" lon="-4.660862"><ele>43.8</ele></trkpt>
    <trkpt lat="48.355135" lon="-4.660370"><ele>45.6</ele></trkpt>
    <trkpt lat="48.355912" lon="-4.659521"><ele>48.0</ele></trkpt>
  </trkseg></trk>
</gpx>
