<?xml version="1.0" encoding="UTF-8"?>
<gpx version="1.1" creator="tcap-parcours" xmlns="http://www.topografix.com/GPX/1/1">
  <metadata><name>gr34-technopole-2</name></metadata>
  <trk><name>gr34-technopole-2</name><trkseg>
    <trkpt lat="48.370200" lon="-4.640616"><ele>60.0</ele></trkpt>
    <trkpt lat="48.369637" lon="-4.642643"><ele>59.8</ele></trkpt>
    <trkpt lat="48.369529" lon="-4.642805"><ele>60.8</ele></trkpt>
    <trkpt lat="48.368451" lon="-4.642805"><ele>66.8</ele></trkpt>
    <trkpt lat="48.366295" lon="-4.642318"><ele>67.6</ele></trkpt>
    <trkpt lat="48.364678" lon="-4.641507"><ele>67.2</ele></trkpt>
    <trkpt lat="48.362522" lon="-4.641345"><ele>55.6</ele></trkpt>
    <trkpt lat="48.361121" lon="-4.641669"><ele>72.2</ele></trkpt>
    <trkpt lat="48.360690" lon="-4.641994"><ele>73.0</ele></trkpt>
    <trkpt lat="48.360367" lon="-4.642481"><ele>71.8</ele></trkpt>
    <trkpt lat="48.360151" lon="-4.642643"><ele>43.9</ele></trkpt>
    <trkpt lat="48.358857" lon="-4.643292"><ele>72.4</ele></trkpt>
    <trkpt lat="48.358534" lon="-4.643292"><ele>41.5</ele></trkpt>
    <trkpt lat="48.357779" lon="-4.644428"><ele>78.8</ele></trkpt>
    <trkpt lat="48.357240" lon="-4.644590"><ele>79.6</ele></trkpt>
    <trkpt lat="48.356809" lon="-4.644428"><ele>79.6</ele></trkpt>
    <trkpt lat="48.356486" lon="-4.644590"><ele>80.2</ele></trkpt>
    <trkpt lat="48.355839" lon="-4.645239"><ele>80.0</ele></trkpt>
    <trkpt lat="48.354545" lon="-4.645888"><ele>75.6</ele></trkpt>
    <trkpt lat="48.354006" lon="-4.645726"><ele>75.8</ele></trkpt>
    <trkpt lat="48.352821" lon="-4.645239"><ele>75.4</ele></trkpt>
    <trkpt lat="48.352390" lon="-4.645239"><ele>76.2</ele></trkpt>
    <trkpt lat="48.351419" lon="-4.645726"><ele>74.8</ele></trkpt>
    <trkpt lat="48.350234" lon="-4.644915"><ele>73.0</ele></trkpt>
    <trkpt lat="48.349371" lon="-4.641832"><ele>59.4</ele></trkpt>
    <trkpt lat="48.349263" lon="-4.640858"><ele>52.6</ele></trkpt>
    <trkpt lat="48.349371" lon="-4.640533"><ele>48.4</ele></trkpt>
    <trkpt lat="48.350018" lon="-4.639722"><ele>41.6</ele></trkpt>
    <trkpt lat="48.350234" lon="-4.639560"><ele>40.4</ele></trkpt>
    <trkpt lat="48.350665" lon="-4.638911"><ele>33.0</ele></trkpt>
    <trkpt lat="48.350665" lon="-4.638749"><ele>29.6</ele></trkpt>
    <trkpt lat="48.350557" lon="-4.638424"><ele>29.6</ele></trkpt>
    <trkpt lat="48.350449" lon="-4.638262"><ele>34.0</ele></trkpt>
    <trkpt lat="48.349910" lon="-4.638099"><ele>34.8</ele></trkpt>
    <trkpt lat="48.347970" lon="-4.638911"><ele>26.4</ele></trkpt>
    <trkpt lat="48.347539" lon="-4.639560"><ele>12.8</ele></trkpt>
    <trkpt lat="48.347215" lon="-4.639722"><ele>10.8</ele></trkpt>
    <trkpt lat="48.345922" lon="-4.639884"><ele>20.4</ele></trkpt>
    <trkpt lat="48.344951" lon="-4.638262"><ele>33.0</ele></trkpt>
    <trkpt lat="48.344951" lon="-4.637775"><ele>34.2</ele></trkpt>
    <trkpt lat="48.344798" lon="-4.637379"><ele>34.8</ele></trkpt>
    <trkpt lat="48.344929" lon="-4.637762"><ele>34.2</ele></trkpt>
    <trkpt lat="48.344978" lon="-4.638326"><ele>33.0</ele></trkpt>
    <trkpt lat="48.345160" lon="-4.638602"><ele>33.0</ele></trkpt>
    <trkpt lat="48.345306" lon="-4.638655"><ele>33.0</ele></trkpt>
    <trkpt lat="48.345490" lon="-4.638646"><ele>32.4</ele></trkpt>
    <trkpt lat="48.345755" lon="-4.638833"><ele>29.0</ele></trkpt>
    <trkpt lat="48.345764" lon="-4.639507"><ele>22.2</ele></trkpt>
    <trkpt lat="48.345815" lon="-4.639708"><ele>21.2</ele></trkpt>
    <trkpt lat="48.345886" lon="-4.639838"><ele>20.4</ele></trkpt>
    <trkpt lat="48.345956" lon="-4.639894"><ele>19.8</ele></trkpt>
    <trkpt lat="48.346346" lon="-4.639891"><ele>16.8</ele></trkpt>
    <trkpt lat="48.346858" lon="-4.639760"><ele>12.8</ele></trkpt>
    <trkpt lat="48.347220" lon="-4.639764"><ele>11.6</ele></trkpt>
    <trkpt lat="48.347629" lon="-4.639616"><ele>13.0</ele></trkpt>
    <trkpt lat="48.347664" lon="-4.639655"><ele>12.8</ele></trkpt>
    <trkpt lat="48.347645" lon="-4.639806"><ele>12.4</ele></trkpt>
    <trkpt lat="48.347487" lon="-4.639927"><ele>12.2</ele></trkpt>
    <trkpt lat="48.347232" lon="-4.640348"><ele>13.0</ele></trkpt>
    <trkpt lat="48.347122" lon="-4.640428"><ele>13.0</ele></trkpt>
    <trkpt lat="48.346828" lon="-4.640536"><ele>11.8</ele></trkpt>
    <trkpt lat="48.346247" lon="-4.641038"><ele>16.2</ele></trkpt>
    <trkpt lat="48.345699" lon="-4.641811"><ele>21.8</ele></trkpt>
    <trkpt lat="48.345544" lon="-4.642210"><ele>24.6</ele></trkpt>
    <trkpt lat="48.345536" lon="-4.642769"><ele>30.0</ele></trkpt>
    <trkpt lat="48.345593" lon="-4.642787"><ele>30.8</ele></trkpt>
    <trkpt lat="48.345789" lon="-4.642723"><ele>35.2</ele></trkpt>
    <trkpt lat="48.346020" lon="-4.642965"><ele>41.2</ele></trkpt>
    <trkpt lat="48.346133" lon="-4.643150"><ele>43.8</ele></trkpt>
    <trkpt lat="48.346238" lon="-4.643232"><ele>46.8</ele></trkpt>
    <trkpt lat="48.346271" lon="-4.643651"><ele>47.4</ele></trkpt>
    <trkpt lat="48.346255" lon="-4.643816"><ele>48.2</ele></trkpt>
    <trkpt lat="48.346194" lon="-4.643944"><ele>48.6</ele></trkpt>
    <trkpt lat="48.345790" lon="-4.644097"><ele>46.4</ele></trkpt>
    <trkpt lat="48.345703" lon="-4.644199"><ele>45.4</ele></trkpt>
    <trkpt lat="48.345653" lon="-4.644353"><ele>44.8</ele></trkpt>
    <trkpt lat="48.345709" lon="-4.645090"><ele>46.6</ele></trkpt>
    <trkpt lat="48.345610" lon="-4.645501"><ele>49.0</ele></trkpt>
    <trkpt lat="48.345736" lon="-4.645814"><ele>49.4</ele></trkpt>
    <trkpt lat="48.345679" lon="-4.646113"><ele>47.2</ele></trkpt>
    <trkpt lat="48.345686" lon="-4.646237"><ele>46.6</ele></trkpt>
    <trkpt lat="48.345872" lon="-4.646794"><ele>46.6</ele></trkpt>
    <trkpt lat="48.345902" lon="-4.646965"><ele>46.0</ele></trkpt>
    <trkpt lat="48.345882" lon="-4.647100"><ele>45.0</ele></trkpt>
    <trkpt lat="48.345666" lon="-4.647540"><ele>40.2</ele></trkpt>
    <trkpt lat="48.345629" lon="-4.647772"><ele>38.8</ele></trkpt>
    <trkpt lat="48.345729" lon="-4.648357"><ele>38.4</ele></trkpt>
    <trkpt lat="48.345997" lon="-4.648827"><ele>41.8</ele></trkpt>
    <trkpt lat="48.346160" lon="-4.649456"><ele>46.4</ele></trkpt>
    <trkpt lat="48.346132" lon="-4.649615"><ele>45.2</ele></trkpt>
    <trkpt lat="48.346043" lon="-4.649799"><ele>42.2</ele></trkpt>
    <trkpt lat="48.345968" lon="-4.650059"><ele>36.8</ele></trkpt>
    <trkpt lat="48.345790" lon="-4.650377"><ele>35.4</ele></trkpt>
    <trkpt lat="48.345780" lon="-4.650626"><ele>35.0</ele></trkpt>
    <trkpt lat="48.345973" lon="-4.650911"><ele>34.6</ele></trkpt>
    <trkpt lat="48.346053" lon="-4.651290"><ele>34.8</ele></trkpt>
    <trkpt lat="48.346344" lon="-4.651630"><ele>37.4</ele></trkpt>
    <trkpt lat="48.346361" lon="-4.651946"><ele>39.4</ele></trkpt>
    <trkpt lat="48.346449" lon="-4.652184"><ele>40.4</ele></trkpt>
    <trkpt lat="48.346569" lon="-4.652373"><ele>40.4</ele></trkpt>
    <trkpt lat="48.346860" lon="-4.652638"><ele>43.0</ele></trkpt>
    <trkpt lat="48.347022" lon="-4.653130"><ele>45.4</ele></trkpt>
    <trkpt lat="48.347228" lon="-4.653439"><ele>45.6</ele></trkpt>
    <trkpt lat="48.347573" lon="-4.653735"><ele>44.8</ele></trkpt>
    <trkpt lat="48.347691" lon="-4.653787"><ele>44.0</ele></trkpt>
    <trkpt lat="48.347971" lon="-4.653776"><ele>41.6</ele></trkpt>
    <trkpt lat="48.348161" lon="-4.653675"><ele>39.6</ele></trkpt>
    <trkpt lat="48.348226" lon="-4.653682"><ele>38.6</ele></trkpt>
    <trkpt lat="48.348476" lon="-4.654062"><ele>35.8</ele></trkpt>
    <trkpt lat="48.348603" lon="-4.654572"><ele>35.8</ele></trkpt>
    <trkpt lat="48.348850" lon="-4.654883"><ele>30.2</ele></trkpt>
    <trkpt lat="48.348938" lon="-4.655155"><ele>31.2</ele></trkpt>
    <trkpt lat="48.348963" lon="-4.655490"><ele>34.4</ele></trkpt>
    <trkpt lat="48.348859" lon="-4.655879"><ele>34.8</ele></trkpt>
    <trkpt lat="48.348909" lon="-4.656320"><ele>35.2</ele></trkpt>
    <trkpt lat="48.348984" lon="-4.656409"><ele>36.0</ele></trkpt>
    <trkpt lat="48.349184" lon="-4.656449"><ele>37.2</ele></trkpt>
    <trkpt lat="48.349263" lon="-4.656510"><ele>37.4</ele></trkpt>
    <trkpt lat="48.349372" lon="-4.656771"><ele>36.8</ele></trkpt>
    <trkpt lat="48.349523" lon="-4.657656"><ele>28.8</ele></trkpt>
    <trkpt lat="48.349704" lon="-4.657818"><ele>27.8</ele></trkpt>
    <trkpt lat="48.349847" lon="-4.658085"><ele>27.0</ele></trkpt>
    <trkpt lat="48.350139" lon="-4.658338"><ele>24.0</ele></trkpt>
    <trkpt lat="48.350328" lon="-4.658678"><ele>24.0</ele></trkpt>
    <trkpt lat="48.350474" lon="-4.659107"><ele>21.8</ele></trkpt>
    <trkpt lat="48.350430" lon="-4.659599"><ele>19.2</ele></trkpt>
    <trkpt lat="48.350726" lon="-4.660053"><ele>20.0</ele></trkpt>
    <trkpt lat="48.350775" lon="-4.660196"><ele>20.4</ele></trkpt>
    <trkpt lat="48.350766" lon="-4.660472"><ele>20.8</ele></trkpt>
    <trkpt lat="48.350971" lon="-4.660724"><ele>22.6</ele></trkpt>
    <trkpt lat="48.351003" lon="-4.660818"><ele>22.8</ele></trkpt>
    <trkpt lat="48.350942" lon="-4.661113"><ele>23.0</ele></trkpt>
    <trkpt lat="48.350935" lon="-4.661514"><ele>22.8</ele></trkpt>
    <trkpt lat="48.351145" lon="-4.661568"><ele>28.8</ele></trkpt>
    <trkpt lat="48.351154" lon="-4.661708"><ele>28.0</ele></trkpt>
    <trkpt lat="48.351240" lon="-4.661955"><ele>27.8</ele></trkpt>
    <trkpt lat="48.351590" lon="-4.662464"><ele>29.2</ele></trkpt>
    <trkpt lat="48.351680" lon="-4.662651"><ele>29.4</ele></trkpt>
    <trkpt lat="48.351823" lon="-4.662768"><ele>29.6</ele></trkpt>
    <trkpt lat="48.352235" lon="-4.662837"><ele>29.4</ele></trkpt>
    <trkpt lat="48.352650" lon="-4.662852"><ele>32.0</ele></trkpt>
    <trkpt lat="48.353746" lon="-4.662718"><ele>38.6</ele></trkpt>
    <trkpt lat="48.353897" lon="-4.662769"><ele>37.8</ele></trkpt>
    <trkpt lat="48.353888" lon="-4.662863"><ele>37.4</ele></trkpt>
    <trkpt lat="48.353430" lon="-4.664222"><ele>32.4</ele></trkpt>
    <trkpt lat="48.353280" lon="-4.664843"><ele>29.2</ele></trkpt>
    <trkpt lat="48.353130" lon="-4.666828"><ele>16.6</ele></trkpt>
    <trkpt lat="48.353108" lon="-4.667670"><ele>15.0</ele></trkpt>
    <trkpt lat="48.353056" lon="-4.667799"><ele>14.8</ele></trkpt>
    <trkpt lat="48.352787" lon="-4.668103"><ele>13.4</ele></trkpt>
    <trkpt lat="48.352694" lon="-4.668411"><ele>12.8</ele></trkpt>
    <trkpt lat="48.352743" lon="-4.669076"><ele>12.8</ele></trkpt>
    <trkpt lat="48.352829" lon="-4.669556"><ele>13.8</ele></trkpt>
    <trkpt lat="48.352958" lon="-4.669964"><ele>13.8</ele></trkpt>
    <trkpt lat="48.353294" lon="-4.670672"><ele>14.4</ele></trkpt>
    <trkpt lat="48.353725" lon="-4.663643"><ele>20.8</ele></trkpt>
    <trkpt lat="48.353772" lon="-4.663589"><ele>20.9</ele></trkpt>
    <trkpt lat="48.353798" lon="-4.663427"><ele>21.0</ele></trkpt>
    <trkpt lat="48.353990" lon="-4.662819"><ele>21.6</ele></trkpt>
    <trkpt lat="48.354373" lon="-4.661736"><ele>22.7</ele></trkpt>
    <trkpt lat="48.354648" lon="-4.661094"><ele>23.4</ele></trkpt>
    <trkpt lat="48.354983" lon="-4.660529"><ele>24.1</ele></trkpt>
    <trkpt lat="48.355842" lon="-4.659593"><ele>25.6</ele></trkpt>
    <trkpt lat="48.356070" lon="-4.659282"><ele>26.0</ele></trkpt>
    <trkpt lat="48.356330" lon="-4.658744"><ele>26.6</ele></trkpt>
    <trkpt lat="48.356434" lon="-4.658434"><ele>26.9</ele></trkpt>
    <trkpt lat="48.356599" lon="-4.657697"><ele>27.6</ele></trkpt>
    <trkpt lat="48.356854" lon="-4.655284"><ele>29.8</ele></trkpt>
    <trkpt lat="48.356901" lon="-4.655012"><ele>30.1</ele></trkpt>
    <trkpt lat="48.357149" lon="-4.654191"><ele>30.9</ele></trkpt>
    <trkpt lat="48.357293" lon="-4.653593"><ele>31.5</ele></trkpt>
    <trkpt lat="48.357433" lon="-4.652878"><ele>32.1</ele></trkpt>
    <trkpt lat="48.357520" lon="-4.652238"><ele>32.7</ele></trkpt>
    <trkpt lat="48.357534" lon="-4.651725"><ele>33.2</ele></trkpt>
    <trkpt lat="48.357503" lon="-4.651211"><ele>33.6</ele></trkpt>
    <trkpt lat="48.357301" lon="-4.649430"><ele>35.3</ele></trkpt>
    <trkpt lat="48.357109" lon="-4.647135"><ele>37.4</ele></trkpt>
    <trkpt lat="48.357129" lon="-4.646487"><ele>38.0</ele></trkpt>
    <trkpt lat="48.357358" lon="-4.645533"><ele>38.9</ele></trkpt>
    <trkpt lat="48.357580" lon="-4.644784"><ele>39.6</ele></trkpt>
    <trkpt lat="48.358104" lon="-4.643767"><ele>40.8</ele></trkpt>
    <trkpt lat="48.358501" lon="-4.643328"><ele>41.5</ele></trkpt>
    <trkpt lat="48.358670" lon="-4.643296"><ele>41.7</ele></trkpt>
    <trkpt lat="48.358849" lon="-4.643398"><ele>42.0</ele></trkpt>
    <trkpt lat="48.358905" lon="-4.643380"><ele>42.0</ele></trkpt>
    <trkpt lat="48.359070" lon="-4.643171"><ele>42.3</ele></trkpt>
    <trkpt lat="48.359287" lon="-4.643041"><ele>42.7</ele></trkpt>
    <trkpt lat="48.359569" lon="-4.642935"><ele>43.0</ele></trkpt>
    <trkpt lat="48.359795" lon="-4.642916"><ele>43.4</ele></trkpt>
    <trkpt lat="48.359834" lon="-4.642826"><ele>43.5</ele></trkpt>
    <trkpt lat="48.360118" lon="-4.642688"><ele>43.9</ele></trkpt>
    <trkpt lat="48.360407" lon="-4.642384"><ele>44.3</ele></trkpt>
    <trkpt lat="48.360705" lon="-4.641904"><ele>44.9</ele></trkpt>
    <trkpt lat="48.360957" lon="-4.641668"><ele>45.3</ele></trkpt>
    <trkpt lat="48.361326" lon="-4.641506"><ele>45.9</ele></trkpt>
    <trkpt lat="48.362677" lon="-4.641264"><ele>47.7</ele></trkpt>
    <trkpt lat="48.364358" lon="-4.641438"><ele>50.0</ele></trkpt>
    <trkpt lat="48.364894" lon="-4.641536"><ele>50.7</ele></trkpt>
    <trkpt lat="48.365733" lon="-4.642117"><ele>52.0</ele></trkpt>
    <trkpt lat="48.365877" lon="-4.642094"><ele>52.2</ele></trkpt>
    <trkpt lat="48.366020" lon="-4.642173"><ele>52.4</ele></trkpt>
    <trkpt lat="48.366187" lon="-4.642360"><ele>52.7</ele></trkpt>
    <trkpt lat="48.366306" lon="-4.642290"><ele>52.9</ele></trkpt>
    <trkpt lat="48.366459" lon="-4.642299"><ele>53.1</ele></trkpt>
    <trkpt lat="48.367933" lon="-4.642792"><ele>55.1</ele></trkpt>
    <trkpt lat="48.368053" lon="-4.642923"><ele>55.4</ele></trkpt>
    <trkpt lat="48.368170" lon="-4.642880"><ele>55.5</ele></trkpt>
    <trkpt lat="48.369570" lon="-4.642986"><ele>57.4</ele></trkpt>
    <trkpt lat="48.369676" lon="-4.643024"><ele>57.6</ele></trkpt>
    <trkpt lat="48.369713" lon="-4.642868"><ele>57.7</ele></trkpt>
    <trkpt lat="48.369709" lon="-4.642669"><ele>57.9</ele></trkpt>
    <trkpt lat="48.369649" lon="-4.642287"><ele>58.3</ele></trkpt>
    <trkpt lat="48.369744" lon="-4.642250"><ele>58.4</ele></trkpt>
    <trkpt lat="48.370200" lon="-4.640616"><ele>60.0</ele></trkpt>
  </trkseg></trk>
</gpx>
