<?xml version="1.0" encoding="UTF-8"?>
<gpx version="1.1" creator="tcap-parcours" xmlns="http://www.topografix.com/GPX/1/1">
  <metadata><name>Grand tour de Brest – Boucle 29 km</name></metadata>
  <trk><name>Grand tour de Brest – Boucle 29 km</name><trkseg>
    <trkpt lat="48.389966" lon="-4.497463"><ele>24.4</ele></trkpt>
    <trkpt lat="48.389626" lon="-4.496785"><ele>22.2</ele></trkpt>
    <trkpt lat="48.389554" lon="-4.496737"><ele>22.2</ele></trkpt>
    <trkpt lat="48.389321" lon="-4.496736"><ele>23.0</ele></trkpt>
    <trkpt lat="48.389156" lon="-4.496806"><ele>23.6</ele></trkpt>
    <trkpt lat="48.388301" lon="-4.497649"><ele>24.4</ele></trkpt>
    <trkpt lat="48.388294" lon="-4.497739"><ele>23.6</ele></trkpt>
    <trkpt lat="48.388526" lon="-4.498151"><ele>22.6</ele></trkpt>
    <trkpt lat="48.388987" lon="-4.499221"><ele>23.0</ele></trkpt>
    <trkpt lat="48.389108" lon="-4.499557"><ele>24.0</ele></trkpt>
    <trkpt lat="48.389066" lon="-4.499650"><ele>23.8</ele></trkpt>
    <trkpt lat="48.387460" lon="-4.500276"><ele>24.8</ele></trkpt>
    <trkpt lat="48.387244" lon="-4.500450"><ele>27.8</ele></trkpt>
    <trkpt lat="48.386930" lon="-4.500589"><ele>32.6</ele></trkpt>
    <trkpt lat="48.386641" lon="-4.500578"><ele>34.4</ele></trkpt>
    <trkpt lat="48.386400" lon="-4.500645"><ele>35.4</ele></trkpt>
    <trkpt lat="48.386170" lon="-4.500793"><ele>36.6</ele></trkpt>
    <trkpt lat="48.386065" lon="-4.500777"><ele>36.6</ele></trkpt>
    <trkpt lat="48.386025" lon="-4.500702"><ele>36.4</ele></trkpt>
    <trkpt lat="48.386007" lon="-4.500443"><ele>35.2</ele></trkpt>
    <trkpt lat="48.385906" lon="-4.499941"><ele>32.0</ele></trkpt>
    <trkpt lat="48.385820" lon="-4.499272"><ele>28.8</ele></trkpt>
    <trkpt lat="48.385622" lon="-4.498424"><ele>21.8</ele></trkpt>
    <trkpt lat="48.384734" lon="-4.498283"><ele>15.0</ele></trkpt>
    <trkpt lat="48.384524" lon="-4.497981"><ele>13.8</ele></trkpt>
    <trkpt lat="48.384326" lon="-4.497857"><ele>12.6</ele></trkpt>
    <trkpt lat="48.384259" lon="-4.497599"><ele>8.2</ele></trkpt>
    <trkpt lat="48.384133" lon="-4.497599"><ele>7.0</ele></trkpt>
    <trkpt lat="48.384103" lon="-4.497715"><ele>8.2</ele></trkpt>
    <trkpt lat="48.384154" lon="-4.497791"><ele>10.6</ele></trkpt>
    <trkpt lat="48.384195" lon="-4.497707"><ele>11.6</ele></trkpt>
    <trkpt lat="48.384223" lon="-4.497008"><ele>10.0</ele></trkpt>
    <trkpt lat="48.384202" lon="-4.496845"><ele>8.6</ele></trkpt>
    <trkpt lat="48.384247" lon="-4.496700"><ele>7.2</ele></trkpt>
    <trkpt lat="48.384332" lon="-4.495963"><ele>7.0</ele></trkpt>
    <trkpt lat="48.384340" lon="-4.495585"><ele>8.2</ele></trkpt>
    <trkpt lat="48.384385" lon="-4.495372"><ele>9.0</ele></trkpt>
    <trkpt lat="48.384425" lon="-4.494693"><ele>14.6</ele></trkpt>
    <trkpt lat="48.384415" lon="-4.494549"><ele>16.4</ele></trkpt>
    <trkpt lat="48.384132" lon="-4.494259"><ele>20.2</ele></trkpt>
    <trkpt lat="48.383724" lon="-4.493504"><ele>23.2</ele></trkpt>
    <trkpt lat="48.383579" lon="-4.493349"><ele>23.4</ele></trkpt>
    <trkpt lat="48.383328" lon="-4.493179"><ele>23.0</ele></trkpt>
    <trkpt lat="48.382859" lon="-4.492466"><ele>21.8</ele></trkpt>
    <trkpt lat="48.382309" lon="-4.491769"><ele>21.0</ele></trkpt>
    <trkpt lat="48.382192" lon="-4.491723"><ele>20.4</ele></trkpt>
    <trkpt lat="48.381906" lon="-4.491902"><ele>18.8</ele></trkpt>
    <trkpt lat="48.381777" lon="-4.491929"><ele>18.2</ele></trkpt>
    <trkpt lat="48.381618" lon="-4.491722"><ele>17.8</ele></trkpt>
    <trkpt lat="48.381447" lon="-4.491582"><ele>17.6</ele></trkpt>
    <trkpt lat="48.381466" lon="-4.491403"><ele>17.8</ele></trkpt>
    <trkpt lat="48.381389" lon="-4.491129"><ele>18.0</ele></trkpt>
    <trkpt lat="48.381508" lon="-4.490675"><ele>16.0</ele></trkpt>
    <trkpt lat="48.381563" lon="-4.490638"><ele>15.0</ele></trkpt>
    <trkpt lat="48.381767" lon="-4.490713"><ele>13.4</ele></trkpt>
    <trkpt lat="48.381915" lon="-4.490838"><ele>13.4</ele></trkpt>
    <trkpt lat="48.381986" lon="-4.490831"><ele>13.6</ele></trkpt>
    <trkpt lat="48.382152" lon="-4.490419"><ele>13.0</ele></trkpt>
    <trkpt lat="48.382229" lon="-4.489989"><ele>6.4</ele></trkpt>
    <trkpt lat="48.382188" lon="-4.489958"><ele>6.2</ele></trkpt>
    <trkpt lat="48.382015" lon="-4.490041"><ele>5.8</ele></trkpt>
    <trkpt lat="48.381861" lon="-4.490059"><ele>5.4</ele></trkpt>
    <trkpt lat="48.381725" lon="-4.490022"><ele>5.0</ele></trkpt>
    <trkpt lat="48.381611" lon="-4.489934"><ele>5.0</ele></trkpt>
    <trkpt lat="48.381148" lon="-4.489125"><ele>4.4</ele></trkpt>
    <trkpt lat="48.380864" lon="-4.488829"><ele>4.0</ele></trkpt>
    <trkpt lat="48.380626" lon="-4.488453"><ele>3.2</ele></trkpt>
    <trkpt lat="48.380314" lon="-4.488138"><ele>3.4</ele></trkpt>
    <trkpt lat="48.380061" lon="-4.487746"><ele>3.6</ele></trkpt>
    <trkpt lat="48.379761" lon="-4.487375"><ele>3.4</ele></trkpt>
    <trkpt lat="48.379514" lon="-4.486962"><ele>3.4</ele></trkpt>
    <trkpt lat="48.379268" lon="-4.486711"><ele>3.8</ele></trkpt>
    <trkpt lat="48.378958" lon="-4.486246"><ele>3.6</ele></trkpt>
    <trkpt lat="48.378981" lon="-4.486159"><ele>3.6</ele></trkpt>
    <trkpt lat="48.379167" lon="-4.485931"><ele>3.6</ele></trkpt>
    <trkpt lat="48.379228" lon="-4.485892"><ele>3.4</ele></trkpt>
    <trkpt lat="48.379274" lon="-4.485915"><ele>3.4</ele></trkpt>
    <trkpt lat="48.379488" lon="-4.486324"><ele>3.4</ele></trkpt>
    <trkpt lat="48.379759" lon="-4.486650"><ele>3.6</ele></trkpt>
    <trkpt lat="48.379986" lon="-4.486999"><ele>4.0</ele></trkpt>
    <trkpt lat="48.380882" lon="-4.488096"><ele>4.2</ele></trkpt>
    <trkpt lat="48.381045" lon="-4.488350"><ele>4.2</ele></trkpt>
    <trkpt lat="48.381134" lon="-4.488383"><ele>4.2</ele></trkpt>
    <trkpt lat="48.381511" lon="-4.487799"><ele>3.6</ele></trkpt>
    <trkpt lat="48.381760" lon="-4.487313"><ele>3.4</ele></trkpt>
    <trkpt lat="48.382112" lon="-4.486156"><ele>3.4</ele></trkpt>
    <trkpt lat="48.382554" lon="-4.484949"><ele>3.8</ele></trkpt>
    <trkpt lat="48.382780" lon="-4.483870"><ele>3.4</ele></trkpt>
    <trkpt lat="48.382757" lon="-4.483775"><ele>3.6</ele></trkpt>
    <trkpt lat="48.382609" lon="-4.483651"><ele>3.6</ele></trkpt>
    <trkpt lat="48.381254" lon="-4.483013"><ele>4.4</ele></trkpt>
    <trkpt lat="48.381233" lon="-4.482909"><ele>4.2</ele></trkpt>
    <trkpt lat="48.381313" lon="-4.482709"><ele>4.2</ele></trkpt>
    <trkpt lat="48.381449" lon="-4.482664"><ele>4.0</ele></trkpt>
    <trkpt lat="48.381686" lon="-4.482833"><ele>4.0</ele></trkpt>
    <trkpt lat="48.381745" lon="-4.482945"><ele>4.0</ele></trkpt>
    <trkpt lat="48.381782" lon="-4.483279"><ele>3.6</ele></trkpt>
    <trkpt lat="48.382735" lon="-4.483698"><ele>3.4</ele></trkpt>
    <trkpt lat="48.382808" lon="-4.483667"><ele>3.4</ele></trkpt>
    <trkpt lat="48.382857" lon="-4.483555"><ele>3.4</ele></trkpt>
    <trkpt lat="48.383026" lon="-4.482680"><ele>4.0</ele></trkpt>
    <trkpt lat="48.383192" lon="-4.482494"><ele>4.6</ele></trkpt>
    <trkpt lat="48.383321" lon="-4.482281"><ele>2.8</ele></trkpt>
    <trkpt lat="48.383515" lon="-4.482242"><ele>2.2</ele></trkpt>
    <trkpt lat="48.383371" lon="-4.482370"><ele>7.6</ele></trkpt>
    <trkpt lat="48.383507" lon="-4.482319"><ele>3.6</ele></trkpt>
    <trkpt lat="48.383616" lon="-4.482451"><ele>1.4</ele></trkpt>
    <trkpt lat="48.383641" lon="-4.482365"><ele>3.0</ele></trkpt>
    <trkpt lat="48.383671" lon="-4.482678"><ele>4.6</ele></trkpt>
    <trkpt lat="48.383938" lon="-4.482860"><ele>5.8</ele></trkpt>
    <trkpt lat="48.384129" lon="-4.482921"><ele>6.2</ele></trkpt>
    <trkpt lat="48.384201" lon="-4.482906"><ele>6.2</ele></trkpt>
    <trkpt lat="48.384333" lon="-4.482566"><ele>6.2</ele></trkpt>
    <trkpt lat="48.384395" lon="-4.482530"><ele>6.4</ele></trkpt>
    <trkpt lat="48.384702" lon="-4.482745"><ele>9.6</ele></trkpt>
    <trkpt lat="48.384938" lon="-4.482985"><ele>14.4</ele></trkpt>
    <trkpt lat="48.384978" lon="-4.481869"><ele>7.2</ele></trkpt>
    <trkpt lat="48.385096" lon="-4.481592"><ele>7.2</ele></trkpt>
    <trkpt lat="48.385170" lon="-4.481314"><ele>7.0</ele></trkpt>
    <trkpt lat="48.385385" lon="-4.481211"><ele>7.8</ele></trkpt>
    <trkpt lat="48.385401" lon="-4.481242"><ele>9.4</ele></trkpt>
    <trkpt lat="48.385363" lon="-4.481345"><ele>11.4</ele></trkpt>
    <trkpt lat="48.385436" lon="-4.481433"><ele>14.2</ele></trkpt>
    <trkpt lat="48.385615" lon="-4.481476"><ele>19.2</ele></trkpt>
    <trkpt lat="48.385670" lon="-4.481536"><ele>21.8</ele></trkpt>
    <trkpt lat="48.385897" lon="-4.481502"><ele>25.0</ele></trkpt>
    <trkpt lat="48.386121" lon="-4.481734"><ele>30.0</ele></trkpt>
    <trkpt lat="48.386214" lon="-4.481764"><ele>31.2</ele></trkpt>
    <trkpt lat="48.386427" lon="-4.481499"><ele>31.8</ele></trkpt>
    <trkpt lat="48.386758" lon="-4.480408"><ele>26.6</ele></trkpt>
    <trkpt lat="48.386985" lon="-4.480606"><ele>34.2</ele></trkpt>
    <trkpt lat="48.387277" lon="-4.480769"><ele>42.0</ele></trkpt>
    <trkpt lat="48.387305" lon="-4.480821"><ele>43.4</ele></trkpt>
    <trkpt lat="48.387328" lon="-4.480746"><ele>44.2</ele></trkpt>
    <trkpt lat="48.387245" lon="-4.481306"><ele>41.4</ele></trkpt>
    <trkpt lat="48.387199" lon="-4.481385"><ele>40.8</ele></trkpt>
    <trkpt lat="48.387062" lon="-4.481341"><ele>40.4</ele></trkpt>
    <trkpt lat="48.386999" lon="-4.481371"><ele>40.4</ele></trkpt>
    <trkpt lat="48.386901" lon="-4.481552"><ele>40.0</ele></trkpt>
    <trkpt lat="48.386876" lon="-4.481727"><ele>39.4</ele></trkpt>
    <trkpt lat="48.386700" lon="-4.481671"><ele>38.4</ele></trkpt>
    <trkpt lat="48.386653" lon="-4.481613"><ele>37.6</ele></trkpt>
    <trkpt lat="48.386879" lon="-4.481676"><ele>38.4</ele></trkpt>
    <trkpt lat="48.386909" lon="-4.481643"><ele>38.8</ele></trkpt>
    <trkpt lat="48.386888" lon="-4.481617"><ele>38.8</ele></trkpt>
    <trkpt lat="48.387083" lon="-4.481740"><ele>39.4</ele></trkpt>
    <trkpt lat="48.387012" lon="-4.481691"><ele>39.6</ele></trkpt>
    <trkpt lat="48.387003" lon="-4.481607"><ele>39.6</ele></trkpt>
    <trkpt lat="48.387105" lon="-4.481390"><ele>40.0</ele></trkpt>
    <trkpt lat="48.386792" lon="-4.481628"><ele>39.2</ele></trkpt>
    <trkpt lat="48.386710" lon="-4.481534"><ele>37.0</ele></trkpt>
    <trkpt lat="48.386605" lon="-4.481497"><ele>35.0</ele></trkpt>
    <trkpt lat="48.386603" lon="-4.481538"><ele>34.4</ele></trkpt>
    <trkpt lat="48.386629" lon="-4.481535"><ele>34.4</ele></trkpt>
    <trkpt lat="48.386594" lon="-4.481537"><ele>34.6</ele></trkpt>
    <trkpt lat="48.386622" lon="-4.481684"><ele>35.2</ele></trkpt>
    <trkpt lat="48.386300" lon="-4.481595"><ele>33.0</ele></trkpt>
    <trkpt lat="48.386491" lon="-4.481941"><ele>33.8</ele></trkpt>
    <trkpt lat="48.386613" lon="-4.482085"><ele>35.2</ele></trkpt>
    <trkpt lat="48.386611" lon="-4.482136"><ele>35.4</ele></trkpt>
    <trkpt lat="48.385932" lon="-4.482615"><ele>35.0</ele></trkpt>
    <trkpt lat="48.385871" lon="-4.482694"><ele>35.0</ele></trkpt>
    <trkpt lat="48.385858" lon="-4.482813"><ele>35.2</ele></trkpt>
    <trkpt lat="48.385913" lon="-4.483500"><ele>38.4</ele></trkpt>
    <trkpt lat="48.385859" lon="-4.483828"><ele>37.0</ele></trkpt>
    <trkpt lat="48.385618" lon="-4.484231"><ele>36.0</ele></trkpt>
    <trkpt lat="48.385065" lon="-4.485003"><ele>34.0</ele></trkpt>
    <trkpt lat="48.385056" lon="-4.485113"><ele>34.0</ele></trkpt>
    <trkpt lat="48.385136" lon="-4.485293"><ele>34.2</ele></trkpt>
    <trkpt lat="48.385660" lon="-4.486083"><ele>39.6</ele></trkpt>
    <trkpt lat="48.385835" lon="-4.486537"><ele>41.4</ele></trkpt>
    <trkpt lat="48.386178" lon="-4.487173"><ele>43.2</ele></trkpt>
    <trkpt lat="48.386391" lon="-4.487450"><ele>43.4</ele></trkpt>
    <trkpt lat="48.386572" lon="-4.487618"><ele>43.0</ele></trkpt>
    <trkpt lat="48.386633" lon="-4.487553"><ele>42.4</ele></trkpt>
    <trkpt lat="48.386643" lon="-4.487351"><ele>41.6</ele></trkpt>
    <trkpt lat="48.386611" lon="-4.487233"><ele>41.0</ele></trkpt>
    <trkpt lat="48.386481" lon="-4.487020"><ele>39.6</ele></trkpt>
    <trkpt lat="48.387018" lon="-4.487010"><ele>41.8</ele></trkpt>
    <trkpt lat="48.386944" lon="-4.486546"><ele>43.4</ele></trkpt>
    <trkpt lat="48.387155" lon="-4.486082"><ele>43.2</ele></trkpt>
    <trkpt lat="48.387325" lon="-4.485947"><ele>44.2</ele></trkpt>
    <trkpt lat="48.387742" lon="-4.485217"><ele>46.6</ele></trkpt>
    <trkpt lat="48.387951" lon="-4.485136"><ele>48.0</ele></trkpt>
    <trkpt lat="48.388283" lon="-4.484887"><ele>50.0</ele></trkpt>
    <trkpt lat="48.388619" lon="-4.484497"><ele>50.6</ele></trkpt>
    <trkpt lat="48.388710" lon="-4.484515"><ele>51.2</ele></trkpt>
    <trkpt lat="48.388841" lon="-4.484793"><ele>51.4</ele></trkpt>
    <trkpt lat="48.388985" lon="-4.485169"><ele>50.6</ele></trkpt>
    <trkpt lat="48.388970" lon="-4.485292"><ele>50.4</ele></trkpt>
    <trkpt lat="48.388935" lon="-4.485273"><ele>50.4</ele></trkpt>
    <trkpt lat="48.388939" lon="-4.485203"><ele>50.0</ele></trkpt>
    <trkpt lat="48.389091" lon="-4.485152"><ele>50.0</ele></trkpt>
    <trkpt lat="48.389353" lon="-4.485291"><ele>49.4</ele></trkpt>
    <trkpt lat="48.389390" lon="-4.486159"><ele>48.6</ele></trkpt>
    <trkpt lat="48.389490" lon="-4.486212"><ele>49.8</ele></trkpt>
    <trkpt lat="48.389537" lon="-4.486176"><ele>50.0</ele></trkpt>
    <trkpt lat="48.389738" lon="-4.485646"><ele>50.8</ele></trkpt>
    <trkpt lat="48.389638" lon="-4.485435"><ele>51.2</ele></trkpt>
    <trkpt lat="48.389473" lon="-4.484880"><ele>52.0</ele></trkpt>
    <trkpt lat="48.389222" lon="-4.484497"><ele>52.0</ele></trkpt>
    <trkpt lat="48.389214" lon="-4.484439"><ele>51.8</ele></trkpt>
    <trkpt lat="48.389250" lon="-4.484353"><ele>51.8</ele></trkpt>
    <trkpt lat="48.389913" lon="-4.483714"><ele>54.4</ele></trkpt>
    <trkpt lat="48.390455" lon="-4.483065"><ele>56.0</ele></trkpt>
    <trkpt lat="48.390964" lon="-4.482569"><ele>60.0</ele></trkpt>
    <trkpt lat="48.391491" lon="-4.481818"><ele>63.2</ele></trkpt>
    <trkpt lat="48.391779" lon="-4.481556"><ele>65.0</ele></trkpt>
    <trkpt lat="48.392195" lon="-4.481263"><ele>67.0</ele></trkpt>
    <trkpt lat="48.392445" lon="-4.480962"><ele>67.0</ele></trkpt>
    <trkpt lat="48.392760" lon="-4.480784"><ele>67.0</ele></trkpt>
    <trkpt lat="48.392798" lon="-4.480677"><ele>67.4</ele></trkpt>
    <trkpt lat="48.392808" lon="-4.480447"><ele>68.8</ele></trkpt>
    <trkpt lat="48.392897" lon="-4.480172"><ele>71.0</ele></trkpt>
    <trkpt lat="48.392977" lon="-4.480119"><ele>70.8</ele></trkpt>
    <trkpt lat="48.393064" lon="-4.480127"><ele>70.6</ele></trkpt>
    <trkpt lat="48.393144" lon="-4.480213"><ele>70.4</ele></trkpt>
    <trkpt lat="48.393181" lon="-4.480342"><ele>70.4</ele></trkpt>
    <trkpt lat="48.393174" lon="-4.480445"><ele>70.2</ele></trkpt>
    <trkpt lat="48.392997" lon="-4.480949"><ele>68.2</ele></trkpt>
    <trkpt lat="48.392990" lon="-4.481034"><ele>67.8</ele></trkpt>
    <trkpt lat="48.393022" lon="-4.481118"><ele>67.2</ele></trkpt>
    <trkpt lat="48.392886" lon="-4.480430"><ele>65.2</ele></trkpt>
    <trkpt lat="48.393013" lon="-4.480526"><ele>66.8</ele></trkpt>
    <trkpt lat="48.392921" lon="-4.480664"><ele>67.2</ele></trkpt>
    <trkpt lat="48.392932" lon="-4.480721"><ele>67.6</ele></trkpt>
    <trkpt lat="48.393193" lon="-4.480651"><ele>68.4</ele></trkpt>
    <trkpt lat="48.393252" lon="-4.480709"><ele>68.6</ele></trkpt>
    <trkpt lat="48.393319" lon="-4.480869"><ele>68.6</ele></trkpt>
    <trkpt lat="48.393364" lon="-4.480878"><ele>68.8</ele></trkpt>
    <trkpt lat="48.393451" lon="-4.480527"><ele>69.6</ele></trkpt>
    <trkpt lat="48.393472" lon="-4.480039"><ele>78.8</ele></trkpt>
    <trkpt lat="48.393754" lon="-4.479882"><ele>73.2</ele></trkpt>
    <trkpt lat="48.393705" lon="-4.479761"><ele>72.6</ele></trkpt>
    <trkpt lat="48.393675" lon="-4.479498"><ele>75.2</ele></trkpt>
    <trkpt lat="48.393537" lon="-4.479060"><ele>77.8</ele></trkpt>
    <trkpt lat="48.393251" lon="-4.478518"><ele>79.4</ele></trkpt>
    <trkpt lat="48.392878" lon="-4.477623"><ele>79.6</ele></trkpt>
    <trkpt lat="48.392403" lon="-4.476396"><ele>73.8</ele></trkpt>
    <trkpt lat="48.392370" lon="-4.476244"><ele>73.2</ele></trkpt>
    <trkpt lat="48.392416" lon="-4.476160"><ele>73.0</ele></trkpt>
    <trkpt lat="48.394039" lon="-4.474842"><ele>73.0</ele></trkpt>
    <trkpt lat="48.394145" lon="-4.474687"><ele>72.8</ele></trkpt>
    <trkpt lat="48.394220" lon="-4.474368"><ele>72.4</ele></trkpt>
    <trkpt lat="48.394287" lon="-4.473602"><ele>69.6</ele></trkpt>
    <trkpt lat="48.394574" lon="-4.471644"><ele>76.8</ele></trkpt>
    <trkpt lat="48.393952" lon="-4.471216"><ele>73.4</ele></trkpt>
    <trkpt lat="48.393767" lon="-4.471128"><ele>72.2</ele></trkpt>
    <trkpt lat="48.392987" lon="-4.470994"><ele>65.4</ele></trkpt>
    <trkpt lat="48.392948" lon="-4.470973"><ele>65.0</ele></trkpt>
    <trkpt lat="48.392944" lon="-4.470922"><ele>64.8</ele></trkpt>
    <trkpt lat="48.393003" lon="-4.470781"><ele>64.6</ele></trkpt>
    <trkpt lat="48.393054" lon="-4.470428"><ele>65.0</ele></trkpt>
    <trkpt lat="48.393194" lon="-4.470405"><ele>66.2</ele></trkpt>
    <trkpt lat="48.393332" lon="-4.470477"><ele>68.0</ele></trkpt>
    <trkpt lat="48.393360" lon="-4.470157"><ele>68.2</ele></trkpt>
    <trkpt lat="48.393441" lon="-4.469977"><ele>68.0</ele></trkpt>
    <trkpt lat="48.393570" lon="-4.469979"><ele>68.4</ele></trkpt>
    <trkpt lat="48.393708" lon="-4.470091"><ele>69.6</ele></trkpt>
    <trkpt lat="48.393853" lon="-4.469950"><ele>71.8</ele></trkpt>
    <trkpt lat="48.393961" lon="-4.469956"><ele>73.0</ele></trkpt>
    <trkpt lat="48.394054" lon="-4.469790"><ele>72.6</ele></trkpt>
    <trkpt lat="48.394182" lon="-4.469704"><ele>72.6</ele></trkpt>
    <trkpt lat="48.394274" lon="-4.469580"><ele>72.6</ele></trkpt>
    <trkpt lat="48.394629" lon="-4.469329"><ele>72.2</ele></trkpt>
    <trkpt lat="48.395372" lon="-4.468984"><ele>69.6</ele></trkpt>
    <trkpt lat="48.395499" lon="-4.468794"><ele>68.2</ele></trkpt>
    <trkpt lat="48.395549" lon="-4.468595"><ele>67.0</ele></trkpt>
    <trkpt lat="48.395528" lon="-4.468428"><ele>65.2</ele></trkpt>
    <trkpt lat="48.395403" lon="-4.468341"><ele>62.6</ele></trkpt>
    <trkpt lat="48.394979" lon="-4.468503"><ele>59.8</ele></trkpt>
    <trkpt lat="48.394044" lon="-4.468455"><ele>56.6</ele></trkpt>
    <trkpt lat="48.393510" lon="-4.468520"><ele>53.2</ele></trkpt>
    <trkpt lat="48.392943" lon="-4.468696"><ele>50.0</ele></trkpt>
    <trkpt lat="48.392423" lon="-4.468947"><ele>47.0</ele></trkpt>
    <trkpt lat="48.392162" lon="-4.469198"><ele>45.2</ele></trkpt>
    <trkpt lat="48.391701" lon="-4.469804"><ele>42.0</ele></trkpt>
    <trkpt lat="48.391522" lon="-4.469910"><ele>41.0</ele></trkpt>
    <trkpt lat="48.391061" lon="-4.470035"><ele>38.2</ele></trkpt>
    <trkpt lat="48.390877" lon="-4.470218"><ele>36.6</ele></trkpt>
    <trkpt lat="48.390803" lon="-4.470401"><ele>36.0</ele></trkpt>
    <trkpt lat="48.390663" lon="-4.470479"><ele>35.4</ele></trkpt>
    <trkpt lat="48.390488" lon="-4.470427"><ele>34.2</ele></trkpt>
    <trkpt lat="48.390492" lon="-4.470305"><ele>33.6</ele></trkpt>
    <trkpt lat="48.390547" lon="-4.470283"><ele>33.4</ele></trkpt>
    <trkpt lat="48.390550" lon="-4.470208"><ele>33.4</ele></trkpt>
    <trkpt lat="48.390511" lon="-4.470121"><ele>33.0</ele></trkpt>
    <trkpt lat="48.390431" lon="-4.470070"><ele>32.6</ele></trkpt>
    <trkpt lat="48.389460" lon="-4.469850"><ele>30.6</ele></trkpt>
    <trkpt lat="48.389245" lon="-4.469863"><ele>31.4</ele></trkpt>
    <trkpt lat="48.389065" lon="-4.469936"><ele>31.4</ele></trkpt>
    <trkpt lat="48.388993" lon="-4.470026"><ele>31.0</ele></trkpt>
    <trkpt lat="48.388953" lon="-4.470152"><ele>30.4</ele></trkpt>
    <trkpt lat="48.388970" lon="-4.470732"><ele>29.2</ele></trkpt>
    <trkpt lat="48.388792" lon="-4.471932"><ele>31.4</ele></trkpt>
    <trkpt lat="48.388739" lon="-4.472652"><ele>37.4</ele></trkpt>
    <trkpt lat="48.388679" lon="-4.472740"><ele>38.4</ele></trkpt>
    <trkpt lat="48.388409" lon="-4.472805"><ele>39.6</ele></trkpt>
    <trkpt lat="48.388353" lon="-4.472923"><ele>39.6</ele></trkpt>
    <trkpt lat="48.388377" lon="-4.473215"><ele>39.2</ele></trkpt>
    <trkpt lat="48.388453" lon="-4.473541"><ele>38.2</ele></trkpt>
    <trkpt lat="48.388464" lon="-4.473953"><ele>38.0</ele></trkpt>
    <trkpt lat="48.388434" lon="-4.474333"><ele>37.4</ele></trkpt>
    <trkpt lat="48.388368" lon="-4.474364"><ele>36.8</ele></trkpt>
    <trkpt lat="48.388021" lon="-4.474305"><ele>31.6</ele></trkpt>
    <trkpt lat="48.387488" lon="-4.474343"><ele>17.8</ele></trkpt>
    <trkpt lat="48.387493" lon="-4.474007"><ele>16.8</ele></trkpt>
    <trkpt lat="48.387445" lon="-4.473746"><ele>17.0</ele></trkpt>
    <trkpt lat="48.387413" lon="-4.473241"><ele>18.0</ele></trkpt>
    <trkpt lat="48.387243" lon="-4.472288"><ele>13.4</ele></trkpt>
    <trkpt lat="48.387078" lon="-4.471625"><ele>7.0</ele></trkpt>
    <trkpt lat="48.386943" lon="-4.471423"><ele>6.4</ele></trkpt>
    <trkpt lat="48.386749" lon="-4.471462"><ele>6.6</ele></trkpt>
    <trkpt lat="48.386614" lon="-4.471407"><ele>6.8</ele></trkpt>
    <trkpt lat="48.386543" lon="-4.471281"><ele>6.8</ele></trkpt>
    <trkpt lat="48.386511" lon="-4.471084"><ele>6.8</ele></trkpt>
    <trkpt lat="48.386590" lon="-4.470616"><ele>7.0</ele></trkpt>
    <trkpt lat="48.386752" lon="-4.470181"><ele>7.6</ele></trkpt>
    <trkpt lat="48.386834" lon="-4.469321"><ele>7.8</ele></trkpt>
    <trkpt lat="48.387390" lon="-4.465703"><ele>7.2</ele></trkpt>
    <trkpt lat="48.387534" lon="-4.464950"><ele>6.4</ele></trkpt>
    <trkpt lat="48.387758" lon="-4.464098"><ele>6.6</ele></trkpt>
    <trkpt lat="48.388003" lon="-4.463323"><ele>7.4</ele></trkpt>
    <trkpt lat="48.388410" lon="-4.462265"><ele>6.6</ele></trkpt>
    <trkpt lat="48.388860" lon="-4.461232"><ele>7.6</ele></trkpt>
    <trkpt lat="48.389422" lon="-4.460112"><ele>7.6</ele></trkpt>
    <trkpt lat="48.389500" lon="-4.459895"><ele>7.4</ele></trkpt>
    <trkpt lat="48.389548" lon="-4.459566"><ele>6.6</ele></trkpt>
    <trkpt lat="48.389632" lon="-4.459313"><ele>5.2</ele></trkpt>
    <trkpt lat="48.389619" lon="-4.459110"><ele>4.2</ele></trkpt>
    <trkpt lat="48.389500" lon="-4.458864"><ele>3.0</ele></trkpt>
    <trkpt lat="48.389399" lon="-4.458522"><ele>2.6</ele></trkpt>
    <trkpt lat="48.389272" lon="-4.458420"><ele>3.0</ele></trkpt>
    <trkpt lat="48.388826" lon="-4.458375"><ele>4.8</ele></trkpt>
    <trkpt lat="48.388633" lon="-4.458146"><ele>5.2</ele></trkpt>
    <trkpt lat="48.388630" lon="-4.458009"><ele>5.4</ele></trkpt>
    <trkpt lat="48.388730" lon="-4.457641"><ele>6.4</ele></trkpt>
    <trkpt lat="48.388936" lon="-4.457493"><ele>7.0</ele></trkpt>
    <trkpt lat="48.388988" lon="-4.457402"><ele>7.0</ele></trkpt>
    <trkpt lat="48.389027" lon="-4.457177"><ele>6.4</ele></trkpt>
    <trkpt lat="48.389692" lon="-4.454822"><ele>5.2</ele></trkpt>
    <trkpt lat="48.389915" lon="-4.454145"><ele>6.2</ele></trkpt>
    <trkpt lat="48.390661" lon="-4.451550"><ele>7.4</ele></trkpt>
    <trkpt lat="48.390788" lon="-4.451200"><ele>7.0</ele></trkpt>
    <trkpt lat="48.391057" lon="-4.450212"><ele>7.2</ele></trkpt>
    <trkpt lat="48.391293" lon="-4.449497"><ele>7.4</ele></trkpt>
    <trkpt lat="48.391704" lon="-4.448012"><ele>7.6</ele></trkpt>
    <trkpt lat="48.391735" lon="-4.447198"><ele>7.2</ele></trkpt>
    <trkpt lat="48.391632" lon="-4.446228"><ele>7.2</ele></trkpt>
    <trkpt lat="48.391734" lon="-4.446173"><ele>7.2</ele></trkpt>
    <trkpt lat="48.391881" lon="-4.446198"><ele>7.4</ele></trkpt>
    <trkpt lat="48.391941" lon="-4.446249"><ele>7.6</ele></trkpt>
    <trkpt lat="48.392533" lon="-4.447264"><ele>9.8</ele></trkpt>
    <trkpt lat="48.393171" lon="-4.448473"><ele>13.6</ele></trkpt>
    <trkpt lat="48.393234" lon="-4.448493"><ele>14.0</ele></trkpt>
    <trkpt lat="48.393272" lon="-4.448449"><ele>14.4</ele></trkpt>
    <trkpt lat="48.393371" lon="-4.448147"><ele>16.0</ele></trkpt>
    <trkpt lat="48.393422" lon="-4.447912"><ele>17.2</ele></trkpt>
    <trkpt lat="48.393445" lon="-4.447532"><ele>18.8</ele></trkpt>
    <trkpt lat="48.393440" lon="-4.446287"><ele>19.2</ele></trkpt>
    <trkpt lat="48.393375" lon="-4.445678"><ele>19.4</ele></trkpt>
    <trkpt lat="48.393249" lon="-4.443352"><ele>18.6</ele></trkpt>
    <trkpt lat="48.393270" lon="-4.442541"><ele>21.4</ele></trkpt>
    <trkpt lat="48.393232" lon="-4.442397"><ele>21.4</ele></trkpt>
    <trkpt lat="48.393156" lon="-4.442339"><ele>21.2</ele></trkpt>
    <trkpt lat="48.392415" lon="-4.442440"><ele>16.2</ele></trkpt>
    <trkpt lat="48.392109" lon="-4.442328"><ele>14.4</ele></trkpt>
    <trkpt lat="48.391172" lon="-4.442459"><ele>8.0</ele></trkpt>
    <trkpt lat="48.390949" lon="-4.442057"><ele>8.0</ele></trkpt>
    <trkpt lat="48.390757" lon="-4.441503"><ele>8.4</ele></trkpt>
    <trkpt lat="48.390385" lon="-4.440722"><ele>10.0</ele></trkpt>
    <trkpt lat="48.390221" lon="-4.440164"><ele>10.2</ele></trkpt>
    <trkpt lat="48.390101" lon="-4.440099"><ele>9.8</ele></trkpt>
    <trkpt lat="48.389747" lon="-4.440179"><ele>8.4</ele></trkpt>
    <trkpt lat="48.389553" lon="-4.440364"><ele>8.0</ele></trkpt>
    <trkpt lat="48.389461" lon="-4.440328"><ele>8.2</ele></trkpt>
    <trkpt lat="48.389283" lon="-4.439785"><ele>9.2</ele></trkpt>
    <trkpt lat="48.389198" lon="-4.439230"><ele>9.6</ele></trkpt>
    <trkpt lat="48.389111" lon="-4.439081"><ele>9.4</ele></trkpt>
    <trkpt lat="48.388812" lon="-4.438864"><ele>9.4</ele></trkpt>
    <trkpt lat="48.388637" lon="-4.438787"><ele>9.8</ele></trkpt>
    <trkpt lat="48.388081" lon="-4.438262"><ele>10.6</ele></trkpt>
    <trkpt lat="48.387576" lon="-4.437907"><ele>10.4</ele></trkpt>
    <trkpt lat="48.387450" lon="-4.437847"><ele>10.2</ele></trkpt>
    <trkpt lat="48.387220" lon="-4.437831"><ele>10.0</ele></trkpt>
    <trkpt lat="48.386417" lon="-4.437390"><ele>9.0</ele></trkpt>
    <trkpt lat="48.385893" lon="-4.437043"><ele>9.8</ele></trkpt>
    <trkpt lat="48.385737" lon="-4.436834"><ele>10.2</ele></trkpt>
    <trkpt lat="48.385600" lon="-4.436722"><ele>10.4</ele></trkpt>
    <trkpt lat="48.385055" lon="-4.436406"><ele>9.2</ele></trkpt>
    <trkpt lat="48.384631" lon="-4.436228"><ele>9.4</ele></trkpt>
    <trkpt lat="48.384299" lon="-4.435975"><ele>8.8</ele></trkpt>
    <trkpt lat="48.383946" lon="-4.435892"><ele>7.6</ele></trkpt>
    <trkpt lat="48.383618" lon="-4.435913"><ele>6.6</ele></trkpt>
    <trkpt lat="48.383550" lon="-4.435794"><ele>6.2</ele></trkpt>
    <trkpt lat="48.383536" lon="-4.435682"><ele>6.2</ele></trkpt>
    <trkpt lat="48.383554" lon="-4.435610"><ele>6.2</ele></trkpt>
    <trkpt lat="48.383625" lon="-4.435550"><ele>6.2</ele></trkpt>
    <trkpt lat="48.384972" lon="-4.435007"><ele>6.6</ele></trkpt>
    <trkpt lat="48.385039" lon="-4.435089"><ele>6.6</ele></trkpt>
    <trkpt lat="48.385210" lon="-4.436103"><ele>7.6</ele></trkpt>
    <trkpt lat="48.385267" lon="-4.436195"><ele>7.8</ele></trkpt>
    <trkpt lat="48.385538" lon="-4.436017"><ele>8.2</ele></trkpt>
    <trkpt lat="48.385783" lon="-4.436010"><ele>8.2</ele></trkpt>
    <trkpt lat="48.386557" lon="-4.435814"><ele>9.0</ele></trkpt>
    <trkpt lat="48.386978" lon="-4.435603"><ele>9.0</ele></trkpt>
    <trkpt lat="48.387189" lon="-4.435396"><ele>9.8</ele></trkpt>
    <trkpt lat="48.387240" lon="-4.435215"><ele>9.6</ele></trkpt>
    <trkpt lat="48.387244" lon="-4.434785"><ele>8.2</ele></trkpt>
    <trkpt lat="48.387160" lon="-4.434750"><ele>7.6</ele></trkpt>
    <trkpt lat="48.387012" lon="-4.434835"><ele>7.2</ele></trkpt>
    <trkpt lat="48.387063" lon="-4.434809"><ele>7.0</ele></trkpt>
    <trkpt lat="48.387104" lon="-4.434724"><ele>6.8</ele></trkpt>
    <trkpt lat="48.387136" lon="-4.434611"><ele>6.6</ele></trkpt>
    <trkpt lat="48.387107" lon="-4.434557"><ele>5.8</ele></trkpt>
    <trkpt lat="48.387340" lon="-4.434358"><ele>6.8</ele></trkpt>
    <trkpt lat="48.387465" lon="-4.434143"><ele>7.0</ele></trkpt>
    <trkpt lat="48.388566" lon="-4.433749"><ele>5.8</ele></trkpt>
    <trkpt lat="48.388959" lon="-4.433659"><ele>6.6</ele></trkpt>
    <trkpt lat="48.389012" lon="-4.433742"><ele>7.0</ele></trkpt>
    <trkpt lat="48.388988" lon="-4.434094"><ele>7.8</ele></trkpt>
    <trkpt lat="48.389015" lon="-4.434139"><ele>8.0</ele></trkpt>
    <trkpt lat="48.389066" lon="-4.434135"><ele>8.0</ele></trkpt>
    <trkpt lat="48.389474" lon="-4.433669"><ele>9.0</ele></trkpt>
    <trkpt lat="48.389520" lon="-4.433340"><ele>8.0</ele></trkpt>
    <trkpt lat="48.389561" lon="-4.433293"><ele>7.6</ele></trkpt>
    <trkpt lat="48.389774" lon="-4.433364"><ele>6.2</ele></trkpt>
    <trkpt lat="48.390564" lon="-4.433429"><ele>4.6</ele></trkpt>
    <trkpt lat="48.390978" lon="-4.433555"><ele>5.2</ele></trkpt>
    <trkpt lat="48.391112" lon="-4.433692"><ele>5.6</ele></trkpt>
    <trkpt lat="48.391551" lon="-4.433803"><ele>6.6</ele></trkpt>
    <trkpt lat="48.391570" lon="-4.433861"><ele>7.0</ele></trkpt>
    <trkpt lat="48.391511" lon="-4.434380"><ele>9.6</ele></trkpt>
    <trkpt lat="48.391526" lon="-4.434538"><ele>10.2</ele></trkpt>
    <trkpt lat="48.391661" lon="-4.434663"><ele>10.0</ele></trkpt>
    <trkpt lat="48.391855" lon="-4.434748"><ele>10.0</ele></trkpt>
    <trkpt lat="48.392227" lon="-4.434678"><ele>10.0</ele></trkpt>
    <trkpt lat="48.392339" lon="-4.434096"><ele>7.4</ele></trkpt>
    <trkpt lat="48.392568" lon="-4.433979"><ele>6.2</ele></trkpt>
    <trkpt lat="48.392624" lon="-4.433912"><ele>6.2</ele></trkpt>
    <trkpt lat="48.392788" lon="-4.433204"><ele>7.6</ele></trkpt>
    <trkpt lat="48.392864" lon="-4.433130"><ele>7.4</ele></trkpt>
    <trkpt lat="48.393800" lon="-4.433322"><ele>5.6</ele></trkpt>
    <trkpt lat="48.394171" lon="-4.433343"><ele>5.4</ele></trkpt>
    <trkpt lat="48.395237" lon="-4.433515"><ele>4.4</ele></trkpt>
    <trkpt lat="48.395323" lon="-4.433641"><ele>4.4</ele></trkpt>
    <trkpt lat="48.395416" lon="-4.434158"><ele>5.0</ele></trkpt>
    <trkpt lat="48.395454" lon="-4.434210"><ele>5.0</ele></trkpt>
    <trkpt lat="48.395510" lon="-4.434210"><ele>5.0</ele></trkpt>
    <trkpt lat="48.396026" lon="-4.433546"><ele>3.6</ele></trkpt>
    <trkpt lat="48.396499" lon="-4.432691"><ele>3.0</ele></trkpt>
    <trkpt lat="48.396956" lon="-4.431539"><ele>3.4</ele></trkpt>
    <trkpt lat="48.397212" lon="-4.430580"><ele>3.0</ele></trkpt>
    <trkpt lat="48.397470" lon="-4.430091"><ele>5.4</ele></trkpt>
    <trkpt lat="48.397524" lon="-4.429932"><ele>6.6</ele></trkpt>
    <trkpt lat="48.397605" lon="-4.429829"><ele>8.2</ele></trkpt>
    <trkpt lat="48.397598" lon="-4.429770"><ele>9.4</ele></trkpt>
    <trkpt lat="48.397612" lon="-4.430289"><ele>11.6</ele></trkpt>
    <trkpt lat="48.397583" lon="-4.430491"><ele>12.4</ele></trkpt>
    <trkpt lat="48.397631" lon="-4.430710"><ele>13.2</ele></trkpt>
    <trkpt lat="48.397553" lon="-4.431291"><ele>12.0</ele></trkpt>
    <trkpt lat="48.397351" lon="-4.432218"><ele>10.8</ele></trkpt>
    <trkpt lat="48.396961" lon="-4.433502"><ele>12.2</ele></trkpt>
    <trkpt lat="48.396942" lon="-4.433787"><ele>14.0</ele></trkpt>
    <trkpt lat="48.396968" lon="-4.434941"><ele>15.6</ele></trkpt>
    <trkpt lat="48.397150" lon="-4.435708"><ele>13.6</ele></trkpt>
    <trkpt lat="48.397360" lon="-4.436218"><ele>11.8</ele></trkpt>
    <trkpt lat="48.397487" lon="-4.436640"><ele>11.8</ele></trkpt>
    <trkpt lat="48.398033" lon="-4.437834"><ele>14.2</ele></trkpt>
    <trkpt lat="48.398366" lon="-4.438208"><ele>13.4</ele></trkpt>
    <trkpt lat="48.398506" lon="-4.438445"><ele>12.6</ele></trkpt>
    <trkpt lat="48.399088" lon="-4.440238"><ele>14.4</ele></trkpt>
    <trkpt lat="48.399467" lon="-4.440542"><ele>14.6</ele></trkpt>
    <trkpt lat="48.399780" lon="-4.441062"><ele>15.8</ele></trkpt>
    <trkpt lat="48.399946" lon="-4.440967"><ele>16.6</ele></trkpt>
    <trkpt lat="48.400033" lon="-4.440983"><ele>16.6</ele></trkpt>
    <trkpt lat="48.400228" lon="-4.441317"><ele>16.8</ele></trkpt>
    <trkpt lat="48.400395" lon="-4.441502"><ele>17.6</ele></trkpt>
    <trkpt lat="48.400480" lon="-4.441762"><ele>17.6</ele></trkpt>
    <trkpt lat="48.400575" lon="-4.442357"><ele>18.0</ele></trkpt>
    <trkpt lat="48.400677" lon="-4.442672"><ele>18.2</ele></trkpt>
    <trkpt lat="48.400872" lon="-4.443088"><ele>18.8</ele></trkpt>
    <trkpt lat="48.401203" lon="-4.443563"><ele>22.2</ele></trkpt>
    <trkpt lat="48.401520" lon="-4.444172"><ele>24.6</ele></trkpt>
    <trkpt lat="48.401617" lon="-4.444663"><ele>25.0</ele></trkpt>
    <trkpt lat="48.401764" lon="-4.445131"><ele>29.4</ele></trkpt>
    <trkpt lat="48.401910" lon="-4.445355"><ele>33.6</ele></trkpt>
    <trkpt lat="48.402307" lon="-4.445746"><ele>34.4</ele></trkpt>
    <trkpt lat="48.402571" lon="-4.446069"><ele>33.8</ele></trkpt>
    <trkpt lat="48.402802" lon="-4.446663"><ele>33.4</ele></trkpt>
    <trkpt lat="48.403081" lon="-4.447211"><ele>32.6</ele></trkpt>
    <trkpt lat="48.403802" lon="-4.448047"><ele>35.4</ele></trkpt>
    <trkpt lat="48.404088" lon="-4.448555"><ele>34.6</ele></trkpt>
    <trkpt lat="48.404237" lon="-4.448694"><ele>35.4</ele></trkpt>
    <trkpt lat="48.404473" lon="-4.448767"><ele>35.0</ele></trkpt>
    <trkpt lat="48.405161" lon="-4.449223"><ele>35.0</ele></trkpt>
    <trkpt lat="48.405370" lon="-4.449408"><ele>35.8</ele></trkpt>
    <trkpt lat="48.405688" lon="-4.450205"><ele>34.6</ele></trkpt>
    <trkpt lat="48.405736" lon="-4.450559"><ele>36.8</ele></trkpt>
    <trkpt lat="48.405778" lon="-4.450636"><ele>37.6</ele></trkpt>
    <trkpt lat="48.406276" lon="-4.450708"><ele>41.2</ele></trkpt>
    <trkpt lat="48.406618" lon="-4.451033"><ele>43.6</ele></trkpt>
    <trkpt lat="48.407134" lon="-4.451285"><ele>46.4</ele></trkpt>
    <trkpt lat="48.407397" lon="-4.451294"><ele>46.6</ele></trkpt>
    <trkpt lat="48.407657" lon="-4.451072"><ele>46.2</ele></trkpt>
    <trkpt lat="48.407763" lon="-4.450881"><ele>45.8</ele></trkpt>
    <trkpt lat="48.407961" lon="-4.450264"><ele>46.0</ele></trkpt>
    <trkpt lat="48.408047" lon="-4.450177"><ele>46.6</ele></trkpt>
    <trkpt lat="48.408059" lon="-4.450259"><ele>47.0</ele></trkpt>
    <trkpt lat="48.407951" lon="-4.450885"><ele>50.2</ele></trkpt>
    <trkpt lat="48.407916" lon="-4.451364"><ele>54.0</ele></trkpt>
    <trkpt lat="48.407934" lon="-4.451511"><ele>55.8</ele></trkpt>
    <trkpt lat="48.408018" lon="-4.451689"><ele>58.6</ele></trkpt>
    <trkpt lat="48.408060" lon="-4.451943"><ele>61.6</ele></trkpt>
    <trkpt lat="48.408066" lon="-4.452475"><ele>65.8</ele></trkpt>
    <trkpt lat="48.408040" lon="-4.452739"><ele>67.6</ele></trkpt>
    <trkpt lat="48.408138" lon="-4.452804"><ele>68.0</ele></trkpt>
    <trkpt lat="48.408338" lon="-4.452739"><ele>68.0</ele></trkpt>
    <trkpt lat="48.408747" lon="-4.452790"><ele>67.4</ele></trkpt>
    <trkpt lat="48.408984" lon="-4.453005"><ele>66.8</ele></trkpt>
    <trkpt lat="48.409125" lon="-4.453353"><ele>66.4</ele></trkpt>
    <trkpt lat="48.408977" lon="-4.453613"><ele>67.6</ele></trkpt>
    <trkpt lat="48.408552" lon="-4.454791"><ele>71.2</ele></trkpt>
    <trkpt lat="48.408424" lon="-4.455035"><ele>71.8</ele></trkpt>
    <trkpt lat="48.408204" lon="-4.454989"><ele>73.6</ele></trkpt>
    <trkpt lat="48.408039" lon="-4.455075"><ele>75.0</ele></trkpt>
    <trkpt lat="48.407953" lon="-4.455412"><ele>78.2</ele></trkpt>
    <trkpt lat="48.407903" lon="-4.455818"><ele>79.4</ele></trkpt>
    <trkpt lat="48.407633" lon="-4.455741"><ele>80.6</ele></trkpt>
    <trkpt lat="48.407551" lon="-4.455782"><ele>81.0</ele></trkpt>
    <trkpt lat="48.407410" lon="-4.456441"><ele>80.4</ele></trkpt>
    <trkpt lat="48.407298" lon="-4.456752"><ele>80.6</ele></trkpt>
    <trkpt lat="48.406266" lon="-4.457040"><ele>87.0</ele></trkpt>
    <trkpt lat="48.405888" lon="-4.457094"><ele>90.0</ele></trkpt>
    <trkpt lat="48.405541" lon="-4.457314"><ele>91.2</ele></trkpt>
    <trkpt lat="48.405057" lon="-4.457484"><ele>91.4</ele></trkpt>
    <trkpt lat="48.404982" lon="-4.457549"><ele>91.8</ele></trkpt>
    <trkpt lat="48.404908" lon="-4.457740"><ele>92.4</ele></trkpt>
    <trkpt lat="48.404910" lon="-4.458051"><ele>94.0</ele></trkpt>
    <trkpt lat="48.405070" lon="-4.458632"><ele>97.4</ele></trkpt>
    <trkpt lat="48.405069" lon="-4.458774"><ele>97.8</ele></trkpt>
    <trkpt lat="48.404749" lon="-4.459082"><ele>97.8</ele></trkpt>
    <trkpt lat="48.404563" lon="-4.459183"><ele>98.0</ele></trkpt>
    <trkpt lat="48.404348" lon="-4.459386"><ele>99.0</ele></trkpt>
    <trkpt lat="48.404133" lon="-4.459610"><ele>99.6</ele></trkpt>
    <trkpt lat="48.404041" lon="-4.459797"><ele>100.0</ele></trkpt>
    <trkpt lat="48.404039" lon="-4.460125"><ele>100.8</ele></trkpt>
    <trkpt lat="48.404112" lon="-4.460964"><ele>101.6</ele></trkpt>
    <trkpt lat="48.404117" lon="-4.461503"><ele>102.0</ele></trkpt>
    <trkpt lat="48.403557" lon="-4.462001"><ele>102.6</ele></trkpt>
    <trkpt lat="48.403365" lon="-4.462315"><ele>102.6</ele></trkpt>
    <trkpt lat="48.403243" lon="-4.462438"><ele>102.2</ele></trkpt>
    <trkpt lat="48.402817" lon="-4.462562"><ele>102.2</ele></trkpt>
    <trkpt lat="48.402244" lon="-4.462403"><ele>103.0</ele></trkpt>
    <trkpt lat="48.402199" lon="-4.462486"><ele>102.8</ele></trkpt>
    <trkpt lat="48.402157" lon="-4.462689"><ele>102.6</ele></trkpt>
    <trkpt lat="48.402137" lon="-4.463165"><ele>100.6</ele></trkpt>
    <trkpt lat="48.401840" lon="-4.463150"><ele>100.6</ele></trkpt>
    <trkpt lat="48.401757" lon="-4.463197"><ele>101.2</ele></trkpt>
    <trkpt lat="48.401763" lon="-4.463260"><ele>101.4</ele></trkpt>
    <trkpt lat="48.401874" lon="-4.463437"><ele>101.8</ele></trkpt>
    <trkpt lat="48.402146" lon="-4.463533"><ele>101.0</ele></trkpt>
    <trkpt lat="48.402288" lon="-4.463669"><ele>101.0</ele></trkpt>
    <trkpt lat="48.402359" lon="-4.463635"><ele>101.0</ele></trkpt>
    <trkpt lat="48.402352" lon="-4.463310"><ele>100.8</ele></trkpt>
    <trkpt lat="48.402107" lon="-4.463878"><ele>100.0</ele></trkpt>
    <trkpt lat="48.402181" lon="-4.463900"><ele>100.4</ele></trkpt>
    <trkpt lat="48.402241" lon="-4.464060"><ele>100.8</ele></trkpt>
    <trkpt lat="48.402319" lon="-4.465182"><ele>101.4</ele></trkpt>
    <trkpt lat="48.402413" lon="-4.465615"><ele>101.4</ele></trkpt>
    <trkpt lat="48.402383" lon="-4.465983"><ele>101.4</ele></trkpt>
    <trkpt lat="48.402306" lon="-4.466060"><ele>101.6</ele></trkpt>
    <trkpt lat="48.402078" lon="-4.466104"><ele>101.6</ele></trkpt>
    <trkpt lat="48.401975" lon="-4.466225"><ele>101.4</ele></trkpt>
    <trkpt lat="48.401860" lon="-4.466497"><ele>100.8</ele></trkpt>
    <trkpt lat="48.401627" lon="-4.467316"><ele>100.6</ele></trkpt>
    <trkpt lat="48.401332" lon="-4.467683"><ele>99.6</ele></trkpt>
    <trkpt lat="48.400814" lon="-4.468526"><ele>99.2</ele></trkpt>
    <trkpt lat="48.400203" lon="-4.469309"><ele>98.2</ele></trkpt>
    <trkpt lat="48.399479" lon="-4.470469"><ele>97.4</ele></trkpt>
    <trkpt lat="48.399248" lon="-4.470775"><ele>97.2</ele></trkpt>
    <trkpt lat="48.399072" lon="-4.471566"><ele>97.8</ele></trkpt>
    <trkpt lat="48.398986" lon="-4.471837"><ele>98.8</ele></trkpt>
    <trkpt lat="48.399044" lon="-4.472306"><ele>98.4</ele></trkpt>
    <trkpt lat="48.399023" lon="-4.472423"><ele>98.0</ele></trkpt>
    <trkpt lat="48.398310" lon="-4.473421"><ele>97.0</ele></trkpt>
    <trkpt lat="48.398234" lon="-4.473472"><ele>97.4</ele></trkpt>
    <trkpt lat="48.398122" lon="-4.473790"><ele>97.8</ele></trkpt>
    <trkpt lat="48.397847" lon="-4.474317"><ele>97.4</ele></trkpt>
    <trkpt lat="48.397846" lon="-4.474388"><ele>97.4</ele></trkpt>
    <trkpt lat="48.397908" lon="-4.474540"><ele>97.2</ele></trkpt>
    <trkpt lat="48.398196" lon="-4.474994"><ele>96.6</ele></trkpt>
    <trkpt lat="48.398245" lon="-4.475161"><ele>96.4</ele></trkpt>
    <trkpt lat="48.397922" lon="-4.475702"><ele>94.2</ele></trkpt>
    <trkpt lat="48.397888" lon="-4.475810"><ele>94.2</ele></trkpt>
    <trkpt lat="48.397878" lon="-4.476048"><ele>94.6</ele></trkpt>
    <trkpt lat="48.397816" lon="-4.476203"><ele>94.8</ele></trkpt>
    <trkpt lat="48.397604" lon="-4.476502"><ele>94.2</ele></trkpt>
    <trkpt lat="48.397204" lon="-4.476898"><ele>91.6</ele></trkpt>
    <trkpt lat="48.396948" lon="-4.477370"><ele>91.0</ele></trkpt>
    <trkpt lat="48.396961" lon="-4.477479"><ele>90.8</ele></trkpt>
    <trkpt lat="48.397241" lon="-4.478022"><ele>90.4</ele></trkpt>
    <trkpt lat="48.398063" lon="-4.479291"><ele>85.6</ele></trkpt>
    <trkpt lat="48.398093" lon="-4.479416"><ele>85.2</ele></trkpt>
    <trkpt lat="48.398056" lon="-4.479510"><ele>85.0</ele></trkpt>
    <trkpt lat="48.397993" lon="-4.479564"><ele>84.8</ele></trkpt>
    <trkpt lat="48.397871" lon="-4.479539"><ele>84.8</ele></trkpt>
    <trkpt lat="48.397605" lon="-4.479583"><ele>85.0</ele></trkpt>
    <trkpt lat="48.397449" lon="-4.479530"><ele>85.8</ele></trkpt>
    <trkpt lat="48.397668" lon="-4.479650"><ele>85.2</ele></trkpt>
    <trkpt lat="48.397707" lon="-4.479560"><ele>83.8</ele></trkpt>
    <trkpt lat="48.397540" lon="-4.479575"><ele>83.4</ele></trkpt>
    <trkpt lat="48.397652" lon="-4.479651"><ele>83.6</ele></trkpt>
    <trkpt lat="48.397705" lon="-4.479777"><ele>84.2</ele></trkpt>
    <trkpt lat="48.397500" lon="-4.480051"><ele>84.4</ele></trkpt>
    <trkpt lat="48.397217" lon="-4.480525"><ele>83.6</ele></trkpt>
    <trkpt lat="48.396511" lon="-4.481411"><ele>82.0</ele></trkpt>
    <trkpt lat="48.396328" lon="-4.481427"><ele>82.2</ele></trkpt>
    <trkpt lat="48.396268" lon="-4.481258"><ele>82.4</ele></trkpt>
    <trkpt lat="48.396206" lon="-4.481209"><ele>82.4</ele></trkpt>
    <trkpt lat="48.396136" lon="-4.481266"><ele>82.2</ele></trkpt>
    <trkpt lat="48.396084" lon="-4.481442"><ele>81.2</ele></trkpt>
    <trkpt lat="48.395788" lon="-4.481420"><ele>80.0</ele></trkpt>
    <trkpt lat="48.395612" lon="-4.481490"><ele>79.0</ele></trkpt>
    <trkpt lat="48.395559" lon="-4.481438"><ele>78.6</ele></trkpt>
    <trkpt lat="48.395474" lon="-4.481188"><ele>78.4</ele></trkpt>
    <trkpt lat="48.395425" lon="-4.481163"><ele>78.4</ele></trkpt>
    <trkpt lat="48.394762" lon="-4.481964"><ele>74.4</ele></trkpt>
    <trkpt lat="48.394476" lon="-4.482639"><ele>72.8</ele></trkpt>
    <trkpt lat="48.394211" lon="-4.483014"><ele>70.8</ele></trkpt>
    <trkpt lat="48.394061" lon="-4.483160"><ele>70.0</ele></trkpt>
    <trkpt lat="48.394006" lon="-4.483154"><ele>69.6</ele></trkpt>
    <trkpt lat="48.393979" lon="-4.483099"><ele>69.6</ele></trkpt>
    <trkpt lat="48.393699" lon="-4.482167"><ele>68.6</ele></trkpt>
    <trkpt lat="48.393311" lon="-4.482167"><ele>67.2</ele></trkpt>
    <trkpt lat="48.393080" lon="-4.482368"><ele>65.6</ele></trkpt>
    <trkpt lat="48.392950" lon="-4.482561"><ele>64.0</ele></trkpt>
    <trkpt lat="48.393027" lon="-4.482556"><ele>64.0</ele></trkpt>
    <trkpt lat="48.393035" lon="-4.482643"><ele>64.6</ele></trkpt>
    <trkpt lat="48.392857" lon="-4.483069"><ele>65.0</ele></trkpt>
    <trkpt lat="48.392901" lon="-4.482728"><ele>65.4</ele></trkpt>
    <trkpt lat="48.392856" lon="-4.482494"><ele>65.4</ele></trkpt>
    <trkpt lat="48.392810" lon="-4.482441"><ele>65.2</ele></trkpt>
    <trkpt lat="48.392749" lon="-4.482441"><ele>65.2</ele></trkpt>
    <trkpt lat="48.392567" lon="-4.482577"><ele>64.2</ele></trkpt>
    <trkpt lat="48.392244" lon="-4.482868"><ele>61.8</ele></trkpt>
    <trkpt lat="48.392174" lon="-4.482973"><ele>61.4</ele></trkpt>
    <trkpt lat="48.392156" lon="-4.483085"><ele>61.4</ele></trkpt>
    <trkpt lat="48.392238" lon="-4.483291"><ele>61.6</ele></trkpt>
    <trkpt lat="48.392537" lon="-4.483811"><ele>63.8</ele></trkpt>
    <trkpt lat="48.392796" lon="-4.484164"><ele>65.0</ele></trkpt>
    <trkpt lat="48.392814" lon="-4.484218"><ele>64.6</ele></trkpt>
    <trkpt lat="48.392794" lon="-4.484280"><ele>64.2</ele></trkpt>
    <trkpt lat="48.392366" lon="-4.484471"><ele>61.4</ele></trkpt>
    <trkpt lat="48.391934" lon="-4.484559"><ele>58.4</ele></trkpt>
    <trkpt lat="48.391679" lon="-4.484222"><ele>56.8</ele></trkpt>
    <trkpt lat="48.391600" lon="-4.484176"><ele>56.4</ele></trkpt>
    <trkpt lat="48.391510" lon="-4.484199"><ele>56.2</ele></trkpt>
    <trkpt lat="48.391277" lon="-4.484426"><ele>55.2</ele></trkpt>
    <trkpt lat="48.391224" lon="-4.484510"><ele>55.0</ele></trkpt>
    <trkpt lat="48.391218" lon="-4.484596"><ele>54.8</ele></trkpt>
    <trkpt lat="48.391396" lon="-4.484894"><ele>54.2</ele></trkpt>
    <trkpt lat="48.391637" lon="-4.485105"><ele>54.6</ele></trkpt>
    <trkpt lat="48.391777" lon="-4.485172"><ele>54.8</ele></trkpt>
    <trkpt lat="48.391419" lon="-4.485315"><ele>57.6</ele></trkpt>
    <trkpt lat="48.391283" lon="-4.485493"><ele>54.0</ele></trkpt>
    <trkpt lat="48.391078" lon="-4.485517"><ele>51.8</ele></trkpt>
    <trkpt lat="48.390751" lon="-4.485696"><ele>50.0</ele></trkpt>
    <trkpt lat="48.390104" lon="-4.486382"><ele>48.2</ele></trkpt>
    <trkpt lat="48.389709" lon="-4.486357"><ele>46.6</ele></trkpt>
    <trkpt lat="48.389640" lon="-4.486385"><ele>46.4</ele></trkpt>
    <trkpt lat="48.389607" lon="-4.486487"><ele>46.2</ele></trkpt>
    <trkpt lat="48.389554" lon="-4.487073"><ele>45.8</ele></trkpt>
    <trkpt lat="48.389348" lon="-4.487495"><ele>44.0</ele></trkpt>
    <trkpt lat="48.389330" lon="-4.487658"><ele>43.6</ele></trkpt>
    <trkpt lat="48.389620" lon="-4.488297"><ele>43.0</ele></trkpt>
    <trkpt lat="48.389671" lon="-4.488357"><ele>43.0</ele></trkpt>
    <trkpt lat="48.389739" lon="-4.488360"><ele>43.2</ele></trkpt>
    <trkpt lat="48.389658" lon="-4.488480"><ele>43.2</ele></trkpt>
    <trkpt lat="48.389854" lon="-4.488289"><ele>42.8</ele></trkpt>
    <trkpt lat="48.389808" lon="-4.488280"><ele>43.0</ele></trkpt>
    <trkpt lat="48.389736" lon="-4.488363"><ele>42.4</ele></trkpt>
    <trkpt lat="48.389745" lon="-4.488693"><ele>42.0</ele></trkpt>
    <trkpt lat="48.389844" lon="-4.488984"><ele>42.2</ele></trkpt>
    <trkpt lat="48.390054" lon="-4.489383"><ele>42.2</ele></trkpt>
    <trkpt lat="48.390673" lon="-4.490325"><ele>44.8</ele></trkpt>
    <trkpt lat="48.390896" lon="-4.490752"><ele>43.6</ele></trkpt>
    <trkpt lat="48.390867" lon="-4.490865"><ele>43.4</ele></trkpt>
    <trkpt lat="48.390455" lon="-4.491462"><ele>41.0</ele></trkpt>
    <trkpt lat="48.390271" lon="-4.491582"><ele>39.8</ele></trkpt>
    <trkpt lat="48.389991" lon="-4.491901"><ele>36.6</ele></trkpt>
    <trkpt lat="48.389754" lon="-4.492074"><ele>33.6</ele></trkpt>
    <trkpt lat="48.389072" lon="-4.492914"><ele>27.2</ele></trkpt>
    <trkpt lat="48.388869" lon="-4.493057"><ele>26.2</ele></trkpt>
    <trkpt lat="48.388170" lon="-4.492922"><ele>26.2</ele></trkpt>
    <trkpt lat="48.388035" lon="-4.492598"><ele>28.0</ele></trkpt>
    <trkpt lat="48.387863" lon="-4.492330"><ele>29.8</ele></trkpt>
    <trkpt lat="48.387676" lon="-4.491803"><ele>31.8</ele></trkpt>
    <trkpt lat="48.387464" lon="-4.491465"><ele>32.8</ele></trkpt>
    <trkpt lat="48.387358" lon="-4.491400"><ele>32.6</ele></trkpt>
    <trkpt lat="48.386724" lon="-4.492333"><ele>31.6</ele></trkpt>
    <trkpt lat="48.386667" lon="-4.492233"><ele>31.0</ele></trkpt>
    <trkpt lat="48.386621" lon="-4.492228"><ele>30.6</ele></trkpt>
    <trkpt lat="48.386380" lon="-4.492430"><ele>28.4</ele></trkpt>
    <trkpt lat="48.386199" lon="-4.492646"><ele>26.8</ele></trkpt>
    <trkpt lat="48.385823" lon="-4.493216"><ele>24.2</ele></trkpt>
    <trkpt lat="48.385192" lon="-4.493872"><ele>24.2</ele></trkpt>
    <trkpt lat="48.384857" lon="-4.494337"><ele>27.2</ele></trkpt>
    <trkpt lat="48.384737" lon="-4.494432"><ele>27.0</ele></trkpt>
    <trkpt lat="48.384556" lon="-4.494466"><ele>25.4</ele></trkpt>
    <trkpt lat="48.384520" lon="-4.494521"><ele>24.8</ele></trkpt>
    <trkpt lat="48.384480" lon="-4.494683"><ele>23.4</ele></trkpt>
    <trkpt lat="48.384454" lon="-4.495139"><ele>18.8</ele></trkpt>
    <trkpt lat="48.384451" lon="-4.495443"><ele>14.6</ele></trkpt>
    <trkpt lat="48.384477" lon="-4.495608"><ele>12.2</ele></trkpt>
    <trkpt lat="48.384376" lon="-4.496231"><ele>10.2</ele></trkpt>
    <trkpt lat="48.384327" lon="-4.496911"><ele>9.8</ele></trkpt>
    <trkpt lat="48.384276" lon="-4.497141"><ele>9.6</ele></trkpt>
    <trkpt lat="48.384198" lon="-4.498714"><ele>15.8</ele></trkpt>
    <trkpt lat="48.384276" lon="-4.498878"><ele>16.8</ele></trkpt>
    <trkpt lat="48.384520" lon="-4.499102"><ele>18.6</ele></trkpt>
    <trkpt lat="48.384801" lon="-4.499182"><ele>21.2</ele></trkpt>
    <trkpt lat="48.385090" lon="-4.499186"><ele>23.6</ele></trkpt>
    <trkpt lat="48.385216" lon="-4.499252"><ele>24.8</ele></trkpt>
    <trkpt lat="48.385208" lon="-4.499533"><ele>25.4</ele></trkpt>
    <trkpt lat="48.385138" lon="-4.499931"><ele>25.8</ele></trkpt>
    <trkpt lat="48.384900" lon="-4.500884"><ele>26.8</ele></trkpt>
    <trkpt lat="48.384925" lon="-4.501004"><ele>27.6</ele></trkpt>
    <trkpt lat="48.385364" lon="-4.500999"><ele>33.4</ele></trkpt>
    <trkpt lat="48.385698" lon="-4.501162"><ele>37.4</ele></trkpt>
    <trkpt lat="48.385908" lon="-4.501208"><ele>38.6</ele></trkpt>
    <trkpt lat="48.386038" lon="-4.501376"><ele>41.0</ele></trkpt>
    <trkpt lat="48.386101" lon="-4.502154"><ele>44.4</ele></trkpt>
    <trkpt lat="48.386173" lon="-4.503967"><ele>48.6</ele></trkpt>
    <trkpt lat="48.386213" lon="-4.504087"><ele>48.8</ele></trkpt>
    <trkpt lat="48.386339" lon="-4.504079"><ele>49.4</ele></trkpt>
    <trkpt lat="48.386432" lon="-4.503990"><ele>50.0</ele></trkpt>
    <trkpt lat="48.386818" lon="-4.503986"><ele>51.6</ele></trkpt>
    <trkpt lat="48.386981" lon="-4.503457"><ele>49.0</ele></trkpt>
    <trkpt lat="48.386984" lon="-4.503272"><ele>48.6</ele></trkpt>
    <trkpt lat="48.386752" lon="-4.503038"><ele>48.0</ele></trkpt>
    <trkpt lat="48.386742" lon="-4.502982"><ele>48.0</ele></trkpt>
    <trkpt lat="48.386829" lon="-4.502583"><ele>47.6</ele></trkpt>
    <trkpt lat="48.386939" lon="-4.502421"><ele>46.8</ele></trkpt>
    <trkpt lat="48.386995" lon="-4.502406"><ele>46.4</ele></trkpt>
    <trkpt lat="48.386704" lon="-4.502313"><ele>46.2</ele></trkpt>
    <trkpt lat="48.386571" lon="-4.502339"><ele>46.2</ele></trkpt>
    <trkpt lat="48.386553" lon="-4.502310"><ele>46.4</ele></trkpt>
    <trkpt lat="48.386633" lon="-4.502194"><ele>46.2</ele></trkpt>
    <trkpt lat="48.386619" lon="-4.502154"><ele>46.2</ele></trkpt>
    <trkpt lat="48.386655" lon="-4.502137"><ele>46.4</ele></trkpt>
    <trkpt lat="48.386789" lon="-4.501793"><ele>45.8</ele></trkpt>
    <trkpt lat="48.386932" lon="-4.501873"><ele>45.4</ele></trkpt>
    <trkpt lat="48.387247" lon="-4.501945"><ele>45.2</ele></trkpt>
    <trkpt lat="48.387375" lon="-4.502092"><ele>45.8</ele></trkpt>
    <trkpt lat="48.387804" lon="-4.502023"><ele>43.8</ele></trkpt>
    <trkpt lat="48.387972" lon="-4.502052"><ele>43.0</ele></trkpt>
    <trkpt lat="48.387998" lon="-4.502135"><ele>43.2</ele></trkpt>
    <trkpt lat="48.387973" lon="-4.502455"><ele>44.0</ele></trkpt>
    <trkpt lat="48.388018" lon="-4.502564"><ele>44.4</ele></trkpt>
    <trkpt lat="48.388606" lon="-4.502570"><ele>40.4</ele></trkpt>
    <trkpt lat="48.388742" lon="-4.502637"><ele>39.6</ele></trkpt>
    <trkpt lat="48.388763" lon="-4.502723"><ele>39.4</ele></trkpt>
    <trkpt lat="48.388760" lon="-4.503267"><ele>41.0</ele></trkpt>
    <trkpt lat="48.388819" lon="-4.503416"><ele>41.2</ele></trkpt>
    <trkpt lat="48.388940" lon="-4.503477"><ele>40.8</ele></trkpt>
    <trkpt lat="48.389159" lon="-4.503487"><ele>39.0</ele></trkpt>
    <trkpt lat="48.389401" lon="-4.503386"><ele>37.2</ele></trkpt>
    <trkpt lat="48.389412" lon="-4.503323"><ele>37.2</ele></trkpt>
    <trkpt lat="48.389350" lon="-4.503242"><ele>37.0</ele></trkpt>
    <trkpt lat="48.389121" lon="-4.503256"><ele>37.8</ele></trkpt>
    <trkpt lat="48.389167" lon="-4.503299"><ele>37.8</ele></trkpt>
    <trkpt lat="48.389243" lon="-4.503295"><ele>37.8</ele></trkpt>
    <trkpt lat="48.389488" lon="-4.503100"><ele>37.0</ele></trkpt>
    <trkpt lat="48.389607" lon="-4.502701"><ele>35.8</ele></trkpt>
    <trkpt lat="48.389629" lon="-4.502448"><ele>35.0</ele></trkpt>
    <trkpt lat="48.389428" lon="-4.501500"><ele>28.6</ele></trkpt>
    <trkpt lat="48.389113" lon="-4.500763"><ele>22.2</ele></trkpt>
    <trkpt lat="48.388858" lon="-4.499849"><ele>20.2</ele></trkpt>
    <trkpt lat="48.388989" lon="-4.499812"><ele>21.6</ele></trkpt>
    <trkpt lat="48.389073" lon="-4.499703"><ele>24.0</ele></trkpt>
    <trkpt lat="48.389086" lon="-4.499757"><ele>24.8</ele></trkpt>
    <trkpt lat="48.389210" lon="-4.499679"><ele>28.2</ele></trkpt>
    <trkpt lat="48.389388" lon="-4.499950"><ele>32.0</ele></trkpt>
    <trkpt lat="48.389460" lon="-4.499994"><ele>32.4</ele></trkpt>
    <trkpt lat="48.389895" lon="-4.499611"><ele>33.6</ele></trkpt>
    <trkpt lat="48.390037" lon="-4.499422"><ele>32.8</ele></trkpt>
    <trkpt lat="48.390049" lon="-4.499325"><ele>32.2</ele></trkpt>
    <trkpt lat="48.389898" lon="-4.499012"><ele>29.6</ele></trkpt>
    <trkpt lat="48.389821" lon="-4.498969"><ele>29.4</ele></trkpt>
    <trkpt lat="48.389215" lon="-4.499378"><ele>28.8</ele></trkpt>
    <trkpt lat="48.389020" lon="-4.499371"><ele>27.6</ele></trkpt>
    <trkpt lat="48.388624" lon="-4.498975"><ele>19.8</ele></trkpt>
    <trkpt lat="48.388541" lon="-4.498934"><ele>13.2</ele></trkpt>
    <trkpt lat="48.388671" lon="-4.498808"><ele>6.0</ele></trkpt>
  </trkseg></trk>
</gpx>
