<?xml version="1.0" encoding="UTF-8"?>
<gpx version="1.1" creator="tcap-parcours" xmlns="http://www.topografix.com/GPX/1/1">
  <metadata><name>Kerfily – Trohare – Dreizoc – 12,4 km</name></metadata>
  <trk><name>Kerfily – Trohare – Dreizoc – 12,4 km</name><trkseg>
    <trkpt lat="48.370068" lon="-4.640778"><ele>60.0</ele></trkpt>
    <trkpt lat="48.369915" lon="-4.641031"><ele>60.6</ele></trkpt>
    <trkpt lat="48.369795" lon="-4.641459"><ele>59.8</ele></trkpt>
    <trkpt lat="48.369614" lon="-4.641796"><ele>60.8</ele></trkpt>
    <trkpt lat="48.369560" lon="-4.642013"><ele>61.6</ele></trkpt>
    <trkpt lat="48.369552" lon="-4.642221"><ele>61.8</ele></trkpt>
    <trkpt lat="48.369636" lon="-4.642636"><ele>61.2</ele></trkpt>
    <trkpt lat="48.369539" lon="-4.642916"><ele>60.8</ele></trkpt>
    <trkpt lat="48.369547" lon="-4.642987"><ele>60.8</ele></trkpt>
    <trkpt lat="48.369612" lon="-4.643092"><ele>60.6</ele></trkpt>
    <trkpt lat="48.369596" lon="-4.643621"><ele>60.0</ele></trkpt>
    <trkpt lat="48.369528" lon="-4.644028"><ele>59.6</ele></trkpt>
    <trkpt lat="48.369281" lon="-4.644930"><ele>58.8</ele></trkpt>
    <trkpt lat="48.369258" lon="-4.645203"><ele>58.6</ele></trkpt>
    <trkpt lat="48.369274" lon="-4.645674"><ele>57.8</ele></trkpt>
    <trkpt lat="48.369222" lon="-4.646076"><ele>58.2</ele></trkpt>
    <trkpt lat="48.369065" lon="-4.646563"><ele>59.6</ele></trkpt>
    <trkpt lat="48.369057" lon="-4.647079"><ele>60.6</ele></trkpt>
    <trkpt lat="48.368945" lon="-4.647375"><ele>62.4</ele></trkpt>
    <trkpt lat="48.368656" lon="-4.647576"><ele>64.2</ele></trkpt>
    <trkpt lat="48.368581" lon="-4.647730"><ele>65.0</ele></trkpt>
    <trkpt lat="48.368613" lon="-4.647932"><ele>65.6</ele></trkpt>
    <trkpt lat="48.368823" lon="-4.648499"><ele>66.2</ele></trkpt>
    <trkpt lat="48.368886" lon="-4.648824"><ele>66.8</ele></trkpt>
    <trkpt lat="48.368904" lon="-4.649406"><ele>67.4</ele></trkpt>
    <trkpt lat="48.368821" lon="-4.650130"><ele>68.4</ele></trkpt>
    <trkpt lat="48.368696" lon="-4.650460"><ele>69.8</ele></trkpt>
    <trkpt lat="48.368574" lon="-4.650661"><ele>70.6</ele></trkpt>
    <trkpt lat="48.368197" lon="-4.651052"><ele>71.2</ele></trkpt>
    <trkpt lat="48.367795" lon="-4.651564"><ele>72.2</ele></trkpt>
    <trkpt lat="48.367686" lon="-4.651831"><ele>72.2</ele></trkpt>
    <trkpt lat="48.367391" lon="-4.652823"><ele>73.2</ele></trkpt>
    <trkpt lat="48.367262" lon="-4.652935"><ele>73.4</ele></trkpt>
    <trkpt lat="48.367051" lon="-4.652955"><ele>73.8</ele></trkpt>
    <trkpt lat="48.366935" lon="-4.653012"><ele>74.2</ele></trkpt>
    <trkpt lat="48.366630" lon="-4.653377"><ele>74.4</ele></trkpt>
    <trkpt lat="48.366413" lon="-4.653427"><ele>74.4</ele></trkpt>
    <trkpt lat="48.366073" lon="-4.653399"><ele>75.0</ele></trkpt>
    <trkpt lat="48.365919" lon="-4.653432"><ele>75.4</ele></trkpt>
    <trkpt lat="48.365477" lon="-4.653885"><ele>76.0</ele></trkpt>
    <trkpt lat="48.364864" lon="-4.654315"><ele>76.8</ele></trkpt>
    <trkpt lat="48.364492" lon="-4.654495"><ele>77.0</ele></trkpt>
    <trkpt lat="48.364098" lon="-4.654751"><ele>77.4</ele></trkpt>
    <trkpt lat="48.362812" lon="-4.655161"><ele>76.6</ele></trkpt>
    <trkpt lat="48.362708" lon="-4.655294"><ele>76.6</ele></trkpt>
    <trkpt lat="48.362542" lon="-4.656091"><ele>77.2</ele></trkpt>
    <trkpt lat="48.362428" lon="-4.656299"><ele>77.2</ele></trkpt>
    <trkpt lat="48.362306" lon="-4.656351"><ele>76.8</ele></trkpt>
    <trkpt lat="48.361887" lon="-4.656349"><ele>75.4</ele></trkpt>
    <trkpt lat="48.361380" lon="-4.656442"><ele>74.0</ele></trkpt>
    <trkpt lat="48.361016" lon="-4.656660"><ele>73.4</ele></trkpt>
    <trkpt lat="48.360622" lon="-4.656980"><ele>72.6</ele></trkpt>
    <trkpt lat="48.360563" lon="-4.657067"><ele>72.6</ele></trkpt>
    <trkpt lat="48.360521" lon="-4.657219"><ele>72.6</ele></trkpt>
    <trkpt lat="48.360526" lon="-4.657466"><ele>72.4</ele></trkpt>
    <trkpt lat="48.360624" lon="-4.657922"><ele>72.8</ele></trkpt>
    <trkpt lat="48.361222" lon="-4.659057"><ele>72.8</ele></trkpt>
    <trkpt lat="48.361493" lon="-4.659876"><ele>72.8</ele></trkpt>
    <trkpt lat="48.361651" lon="-4.660247"><ele>71.2</ele></trkpt>
    <trkpt lat="48.361712" lon="-4.660718"><ele>69.2</ele></trkpt>
    <trkpt lat="48.361975" lon="-4.662073"><ele>60.2</ele></trkpt>
    <trkpt lat="48.362245" lon="-4.662635"><ele>55.0</ele></trkpt>
    <trkpt lat="48.362284" lon="-4.662986"><ele>56.2</ele></trkpt>
    <trkpt lat="48.362394" lon="-4.663331"><ele>57.4</ele></trkpt>
    <trkpt lat="48.362472" lon="-4.663718"><ele>57.6</ele></trkpt>
    <trkpt lat="48.362432" lon="-4.664539"><ele>57.0</ele></trkpt>
    <trkpt lat="48.362520" lon="-4.665506"><ele>55.8</ele></trkpt>
    <trkpt lat="48.362580" lon="-4.665876"><ele>56.2</ele></trkpt>
    <trkpt lat="48.362617" lon="-4.665914"><ele>56.2</ele></trkpt>
    <trkpt lat="48.362693" lon="-4.665894"><ele>56.4</ele></trkpt>
    <trkpt lat="48.363433" lon="-4.665424"><ele>59.6</ele></trkpt>
    <trkpt lat="48.363765" lon="-4.665168"><ele>61.2</ele></trkpt>
    <trkpt lat="48.363953" lon="-4.664871"><ele>62.0</ele></trkpt>
    <trkpt lat="48.364053" lon="-4.664801"><ele>62.4</ele></trkpt>
    <trkpt lat="48.364139" lon="-4.664863"><ele>62.8</ele></trkpt>
    <trkpt lat="48.364204" lon="-4.665091"><ele>63.0</ele></trkpt>
    <trkpt lat="48.364299" lon="-4.665193"><ele>63.0</ele></trkpt>
    <trkpt lat="48.364800" lon="-4.665406"><ele>66.2</ele></trkpt>
    <trkpt lat="48.365612" lon="-4.665637"><ele>74.0</ele></trkpt>
    <trkpt lat="48.365700" lon="-4.665792"><ele>73.0</ele></trkpt>
    <trkpt lat="48.365705" lon="-4.665957"><ele>72.8</ele></trkpt>
    <trkpt lat="48.365399" lon="-4.667152"><ele>71.2</ele></trkpt>
    <trkpt lat="48.365396" lon="-4.667821"><ele>68.4</ele></trkpt>
    <trkpt lat="48.365342" lon="-4.668635"><ele>65.6</ele></trkpt>
    <trkpt lat="48.365370" lon="-4.669753"><ele>61.4</ele></trkpt>
    <trkpt lat="48.365656" lon="-4.670002"><ele>58.6</ele></trkpt>
    <trkpt lat="48.366099" lon="-4.670514"><ele>54.0</ele></trkpt>
    <trkpt lat="48.366245" lon="-4.670610"><ele>50.2</ele></trkpt>
    <trkpt lat="48.366459" lon="-4.670609"><ele>47.6</ele></trkpt>
    <trkpt lat="48.366619" lon="-4.670545"><ele>45.8</ele></trkpt>
    <trkpt lat="48.367127" lon="-4.670060"><ele>39.8</ele></trkpt>
    <trkpt lat="48.367172" lon="-4.670064"><ele>39.2</ele></trkpt>
    <trkpt lat="48.367474" lon="-4.670464"><ele>31.8</ele></trkpt>
    <trkpt lat="48.367154" lon="-4.670061"><ele>37.4</ele></trkpt>
    <trkpt lat="48.367064" lon="-4.670024"><ele>39.8</ele></trkpt>
    <trkpt lat="48.366923" lon="-4.670090"><ele>43.4</ele></trkpt>
    <trkpt lat="48.366798" lon="-4.670295"><ele>46.8</ele></trkpt>
    <trkpt lat="48.366691" lon="-4.670380"><ele>48.0</ele></trkpt>
    <trkpt lat="48.366269" lon="-4.670560"><ele>51.0</ele></trkpt>
    <trkpt lat="48.366112" lon="-4.670463"><ele>52.0</ele></trkpt>
    <trkpt lat="48.366302" lon="-4.670621"><ele>50.0</ele></trkpt>
    <trkpt lat="48.366579" lon="-4.670564"><ele>46.2</ele></trkpt>
    <trkpt lat="48.366785" lon="-4.670410"><ele>43.6</ele></trkpt>
    <trkpt lat="48.367132" lon="-4.670004"><ele>41.4</ele></trkpt>
    <trkpt lat="48.367281" lon="-4.669242"><ele>49.0</ele></trkpt>
    <trkpt lat="48.367281" lon="-4.669089"><ele>50.0</ele></trkpt>
    <trkpt lat="48.367212" lon="-4.668760"><ele>51.2</ele></trkpt>
    <trkpt lat="48.367266" lon="-4.668938"><ele>49.6</ele></trkpt>
    <trkpt lat="48.367279" lon="-4.669168"><ele>47.8</ele></trkpt>
    <trkpt lat="48.367150" lon="-4.670028"><ele>39.2</ele></trkpt>
    <trkpt lat="48.367485" lon="-4.670488"><ele>33.6</ele></trkpt>
    <trkpt lat="48.367858" lon="-4.671107"><ele>37.0</ele></trkpt>
    <trkpt lat="48.367950" lon="-4.671360"><ele>38.6</ele></trkpt>
    <trkpt lat="48.368008" lon="-4.671726"><ele>39.8</ele></trkpt>
    <trkpt lat="48.367705" lon="-4.670822"><ele>34.2</ele></trkpt>
    <trkpt lat="48.367376" lon="-4.670259"><ele>33.4</ele></trkpt>
    <trkpt lat="48.367167" lon="-4.670001"><ele>39.4</ele></trkpt>
    <trkpt lat="48.367063" lon="-4.670016"><ele>42.2</ele></trkpt>
    <trkpt lat="48.366897" lon="-4.670219"><ele>46.2</ele></trkpt>
    <trkpt lat="48.366657" lon="-4.670421"><ele>48.6</ele></trkpt>
    <trkpt lat="48.366431" lon="-4.670522"><ele>49.8</ele></trkpt>
    <trkpt lat="48.366243" lon="-4.670547"><ele>51.2</ele></trkpt>
    <trkpt lat="48.366072" lon="-4.670414"><ele>52.0</ele></trkpt>
    <trkpt lat="48.366280" lon="-4.670626"><ele>49.2</ele></trkpt>
    <trkpt lat="48.366571" lon="-4.670594"><ele>46.0</ele></trkpt>
    <trkpt lat="48.366874" lon="-4.670332"><ele>42.4</ele></trkpt>
    <trkpt lat="48.367147" lon="-4.670008"><ele>41.4</ele></trkpt>
    <trkpt lat="48.367281" lon="-4.669112"><ele>50.2</ele></trkpt>
    <trkpt lat="48.367210" lon="-4.668749"><ele>51.8</ele></trkpt>
    <trkpt lat="48.367283" lon="-4.668972"><ele>49.8</ele></trkpt>
    <trkpt lat="48.367296" lon="-4.669164"><ele>47.8</ele></trkpt>
    <trkpt lat="48.367183" lon="-4.669742"><ele>41.8</ele></trkpt>
    <trkpt lat="48.367166" lon="-4.670030"><ele>38.4</ele></trkpt>
    <trkpt lat="48.367429" lon="-4.670384"><ele>33.6</ele></trkpt>
    <trkpt lat="48.367853" lon="-4.671082"><ele>36.8</ele></trkpt>
    <trkpt lat="48.367933" lon="-4.671292"><ele>38.4</ele></trkpt>
    <trkpt lat="48.368016" lon="-4.671729"><ele>40.6</ele></trkpt>
    <trkpt lat="48.367805" lon="-4.670966"><ele>35.8</ele></trkpt>
    <trkpt lat="48.367375" lon="-4.670249"><ele>33.8</ele></trkpt>
    <trkpt lat="48.367177" lon="-4.670022"><ele>38.6</ele></trkpt>
    <trkpt lat="48.367023" lon="-4.670015"><ele>42.2</ele></trkpt>
    <trkpt lat="48.366725" lon="-4.670328"><ele>47.4</ele></trkpt>
    <trkpt lat="48.366320" lon="-4.670551"><ele>50.0</ele></trkpt>
    <trkpt lat="48.366229" lon="-4.670531"><ele>51.0</ele></trkpt>
    <trkpt lat="48.366051" lon="-4.670373"><ele>53.0</ele></trkpt>
    <trkpt lat="48.366246" lon="-4.670617"><ele>50.8</ele></trkpt>
    <trkpt lat="48.366541" lon="-4.670590"><ele>47.2</ele></trkpt>
    <trkpt lat="48.366787" lon="-4.670422"><ele>43.8</ele></trkpt>
    <trkpt lat="48.367143" lon="-4.669996"><ele>41.0</ele></trkpt>
    <trkpt lat="48.367285" lon="-4.669224"><ele>49.8</ele></trkpt>
    <trkpt lat="48.367269" lon="-4.668986"><ele>51.4</ele></trkpt>
    <trkpt lat="48.367205" lon="-4.668744"><ele>52.4</ele></trkpt>
    <trkpt lat="48.367266" lon="-4.668910"><ele>50.8</ele></trkpt>
    <trkpt lat="48.367282" lon="-4.669123"><ele>48.8</ele></trkpt>
    <trkpt lat="48.367175" lon="-4.669763"><ele>42.2</ele></trkpt>
    <trkpt lat="48.367169" lon="-4.670017"><ele>38.8</ele></trkpt>
    <trkpt lat="48.367661" lon="-4.670774"><ele>33.8</ele></trkpt>
    <trkpt lat="48.367965" lon="-4.671370"><ele>38.8</ele></trkpt>
    <trkpt lat="48.368001" lon="-4.671677"><ele>39.4</ele></trkpt>
    <trkpt lat="48.367889" lon="-4.671125"><ele>37.2</ele></trkpt>
    <trkpt lat="48.367845" lon="-4.671033"><ele>36.4</ele></trkpt>
    <trkpt lat="48.367338" lon="-4.670214"><ele>34.6</ele></trkpt>
    <trkpt lat="48.367125" lon="-4.669992"><ele>40.0</ele></trkpt>
    <trkpt lat="48.366980" lon="-4.670054"><ele>43.2</ele></trkpt>
    <trkpt lat="48.366724" lon="-4.670332"><ele>46.6</ele></trkpt>
    <trkpt lat="48.366424" lon="-4.670514"><ele>49.0</ele></trkpt>
    <trkpt lat="48.366236" lon="-4.670535"><ele>51.0</ele></trkpt>
    <trkpt lat="48.366074" lon="-4.670403"><ele>52.6</ele></trkpt>
    <trkpt lat="48.366184" lon="-4.670559"><ele>51.4</ele></trkpt>
    <trkpt lat="48.366262" lon="-4.670606"><ele>50.2</ele></trkpt>
    <trkpt lat="48.366598" lon="-4.670526"><ele>46.2</ele></trkpt>
    <trkpt lat="48.366764" lon="-4.670423"><ele>44.4</ele></trkpt>
    <trkpt lat="48.367143" lon="-4.669993"><ele>41.6</ele></trkpt>
    <trkpt lat="48.367284" lon="-4.669205"><ele>49.8</ele></trkpt>
    <trkpt lat="48.367265" lon="-4.668940"><ele>52.0</ele></trkpt>
    <trkpt lat="48.367196" lon="-4.668736"><ele>52.6</ele></trkpt>
    <trkpt lat="48.367269" lon="-4.668934"><ele>50.8</ele></trkpt>
    <trkpt lat="48.367284" lon="-4.669154"><ele>48.6</ele></trkpt>
    <trkpt lat="48.367154" lon="-4.669844"><ele>41.8</ele></trkpt>
    <trkpt lat="48.367150" lon="-4.669987"><ele>40.2</ele></trkpt>
    <trkpt lat="48.367858" lon="-4.671122"><ele>36.2</ele></trkpt>
    <trkpt lat="48.367942" lon="-4.671338"><ele>37.8</ele></trkpt>
    <trkpt lat="48.368025" lon="-4.671761"><ele>40.2</ele></trkpt>
    <trkpt lat="48.367850" lon="-4.671030"><ele>36.4</ele></trkpt>
    <trkpt lat="48.367376" lon="-4.670256"><ele>34.2</ele></trkpt>
    <trkpt lat="48.367165" lon="-4.670004"><ele>39.0</ele></trkpt>
    <trkpt lat="48.367066" lon="-4.670010"><ele>41.4</ele></trkpt>
    <trkpt lat="48.366589" lon="-4.670441"><ele>48.2</ele></trkpt>
    <trkpt lat="48.366263" lon="-4.670546"><ele>50.8</ele></trkpt>
    <trkpt lat="48.366092" lon="-4.670426"><ele>52.0</ele></trkpt>
    <trkpt lat="48.366260" lon="-4.670623"><ele>50.0</ele></trkpt>
    <trkpt lat="48.366528" lon="-4.670611"><ele>46.4</ele></trkpt>
    <trkpt lat="48.366832" lon="-4.670395"><ele>42.4</ele></trkpt>
    <trkpt lat="48.367121" lon="-4.670036"><ele>40.6</ele></trkpt>
    <trkpt lat="48.367163" lon="-4.669937"><ele>41.4</ele></trkpt>
    <trkpt lat="48.367291" lon="-4.669154"><ele>50.6</ele></trkpt>
    <trkpt lat="48.367274" lon="-4.668935"><ele>52.0</ele></trkpt>
    <trkpt lat="48.367210" lon="-4.668726"><ele>51.6</ele></trkpt>
    <trkpt lat="48.367274" lon="-4.668912"><ele>49.6</ele></trkpt>
    <trkpt lat="48.367298" lon="-4.669166"><ele>47.4</ele></trkpt>
    <trkpt lat="48.367146" lon="-4.670018"><ele>40.2</ele></trkpt>
    <trkpt lat="48.367458" lon="-4.670416"><ele>34.0</ele></trkpt>
    <trkpt lat="48.367846" lon="-4.671132"><ele>35.6</ele></trkpt>
    <trkpt lat="48.367947" lon="-4.671471"><ele>37.8</ele></trkpt>
    <trkpt lat="48.367988" lon="-4.671842"><ele>40.0</ele></trkpt>
    <trkpt lat="48.367605" lon="-4.672310"><ele>39.4</ele></trkpt>
    <trkpt lat="48.367311" lon="-4.672733"><ele>37.0</ele></trkpt>
    <trkpt lat="48.366565" lon="-4.674368"><ele>29.0</ele></trkpt>
    <trkpt lat="48.365474" lon="-4.676562"><ele>24.6</ele></trkpt>
    <trkpt lat="48.365317" lon="-4.676946"><ele>23.8</ele></trkpt>
    <trkpt lat="48.365283" lon="-4.677139"><ele>24.4</ele></trkpt>
    <trkpt lat="48.365300" lon="-4.677205"><ele>24.8</ele></trkpt>
    <trkpt lat="48.365473" lon="-4.677416"><ele>26.8</ele></trkpt>
    <trkpt lat="48.365714" lon="-4.677814"><ele>30.2</ele></trkpt>
    <trkpt lat="48.365862" lon="-4.677917"><ele>31.6</ele></trkpt>
    <trkpt lat="48.365973" lon="-4.677863"><ele>32.6</ele></trkpt>
    <trkpt lat="48.366362" lon="-4.677309"><ele>36.2</ele></trkpt>
    <trkpt lat="48.366808" lon="-4.676894"><ele>41.6</ele></trkpt>
    <trkpt lat="48.367187" lon="-4.676423"><ele>44.6</ele></trkpt>
    <trkpt lat="48.367750" lon="-4.675971"><ele>46.0</ele></trkpt>
    <trkpt lat="48.368096" lon="-4.675471"><ele>47.4</ele></trkpt>
    <trkpt lat="48.368157" lon="-4.675458"><ele>47.4</ele></trkpt>
    <trkpt lat="48.368307" lon="-4.676131"><ele>45.0</ele></trkpt>
    <trkpt lat="48.368358" lon="-4.676191"><ele>44.8</ele></trkpt>
    <trkpt lat="48.368446" lon="-4.676201"><ele>44.8</ele></trkpt>
    <trkpt lat="48.368776" lon="-4.676000"><ele>47.2</ele></trkpt>
    <trkpt lat="48.369544" lon="-4.675665"><ele>53.8</ele></trkpt>
    <trkpt lat="48.370201" lon="-4.675243"><ele>60.6</ele></trkpt>
    <trkpt lat="48.371238" lon="-4.674809"><ele>64.0</ele></trkpt>
    <trkpt lat="48.371307" lon="-4.674748"><ele>64.2</ele></trkpt>
    <trkpt lat="48.371405" lon="-4.674531"><ele>64.8</ele></trkpt>
    <trkpt lat="48.371668" lon="-4.674396"><ele>65.8</ele></trkpt>
    <trkpt lat="48.372137" lon="-4.674267"><ele>68.4</ele></trkpt>
    <trkpt lat="48.372467" lon="-4.673963"><ele>69.6</ele></trkpt>
    <trkpt lat="48.372688" lon="-4.673824"><ele>70.2</ele></trkpt>
    <trkpt lat="48.374077" lon="-4.672623"><ele>76.8</ele></trkpt>
    <trkpt lat="48.374376" lon="-4.672327"><ele>78.6</ele></trkpt>
    <trkpt lat="48.374562" lon="-4.672020"><ele>79.4</ele></trkpt>
    <trkpt lat="48.374814" lon="-4.671884"><ele>79.8</ele></trkpt>
    <trkpt lat="48.375258" lon="-4.669858"><ele>84.0</ele></trkpt>
    <trkpt lat="48.375423" lon="-4.669455"><ele>84.6</ele></trkpt>
    <trkpt lat="48.375871" lon="-4.668757"><ele>85.2</ele></trkpt>
    <trkpt lat="48.376307" lon="-4.667176"><ele>84.6</ele></trkpt>
    <trkpt lat="48.376515" lon="-4.666732"><ele>83.8</ele></trkpt>
    <trkpt lat="48.377226" lon="-4.665623"><ele>83.0</ele></trkpt>
    <trkpt lat="48.377373" lon="-4.665228"><ele>83.6</ele></trkpt>
    <trkpt lat="48.377469" lon="-4.664769"><ele>83.6</ele></trkpt>
    <trkpt lat="48.377451" lon="-4.664335"><ele>83.0</ele></trkpt>
    <trkpt lat="48.377387" lon="-4.663938"><ele>82.4</ele></trkpt>
    <trkpt lat="48.376990" lon="-4.662787"><ele>82.0</ele></trkpt>
    <trkpt lat="48.376869" lon="-4.662347"><ele>81.4</ele></trkpt>
    <trkpt lat="48.376745" lon="-4.661222"><ele>78.8</ele></trkpt>
    <trkpt lat="48.376545" lon="-4.660659"><ele>76.4</ele></trkpt>
    <trkpt lat="48.376205" lon="-4.659934"><ele>71.4</ele></trkpt>
    <trkpt lat="48.376164" lon="-4.659770"><ele>70.4</ele></trkpt>
    <trkpt lat="48.376175" lon="-4.659669"><ele>70.2</ele></trkpt>
    <trkpt lat="48.376357" lon="-4.659414"><ele>71.4</ele></trkpt>
    <trkpt lat="48.376640" lon="-4.659139"><ele>73.6</ele></trkpt>
    <trkpt lat="48.376912" lon="-4.658984"><ele>74.4</ele></trkpt>
    <trkpt lat="48.377516" lon="-4.658793"><ele>75.6</ele></trkpt>
    <trkpt lat="48.377856" lon="-4.658451"><ele>75.4</ele></trkpt>
    <trkpt lat="48.378011" lon="-4.658464"><ele>75.8</ele></trkpt>
    <trkpt lat="48.378204" lon="-4.658659"><ele>76.8</ele></trkpt>
    <trkpt lat="48.378305" lon="-4.658710"><ele>76.8</ele></trkpt>
    <trkpt lat="48.378654" lon="-4.658543"><ele>76.2</ele></trkpt>
    <trkpt lat="48.378757" lon="-4.658358"><ele>76.0</ele></trkpt>
    <trkpt lat="48.378891" lon="-4.657389"><ele>74.0</ele></trkpt>
    <trkpt lat="48.378994" lon="-4.656328"><ele>71.2</ele></trkpt>
    <trkpt lat="48.378974" lon="-4.656253"><ele>71.0</ele></trkpt>
    <trkpt lat="48.378715" lon="-4.656097"><ele>70.2</ele></trkpt>
    <trkpt lat="48.377775" lon="-4.655771"><ele>65.8</ele></trkpt>
    <trkpt lat="48.377611" lon="-4.655618"><ele>64.6</ele></trkpt>
    <trkpt lat="48.377547" lon="-4.655483"><ele>64.0</ele></trkpt>
    <trkpt lat="48.377505" lon="-4.655288"><ele>63.4</ele></trkpt>
    <trkpt lat="48.377362" lon="-4.653793"><ele>60.6</ele></trkpt>
    <trkpt lat="48.377273" lon="-4.653496"><ele>60.0</ele></trkpt>
    <trkpt lat="48.377086" lon="-4.653322"><ele>59.8</ele></trkpt>
    <trkpt lat="48.376412" lon="-4.652924"><ele>59.8</ele></trkpt>
    <trkpt lat="48.375910" lon="-4.652462"><ele>58.4</ele></trkpt>
    <trkpt lat="48.374838" lon="-4.650781"><ele>58.0</ele></trkpt>
    <trkpt lat="48.374370" lon="-4.649902"><ele>56.6</ele></trkpt>
    <trkpt lat="48.374368" lon="-4.649827"><ele>56.4</ele></trkpt>
    <trkpt lat="48.374446" lon="-4.649844"><ele>56.0</ele></trkpt>
    <trkpt lat="48.374858" lon="-4.649235"><ele>54.8</ele></trkpt>
    <trkpt lat="48.375019" lon="-4.649061"><ele>55.2</ele></trkpt>
    <trkpt lat="48.375571" lon="-4.648026"><ele>52.0</ele></trkpt>
    <trkpt lat="48.376123" lon="-4.647144"><ele>50.8</ele></trkpt>
    <trkpt lat="48.376273" lon="-4.646737"><ele>51.0</ele></trkpt>
    <trkpt lat="48.376307" lon="-4.646497"><ele>51.2</ele></trkpt>
    <trkpt lat="48.376336" lon="-4.645668"><ele>51.6</ele></trkpt>
    <trkpt lat="48.376267" lon="-4.645513"><ele>51.8</ele></trkpt>
    <trkpt lat="48.375945" lon="-4.645142"><ele>52.6</ele></trkpt>
    <trkpt lat="48.375906" lon="-4.644571"><ele>52.0</ele></trkpt>
    <trkpt lat="48.375734" lon="-4.643819"><ele>53.0</ele></trkpt>
    <trkpt lat="48.375308" lon="-4.643858"><ele>53.2</ele></trkpt>
    <trkpt lat="48.375200" lon="-4.643627"><ele>53.2</ele></trkpt>
    <trkpt lat="48.375086" lon="-4.643513"><ele>53.2</ele></trkpt>
    <trkpt lat="48.375029" lon="-4.643364"><ele>53.2</ele></trkpt>
    <trkpt lat="48.374805" lon="-4.643285"><ele>53.8</ele></trkpt>
    <trkpt lat="48.374686" lon="-4.643044"><ele>53.4</ele></trkpt>
    <trkpt lat="48.374458" lon="-4.642838"><ele>52.4</ele></trkpt>
    <trkpt lat="48.374376" lon="-4.642612"><ele>52.4</ele></trkpt>
    <trkpt lat="48.374193" lon="-4.641755"><ele>52.0</ele></trkpt>
    <trkpt lat="48.374108" lon="-4.641614"><ele>52.0</ele></trkpt>
    <trkpt lat="48.373938" lon="-4.641499"><ele>52.0</ele></trkpt>
    <trkpt lat="48.373790" lon="-4.641156"><ele>51.2</ele></trkpt>
    <trkpt lat="48.373766" lon="-4.641013"><ele>51.0</ele></trkpt>
    <trkpt lat="48.373809" lon="-4.640421"><ele>52.2</ele></trkpt>
    <trkpt lat="48.373745" lon="-4.640210"><ele>53.0</ele></trkpt>
    <trkpt lat="48.373643" lon="-4.640091"><ele>53.4</ele></trkpt>
    <trkpt lat="48.373206" lon="-4.639835"><ele>53.4</ele></trkpt>
    <trkpt lat="48.372945" lon="-4.639823"><ele>52.8</ele></trkpt>
    <trkpt lat="48.372875" lon="-4.639891"><ele>52.8</ele></trkpt>
    <trkpt lat="48.372769" lon="-4.640097"><ele>52.8</ele></trkpt>
    <trkpt lat="48.372605" lon="-4.640509"><ele>54.0</ele></trkpt>
    <trkpt lat="48.372519" lon="-4.640578"><ele>54.6</ele></trkpt>
    <trkpt lat="48.372111" lon="-4.640500"><ele>56.4</ele></trkpt>
    <trkpt lat="48.371539" lon="-4.640536"><ele>56.6</ele></trkpt>
    <trkpt lat="48.371030" lon="-4.640292"><ele>58.4</ele></trkpt>
    <trkpt lat="48.370688" lon="-4.639973"><ele>60.2</ele></trkpt>
    <trkpt lat="48.370388" lon="-4.640061"><ele>61.6</ele></trkpt>
  </trkseg></trk>
</gpx>
