<?xml version="1.0" encoding="UTF-8"?>
<gpx version="1.1" creator="tcap-parcours" xmlns="http://www.topografix.com/GPX/1/1">
  <metadata><name>Kerguestoc – Mescouezel – Kerivin – 13,3 km</name></metadata>
  <trk><name>Kerguestoc – Mescouezel – Kerivin – 13,3 km</name><trkseg>
    <trkpt lat="48.370232" lon="-4.640436"><ele>60.0</ele></trkpt>
    <trkpt lat="48.370263" lon="-4.640211"><ele>60.0</ele></trkpt>
    <trkpt lat="48.370717" lon="-4.640025"><ele>59.2</ele></trkpt>
    <trkpt lat="48.371105" lon="-4.640337"><ele>58.4</ele></trkpt>
    <trkpt lat="48.371540" lon="-4.640573"><ele>57.2</ele></trkpt>
    <trkpt lat="48.371995" lon="-4.640538"><ele>56.2</ele></trkpt>
    <trkpt lat="48.372531" lon="-4.640586"><ele>54.0</ele></trkpt>
    <trkpt lat="48.372621" lon="-4.640503"><ele>53.8</ele></trkpt>
    <trkpt lat="48.372906" lon="-4.639899"><ele>53.8</ele></trkpt>
    <trkpt lat="48.372963" lon="-4.639855"><ele>53.4</ele></trkpt>
    <trkpt lat="48.373110" lon="-4.639864"><ele>53.0</ele></trkpt>
    <trkpt lat="48.373202" lon="-4.639548"><ele>52.4</ele></trkpt>
    <trkpt lat="48.373274" lon="-4.639489"><ele>52.2</ele></trkpt>
    <trkpt lat="48.374350" lon="-4.640046"><ele>50.4</ele></trkpt>
    <trkpt lat="48.374483" lon="-4.640061"><ele>50.0</ele></trkpt>
    <trkpt lat="48.374583" lon="-4.639995"><ele>49.8</ele></trkpt>
    <trkpt lat="48.374774" lon="-4.639657"><ele>49.0</ele></trkpt>
    <trkpt lat="48.375431" lon="-4.638869"><ele>49.4</ele></trkpt>
    <trkpt lat="48.375612" lon="-4.638608"><ele>49.2</ele></trkpt>
    <trkpt lat="48.375675" lon="-4.638461"><ele>49.4</ele></trkpt>
    <trkpt lat="48.375674" lon="-4.638278"><ele>49.6</ele></trkpt>
    <trkpt lat="48.375618" lon="-4.638171"><ele>49.8</ele></trkpt>
    <trkpt lat="48.375207" lon="-4.638047"><ele>49.8</ele></trkpt>
    <trkpt lat="48.375165" lon="-4.637947"><ele>49.6</ele></trkpt>
    <trkpt lat="48.375447" lon="-4.635852"><ele>49.6</ele></trkpt>
    <trkpt lat="48.375629" lon="-4.635118"><ele>50.6</ele></trkpt>
    <trkpt lat="48.375631" lon="-4.635015"><ele>50.6</ele></trkpt>
    <trkpt lat="48.375572" lon="-4.634803"><ele>51.0</ele></trkpt>
    <trkpt lat="48.376152" lon="-4.633465"><ele>50.8</ele></trkpt>
    <trkpt lat="48.376166" lon="-4.633355"><ele>50.6</ele></trkpt>
    <trkpt lat="48.376122" lon="-4.633306"><ele>50.0</ele></trkpt>
    <trkpt lat="48.374669" lon="-4.633463"><ele>52.4</ele></trkpt>
    <trkpt lat="48.374274" lon="-4.633459"><ele>52.6</ele></trkpt>
    <trkpt lat="48.373768" lon="-4.633554"><ele>53.4</ele></trkpt>
    <trkpt lat="48.373448" lon="-4.633721"><ele>53.6</ele></trkpt>
    <trkpt lat="48.372853" lon="-4.633936"><ele>53.8</ele></trkpt>
    <trkpt lat="48.372563" lon="-4.633984"><ele>54.2</ele></trkpt>
    <trkpt lat="48.372144" lon="-4.633946"><ele>54.4</ele></trkpt>
    <trkpt lat="48.371738" lon="-4.633967"><ele>54.6</ele></trkpt>
    <trkpt lat="48.371627" lon="-4.633890"><ele>55.4</ele></trkpt>
    <trkpt lat="48.371605" lon="-4.633796"><ele>56.0</ele></trkpt>
    <trkpt lat="48.371767" lon="-4.633001"><ele>57.2</ele></trkpt>
    <trkpt lat="48.371758" lon="-4.632781"><ele>57.2</ele></trkpt>
    <trkpt lat="48.371145" lon="-4.632576"><ele>58.0</ele></trkpt>
    <trkpt lat="48.370288" lon="-4.632179"><ele>60.0</ele></trkpt>
    <trkpt lat="48.370096" lon="-4.632131"><ele>60.2</ele></trkpt>
    <trkpt lat="48.369727" lon="-4.631714"><ele>60.4</ele></trkpt>
    <trkpt lat="48.369637" lon="-4.631685"><ele>60.8</ele></trkpt>
    <trkpt lat="48.369491" lon="-4.631880"><ele>61.4</ele></trkpt>
    <trkpt lat="48.369378" lon="-4.632239"><ele>62.0</ele></trkpt>
    <trkpt lat="48.369259" lon="-4.632431"><ele>61.8</ele></trkpt>
    <trkpt lat="48.368829" lon="-4.634785"><ele>63.0</ele></trkpt>
    <trkpt lat="48.368797" lon="-4.634877"><ele>63.2</ele></trkpt>
    <trkpt lat="48.368737" lon="-4.634907"><ele>63.4</ele></trkpt>
    <trkpt lat="48.368525" lon="-4.634831"><ele>64.0</ele></trkpt>
    <trkpt lat="48.367820" lon="-4.634746"><ele>64.6</ele></trkpt>
    <trkpt lat="48.367344" lon="-4.634458"><ele>63.8</ele></trkpt>
    <trkpt lat="48.367106" lon="-4.634076"><ele>63.0</ele></trkpt>
    <trkpt lat="48.367007" lon="-4.633987"><ele>62.8</ele></trkpt>
    <trkpt lat="48.366633" lon="-4.633930"><ele>62.8</ele></trkpt>
    <trkpt lat="48.366008" lon="-4.633682"><ele>62.0</ele></trkpt>
    <trkpt lat="48.365826" lon="-4.633567"><ele>61.4</ele></trkpt>
    <trkpt lat="48.365366" lon="-4.633111"><ele>60.0</ele></trkpt>
    <trkpt lat="48.364899" lon="-4.632913"><ele>60.2</ele></trkpt>
    <trkpt lat="48.364820" lon="-4.632706"><ele>60.4</ele></trkpt>
    <trkpt lat="48.364461" lon="-4.632360"><ele>62.0</ele></trkpt>
    <trkpt lat="48.364343" lon="-4.632020"><ele>63.2</ele></trkpt>
    <trkpt lat="48.364202" lon="-4.630631"><ele>65.6</ele></trkpt>
    <trkpt lat="48.364317" lon="-4.629913"><ele>66.8</ele></trkpt>
    <trkpt lat="48.364293" lon="-4.629750"><ele>67.0</ele></trkpt>
    <trkpt lat="48.363524" lon="-4.629500"><ele>69.4</ele></trkpt>
    <trkpt lat="48.363268" lon="-4.629354"><ele>70.6</ele></trkpt>
    <trkpt lat="48.363077" lon="-4.629114"><ele>70.4</ele></trkpt>
    <trkpt lat="48.363071" lon="-4.629015"><ele>70.4</ele></trkpt>
    <trkpt lat="48.363111" lon="-4.628888"><ele>70.2</ele></trkpt>
    <trkpt lat="48.363879" lon="-4.627276"><ele>69.8</ele></trkpt>
    <trkpt lat="48.364090" lon="-4.626509"><ele>69.6</ele></trkpt>
    <trkpt lat="48.364033" lon="-4.626409"><ele>69.8</ele></trkpt>
    <trkpt lat="48.363203" lon="-4.625986"><ele>72.8</ele></trkpt>
    <trkpt lat="48.362685" lon="-4.625632"><ele>75.2</ele></trkpt>
    <trkpt lat="48.362456" lon="-4.625422"><ele>75.8</ele></trkpt>
    <trkpt lat="48.362476" lon="-4.625302"><ele>75.8</ele></trkpt>
    <trkpt lat="48.362720" lon="-4.625038"><ele>75.8</ele></trkpt>
    <trkpt lat="48.362805" lon="-4.624778"><ele>76.0</ele></trkpt>
    <trkpt lat="48.362722" lon="-4.624173"><ele>77.8</ele></trkpt>
    <trkpt lat="48.362740" lon="-4.622537"><ele>82.4</ele></trkpt>
    <trkpt lat="48.363579" lon="-4.622674"><ele>79.6</ele></trkpt>
    <trkpt lat="48.364163" lon="-4.622596"><ele>78.4</ele></trkpt>
    <trkpt lat="48.364630" lon="-4.622672"><ele>76.6</ele></trkpt>
    <trkpt lat="48.364708" lon="-4.622595"><ele>76.8</ele></trkpt>
    <trkpt lat="48.364755" lon="-4.622222"><ele>77.8</ele></trkpt>
    <trkpt lat="48.364753" lon="-4.621193"><ele>78.0</ele></trkpt>
    <trkpt lat="48.364844" lon="-4.620536"><ele>77.4</ele></trkpt>
    <trkpt lat="48.364917" lon="-4.620296"><ele>77.0</ele></trkpt>
    <trkpt lat="48.365101" lon="-4.619978"><ele>76.6</ele></trkpt>
    <trkpt lat="48.365205" lon="-4.619598"><ele>76.6</ele></trkpt>
    <trkpt lat="48.365165" lon="-4.619453"><ele>76.8</ele></trkpt>
    <trkpt lat="48.364972" lon="-4.619300"><ele>77.0</ele></trkpt>
    <trkpt lat="48.364923" lon="-4.619191"><ele>77.0</ele></trkpt>
    <trkpt lat="48.365008" lon="-4.618435"><ele>76.8</ele></trkpt>
    <trkpt lat="48.365024" lon="-4.617947"><ele>77.0</ele></trkpt>
    <trkpt lat="48.364902" lon="-4.616081"><ele>80.0</ele></trkpt>
    <trkpt lat="48.365019" lon="-4.615021"><ele>81.6</ele></trkpt>
    <trkpt lat="48.365084" lon="-4.614784"><ele>81.8</ele></trkpt>
    <trkpt lat="48.365178" lon="-4.614093"><ele>81.0</ele></trkpt>
    <trkpt lat="48.365343" lon="-4.613288"><ele>79.2</ele></trkpt>
    <trkpt lat="48.365453" lon="-4.612965"><ele>78.2</ele></trkpt>
    <trkpt lat="48.365519" lon="-4.612917"><ele>77.8</ele></trkpt>
    <trkpt lat="48.365683" lon="-4.612930"><ele>77.4</ele></trkpt>
    <trkpt lat="48.366134" lon="-4.613098"><ele>76.6</ele></trkpt>
    <trkpt lat="48.366474" lon="-4.613324"><ele>76.6</ele></trkpt>
    <trkpt lat="48.367035" lon="-4.613879"><ele>76.6</ele></trkpt>
    <trkpt lat="48.367397" lon="-4.614029"><ele>75.8</ele></trkpt>
    <trkpt lat="48.368483" lon="-4.614599"><ele>75.0</ele></trkpt>
    <trkpt lat="48.369148" lon="-4.614848"><ele>74.6</ele></trkpt>
    <trkpt lat="48.369314" lon="-4.614847"><ele>74.4</ele></trkpt>
    <trkpt lat="48.369443" lon="-4.614736"><ele>74.2</ele></trkpt>
    <trkpt lat="48.369658" lon="-4.614307"><ele>73.8</ele></trkpt>
    <trkpt lat="48.369746" lon="-4.613898"><ele>72.8</ele></trkpt>
    <trkpt lat="48.369853" lon="-4.613123"><ele>71.4</ele></trkpt>
    <trkpt lat="48.370045" lon="-4.612572"><ele>69.8</ele></trkpt>
    <trkpt lat="48.370184" lon="-4.611196"><ele>67.2</ele></trkpt>
    <trkpt lat="48.370339" lon="-4.610326"><ele>65.8</ele></trkpt>
    <trkpt lat="48.370398" lon="-4.610246"><ele>65.6</ele></trkpt>
    <trkpt lat="48.370485" lon="-4.610217"><ele>65.2</ele></trkpt>
    <trkpt lat="48.371288" lon="-4.610255"><ele>64.0</ele></trkpt>
    <trkpt lat="48.371712" lon="-4.610124"><ele>63.0</ele></trkpt>
    <trkpt lat="48.371955" lon="-4.610162"><ele>62.4</ele></trkpt>
    <trkpt lat="48.372042" lon="-4.610023"><ele>62.4</ele></trkpt>
    <trkpt lat="48.372089" lon="-4.609418"><ele>61.6</ele></trkpt>
    <trkpt lat="48.372238" lon="-4.608553"><ele>61.2</ele></trkpt>
    <trkpt lat="48.373105" lon="-4.604912"><ele>70.4</ele></trkpt>
    <trkpt lat="48.373532" lon="-4.604066"><ele>72.2</ele></trkpt>
    <trkpt lat="48.374401" lon="-4.602585"><ele>72.4</ele></trkpt>
    <trkpt lat="48.374491" lon="-4.602387"><ele>72.8</ele></trkpt>
    <trkpt lat="48.374489" lon="-4.602287"><ele>73.0</ele></trkpt>
    <trkpt lat="48.374245" lon="-4.602015"><ele>73.4</ele></trkpt>
    <trkpt lat="48.373451" lon="-4.600758"><ele>78.6</ele></trkpt>
    <trkpt lat="48.373045" lon="-4.600190"><ele>81.4</ele></trkpt>
    <trkpt lat="48.372951" lon="-4.600214"><ele>81.6</ele></trkpt>
    <trkpt lat="48.372681" lon="-4.600515"><ele>81.4</ele></trkpt>
    <trkpt lat="48.372500" lon="-4.600844"><ele>81.0</ele></trkpt>
    <trkpt lat="48.372436" lon="-4.600877"><ele>81.0</ele></trkpt>
    <trkpt lat="48.372298" lon="-4.600763"><ele>81.6</ele></trkpt>
    <trkpt lat="48.371687" lon="-4.600573"><ele>82.8</ele></trkpt>
    <trkpt lat="48.371277" lon="-4.600284"><ele>83.6</ele></trkpt>
    <trkpt lat="48.370569" lon="-4.600250"><ele>83.0</ele></trkpt>
    <trkpt lat="48.370371" lon="-4.600020"><ele>82.6</ele></trkpt>
    <trkpt lat="48.369985" lon="-4.599828"><ele>82.6</ele></trkpt>
    <trkpt lat="48.369754" lon="-4.599782"><ele>82.2</ele></trkpt>
    <trkpt lat="48.369460" lon="-4.600201"><ele>80.8</ele></trkpt>
    <trkpt lat="48.369179" lon="-4.600867"><ele>78.0</ele></trkpt>
    <trkpt lat="48.369039" lon="-4.601360"><ele>76.6</ele></trkpt>
    <trkpt lat="48.368939" lon="-4.601434"><ele>76.2</ele></trkpt>
    <trkpt lat="48.368791" lon="-4.601327"><ele>76.0</ele></trkpt>
    <trkpt lat="48.368676" lon="-4.601039"><ele>76.6</ele></trkpt>
    <trkpt lat="48.368589" lon="-4.600913"><ele>77.2</ele></trkpt>
    <trkpt lat="48.368147" lon="-4.600532"><ele>80.0</ele></trkpt>
    <trkpt lat="48.368001" lon="-4.599691"><ele>84.2</ele></trkpt>
    <trkpt lat="48.367840" lon="-4.599378"><ele>84.6</ele></trkpt>
    <trkpt lat="48.367685" lon="-4.599275"><ele>84.8</ele></trkpt>
    <trkpt lat="48.367133" lon="-4.599210"><ele>86.0</ele></trkpt>
    <trkpt lat="48.366821" lon="-4.599112"><ele>86.4</ele></trkpt>
    <trkpt lat="48.366698" lon="-4.599153"><ele>86.6</ele></trkpt>
    <trkpt lat="48.366366" lon="-4.599497"><ele>86.2</ele></trkpt>
    <trkpt lat="48.366145" lon="-4.599802"><ele>85.6</ele></trkpt>
    <trkpt lat="48.365782" lon="-4.600104"><ele>85.0</ele></trkpt>
    <trkpt lat="48.365531" lon="-4.600262"><ele>85.0</ele></trkpt>
    <trkpt lat="48.365217" lon="-4.600376"><ele>84.8</ele></trkpt>
    <trkpt lat="48.364818" lon="-4.600333"><ele>84.6</ele></trkpt>
    <trkpt lat="48.364603" lon="-4.600255"><ele>85.0</ele></trkpt>
    <trkpt lat="48.364411" lon="-4.600034"><ele>85.8</ele></trkpt>
    <trkpt lat="48.364209" lon="-4.599631"><ele>86.6</ele></trkpt>
    <trkpt lat="48.364079" lon="-4.599442"><ele>86.2</ele></trkpt>
    <trkpt lat="48.363630" lon="-4.600494"><ele>85.0</ele></trkpt>
    <trkpt lat="48.363520" lon="-4.600625"><ele>84.6</ele></trkpt>
    <trkpt lat="48.363335" lon="-4.600686"><ele>84.4</ele></trkpt>
    <trkpt lat="48.363041" lon="-4.600633"><ele>84.6</ele></trkpt>
    <trkpt lat="48.362724" lon="-4.600633"><ele>85.0</ele></trkpt>
    <trkpt lat="48.362079" lon="-4.599728"><ele>88.6</ele></trkpt>
    <trkpt lat="48.361688" lon="-4.599564"><ele>88.6</ele></trkpt>
    <trkpt lat="48.361221" lon="-4.599488"><ele>88.6</ele></trkpt>
    <trkpt lat="48.360718" lon="-4.599539"><ele>89.2</ele></trkpt>
    <trkpt lat="48.360370" lon="-4.599470"><ele>87.8</ele></trkpt>
    <trkpt lat="48.359859" lon="-4.599480"><ele>86.4</ele></trkpt>
    <trkpt lat="48.359587" lon="-4.599549"><ele>86.4</ele></trkpt>
    <trkpt lat="48.359279" lon="-4.599705"><ele>86.8</ele></trkpt>
    <trkpt lat="48.359167" lon="-4.599874"><ele>86.8</ele></trkpt>
    <trkpt lat="48.359080" lon="-4.600335"><ele>87.4</ele></trkpt>
    <trkpt lat="48.359037" lon="-4.601630"><ele>88.6</ele></trkpt>
    <trkpt lat="48.359071" lon="-4.602377"><ele>89.4</ele></trkpt>
    <trkpt lat="48.359261" lon="-4.603564"><ele>90.0</ele></trkpt>
    <trkpt lat="48.359261" lon="-4.603716"><ele>90.2</ele></trkpt>
    <trkpt lat="48.359236" lon="-4.603777"><ele>90.2</ele></trkpt>
    <trkpt lat="48.359163" lon="-4.603819"><ele>90.4</ele></trkpt>
    <trkpt lat="48.358586" lon="-4.603882"><ele>90.8</ele></trkpt>
    <trkpt lat="48.358515" lon="-4.603930"><ele>91.0</ele></trkpt>
    <trkpt lat="48.358468" lon="-4.604024"><ele>91.0</ele></trkpt>
    <trkpt lat="48.358464" lon="-4.604262"><ele>91.0</ele></trkpt>
    <trkpt lat="48.358584" lon="-4.605508"><ele>88.8</ele></trkpt>
    <trkpt lat="48.358533" lon="-4.607211"><ele>86.8</ele></trkpt>
    <trkpt lat="48.358462" lon="-4.607418"><ele>86.8</ele></trkpt>
    <trkpt lat="48.357725" lon="-4.608672"><ele>86.8</ele></trkpt>
    <trkpt lat="48.357385" lon="-4.610025"><ele>88.8</ele></trkpt>
    <trkpt lat="48.357423" lon="-4.610201"><ele>88.6</ele></trkpt>
    <trkpt lat="48.358042" lon="-4.610510"><ele>89.2</ele></trkpt>
    <trkpt lat="48.358118" lon="-4.610586"><ele>89.4</ele></trkpt>
    <trkpt lat="48.358079" lon="-4.611258"><ele>90.2</ele></trkpt>
    <trkpt lat="48.357923" lon="-4.611907"><ele>89.4</ele></trkpt>
    <trkpt lat="48.357887" lon="-4.612590"><ele>88.6</ele></trkpt>
    <trkpt lat="48.357819" lon="-4.612699"><ele>88.6</ele></trkpt>
    <trkpt lat="48.357454" lon="-4.612587"><ele>88.2</ele></trkpt>
    <trkpt lat="48.357373" lon="-4.612611"><ele>88.2</ele></trkpt>
    <trkpt lat="48.357320" lon="-4.612703"><ele>88.2</ele></trkpt>
    <trkpt lat="48.357009" lon="-4.614404"><ele>89.2</ele></trkpt>
    <trkpt lat="48.356976" lon="-4.615183"><ele>89.6</ele></trkpt>
    <trkpt lat="48.356902" lon="-4.615731"><ele>89.0</ele></trkpt>
    <trkpt lat="48.356770" lon="-4.616376"><ele>88.4</ele></trkpt>
    <trkpt lat="48.356542" lon="-4.617221"><ele>87.2</ele></trkpt>
    <trkpt lat="48.356467" lon="-4.617302"><ele>87.0</ele></trkpt>
    <trkpt lat="48.356286" lon="-4.617361"><ele>86.6</ele></trkpt>
    <trkpt lat="48.355368" lon="-4.617480"><ele>85.8</ele></trkpt>
    <trkpt lat="48.355183" lon="-4.617575"><ele>85.8</ele></trkpt>
    <trkpt lat="48.355289" lon="-4.619440"><ele>83.4</ele></trkpt>
    <trkpt lat="48.355220" lon="-4.621185"><ele>80.6</ele></trkpt>
    <trkpt lat="48.355234" lon="-4.621785"><ele>79.4</ele></trkpt>
    <trkpt lat="48.355305" lon="-4.621902"><ele>79.0</ele></trkpt>
    <trkpt lat="48.355542" lon="-4.622101"><ele>78.6</ele></trkpt>
    <trkpt lat="48.356057" lon="-4.622353"><ele>76.6</ele></trkpt>
    <trkpt lat="48.356115" lon="-4.622528"><ele>76.0</ele></trkpt>
    <trkpt lat="48.356148" lon="-4.622941"><ele>75.4</ele></trkpt>
    <trkpt lat="48.356212" lon="-4.623039"><ele>75.2</ele></trkpt>
    <trkpt lat="48.356433" lon="-4.622988"><ele>75.2</ele></trkpt>
    <trkpt lat="48.356477" lon="-4.623024"><ele>75.8</ele></trkpt>
    <trkpt lat="48.356725" lon="-4.623017"><ele>76.4</ele></trkpt>
    <trkpt lat="48.357192" lon="-4.623096"><ele>78.8</ele></trkpt>
    <trkpt lat="48.357601" lon="-4.623204"><ele>80.6</ele></trkpt>
    <trkpt lat="48.358264" lon="-4.623496"><ele>82.6</ele></trkpt>
    <trkpt lat="48.358288" lon="-4.623601"><ele>82.6</ele></trkpt>
    <trkpt lat="48.358259" lon="-4.624078"><ele>82.6</ele></trkpt>
    <trkpt lat="48.358366" lon="-4.624370"><ele>82.6</ele></trkpt>
    <trkpt lat="48.358497" lon="-4.624444"><ele>82.8</ele></trkpt>
    <trkpt lat="48.358569" lon="-4.624556"><ele>83.0</ele></trkpt>
    <trkpt lat="48.358723" lon="-4.624687"><ele>83.6</ele></trkpt>
    <trkpt lat="48.359095" lon="-4.624941"><ele>83.4</ele></trkpt>
    <trkpt lat="48.359171" lon="-4.625067"><ele>83.4</ele></trkpt>
    <trkpt lat="48.359043" lon="-4.625861"><ele>82.8</ele></trkpt>
    <trkpt lat="48.358986" lon="-4.626417"><ele>82.8</ele></trkpt>
    <trkpt lat="48.358973" lon="-4.626704"><ele>82.8</ele></trkpt>
    <trkpt lat="48.358999" lon="-4.626820"><ele>82.6</ele></trkpt>
    <trkpt lat="48.360076" lon="-4.627719"><ele>79.4</ele></trkpt>
    <trkpt lat="48.360999" lon="-4.628585"><ele>75.8</ele></trkpt>
    <trkpt lat="48.361376" lon="-4.629265"><ele>73.4</ele></trkpt>
    <trkpt lat="48.361509" lon="-4.629320"><ele>73.4</ele></trkpt>
    <trkpt lat="48.361916" lon="-4.629342"><ele>72.4</ele></trkpt>
    <trkpt lat="48.362375" lon="-4.629733"><ele>71.2</ele></trkpt>
    <trkpt lat="48.362554" lon="-4.629789"><ele>71.0</ele></trkpt>
    <trkpt lat="48.362737" lon="-4.629716"><ele>70.8</ele></trkpt>
    <trkpt lat="48.362814" lon="-4.629609"><ele>70.8</ele></trkpt>
    <trkpt lat="48.362952" lon="-4.629288"><ele>70.6</ele></trkpt>
    <trkpt lat="48.363140" lon="-4.629193"><ele>70.4</ele></trkpt>
    <trkpt lat="48.363290" lon="-4.629392"><ele>70.0</ele></trkpt>
    <trkpt lat="48.363486" lon="-4.629530"><ele>69.6</ele></trkpt>
    <trkpt lat="48.363883" lon="-4.629675"><ele>68.4</ele></trkpt>
    <trkpt lat="48.364257" lon="-4.629754"><ele>67.4</ele></trkpt>
    <trkpt lat="48.364365" lon="-4.629818"><ele>67.2</ele></trkpt>
    <trkpt lat="48.364369" lon="-4.629924"><ele>67.0</ele></trkpt>
    <trkpt lat="48.364251" lon="-4.630236"><ele>66.6</ele></trkpt>
    <trkpt lat="48.364226" lon="-4.630415"><ele>66.4</ele></trkpt>
    <trkpt lat="48.364368" lon="-4.632109"><ele>62.4</ele></trkpt>
    <trkpt lat="48.364520" lon="-4.632487"><ele>61.6</ele></trkpt>
    <trkpt lat="48.364880" lon="-4.632827"><ele>59.6</ele></trkpt>
    <trkpt lat="48.364965" lon="-4.633021"><ele>59.4</ele></trkpt>
    <trkpt lat="48.365434" lon="-4.633200"><ele>59.6</ele></trkpt>
    <trkpt lat="48.365838" lon="-4.633625"><ele>60.6</ele></trkpt>
    <trkpt lat="48.366020" lon="-4.633736"><ele>61.0</ele></trkpt>
    <trkpt lat="48.366655" lon="-4.633987"><ele>61.8</ele></trkpt>
    <trkpt lat="48.367039" lon="-4.634051"><ele>62.6</ele></trkpt>
    <trkpt lat="48.367170" lon="-4.634174"><ele>62.6</ele></trkpt>
    <trkpt lat="48.367372" lon="-4.634502"><ele>62.8</ele></trkpt>
    <trkpt lat="48.367599" lon="-4.634656"><ele>63.2</ele></trkpt>
    <trkpt lat="48.368026" lon="-4.634826"><ele>63.8</ele></trkpt>
    <trkpt lat="48.368613" lon="-4.634896"><ele>63.4</ele></trkpt>
    <trkpt lat="48.368779" lon="-4.634989"><ele>62.8</ele></trkpt>
    <trkpt lat="48.368812" lon="-4.635156"><ele>62.6</ele></trkpt>
    <trkpt lat="48.368695" lon="-4.635808"><ele>64.8</ele></trkpt>
    <trkpt lat="48.368090" lon="-4.638348"><ele>69.6</ele></trkpt>
    <trkpt lat="48.367654" lon="-4.639154"><ele>70.4</ele></trkpt>
    <trkpt lat="48.367585" lon="-4.639384"><ele>70.4</ele></trkpt>
    <trkpt lat="48.367207" lon="-4.640149"><ele>71.2</ele></trkpt>
    <trkpt lat="48.366883" lon="-4.640973"><ele>70.6</ele></trkpt>
    <trkpt lat="48.366955" lon="-4.640843"><ele>70.8</ele></trkpt>
    <trkpt lat="48.367036" lon="-4.640821"><ele>70.8</ele></trkpt>
    <trkpt lat="48.367772" lon="-4.640954"><ele>70.4</ele></trkpt>
    <trkpt lat="48.368243" lon="-4.641281"><ele>70.6</ele></trkpt>
    <trkpt lat="48.368449" lon="-4.641317"><ele>69.8</ele></trkpt>
    <trkpt lat="48.368693" lon="-4.641309"><ele>68.0</ele></trkpt>
    <trkpt lat="48.369197" lon="-4.641087"><ele>63.8</ele></trkpt>
    <trkpt lat="48.369370" lon="-4.641059"><ele>62.6</ele></trkpt>
    <trkpt lat="48.369520" lon="-4.641520"><ele>63.0</ele></trkpt>
    <trkpt lat="48.369574" lon="-4.641593"><ele>63.2</ele></trkpt>
    <trkpt lat="48.369681" lon="-4.641624"><ele>63.4</ele></trkpt>
    <trkpt lat="48.369796" lon="-4.641591"><ele>63.6</ele></trkpt>
    <trkpt lat="48.369851" lon="-4.641515"><ele>63.6</ele></trkpt>
    <trkpt lat="48.369908" lon="-4.641229"><ele>63.4</ele></trkpt>
    <trkpt lat="48.370040" lon="-4.640812"><ele>62.8</ele></trkpt>
  </trkseg></trk>
</gpx>
