<?xml version="1.0" encoding="UTF-8"?>
<gpx version="1.1" creator="tcap-parcours" xmlns="http://www.topografix.com/GPX/1/1">
  <metadata><name>Kerlannou – Poulfos – Kélédern – Quéléren – 17,1 km</name></metadata>
  <trk><name>Kerlannou – Poulfos – Kélédern – Quéléren – 17,1 km</name><trkseg>
    <trkpt lat="48.370097" lon="-4.640439"><ele>60.4</ele></trkpt>
    <trkpt lat="48.370114" lon="-4.640220"><ele>60.2</ele></trkpt>
    <trkpt lat="48.370140" lon="-4.640187"><ele>60.2</ele></trkpt>
    <trkpt lat="48.370377" lon="-4.640166"><ele>60.0</ele></trkpt>
    <trkpt lat="48.370724" lon="-4.640043"><ele>58.6</ele></trkpt>
    <trkpt lat="48.371146" lon="-4.640374"><ele>57.6</ele></trkpt>
    <trkpt lat="48.371552" lon="-4.640566"><ele>56.4</ele></trkpt>
    <trkpt lat="48.371914" lon="-4.640528"><ele>55.0</ele></trkpt>
    <trkpt lat="48.372561" lon="-4.640602"><ele>54.0</ele></trkpt>
    <trkpt lat="48.372640" lon="-4.640520"><ele>54.0</ele></trkpt>
    <trkpt lat="48.372733" lon="-4.640238"><ele>54.0</ele></trkpt>
    <trkpt lat="48.372886" lon="-4.639938"><ele>53.4</ele></trkpt>
    <trkpt lat="48.372967" lon="-4.639858"><ele>53.0</ele></trkpt>
    <trkpt lat="48.373152" lon="-4.639826"><ele>52.2</ele></trkpt>
    <trkpt lat="48.373260" lon="-4.639555"><ele>51.4</ele></trkpt>
    <trkpt lat="48.373320" lon="-4.639497"><ele>51.2</ele></trkpt>
    <trkpt lat="48.373515" lon="-4.639563"><ele>50.8</ele></trkpt>
    <trkpt lat="48.373951" lon="-4.639864"><ele>50.6</ele></trkpt>
    <trkpt lat="48.374395" lon="-4.640066"><ele>50.0</ele></trkpt>
    <trkpt lat="48.374484" lon="-4.640088"><ele>50.2</ele></trkpt>
    <trkpt lat="48.374567" lon="-4.640039"><ele>50.2</ele></trkpt>
    <trkpt lat="48.374877" lon="-4.639572"><ele>49.6</ele></trkpt>
    <trkpt lat="48.375413" lon="-4.638954"><ele>48.8</ele></trkpt>
    <trkpt lat="48.375618" lon="-4.638628"><ele>48.2</ele></trkpt>
    <trkpt lat="48.375717" lon="-4.638387"><ele>48.8</ele></trkpt>
    <trkpt lat="48.375722" lon="-4.638253"><ele>49.2</ele></trkpt>
    <trkpt lat="48.375668" lon="-4.638153"><ele>49.4</ele></trkpt>
    <trkpt lat="48.375242" lon="-4.638054"><ele>49.0</ele></trkpt>
    <trkpt lat="48.375182" lon="-4.638007"><ele>48.8</ele></trkpt>
    <trkpt lat="48.375169" lon="-4.637921"><ele>48.6</ele></trkpt>
    <trkpt lat="48.375234" lon="-4.637599"><ele>48.8</ele></trkpt>
    <trkpt lat="48.375442" lon="-4.635957"><ele>49.0</ele></trkpt>
    <trkpt lat="48.375645" lon="-4.635091"><ele>50.2</ele></trkpt>
    <trkpt lat="48.375649" lon="-4.634954"><ele>50.4</ele></trkpt>
    <trkpt lat="48.375602" lon="-4.634768"><ele>50.4</ele></trkpt>
    <trkpt lat="48.376127" lon="-4.633569"><ele>50.8</ele></trkpt>
    <trkpt lat="48.376171" lon="-4.633435"><ele>50.8</ele></trkpt>
    <trkpt lat="48.376161" lon="-4.633358"><ele>51.0</ele></trkpt>
    <trkpt lat="48.375313" lon="-4.633337"><ele>51.6</ele></trkpt>
    <trkpt lat="48.374520" lon="-4.633406"><ele>52.6</ele></trkpt>
    <trkpt lat="48.373916" lon="-4.633505"><ele>52.8</ele></trkpt>
    <trkpt lat="48.372810" lon="-4.633953"><ele>52.8</ele></trkpt>
    <trkpt lat="48.372421" lon="-4.634001"><ele>53.0</ele></trkpt>
    <trkpt lat="48.372037" lon="-4.633954"><ele>53.4</ele></trkpt>
    <trkpt lat="48.371742" lon="-4.633969"><ele>53.8</ele></trkpt>
    <trkpt lat="48.371659" lon="-4.633925"><ele>54.0</ele></trkpt>
    <trkpt lat="48.371618" lon="-4.633818"><ele>54.0</ele></trkpt>
    <trkpt lat="48.371777" lon="-4.633049"><ele>56.0</ele></trkpt>
    <trkpt lat="48.371789" lon="-4.632850"><ele>56.4</ele></trkpt>
    <trkpt lat="48.371754" lon="-4.632766"><ele>56.6</ele></trkpt>
    <trkpt lat="48.371249" lon="-4.632621"><ele>57.6</ele></trkpt>
    <trkpt lat="48.370263" lon="-4.632166"><ele>59.4</ele></trkpt>
    <trkpt lat="48.370071" lon="-4.632126"><ele>59.8</ele></trkpt>
    <trkpt lat="48.369749" lon="-4.631714"><ele>60.6</ele></trkpt>
    <trkpt lat="48.369655" lon="-4.631669"><ele>60.6</ele></trkpt>
    <trkpt lat="48.369480" lon="-4.631877"><ele>60.8</ele></trkpt>
    <trkpt lat="48.369371" lon="-4.632236"><ele>60.8</ele></trkpt>
    <trkpt lat="48.369235" lon="-4.632488"><ele>60.8</ele></trkpt>
    <trkpt lat="48.368886" lon="-4.634430"><ele>62.8</ele></trkpt>
    <trkpt lat="48.368765" lon="-4.634924"><ele>62.6</ele></trkpt>
    <trkpt lat="48.368699" lon="-4.634944"><ele>62.8</ele></trkpt>
    <trkpt lat="48.368537" lon="-4.634878"><ele>63.2</ele></trkpt>
    <trkpt lat="48.367922" lon="-4.634807"><ele>64.0</ele></trkpt>
    <trkpt lat="48.367384" lon="-4.634513"><ele>64.0</ele></trkpt>
    <trkpt lat="48.367016" lon="-4.633994"><ele>63.4</ele></trkpt>
    <trkpt lat="48.366923" lon="-4.633948"><ele>63.2</ele></trkpt>
    <trkpt lat="48.366598" lon="-4.633915"><ele>62.8</ele></trkpt>
    <trkpt lat="48.365893" lon="-4.633602"><ele>61.4</ele></trkpt>
    <trkpt lat="48.365710" lon="-4.633473"><ele>60.8</ele></trkpt>
    <trkpt lat="48.365371" lon="-4.633100"><ele>60.2</ele></trkpt>
    <trkpt lat="48.364897" lon="-4.632920"><ele>60.0</ele></trkpt>
    <trkpt lat="48.364841" lon="-4.632727"><ele>60.0</ele></trkpt>
    <trkpt lat="48.364583" lon="-4.632588"><ele>60.4</ele></trkpt>
    <trkpt lat="48.364488" lon="-4.632494"><ele>60.8</ele></trkpt>
    <trkpt lat="48.364416" lon="-4.632345"><ele>61.6</ele></trkpt>
    <trkpt lat="48.364344" lon="-4.632038"><ele>62.6</ele></trkpt>
    <trkpt lat="48.364340" lon="-4.631613"><ele>64.0</ele></trkpt>
    <trkpt lat="48.364288" lon="-4.631214"><ele>65.0</ele></trkpt>
    <trkpt lat="48.364261" lon="-4.630597"><ele>65.6</ele></trkpt>
    <trkpt lat="48.364286" lon="-4.630258"><ele>65.4</ele></trkpt>
    <trkpt lat="48.364362" lon="-4.629880"><ele>66.2</ele></trkpt>
    <trkpt lat="48.364324" lon="-4.629731"><ele>66.8</ele></trkpt>
    <trkpt lat="48.363925" lon="-4.629650"><ele>68.0</ele></trkpt>
    <trkpt lat="48.363458" lon="-4.629470"><ele>69.0</ele></trkpt>
    <trkpt lat="48.363046" lon="-4.629100"><ele>70.8</ele></trkpt>
    <trkpt lat="48.362988" lon="-4.629128"><ele>70.8</ele></trkpt>
    <trkpt lat="48.362894" lon="-4.629266"><ele>70.4</ele></trkpt>
    <trkpt lat="48.362723" lon="-4.629638"><ele>70.0</ele></trkpt>
    <trkpt lat="48.362550" lon="-4.629733"><ele>70.2</ele></trkpt>
    <trkpt lat="48.362324" lon="-4.629661"><ele>71.0</ele></trkpt>
    <trkpt lat="48.361889" lon="-4.629278"><ele>73.0</ele></trkpt>
    <trkpt lat="48.361363" lon="-4.629192"><ele>73.4</ele></trkpt>
    <trkpt lat="48.361027" lon="-4.628538"><ele>76.0</ele></trkpt>
    <trkpt lat="48.360499" lon="-4.628121"><ele>77.8</ele></trkpt>
    <trkpt lat="48.360082" lon="-4.627706"><ele>79.4</ele></trkpt>
    <trkpt lat="48.359005" lon="-4.626778"><ele>82.2</ele></trkpt>
    <trkpt lat="48.358972" lon="-4.626640"><ele>82.4</ele></trkpt>
    <trkpt lat="48.359021" lon="-4.625949"><ele>82.8</ele></trkpt>
    <trkpt lat="48.359078" lon="-4.625439"><ele>83.2</ele></trkpt>
    <trkpt lat="48.359148" lon="-4.625130"><ele>84.0</ele></trkpt>
    <trkpt lat="48.359110" lon="-4.624875"><ele>83.6</ele></trkpt>
    <trkpt lat="48.358591" lon="-4.624509"><ele>83.4</ele></trkpt>
    <trkpt lat="48.358309" lon="-4.624133"><ele>82.6</ele></trkpt>
    <trkpt lat="48.358246" lon="-4.623960"><ele>82.6</ele></trkpt>
    <trkpt lat="48.358249" lon="-4.623506"><ele>82.8</ele></trkpt>
    <trkpt lat="48.358209" lon="-4.623393"><ele>82.6</ele></trkpt>
    <trkpt lat="48.357831" lon="-4.623315"><ele>81.4</ele></trkpt>
    <trkpt lat="48.357452" lon="-4.623132"><ele>80.4</ele></trkpt>
    <trkpt lat="48.356827" lon="-4.623081"><ele>75.8</ele></trkpt>
    <trkpt lat="48.356503" lon="-4.623011"><ele>74.6</ele></trkpt>
    <trkpt lat="48.356371" lon="-4.623047"><ele>74.6</ele></trkpt>
    <trkpt lat="48.356692" lon="-4.628558"><ele>72.8</ele></trkpt>
    <trkpt lat="48.356559" lon="-4.629997"><ele>71.8</ele></trkpt>
    <trkpt lat="48.356441" lon="-4.630569"><ele>71.6</ele></trkpt>
    <trkpt lat="48.356344" lon="-4.630825"><ele>71.2</ele></trkpt>
    <trkpt lat="48.356313" lon="-4.631373"><ele>71.6</ele></trkpt>
    <trkpt lat="48.356355" lon="-4.631971"><ele>72.8</ele></trkpt>
    <trkpt lat="48.356185" lon="-4.633029"><ele>72.4</ele></trkpt>
    <trkpt lat="48.356199" lon="-4.633107"><ele>72.2</ele></trkpt>
    <trkpt lat="48.356294" lon="-4.633234"><ele>72.2</ele></trkpt>
    <trkpt lat="48.356299" lon="-4.633342"><ele>72.0</ele></trkpt>
    <trkpt lat="48.356045" lon="-4.634319"><ele>69.6</ele></trkpt>
    <trkpt lat="48.355846" lon="-4.634934"><ele>69.2</ele></trkpt>
    <trkpt lat="48.355773" lon="-4.635488"><ele>70.0</ele></trkpt>
    <trkpt lat="48.355791" lon="-4.635759"><ele>69.8</ele></trkpt>
    <trkpt lat="48.355736" lon="-4.636099"><ele>69.6</ele></trkpt>
    <trkpt lat="48.355747" lon="-4.636434"><ele>70.4</ele></trkpt>
    <trkpt lat="48.355721" lon="-4.636565"><ele>71.0</ele></trkpt>
    <trkpt lat="48.356011" lon="-4.637809"><ele>73.4</ele></trkpt>
    <trkpt lat="48.356025" lon="-4.638326"><ele>74.4</ele></trkpt>
    <trkpt lat="48.356090" lon="-4.638603"><ele>75.6</ele></trkpt>
    <trkpt lat="48.355996" lon="-4.638889"><ele>76.4</ele></trkpt>
    <trkpt lat="48.356002" lon="-4.639012"><ele>76.4</ele></trkpt>
    <trkpt lat="48.356733" lon="-4.639534"><ele>76.2</ele></trkpt>
    <trkpt lat="48.356806" lon="-4.639659"><ele>76.4</ele></trkpt>
    <trkpt lat="48.356542" lon="-4.640678"><ele>78.2</ele></trkpt>
    <trkpt lat="48.356527" lon="-4.640862"><ele>78.4</ele></trkpt>
    <trkpt lat="48.356557" lon="-4.641118"><ele>79.2</ele></trkpt>
    <trkpt lat="48.356502" lon="-4.641492"><ele>80.0</ele></trkpt>
    <trkpt lat="48.356437" lon="-4.641760"><ele>80.4</ele></trkpt>
    <trkpt lat="48.356222" lon="-4.642289"><ele>80.2</ele></trkpt>
    <trkpt lat="48.356192" lon="-4.642576"><ele>80.4</ele></trkpt>
    <trkpt lat="48.356211" lon="-4.642889"><ele>80.8</ele></trkpt>
    <trkpt lat="48.356281" lon="-4.643252"><ele>80.6</ele></trkpt>
    <trkpt lat="48.356675" lon="-4.644042"><ele>80.0</ele></trkpt>
    <trkpt lat="48.356762" lon="-4.644431"><ele>79.8</ele></trkpt>
    <trkpt lat="48.356478" lon="-4.644616"><ele>80.0</ele></trkpt>
    <trkpt lat="48.356102" lon="-4.645082"><ele>80.2</ele></trkpt>
    <trkpt lat="48.355871" lon="-4.645284"><ele>80.0</ele></trkpt>
    <trkpt lat="48.354907" lon="-4.645780"><ele>75.8</ele></trkpt>
    <trkpt lat="48.354532" lon="-4.645932"><ele>75.2</ele></trkpt>
    <trkpt lat="48.354211" lon="-4.645873"><ele>74.6</ele></trkpt>
    <trkpt lat="48.353588" lon="-4.645538"><ele>75.2</ele></trkpt>
    <trkpt lat="48.353257" lon="-4.645411"><ele>74.6</ele></trkpt>
    <trkpt lat="48.352488" lon="-4.645264"><ele>75.8</ele></trkpt>
    <trkpt lat="48.352234" lon="-4.645307"><ele>75.8</ele></trkpt>
    <trkpt lat="48.351953" lon="-4.645442"><ele>75.2</ele></trkpt>
    <trkpt lat="48.351491" lon="-4.645856"><ele>74.4</ele></trkpt>
    <trkpt lat="48.350956" lon="-4.646689"><ele>70.0</ele></trkpt>
    <trkpt lat="48.350920" lon="-4.646820"><ele>69.4</ele></trkpt>
    <trkpt lat="48.351106" lon="-4.647322"><ele>68.0</ele></trkpt>
    <trkpt lat="48.351398" lon="-4.648322"><ele>64.2</ele></trkpt>
    <trkpt lat="48.351447" lon="-4.648616"><ele>62.8</ele></trkpt>
    <trkpt lat="48.351390" lon="-4.648939"><ele>60.8</ele></trkpt>
    <trkpt lat="48.351391" lon="-4.649088"><ele>60.2</ele></trkpt>
    <trkpt lat="48.351659" lon="-4.649860"><ele>58.2</ele></trkpt>
    <trkpt lat="48.351702" lon="-4.650106"><ele>57.8</ele></trkpt>
    <trkpt lat="48.351709" lon="-4.650518"><ele>56.6</ele></trkpt>
    <trkpt lat="48.351496" lon="-4.650660"><ele>55.4</ele></trkpt>
    <trkpt lat="48.351322" lon="-4.650871"><ele>54.4</ele></trkpt>
    <trkpt lat="48.351120" lon="-4.651313"><ele>52.6</ele></trkpt>
    <trkpt lat="48.350020" lon="-4.652937"><ele>44.2</ele></trkpt>
    <trkpt lat="48.349955" lon="-4.652932"><ele>44.2</ele></trkpt>
    <trkpt lat="48.349827" lon="-4.652819"><ele>44.2</ele></trkpt>
    <trkpt lat="48.349597" lon="-4.652483"><ele>45.6</ele></trkpt>
    <trkpt lat="48.349386" lon="-4.652276"><ele>46.2</ele></trkpt>
    <trkpt lat="48.349047" lon="-4.652217"><ele>46.0</ele></trkpt>
    <trkpt lat="48.348579" lon="-4.652252"><ele>46.6</ele></trkpt>
    <trkpt lat="48.348451" lon="-4.652834"><ele>46.0</ele></trkpt>
    <trkpt lat="48.348475" lon="-4.652978"><ele>45.8</ele></trkpt>
    <trkpt lat="48.348311" lon="-4.653264"><ele>44.0</ele></trkpt>
    <trkpt lat="48.348351" lon="-4.653491"><ele>42.0</ele></trkpt>
    <trkpt lat="48.348204" lon="-4.653693"><ele>39.4</ele></trkpt>
    <trkpt lat="48.348483" lon="-4.654077"><ele>35.6</ele></trkpt>
    <trkpt lat="48.348593" lon="-4.654486"><ele>35.6</ele></trkpt>
    <trkpt lat="48.348712" lon="-4.654705"><ele>33.8</ele></trkpt>
    <trkpt lat="48.348855" lon="-4.654883"><ele>30.6</ele></trkpt>
    <trkpt lat="48.348974" lon="-4.655270"><ele>32.4</ele></trkpt>
    <trkpt lat="48.348971" lon="-4.655502"><ele>34.0</ele></trkpt>
    <trkpt lat="48.348861" lon="-4.655895"><ele>34.2</ele></trkpt>
    <trkpt lat="48.348901" lon="-4.656295"><ele>35.2</ele></trkpt>
    <trkpt lat="48.348991" lon="-4.656406"><ele>36.4</ele></trkpt>
    <trkpt lat="48.349169" lon="-4.656425"><ele>37.6</ele></trkpt>
    <trkpt lat="48.349275" lon="-4.656504"><ele>37.8</ele></trkpt>
    <trkpt lat="48.349382" lon="-4.656755"><ele>37.0</ele></trkpt>
    <trkpt lat="48.349478" lon="-4.657515"><ele>29.6</ele></trkpt>
    <trkpt lat="48.349522" lon="-4.657655"><ele>28.6</ele></trkpt>
    <trkpt lat="48.349725" lon="-4.657827"><ele>27.6</ele></trkpt>
    <trkpt lat="48.349869" lon="-4.658057"><ele>27.0</ele></trkpt>
    <trkpt lat="48.350041" lon="-4.658197"><ele>26.0</ele></trkpt>
    <trkpt lat="48.350414" lon="-4.658844"><ele>22.6</ele></trkpt>
    <trkpt lat="48.350469" lon="-4.659096"><ele>21.0</ele></trkpt>
    <trkpt lat="48.350426" lon="-4.659580"><ele>18.4</ele></trkpt>
    <trkpt lat="48.350747" lon="-4.660064"><ele>20.2</ele></trkpt>
    <trkpt lat="48.350784" lon="-4.660205"><ele>20.4</ele></trkpt>
    <trkpt lat="48.350786" lon="-4.660478"><ele>20.8</ele></trkpt>
    <trkpt lat="48.350983" lon="-4.660721"><ele>22.8</ele></trkpt>
    <trkpt lat="48.351007" lon="-4.660794"><ele>23.0</ele></trkpt>
    <trkpt lat="48.351010" lon="-4.660890"><ele>23.0</ele></trkpt>
    <trkpt lat="48.350946" lon="-4.661067"><ele>23.0</ele></trkpt>
    <trkpt lat="48.350938" lon="-4.661515"><ele>22.0</ele></trkpt>
    <trkpt lat="48.351335" lon="-4.662109"><ele>27.6</ele></trkpt>
    <trkpt lat="48.351569" lon="-4.662383"><ele>29.2</ele></trkpt>
    <trkpt lat="48.351698" lon="-4.662651"><ele>29.0</ele></trkpt>
    <trkpt lat="48.351802" lon="-4.662737"><ele>29.0</ele></trkpt>
    <trkpt lat="48.352523" lon="-4.662884"><ele>30.4</ele></trkpt>
    <trkpt lat="48.353674" lon="-4.662733"><ele>38.8</ele></trkpt>
    <trkpt lat="48.353900" lon="-4.662778"><ele>37.6</ele></trkpt>
    <trkpt lat="48.353448" lon="-4.664112"><ele>32.4</ele></trkpt>
    <trkpt lat="48.353289" lon="-4.664779"><ele>30.2</ele></trkpt>
    <trkpt lat="48.353129" lon="-4.666650"><ele>17.4</ele></trkpt>
    <trkpt lat="48.353101" lon="-4.667635"><ele>14.8</ele></trkpt>
    <trkpt lat="48.353055" lon="-4.667797"><ele>14.4</ele></trkpt>
    <trkpt lat="48.352798" lon="-4.668088"><ele>12.6</ele></trkpt>
    <trkpt lat="48.352723" lon="-4.668288"><ele>12.0</ele></trkpt>
    <trkpt lat="48.352694" lon="-4.668470"><ele>12.0</ele></trkpt>
    <trkpt lat="48.352747" lon="-4.669201"><ele>13.4</ele></trkpt>
    <trkpt lat="48.352820" lon="-4.669516"><ele>13.0</ele></trkpt>
    <trkpt lat="48.352997" lon="-4.670019"><ele>12.6</ele></trkpt>
    <trkpt lat="48.353220" lon="-4.670438"><ele>14.2</ele></trkpt>
    <trkpt lat="48.353345" lon="-4.670775"><ele>14.8</ele></trkpt>
    <trkpt lat="48.353488" lon="-4.671047"><ele>14.6</ele></trkpt>
    <trkpt lat="48.353528" lon="-4.671518"><ele>13.0</ele></trkpt>
    <trkpt lat="48.353705" lon="-4.671991"><ele>12.0</ele></trkpt>
    <trkpt lat="48.353911" lon="-4.672272"><ele>12.2</ele></trkpt>
    <trkpt lat="48.354259" lon="-4.672526"><ele>12.2</ele></trkpt>
    <trkpt lat="48.354499" lon="-4.673080"><ele>10.4</ele></trkpt>
    <trkpt lat="48.354614" lon="-4.673581"><ele>9.4</ele></trkpt>
    <trkpt lat="48.354670" lon="-4.674789"><ele>8.6</ele></trkpt>
    <trkpt lat="48.354798" lon="-4.675432"><ele>11.0</ele></trkpt>
    <trkpt lat="48.354882" lon="-4.676223"><ele>14.2</ele></trkpt>
    <trkpt lat="48.355068" lon="-4.676593"><ele>16.2</ele></trkpt>
    <trkpt lat="48.355159" lon="-4.676992"><ele>16.6</ele></trkpt>
    <trkpt lat="48.355185" lon="-4.677496"><ele>17.0</ele></trkpt>
    <trkpt lat="48.355342" lon="-4.677970"><ele>16.2</ele></trkpt>
    <trkpt lat="48.355449" lon="-4.678145"><ele>15.2</ele></trkpt>
    <trkpt lat="48.355697" lon="-4.678368"><ele>11.4</ele></trkpt>
    <trkpt lat="48.355987" lon="-4.678899"><ele>7.8</ele></trkpt>
    <trkpt lat="48.356251" lon="-4.678978"><ele>7.2</ele></trkpt>
    <trkpt lat="48.356285" lon="-4.679211"><ele>7.0</ele></trkpt>
    <trkpt lat="48.356075" lon="-4.680334"><ele>8.6</ele></trkpt>
    <trkpt lat="48.356028" lon="-4.680631"><ele>10.4</ele></trkpt>
    <trkpt lat="48.356040" lon="-4.680743"><ele>11.4</ele></trkpt>
    <trkpt lat="48.356010" lon="-4.680828"><ele>12.4</ele></trkpt>
    <trkpt lat="48.355772" lon="-4.681231"><ele>17.0</ele></trkpt>
    <trkpt lat="48.355627" lon="-4.681314"><ele>17.8</ele></trkpt>
    <trkpt lat="48.355371" lon="-4.681613"><ele>18.0</ele></trkpt>
    <trkpt lat="48.355324" lon="-4.681765"><ele>18.8</ele></trkpt>
    <trkpt lat="48.355306" lon="-4.682013"><ele>20.8</ele></trkpt>
    <trkpt lat="48.355264" lon="-4.682101"><ele>21.6</ele></trkpt>
    <trkpt lat="48.355006" lon="-4.682344"><ele>22.0</ele></trkpt>
    <trkpt lat="48.354729" lon="-4.682177"><ele>17.0</ele></trkpt>
    <trkpt lat="48.354634" lon="-4.682176"><ele>16.4</ele></trkpt>
    <trkpt lat="48.354343" lon="-4.682513"><ele>15.2</ele></trkpt>
    <trkpt lat="48.354267" lon="-4.682923"><ele>16.2</ele></trkpt>
    <trkpt lat="48.354092" lon="-4.683049"><ele>16.2</ele></trkpt>
    <trkpt lat="48.354014" lon="-4.683173"><ele>16.2</ele></trkpt>
    <trkpt lat="48.353895" lon="-4.683654"><ele>17.2</ele></trkpt>
    <trkpt lat="48.353909" lon="-4.684111"><ele>18.4</ele></trkpt>
    <trkpt lat="48.353842" lon="-4.684277"><ele>18.4</ele></trkpt>
    <trkpt lat="48.353719" lon="-4.684409"><ele>18.2</ele></trkpt>
    <trkpt lat="48.353657" lon="-4.684582"><ele>17.8</ele></trkpt>
    <trkpt lat="48.353678" lon="-4.684984"><ele>20.6</ele></trkpt>
    <trkpt lat="48.353746" lon="-4.685164"><ele>21.2</ele></trkpt>
    <trkpt lat="48.354012" lon="-4.685258"><ele>24.6</ele></trkpt>
    <trkpt lat="48.354370" lon="-4.685225"><ele>29.4</ele></trkpt>
    <trkpt lat="48.354630" lon="-4.685397"><ele>31.4</ele></trkpt>
    <trkpt lat="48.354574" lon="-4.686350"><ele>30.8</ele></trkpt>
    <trkpt lat="48.354560" lon="-4.687278"><ele>25.0</ele></trkpt>
    <trkpt lat="48.354798" lon="-4.688265"><ele>19.6</ele></trkpt>
    <trkpt lat="48.354763" lon="-4.688830"><ele>17.4</ele></trkpt>
    <trkpt lat="48.354855" lon="-4.689292"><ele>15.0</ele></trkpt>
    <trkpt lat="48.354820" lon="-4.689401"><ele>14.2</ele></trkpt>
    <trkpt lat="48.354666" lon="-4.689645"><ele>11.4</ele></trkpt>
    <trkpt lat="48.354630" lon="-4.689833"><ele>10.2</ele></trkpt>
    <trkpt lat="48.354700" lon="-4.690083"><ele>8.8</ele></trkpt>
    <trkpt lat="48.354855" lon="-4.690359"><ele>7.8</ele></trkpt>
    <trkpt lat="48.354888" lon="-4.690671"><ele>7.8</ele></trkpt>
    <trkpt lat="48.354892" lon="-4.691168"><ele>11.4</ele></trkpt>
    <trkpt lat="48.354910" lon="-4.691210"><ele>12.2</ele></trkpt>
    <trkpt lat="48.354942" lon="-4.691198"><ele>13.6</ele></trkpt>
    <trkpt lat="48.354832" lon="-4.691281"><ele>15.4</ele></trkpt>
    <trkpt lat="48.354548" lon="-4.691660"><ele>18.0</ele></trkpt>
    <trkpt lat="48.354519" lon="-4.691790"><ele>18.2</ele></trkpt>
    <trkpt lat="48.353960" lon="-4.692284"><ele>15.0</ele></trkpt>
    <trkpt lat="48.353792" lon="-4.692591"><ele>16.4</ele></trkpt>
    <trkpt lat="48.353670" lon="-4.692941"><ele>18.0</ele></trkpt>
    <trkpt lat="48.353613" lon="-4.693242"><ele>18.6</ele></trkpt>
    <trkpt lat="48.353596" lon="-4.693651"><ele>17.6</ele></trkpt>
    <trkpt lat="48.353654" lon="-4.694162"><ele>16.0</ele></trkpt>
    <trkpt lat="48.353593" lon="-4.694663"><ele>15.6</ele></trkpt>
    <trkpt lat="48.353538" lon="-4.694822"><ele>15.4</ele></trkpt>
    <trkpt lat="48.353194" lon="-4.695227"><ele>11.8</ele></trkpt>
    <trkpt lat="48.353101" lon="-4.695303"><ele>7.0</ele></trkpt>
    <trkpt lat="48.352955" lon="-4.695347"><ele>3.4</ele></trkpt>
    <trkpt lat="48.352557" lon="-4.695708"><ele>1.6</ele></trkpt>
    <trkpt lat="48.352314" lon="-4.696129"><ele>2.0</ele></trkpt>
    <trkpt lat="48.352224" lon="-4.696205"><ele>2.2</ele></trkpt>
    <trkpt lat="48.352155" lon="-4.696666"><ele>2.2</ele></trkpt>
    <trkpt lat="48.352000" lon="-4.696674"><ele>2.0</ele></trkpt>
    <trkpt lat="48.351884" lon="-4.696754"><ele>1.8</ele></trkpt>
    <trkpt lat="48.350847" lon="-4.699108"><ele>3.2</ele></trkpt>
    <trkpt lat="48.350578" lon="-4.699909"><ele>4.0</ele></trkpt>
    <trkpt lat="48.350893" lon="-4.699835"><ele>6.0</ele></trkpt>
    <trkpt lat="48.350983" lon="-4.699728"><ele>6.4</ele></trkpt>
    <trkpt lat="48.351181" lon="-4.699666"><ele>7.6</ele></trkpt>
    <trkpt lat="48.351757" lon="-4.699738"><ele>15.0</ele></trkpt>
    <trkpt lat="48.352195" lon="-4.699716"><ele>20.4</ele></trkpt>
    <trkpt lat="48.352487" lon="-4.699781"><ele>22.8</ele></trkpt>
    <trkpt lat="48.352597" lon="-4.699114"><ele>24.6</ele></trkpt>
    <trkpt lat="48.352555" lon="-4.698799"><ele>24.2</ele></trkpt>
    <trkpt lat="48.352404" lon="-4.698169"><ele>21.2</ele></trkpt>
    <trkpt lat="48.352786" lon="-4.697284"><ele>21.4</ele></trkpt>
    <trkpt lat="48.352449" lon="-4.696914"><ele>16.6</ele></trkpt>
    <trkpt lat="48.352416" lon="-4.696808"><ele>15.2</ele></trkpt>
    <trkpt lat="48.352435" lon="-4.696677"><ele>14.2</ele></trkpt>
    <trkpt lat="48.352513" lon="-4.696509"><ele>13.6</ele></trkpt>
    <trkpt lat="48.352717" lon="-4.696318"><ele>13.4</ele></trkpt>
    <trkpt lat="48.352875" lon="-4.695945"><ele>12.8</ele></trkpt>
    <trkpt lat="48.353239" lon="-4.695600"><ele>17.6</ele></trkpt>
    <trkpt lat="48.353431" lon="-4.695338"><ele>18.6</ele></trkpt>
    <trkpt lat="48.353464" lon="-4.695098"><ele>17.6</ele></trkpt>
    <trkpt lat="48.353629" lon="-4.694628"><ele>16.4</ele></trkpt>
    <trkpt lat="48.353652" lon="-4.694154"><ele>17.8</ele></trkpt>
    <trkpt lat="48.353609" lon="-4.693858"><ele>18.2</ele></trkpt>
    <trkpt lat="48.353600" lon="-4.693332"><ele>18.6</ele></trkpt>
    <trkpt lat="48.353712" lon="-4.692764"><ele>18.6</ele></trkpt>
    <trkpt lat="48.353795" lon="-4.692534"><ele>18.0</ele></trkpt>
    <trkpt lat="48.353986" lon="-4.692195"><ele>16.6</ele></trkpt>
    <trkpt lat="48.354147" lon="-4.692090"><ele>16.8</ele></trkpt>
    <trkpt lat="48.354357" lon="-4.692022"><ele>18.2</ele></trkpt>
    <trkpt lat="48.354547" lon="-4.691833"><ele>18.8</ele></trkpt>
    <trkpt lat="48.354628" lon="-4.691711"><ele>18.2</ele></trkpt>
    <trkpt lat="48.354669" lon="-4.691531"><ele>16.8</ele></trkpt>
    <trkpt lat="48.354956" lon="-4.691139"><ele>11.6</ele></trkpt>
    <trkpt lat="48.354919" lon="-4.691101"><ele>10.2</ele></trkpt>
    <trkpt lat="48.354866" lon="-4.690372"><ele>8.4</ele></trkpt>
    <trkpt lat="48.354681" lon="-4.689946"><ele>11.8</ele></trkpt>
    <trkpt lat="48.354635" lon="-4.689687"><ele>13.2</ele></trkpt>
    <trkpt lat="48.354659" lon="-4.689562"><ele>13.8</ele></trkpt>
    <trkpt lat="48.354817" lon="-4.689301"><ele>15.4</ele></trkpt>
    <trkpt lat="48.354839" lon="-4.689195"><ele>16.2</ele></trkpt>
    <trkpt lat="48.354739" lon="-4.688811"><ele>18.4</ele></trkpt>
    <trkpt lat="48.354810" lon="-4.688186"><ele>21.2</ele></trkpt>
    <trkpt lat="48.354556" lon="-4.687211"><ele>26.4</ele></trkpt>
    <trkpt lat="48.354587" lon="-4.686933"><ele>28.6</ele></trkpt>
    <trkpt lat="48.354572" lon="-4.685050"><ele>30.8</ele></trkpt>
    <trkpt lat="48.354544" lon="-4.684516"><ele>29.8</ele></trkpt>
    <trkpt lat="48.354619" lon="-4.683670"><ele>29.8</ele></trkpt>
    <trkpt lat="48.354627" lon="-4.682892"><ele>29.0</ele></trkpt>
    <trkpt lat="48.354598" lon="-4.682632"><ele>26.0</ele></trkpt>
    <trkpt lat="48.354650" lon="-4.682399"><ele>22.8</ele></trkpt>
    <trkpt lat="48.354735" lon="-4.682280"><ele>21.2</ele></trkpt>
    <trkpt lat="48.354837" lon="-4.682254"><ele>21.0</ele></trkpt>
    <trkpt lat="48.355060" lon="-4.682320"><ele>21.8</ele></trkpt>
    <trkpt lat="48.355277" lon="-4.682058"><ele>21.4</ele></trkpt>
    <trkpt lat="48.355327" lon="-4.681946"><ele>20.8</ele></trkpt>
    <trkpt lat="48.355361" lon="-4.681688"><ele>19.2</ele></trkpt>
    <trkpt lat="48.355429" lon="-4.681533"><ele>17.8</ele></trkpt>
    <trkpt lat="48.355806" lon="-4.681148"><ele>14.8</ele></trkpt>
    <trkpt lat="48.356074" lon="-4.680751"><ele>12.0</ele></trkpt>
    <trkpt lat="48.356136" lon="-4.680157"><ele>7.8</ele></trkpt>
    <trkpt lat="48.356059" lon="-4.679897"><ele>6.4</ele></trkpt>
    <trkpt lat="48.355917" lon="-4.678672"><ele>7.6</ele></trkpt>
    <trkpt lat="48.355864" lon="-4.678560"><ele>8.4</ele></trkpt>
    <trkpt lat="48.355356" lon="-4.678008"><ele>15.4</ele></trkpt>
    <trkpt lat="48.355189" lon="-4.677529"><ele>17.6</ele></trkpt>
    <trkpt lat="48.355155" lon="-4.677293"><ele>17.4</ele></trkpt>
    <trkpt lat="48.355150" lon="-4.676908"><ele>16.2</ele></trkpt>
    <trkpt lat="48.354983" lon="-4.676380"><ele>14.8</ele></trkpt>
    <trkpt lat="48.354875" lon="-4.676150"><ele>13.8</ele></trkpt>
    <trkpt lat="48.354848" lon="-4.675716"><ele>12.8</ele></trkpt>
    <trkpt lat="48.354715" lon="-4.674801"><ele>8.4</ele></trkpt>
    <trkpt lat="48.354689" lon="-4.674175"><ele>8.8</ele></trkpt>
    <trkpt lat="48.354715" lon="-4.674071"><ele>9.4</ele></trkpt>
    <trkpt lat="48.355110" lon="-4.673463"><ele>12.0</ele></trkpt>
    <trkpt lat="48.355328" lon="-4.673270"><ele>13.0</ele></trkpt>
    <trkpt lat="48.355776" lon="-4.673015"><ele>14.2</ele></trkpt>
    <trkpt lat="48.355954" lon="-4.672871"><ele>15.0</ele></trkpt>
    <trkpt lat="48.356039" lon="-4.672631"><ele>16.0</ele></trkpt>
    <trkpt lat="48.356071" lon="-4.672218"><ele>18.4</ele></trkpt>
    <trkpt lat="48.356105" lon="-4.672099"><ele>19.0</ele></trkpt>
    <trkpt lat="48.356947" lon="-4.671019"><ele>21.2</ele></trkpt>
    <trkpt lat="48.356978" lon="-4.670793"><ele>22.6</ele></trkpt>
    <trkpt lat="48.356885" lon="-4.670490"><ele>26.6</ele></trkpt>
    <trkpt lat="48.356932" lon="-4.670328"><ele>27.4</ele></trkpt>
    <trkpt lat="48.357452" lon="-4.669803"><ele>27.2</ele></trkpt>
    <trkpt lat="48.357601" lon="-4.669560"><ele>29.4</ele></trkpt>
    <trkpt lat="48.357658" lon="-4.669216"><ele>33.0</ele></trkpt>
    <trkpt lat="48.357904" lon="-4.668984"><ele>36.2</ele></trkpt>
    <trkpt lat="48.357998" lon="-4.668780"><ele>37.6</ele></trkpt>
    <trkpt lat="48.358001" lon="-4.668517"><ele>39.8</ele></trkpt>
    <trkpt lat="48.357884" lon="-4.668337"><ele>41.4</ele></trkpt>
    <trkpt lat="48.357492" lon="-4.668305"><ele>43.6</ele></trkpt>
    <trkpt lat="48.357260" lon="-4.668415"><ele>43.8</ele></trkpt>
    <trkpt lat="48.357160" lon="-4.668421"><ele>44.0</ele></trkpt>
    <trkpt lat="48.356718" lon="-4.668231"><ele>45.8</ele></trkpt>
    <trkpt lat="48.356448" lon="-4.668214"><ele>46.6</ele></trkpt>
    <trkpt lat="48.356359" lon="-4.667921"><ele>47.6</ele></trkpt>
    <trkpt lat="48.356292" lon="-4.667537"><ele>48.2</ele></trkpt>
    <trkpt lat="48.356325" lon="-4.667293"><ele>48.4</ele></trkpt>
    <trkpt lat="48.356488" lon="-4.666943"><ele>49.4</ele></trkpt>
    <trkpt lat="48.356577" lon="-4.666392"><ele>51.6</ele></trkpt>
    <trkpt lat="48.357000" lon="-4.665269"><ele>54.0</ele></trkpt>
    <trkpt lat="48.357058" lon="-4.665004"><ele>54.8</ele></trkpt>
    <trkpt lat="48.357065" lon="-4.664745"><ele>55.0</ele></trkpt>
    <trkpt lat="48.357688" lon="-4.664353"><ele>56.0</ele></trkpt>
    <trkpt lat="48.358122" lon="-4.664357"><ele>56.2</ele></trkpt>
    <trkpt lat="48.358881" lon="-4.664018"><ele>57.8</ele></trkpt>
    <trkpt lat="48.358993" lon="-4.663933"><ele>58.4</ele></trkpt>
    <trkpt lat="48.360172" lon="-4.662160"><ele>67.6</ele></trkpt>
    <trkpt lat="48.360226" lon="-4.661981"><ele>68.2</ele></trkpt>
    <trkpt lat="48.360232" lon="-4.661460"><ele>67.8</ele></trkpt>
    <trkpt lat="48.360359" lon="-4.661250"><ele>68.6</ele></trkpt>
    <trkpt lat="48.360678" lon="-4.660856"><ele>69.4</ele></trkpt>
    <trkpt lat="48.361128" lon="-4.660520"><ele>70.2</ele></trkpt>
    <trkpt lat="48.361561" lon="-4.660071"><ele>71.6</ele></trkpt>
    <trkpt lat="48.361566" lon="-4.659973"><ele>71.6</ele></trkpt>
    <trkpt lat="48.361505" lon="-4.659778"><ele>72.0</ele></trkpt>
    <trkpt lat="48.361195" lon="-4.658973"><ele>72.4</ele></trkpt>
    <trkpt lat="48.360662" lon="-4.657968"><ele>72.2</ele></trkpt>
    <trkpt lat="48.360574" lon="-4.657731"><ele>72.0</ele></trkpt>
    <trkpt lat="48.360516" lon="-4.657311"><ele>71.6</ele></trkpt>
    <trkpt lat="48.360509" lon="-4.656769"><ele>71.2</ele></trkpt>
    <trkpt lat="48.360542" lon="-4.656080"><ele>70.8</ele></trkpt>
    <trkpt lat="48.360616" lon="-4.655933"><ele>71.0</ele></trkpt>
    <trkpt lat="48.360854" lon="-4.655691"><ele>71.6</ele></trkpt>
    <trkpt lat="48.361207" lon="-4.654964"><ele>72.4</ele></trkpt>
    <trkpt lat="48.361318" lon="-4.654490"><ele>73.8</ele></trkpt>
    <trkpt lat="48.361496" lon="-4.654000"><ele>75.0</ele></trkpt>
    <trkpt lat="48.361829" lon="-4.653379"><ele>76.0</ele></trkpt>
    <trkpt lat="48.361924" lon="-4.653042"><ele>76.2</ele></trkpt>
    <trkpt lat="48.362229" lon="-4.652721"><ele>76.8</ele></trkpt>
    <trkpt lat="48.362485" lon="-4.652211"><ele>75.6</ele></trkpt>
    <trkpt lat="48.362665" lon="-4.651283"><ele>75.8</ele></trkpt>
    <trkpt lat="48.362966" lon="-4.650227"><ele>74.8</ele></trkpt>
    <trkpt lat="48.363092" lon="-4.649935"><ele>74.6</ele></trkpt>
    <trkpt lat="48.363317" lon="-4.649184"><ele>74.2</ele></trkpt>
    <trkpt lat="48.363471" lon="-4.648915"><ele>73.8</ele></trkpt>
    <trkpt lat="48.363714" lon="-4.648304"><ele>73.0</ele></trkpt>
    <trkpt lat="48.363937" lon="-4.647447"><ele>72.0</ele></trkpt>
    <trkpt lat="48.364615" lon="-4.645654"><ele>71.6</ele></trkpt>
    <trkpt lat="48.364980" lon="-4.644398"><ele>70.2</ele></trkpt>
    <trkpt lat="48.365364" lon="-4.643763"><ele>69.0</ele></trkpt>
    <trkpt lat="48.365598" lon="-4.643160"><ele>68.2</ele></trkpt>
    <trkpt lat="48.365818" lon="-4.642101"><ele>67.4</ele></trkpt>
    <trkpt lat="48.365908" lon="-4.642099"><ele>67.4</ele></trkpt>
    <trkpt lat="48.366157" lon="-4.642241"><ele>67.6</ele></trkpt>
    <trkpt lat="48.366357" lon="-4.642237"><ele>67.8</ele></trkpt>
    <trkpt lat="48.366570" lon="-4.642296"><ele>68.0</ele></trkpt>
    <trkpt lat="48.368165" lon="-4.642920"><ele>67.4</ele></trkpt>
    <trkpt lat="48.368694" lon="-4.642955"><ele>65.4</ele></trkpt>
    <trkpt lat="48.368974" lon="-4.642856"><ele>64.2</ele></trkpt>
    <trkpt lat="48.369569" lon="-4.642808"><ele>61.4</ele></trkpt>
    <trkpt lat="48.369661" lon="-4.642752"><ele>61.2</ele></trkpt>
    <trkpt lat="48.369720" lon="-4.642622"><ele>61.2</ele></trkpt>
    <trkpt lat="48.369819" lon="-4.641995"><ele>60.6</ele></trkpt>
    <trkpt lat="48.370215" lon="-4.640602"><ele>60.8</ele></trkpt>
  </trkseg></trk>
</gpx>
