<?xml version="1.0" encoding="UTF-8"?>
<gpx version="1.1" creator="tcap-parcours" xmlns="http://www.topografix.com/GPX/1/1">
  <metadata><name>kerlannou-keledern-2</name></metadata>
  <trk><name>kerlannou-keledern-2</name><trkseg>
    <trkpt lat="48.370097" lon="-4.640439"><ele>60.4</ele></trkpt>
    <trkpt lat="48.370114" lon="-4.640220"><ele>60.2</ele></trkpt>
    <trkpt lat="48.370140" lon="-4.640187"><ele>60.2</ele></trkpt>
    <trkpt lat="48.370377" lon="-4.640166"><ele>60.0</ele></trkpt>
    <trkpt lat="48.370724" lon="-4.640043"><ele>58.6</ele></trkpt>
    <trkpt lat="48.371146" lon="-4.640374"><ele>57.6</ele></trkpt>
    <trkpt lat="48.371552" lon="-4.640566"><ele>56.4</ele></trkpt>
    <trkpt lat="48.371914" lon="-4.640528"><ele>55.0</ele></trkpt>
    <trkpt lat="48.372561" lon="-4.640602"><ele>54.0</ele></trkpt>
    <trkpt lat="48.372640" lon="-4.640520"><ele>54.0</ele></trkpt>
    <trkpt lat="48.372733" lon="-4.640238"><ele>54.0</ele></trkpt>
    <trkpt lat="48.372886" lon="-4.639938"><ele>53.4</ele></trkpt>
    <trkpt lat="48.372967" lon="-4.639858"><ele>53.0</ele></trkpt>
    <trkpt lat="48.373152" lon="-4.639826"><ele>52.2</ele></trkpt>
    <trkpt lat="48.373260" lon="-4.639555"><ele>51.4</ele></trkpt>
    <trkpt lat="48.373320" lon="-4.639497"><ele>51.2</ele></trkpt>
    <trkpt lat="48.373515" lon="-4.639563"><ele>50.8</ele></trkpt>
    <trkpt lat="48.373951" lon="-4.639864"><ele>50.6</ele></trkpt>
    <trkpt lat="48.374395" lon="-4.640066"><ele>50.0</ele></trkpt>
    <trkpt lat="48.374484" lon="-4.640088"><ele>50.2</ele></trkpt>
    <trkpt lat="48.374567" lon="-4.640039"><ele>50.2</ele></trkpt>
    <trkpt lat="48.374877" lon="-4.639572"><ele>49.6</ele></trkpt>
    <trkpt lat="48.375413" lon="-4.638954"><ele>48.8</ele></trkpt>
    <trkpt lat="48.375618" lon="-4.638628"><ele>48.2</ele></trkpt>
    <trkpt lat="48.375717" lon="-4.638387"><ele>48.8</ele></trkpt>
    <trkpt lat="48.375722" lon="-4.638253"><ele>49.2</ele></trkpt>
    <trkpt lat="48.375668" lon="-4.638153"><ele>49.4</ele></trkpt>
    <trkpt lat="48.375242" lon="-4.638054"><ele>49.0</ele></trkpt>
    <trkpt lat="48.375182" lon="-4.638007"><ele>48.8</ele></trkpt>
    <trkpt lat="48.375169" lon="-4.637921"><ele>48.6</ele></trkpt>
    <trkpt lat="48.375234" lon="-4.637599"><ele>48.8</ele></trkpt>
    <trkpt lat="48.375442" lon="-4.635957"><ele>49.0</ele></trkpt>
    <trkpt lat="48.375645" lon="-4.635091"><ele>50.2</ele></trkpt>
    <trkpt lat="48.375649" lon="-4.634954"><ele>50.4</ele></trkpt>
    <trkpt lat="48.375602" lon="-4.634768"><ele>50.4</ele></trkpt>
    <trkpt lat="48.376127" lon="-4.633569"><ele>50.8</ele></trkpt>
    <trkpt lat="48.376171" lon="-4.633435"><ele>50.8</ele></trkpt>
    <trkpt lat="48.376161" lon="-4.633358"><ele>51.0</ele></trkpt>
    <trkpt lat="48.375313" lon="-4.633337"><ele>51.6</ele></trkpt>
    <trkpt lat="48.374520" lon="-4.633406"><ele>52.6</ele></trkpt>
    <trkpt lat="48.373916" lon="-4.633505"><ele>52.8</ele></trkpt>
    <trkpt lat="48.372810" lon="-4.633953"><ele>52.8</ele></trkpt>
    <trkpt lat="48.372421" lon="-4.634001"><ele>53.0</ele></trkpt>
    <trkpt lat="48.372037" lon="-4.633954"><ele>53.4</ele></trkpt>
    <trkpt lat="48.371742" lon="-4.633969"><ele>53.8</ele></trkpt>
    <trkpt lat="48.371659" lon="-4.633925"><ele>54.0</ele></trkpt>
    <trkpt lat="48.371618" lon="-4.633818"><ele>54.0</ele></trkpt>
    <trkpt lat="48.371777" lon="-4.633049"><ele>56.0</ele></trkpt>
    <trkpt lat="48.371789" lon="-4.632850"><ele>56.4</ele></trkpt>
    <trkpt lat="48.371754" lon="-4.632766"><ele>56.6</ele></trkpt>
    <trkpt lat="48.371249" lon="-4.632621"><ele>57.6</ele></trkpt>
    <trkpt lat="48.370263" lon="-4.632166"><ele>59.4</ele></trkpt>
    <trkpt lat="48.370071" lon="-4.632126"><ele>59.8</ele></trkpt>
    <trkpt lat="48.369749" lon="-4.631714"><ele>60.6</ele></trkpt>
    <trkpt lat="48.369655" lon="-4.631669"><ele>60.6</ele></trkpt>
    <trkpt lat="48.369480" lon="-4.631877"><ele>60.8</ele></trkpt>
    <trkpt lat="48.369371" lon="-4.632236"><ele>60.8</ele></trkpt>
    <trkpt lat="48.369235" lon="-4.632488"><ele>60.8</ele></trkpt>
    <trkpt lat="48.368886" lon="-4.634430"><ele>62.8</ele></trkpt>
    <trkpt lat="48.368765" lon="-4.634924"><ele>62.6</ele></trkpt>
    <trkpt lat="48.368699" lon="-4.634944"><ele>62.8</ele></trkpt>
    <trkpt lat="48.368537" lon="-4.634878"><ele>63.2</ele></trkpt>
    <trkpt lat="48.367922" lon="-4.634807"><ele>64.0</ele></trkpt>
    <trkpt lat="48.367384" lon="-4.634513"><ele>64.0</ele></trkpt>
    <trkpt lat="48.367016" lon="-4.633994"><ele>63.4</ele></trkpt>
    <trkpt lat="48.366923" lon="-4.633948"><ele>63.2</ele></trkpt>
    <trkpt lat="48.366598" lon="-4.633915"><ele>62.8</ele></trkpt>
    <trkpt lat="48.365893" lon="-4.633602"><ele>61.4</ele></trkpt>
    <trkpt lat="48.365710" lon="-4.633473"><ele>60.8</ele></trkpt>
    <trkpt lat="48.365371" lon="-4.633100"><ele>60.2</ele></trkpt>
    <trkpt lat="48.364897" lon="-4.632920"><ele>60.0</ele></trkpt>
    <trkpt lat="48.364841" lon="-4.632727"><ele>60.0</ele></trkpt>
    <trkpt lat="48.364583" lon="-4.632588"><ele>60.4</ele></trkpt>
    <trkpt lat="48.364488" lon="-4.632494"><ele>60.8</ele></trkpt>
    <trkpt lat="48.364416" lon="-4.632345"><ele>61.6</ele></trkpt>
    <trkpt lat="48.364344" lon="-4.632038"><ele>62.6</ele></trkpt>
    <trkpt lat="48.364340" lon="-4.631613"><ele>64.0</ele></trkpt>
    <trkpt lat="48.364288" lon="-4.631214"><ele>65.0</ele></trkpt>
    <trkpt lat="48.364261" lon="-4.630597"><ele>65.6</ele></trkpt>
    <trkpt lat="48.364286" lon="-4.630258"><ele>65.4</ele></trkpt>
    <trkpt lat="48.364362" lon="-4.629880"><ele>66.2</ele></trkpt>
    <trkpt lat="48.364324" lon="-4.629731"><ele>66.8</ele></trkpt>
    <trkpt lat="48.363925" lon="-4.629650"><ele>68.0</ele></trkpt>
    <trkpt lat="48.363458" lon="-4.629470"><ele>69.0</ele></trkpt>
    <trkpt lat="48.363046" lon="-4.629100"><ele>70.8</ele></trkpt>
    <trkpt lat="48.362988" lon="-4.629128"><ele>70.8</ele></trkpt>
    <trkpt lat="48.362894" lon="-4.629266"><ele>70.4</ele></trkpt>
    <trkpt lat="48.362723" lon="-4.629638"><ele>70.0</ele></trkpt>
    <trkpt lat="48.362550" lon="-4.629733"><ele>70.2</ele></trkpt>
    <trkpt lat="48.362324" lon="-4.629661"><ele>71.0</ele></trkpt>
    <trkpt lat="48.361889" lon="-4.629278"><ele>73.0</ele></trkpt>
    <trkpt lat="48.361363" lon="-4.629192"><ele>73.4</ele></trkpt>
    <trkpt lat="48.361027" lon="-4.628538"><ele>76.0</ele></trkpt>
    <trkpt lat="48.360499" lon="-4.628121"><ele>77.8</ele></trkpt>
    <trkpt lat="48.360082" lon="-4.627706"><ele>79.4</ele></trkpt>
    <trkpt lat="48.359005" lon="-4.626778"><ele>82.2</ele></trkpt>
    <trkpt lat="48.358972" lon="-4.626640"><ele>82.4</ele></trkpt>
    <trkpt lat="48.359021" lon="-4.625949"><ele>82.8</ele></trkpt>
    <trkpt lat="48.359078" lon="-4.625439"><ele>83.2</ele></trkpt>
    <trkpt lat="48.359148" lon="-4.625130"><ele>84.0</ele></trkpt>
    <trkpt lat="48.359110" lon="-4.624875"><ele>83.6</ele></trkpt>
    <trkpt lat="48.358591" lon="-4.624509"><ele>83.4</ele></trkpt>
    <trkpt lat="48.358309" lon="-4.624133"><ele>82.6</ele></trkpt>
    <trkpt lat="48.358246" lon="-4.623960"><ele>82.6</ele></trkpt>
    <trkpt lat="48.358249" lon="-4.623506"><ele>82.8</ele></trkpt>
    <trkpt lat="48.358209" lon="-4.623393"><ele>82.6</ele></trkpt>
    <trkpt lat="48.357831" lon="-4.623315"><ele>81.4</ele></trkpt>
    <trkpt lat="48.357452" lon="-4.623132"><ele>80.4</ele></trkpt>
    <trkpt lat="48.356827" lon="-4.623081"><ele>75.8</ele></trkpt>
    <trkpt lat="48.356503" lon="-4.623011"><ele>74.6</ele></trkpt>
    <trkpt lat="48.356371" lon="-4.623047"><ele>74.6</ele></trkpt>
    <trkpt lat="48.356692" lon="-4.628558"><ele>72.8</ele></trkpt>
    <trkpt lat="48.356559" lon="-4.629997"><ele>71.8</ele></trkpt>
    <trkpt lat="48.356441" lon="-4.630569"><ele>71.6</ele></trkpt>
    <trkpt lat="48.356344" lon="-4.630825"><ele>71.2</ele></trkpt>
    <trkpt lat="48.356313" lon="-4.631373"><ele>71.6</ele></trkpt>
    <trkpt lat="48.356355" lon="-4.631971"><ele>72.8</ele></trkpt>
    <trkpt lat="48.356185" lon="-4.633029"><ele>72.4</ele></trkpt>
    <trkpt lat="48.356199" lon="-4.633107"><ele>72.2</ele></trkpt>
    <trkpt lat="48.356294" lon="-4.633234"><ele>72.2</ele></trkpt>
    <trkpt lat="48.356299" lon="-4.633342"><ele>72.0</ele></trkpt>
    <trkpt lat="48.356045" lon="-4.634319"><ele>69.6</ele></trkpt>
    <trkpt lat="48.355846" lon="-4.634934"><ele>69.2</ele></trkpt>
    <trkpt lat="48.355773" lon="-4.635488"><ele>70.0</ele></trkpt>
    <trkpt lat="48.355791" lon="-4.635759"><ele>69.8</ele></trkpt>
    <trkpt lat="48.355736" lon="-4.636099"><ele>69.6</ele></trkpt>
    <trkpt lat="48.355747" lon="-4.636434"><ele>70.4</ele></trkpt>
    <trkpt lat="48.355721" lon="-4.636565"><ele>71.0</ele></trkpt>
    <trkpt lat="48.356011" lon="-4.637809"><ele>73.4</ele></trkpt>
    <trkpt lat="48.356025" lon="-4.638326"><ele>74.4</ele></trkpt>
    <trkpt lat="48.356090" lon="-4.638603"><ele>75.6</ele></trkpt>
    <trkpt lat="48.355996" lon="-4.638889"><ele>76.4</ele></trkpt>
    <trkpt lat="48.356002" lon="-4.639012"><ele>76.4</ele></trkpt>
    <trkpt lat="48.356733" lon="-4.639534"><ele>76.2</ele></trkpt>
    <trkpt lat="48.356806" lon="-4.639659"><ele>76.4</ele></trkpt>
    <trkpt lat="48.356542" lon="-4.640678"><ele>78.2</ele></trkpt>
    <trkpt lat="48.356527" lon="-4.640862"><ele>78.4</ele></trkpt>
    <trkpt lat="48.356557" lon="-4.641118"><ele>79.2</ele></trkpt>
    <trkpt lat="48.356502" lon="-4.641492"><ele>80.0</ele></trkpt>
    <trkpt lat="48.356437" lon="-4.641760"><ele>80.4</ele></trkpt>
    <trkpt lat="48.356222" lon="-4.642289"><ele>80.2</ele></trkpt>
    <trkpt lat="48.356192" lon="-4.642576"><ele>80.4</ele></trkpt>
    <trkpt lat="48.356211" lon="-4.642889"><ele>80.8</ele></trkpt>
    <trkpt lat="48.356281" lon="-4.643252"><ele>80.6</ele></trkpt>
    <trkpt lat="48.356675" lon="-4.644042"><ele>80.0</ele></trkpt>
    <trkpt lat="48.356809" lon="-4.644428"><ele>79.6</ele></trkpt>
    <trkpt lat="48.357564" lon="-4.644752"><ele>39.6</ele></trkpt>
    <trkpt lat="48.357133" lon="-4.646537"><ele>38.0</ele></trkpt>
    <trkpt lat="48.357133" lon="-4.647186"><ele>37.4</ele></trkpt>
    <trkpt lat="48.357456" lon="-4.651243"><ele>33.6</ele></trkpt>
    <trkpt lat="48.357564" lon="-4.652217"><ele>32.7</ele></trkpt>
    <trkpt lat="48.356809" lon="-4.655300"><ele>29.8</ele></trkpt>
    <trkpt lat="48.356594" lon="-4.657734"><ele>27.6</ele></trkpt>
    <trkpt lat="48.356701" lon="-4.657734"><ele>61.0</ele></trkpt>
    <trkpt lat="48.356809" lon="-4.658545"><ele>59.9</ele></trkpt>
    <trkpt lat="48.356809" lon="-4.659357"><ele>58.9</ele></trkpt>
    <trkpt lat="48.356701" lon="-4.659843"><ele>58.2</ele></trkpt>
    <trkpt lat="48.356701" lon="-4.661141"><ele>56.6</ele></trkpt>
    <trkpt lat="48.356594" lon="-4.661628"><ele>56.0</ele></trkpt>
    <trkpt lat="48.356594" lon="-4.663251"><ele>53.9</ele></trkpt>
    <trkpt lat="48.356701" lon="-4.663413"><ele>57.4</ele></trkpt>
    <trkpt lat="48.356917" lon="-4.664225"><ele>58.2</ele></trkpt>
    <trkpt lat="48.356917" lon="-4.665198"><ele>54.2</ele></trkpt>
    <trkpt lat="48.356486" lon="-4.666983"><ele>50.0</ele></trkpt>
    <trkpt lat="48.356378" lon="-4.667308"><ele>48.8</ele></trkpt>
    <trkpt lat="48.356378" lon="-4.667957"><ele>47.4</ele></trkpt>
    <trkpt lat="48.356292" lon="-4.667537"><ele>48.2</ele></trkpt>
    <trkpt lat="48.356325" lon="-4.667293"><ele>48.4</ele></trkpt>
    <trkpt lat="48.356488" lon="-4.666943"><ele>49.4</ele></trkpt>
    <trkpt lat="48.356577" lon="-4.666392"><ele>51.6</ele></trkpt>
    <trkpt lat="48.357000" lon="-4.665269"><ele>54.0</ele></trkpt>
    <trkpt lat="48.357058" lon="-4.665004"><ele>54.8</ele></trkpt>
    <trkpt lat="48.357065" lon="-4.664745"><ele>55.0</ele></trkpt>
    <trkpt lat="48.357688" lon="-4.664353"><ele>56.0</ele></trkpt>
    <trkpt lat="48.358122" lon="-4.664357"><ele>56.2</ele></trkpt>
    <trkpt lat="48.358881" lon="-4.664018"><ele>57.8</ele></trkpt>
    <trkpt lat="48.358993" lon="-4.663933"><ele>58.4</ele></trkpt>
    <trkpt lat="48.360172" lon="-4.662160"><ele>67.6</ele></trkpt>
    <trkpt lat="48.360226" lon="-4.661981"><ele>68.2</ele></trkpt>
    <trkpt lat="48.360232" lon="-4.661460"><ele>67.8</ele></trkpt>
    <trkpt lat="48.360359" lon="-4.661250"><ele>68.6</ele></trkpt>
    <trkpt lat="48.360678" lon="-4.660856"><ele>69.4</ele></trkpt>
    <trkpt lat="48.361128" lon="-4.660520"><ele>70.2</ele></trkpt>
    <trkpt lat="48.361561" lon="-4.660071"><ele>71.6</ele></trkpt>
    <trkpt lat="48.361566" lon="-4.659973"><ele>71.6</ele></trkpt>
    <trkpt lat="48.361505" lon="-4.659778"><ele>72.0</ele></trkpt>
    <trkpt lat="48.361195" lon="-4.658973"><ele>72.4</ele></trkpt>
    <trkpt lat="48.360662" lon="-4.657968"><ele>72.2</ele></trkpt>
    <trkpt lat="48.360574" lon="-4.657731"><ele>72.0</ele></trkpt>
    <trkpt lat="48.360516" lon="-4.657311"><ele>71.6</ele></trkpt>
    <trkpt lat="48.360509" lon="-4.656769"><ele>71.2</ele></trkpt>
    <trkpt lat="48.360542" lon="-4.656080"><ele>70.8</ele></trkpt>
    <trkpt lat="48.360616" lon="-4.655933"><ele>71.0</ele></trkpt>
    <trkpt lat="48.360854" lon="-4.655691"><ele>71.6</ele></trkpt>
    <trkpt lat="48.361207" lon="-4.654964"><ele>72.4</ele></trkpt>
    <trkpt lat="48.361318" lon="-4.654490"><ele>73.8</ele></trkpt>
    <trkpt lat="48.361496" lon="-4.654000"><ele>75.0</ele></trkpt>
    <trkpt lat="48.361829" lon="-4.653379"><ele>76.0</ele></trkpt>
    <trkpt lat="48.361924" lon="-4.653042"><ele>76.2</ele></trkpt>
    <trkpt lat="48.362229" lon="-4.652721"><ele>76.8</ele></trkpt>
    <trkpt lat="48.362485" lon="-4.652211"><ele>75.6</ele></trkpt>
    <trkpt lat="48.362665" lon="-4.651283"><ele>75.8</ele></trkpt>
    <trkpt lat="48.362966" lon="-4.650227"><ele>74.8</ele></trkpt>
    <trkpt lat="48.363092" lon="-4.649935"><ele>74.6</ele></trkpt>
    <trkpt lat="48.363317" lon="-4.649184"><ele>74.2</ele></trkpt>
    <trkpt lat="48.363471" lon="-4.648915"><ele>73.8</ele></trkpt>
    <trkpt lat="48.363714" lon="-4.648304"><ele>73.0</ele></trkpt>
    <trkpt lat="48.363937" lon="-4.647447"><ele>72.0</ele></trkpt>
    <trkpt lat="48.364615" lon="-4.645654"><ele>71.6</ele></trkpt>
    <trkpt lat="48.364980" lon="-4.644398"><ele>70.2</ele></trkpt>
    <trkpt lat="48.365364" lon="-4.643763"><ele>69.0</ele></trkpt>
    <trkpt lat="48.365598" lon="-4.643160"><ele>68.2</ele></trkpt>
    <trkpt lat="48.365818" lon="-4.642101"><ele>67.4</ele></trkpt>
    <trkpt lat="48.365908" lon="-4.642099"><ele>67.4</ele></trkpt>
    <trkpt lat="48.366157" lon="-4.642241"><ele>67.6</ele></trkpt>
    <trkpt lat="48.366357" lon="-4.642237"><ele>67.8</ele></trkpt>
    <trkpt lat="48.366570" lon="-4.642296"><ele>68.0</ele></trkpt>
    <trkpt lat="48.368165" lon="-4.642920"><ele>67.4</ele></trkpt>
    <trkpt lat="48.368694" lon="-4.642955"><ele>65.4</ele></trkpt>
    <trkpt lat="48.368974" lon="-4.642856"><ele>64.2</ele></trkpt>
    <trkpt lat="48.369569" lon="-4.642808"><ele>61.4</ele></trkpt>
    <trkpt lat="48.369661" lon="-4.642752"><ele>61.2</ele></trkpt>
    <trkpt lat="48.369720" lon="-4.642622"><ele>61.2</ele></trkpt>
    <trkpt lat="48.369819" lon="-4.641995"><ele>60.6</ele></trkpt>
    <trkpt lat="48.370215" lon="-4.640602"><ele>60.8</ele></trkpt>
  </trkseg></trk>
</gpx>
