<?xml version="1.0" encoding="UTF-8"?>
<gpx version="1.1" creator="tcap-parcours" xmlns="http://www.topografix.com/GPX/1/1">
  <metadata><name>Boucles plates Keralaurent – Kerlannou – 12,5 km (run and bike)</name></metadata>
  <trk><name>Boucles plates Keralaurent – Kerlannou – 12,5 km (run and bike)</name><trkseg>
    <trkpt lat="48.371030" lon="-4.640315"><ele>58.4</ele></trkpt>
    <trkpt lat="48.371579" lon="-4.640560"><ele>57.4</ele></trkpt>
    <trkpt lat="48.371835" lon="-4.640531"><ele>56.6</ele></trkpt>
    <trkpt lat="48.372425" lon="-4.640604"><ele>53.2</ele></trkpt>
    <trkpt lat="48.372569" lon="-4.640491"><ele>52.4</ele></trkpt>
    <trkpt lat="48.372848" lon="-4.639972"><ele>52.0</ele></trkpt>
    <trkpt lat="48.373088" lon="-4.639900"><ele>52.2</ele></trkpt>
    <trkpt lat="48.373208" lon="-4.639608"><ele>51.8</ele></trkpt>
    <trkpt lat="48.373295" lon="-4.639558"><ele>51.6</ele></trkpt>
    <trkpt lat="48.373597" lon="-4.639621"><ele>50.6</ele></trkpt>
    <trkpt lat="48.374194" lon="-4.639956"><ele>50.0</ele></trkpt>
    <trkpt lat="48.374448" lon="-4.640021"><ele>49.6</ele></trkpt>
    <trkpt lat="48.374555" lon="-4.639948"><ele>49.4</ele></trkpt>
    <trkpt lat="48.374792" lon="-4.639609"><ele>48.8</ele></trkpt>
    <trkpt lat="48.375408" lon="-4.638900"><ele>48.0</ele></trkpt>
    <trkpt lat="48.375615" lon="-4.638555"><ele>48.0</ele></trkpt>
    <trkpt lat="48.375665" lon="-4.638311"><ele>48.2</ele></trkpt>
    <trkpt lat="48.375597" lon="-4.638185"><ele>48.2</ele></trkpt>
    <trkpt lat="48.375286" lon="-4.638075"><ele>48.6</ele></trkpt>
    <trkpt lat="48.375210" lon="-4.637992"><ele>48.8</ele></trkpt>
    <trkpt lat="48.375208" lon="-4.637685"><ele>49.0</ele></trkpt>
    <trkpt lat="48.375255" lon="-4.637183"><ele>48.8</ele></trkpt>
    <trkpt lat="48.375446" lon="-4.635898"><ele>48.6</ele></trkpt>
    <trkpt lat="48.375618" lon="-4.635122"><ele>49.2</ele></trkpt>
    <trkpt lat="48.375616" lon="-4.634736"><ele>50.0</ele></trkpt>
    <trkpt lat="48.376080" lon="-4.633625"><ele>50.0</ele></trkpt>
    <trkpt lat="48.376126" lon="-4.633432"><ele>50.2</ele></trkpt>
    <trkpt lat="48.376094" lon="-4.633360"><ele>50.2</ele></trkpt>
    <trkpt lat="48.375970" lon="-4.633340"><ele>50.4</ele></trkpt>
    <trkpt lat="48.374257" lon="-4.633475"><ele>51.6</ele></trkpt>
    <trkpt lat="48.373741" lon="-4.633596"><ele>51.6</ele></trkpt>
    <trkpt lat="48.372882" lon="-4.633956"><ele>51.8</ele></trkpt>
    <trkpt lat="48.372552" lon="-4.633998"><ele>52.2</ele></trkpt>
    <trkpt lat="48.371794" lon="-4.633972"><ele>53.4</ele></trkpt>
    <trkpt lat="48.371708" lon="-4.633875"><ele>53.8</ele></trkpt>
    <trkpt lat="48.371687" lon="-4.633758"><ele>54.2</ele></trkpt>
    <trkpt lat="48.371761" lon="-4.632978"><ele>55.6</ele></trkpt>
    <trkpt lat="48.371755" lon="-4.632872"><ele>55.8</ele></trkpt>
    <trkpt lat="48.371708" lon="-4.632792"><ele>56.0</ele></trkpt>
    <trkpt lat="48.371151" lon="-4.632594"><ele>56.6</ele></trkpt>
    <trkpt lat="48.370071" lon="-4.632115"><ele>59.2</ele></trkpt>
    <trkpt lat="48.369687" lon="-4.631717"><ele>59.6</ele></trkpt>
    <trkpt lat="48.369570" lon="-4.631752"><ele>59.6</ele></trkpt>
    <trkpt lat="48.369481" lon="-4.631909"><ele>59.4</ele></trkpt>
    <trkpt lat="48.369367" lon="-4.632310"><ele>59.6</ele></trkpt>
    <trkpt lat="48.369259" lon="-4.632491"><ele>59.8</ele></trkpt>
    <trkpt lat="48.369214" lon="-4.632637"><ele>60.0</ele></trkpt>
    <trkpt lat="48.368836" lon="-4.634621"><ele>61.8</ele></trkpt>
    <trkpt lat="48.368732" lon="-4.635756"><ele>64.8</ele></trkpt>
    <trkpt lat="48.368596" lon="-4.636556"><ele>66.0</ele></trkpt>
    <trkpt lat="48.368171" lon="-4.638199"><ele>68.4</ele></trkpt>
    <trkpt lat="48.368061" lon="-4.638523"><ele>69.0</ele></trkpt>
    <trkpt lat="48.368074" lon="-4.638574"><ele>69.0</ele></trkpt>
    <trkpt lat="48.368123" lon="-4.638553"><ele>69.0</ele></trkpt>
    <trkpt lat="48.368246" lon="-4.638243"><ele>68.0</ele></trkpt>
    <trkpt lat="48.368315" lon="-4.638193"><ele>67.0</ele></trkpt>
    <trkpt lat="48.368468" lon="-4.638305"><ele>65.4</ele></trkpt>
    <trkpt lat="48.368720" lon="-4.638389"><ele>63.8</ele></trkpt>
    <trkpt lat="48.369142" lon="-4.638431"><ele>62.8</ele></trkpt>
    <trkpt lat="48.369228" lon="-4.638740"><ele>62.2</ele></trkpt>
    <trkpt lat="48.369284" lon="-4.638786"><ele>62.0</ele></trkpt>
    <trkpt lat="48.370154" lon="-4.638678"><ele>59.8</ele></trkpt>
    <trkpt lat="48.370219" lon="-4.638708"><ele>59.6</ele></trkpt>
    <trkpt lat="48.370187" lon="-4.638789"><ele>59.6</ele></trkpt>
    <trkpt lat="48.370081" lon="-4.638848"><ele>59.8</ele></trkpt>
    <trkpt lat="48.369494" lon="-4.638974"><ele>60.6</ele></trkpt>
    <trkpt lat="48.369416" lon="-4.639068"><ele>61.0</ele></trkpt>
    <trkpt lat="48.369378" lon="-4.639225"><ele>61.0</ele></trkpt>
    <trkpt lat="48.369397" lon="-4.639693"><ele>60.8</ele></trkpt>
    <trkpt lat="48.369482" lon="-4.640291"><ele>60.8</ele></trkpt>
    <trkpt lat="48.369506" lon="-4.641636"><ele>60.6</ele></trkpt>
    <trkpt lat="48.369604" lon="-4.642139"><ele>59.8</ele></trkpt>
    <trkpt lat="48.369695" lon="-4.642254"><ele>59.2</ele></trkpt>
    <trkpt lat="48.369778" lon="-4.642138"><ele>59.0</ele></trkpt>
    <trkpt lat="48.370073" lon="-4.641000"><ele>60.0</ele></trkpt>
    <trkpt lat="48.370208" lon="-4.640585"><ele>60.8</ele></trkpt>
    <trkpt lat="48.370239" lon="-4.640227"><ele>60.4</ele></trkpt>
    <trkpt lat="48.370316" lon="-4.640131"><ele>60.0</ele></trkpt>
    <trkpt lat="48.370624" lon="-4.640050"><ele>59.0</ele></trkpt>
    <trkpt lat="48.370728" lon="-4.640061"><ele>58.6</ele></trkpt>
    <trkpt lat="48.371070" lon="-4.640354"><ele>57.4</ele></trkpt>
    <trkpt lat="48.371517" lon="-4.640567"><ele>56.4</ele></trkpt>
    <trkpt lat="48.372507" lon="-4.640605"><ele>54.4</ele></trkpt>
    <trkpt lat="48.372618" lon="-4.640512"><ele>54.2</ele></trkpt>
    <trkpt lat="48.372892" lon="-4.639929"><ele>52.8</ele></trkpt>
    <trkpt lat="48.373106" lon="-4.639824"><ele>51.8</ele></trkpt>
    <trkpt lat="48.373242" lon="-4.639573"><ele>51.2</ele></trkpt>
    <trkpt lat="48.373308" lon="-4.639536"><ele>51.2</ele></trkpt>
    <trkpt lat="48.373454" lon="-4.639580"><ele>50.8</ele></trkpt>
    <trkpt lat="48.374188" lon="-4.639979"><ele>49.8</ele></trkpt>
    <trkpt lat="48.374389" lon="-4.640050"><ele>49.6</ele></trkpt>
    <trkpt lat="48.374509" lon="-4.640028"><ele>49.4</ele></trkpt>
    <trkpt lat="48.374796" lon="-4.639607"><ele>49.2</ele></trkpt>
    <trkpt lat="48.375406" lon="-4.638890"><ele>48.6</ele></trkpt>
    <trkpt lat="48.375622" lon="-4.638508"><ele>48.0</ele></trkpt>
    <trkpt lat="48.375659" lon="-4.638289"><ele>48.0</ele></trkpt>
    <trkpt lat="48.375585" lon="-4.638160"><ele>48.0</ele></trkpt>
    <trkpt lat="48.375281" lon="-4.638078"><ele>48.0</ele></trkpt>
    <trkpt lat="48.375194" lon="-4.638014"><ele>48.0</ele></trkpt>
    <trkpt lat="48.375178" lon="-4.637860"><ele>48.0</ele></trkpt>
    <trkpt lat="48.375243" lon="-4.637313"><ele>48.0</ele></trkpt>
    <trkpt lat="48.375442" lon="-4.635960"><ele>48.4</ele></trkpt>
    <trkpt lat="48.375621" lon="-4.635134"><ele>48.8</ele></trkpt>
    <trkpt lat="48.375607" lon="-4.634774"><ele>49.8</ele></trkpt>
    <trkpt lat="48.376080" lon="-4.633647"><ele>50.8</ele></trkpt>
    <trkpt lat="48.376136" lon="-4.633453"><ele>50.4</ele></trkpt>
    <trkpt lat="48.376119" lon="-4.633376"><ele>50.4</ele></trkpt>
    <trkpt lat="48.375086" lon="-4.633364"><ele>51.4</ele></trkpt>
    <trkpt lat="48.374276" lon="-4.633448"><ele>51.4</ele></trkpt>
    <trkpt lat="48.373801" lon="-4.633550"><ele>51.6</ele></trkpt>
    <trkpt lat="48.372893" lon="-4.633925"><ele>52.6</ele></trkpt>
    <trkpt lat="48.372550" lon="-4.633972"><ele>52.6</ele></trkpt>
    <trkpt lat="48.371786" lon="-4.633982"><ele>53.6</ele></trkpt>
    <trkpt lat="48.371683" lon="-4.633935"><ele>54.0</ele></trkpt>
    <trkpt lat="48.371620" lon="-4.633828"><ele>54.2</ele></trkpt>
    <trkpt lat="48.371755" lon="-4.632999"><ele>56.2</ele></trkpt>
    <trkpt lat="48.371720" lon="-4.632819"><ele>56.6</ele></trkpt>
    <trkpt lat="48.370055" lon="-4.632108"><ele>59.4</ele></trkpt>
    <trkpt lat="48.369700" lon="-4.631721"><ele>59.8</ele></trkpt>
    <trkpt lat="48.369627" lon="-4.631719"><ele>59.8</ele></trkpt>
    <trkpt lat="48.369560" lon="-4.631783"><ele>60.0</ele></trkpt>
    <trkpt lat="48.369462" lon="-4.631977"><ele>60.0</ele></trkpt>
    <trkpt lat="48.369373" lon="-4.632294"><ele>60.0</ele></trkpt>
    <trkpt lat="48.369238" lon="-4.632553"><ele>60.0</ele></trkpt>
    <trkpt lat="48.369185" lon="-4.632751"><ele>60.0</ele></trkpt>
    <trkpt lat="48.368822" lon="-4.634682"><ele>61.8</ele></trkpt>
    <trkpt lat="48.368724" lon="-4.635757"><ele>64.2</ele></trkpt>
    <trkpt lat="48.368635" lon="-4.636260"><ele>65.4</ele></trkpt>
    <trkpt lat="48.368249" lon="-4.637957"><ele>67.6</ele></trkpt>
    <trkpt lat="48.368076" lon="-4.638546"><ele>69.0</ele></trkpt>
    <trkpt lat="48.368095" lon="-4.638584"><ele>69.2</ele></trkpt>
    <trkpt lat="48.368143" lon="-4.638542"><ele>69.2</ele></trkpt>
    <trkpt lat="48.368241" lon="-4.638234"><ele>68.6</ele></trkpt>
    <trkpt lat="48.368308" lon="-4.638182"><ele>68.0</ele></trkpt>
    <trkpt lat="48.368500" lon="-4.638307"><ele>66.6</ele></trkpt>
    <trkpt lat="48.368801" lon="-4.638414"><ele>64.4</ele></trkpt>
    <trkpt lat="48.369143" lon="-4.638430"><ele>62.0</ele></trkpt>
    <trkpt lat="48.369216" lon="-4.638710"><ele>61.8</ele></trkpt>
    <trkpt lat="48.369270" lon="-4.638768"><ele>61.8</ele></trkpt>
    <trkpt lat="48.370057" lon="-4.638707"><ele>60.0</ele></trkpt>
    <trkpt lat="48.370215" lon="-4.638737"><ele>59.4</ele></trkpt>
    <trkpt lat="48.370193" lon="-4.638819"><ele>59.2</ele></trkpt>
    <trkpt lat="48.370090" lon="-4.638878"><ele>59.2</ele></trkpt>
    <trkpt lat="48.369512" lon="-4.638954"><ele>60.0</ele></trkpt>
    <trkpt lat="48.369428" lon="-4.639048"><ele>60.4</ele></trkpt>
    <trkpt lat="48.369384" lon="-4.639203"><ele>60.8</ele></trkpt>
    <trkpt lat="48.369396" lon="-4.639656"><ele>61.2</ele></trkpt>
    <trkpt lat="48.369495" lon="-4.640414"><ele>61.0</ele></trkpt>
    <trkpt lat="48.369497" lon="-4.641641"><ele>62.0</ele></trkpt>
    <trkpt lat="48.369574" lon="-4.642087"><ele>61.0</ele></trkpt>
    <trkpt lat="48.369676" lon="-4.642250"><ele>60.2</ele></trkpt>
    <trkpt lat="48.369733" lon="-4.642231"><ele>60.0</ele></trkpt>
    <trkpt lat="48.369778" lon="-4.642134"><ele>59.6</ele></trkpt>
    <trkpt lat="48.370167" lon="-4.640706"><ele>60.4</ele></trkpt>
    <trkpt lat="48.370235" lon="-4.640238"><ele>60.0</ele></trkpt>
    <trkpt lat="48.370291" lon="-4.640142"><ele>59.8</ele></trkpt>
    <trkpt lat="48.370706" lon="-4.640052"><ele>58.6</ele></trkpt>
    <trkpt lat="48.371072" lon="-4.640363"><ele>57.6</ele></trkpt>
    <trkpt lat="48.371500" lon="-4.640577"><ele>56.4</ele></trkpt>
    <trkpt lat="48.371786" lon="-4.640552"><ele>55.6</ele></trkpt>
    <trkpt lat="48.372467" lon="-4.640608"><ele>53.8</ele></trkpt>
    <trkpt lat="48.372605" lon="-4.640492"><ele>53.6</ele></trkpt>
    <trkpt lat="48.372901" lon="-4.639909"><ele>53.0</ele></trkpt>
    <trkpt lat="48.373107" lon="-4.639836"><ele>52.8</ele></trkpt>
    <trkpt lat="48.373311" lon="-4.639560"><ele>52.0</ele></trkpt>
    <trkpt lat="48.373498" lon="-4.639571"><ele>51.4</ele></trkpt>
    <trkpt lat="48.374141" lon="-4.639936"><ele>50.0</ele></trkpt>
    <trkpt lat="48.374477" lon="-4.640016"><ele>49.6</ele></trkpt>
    <trkpt lat="48.374580" lon="-4.639933"><ele>49.4</ele></trkpt>
    <trkpt lat="48.374809" lon="-4.639588"><ele>48.8</ele></trkpt>
    <trkpt lat="48.375357" lon="-4.638956"><ele>47.6</ele></trkpt>
    <trkpt lat="48.375591" lon="-4.638589"><ele>47.6</ele></trkpt>
    <trkpt lat="48.375668" lon="-4.638336"><ele>48.2</ele></trkpt>
    <trkpt lat="48.375651" lon="-4.638223"><ele>48.4</ele></trkpt>
    <trkpt lat="48.375595" lon="-4.638153"><ele>48.6</ele></trkpt>
    <trkpt lat="48.375259" lon="-4.638048"><ele>48.6</ele></trkpt>
    <trkpt lat="48.375187" lon="-4.637956"><ele>48.6</ele></trkpt>
    <trkpt lat="48.375335" lon="-4.636585"><ele>48.8</ele></trkpt>
    <trkpt lat="48.375488" lon="-4.635661"><ele>49.2</ele></trkpt>
    <trkpt lat="48.375627" lon="-4.635115"><ele>50.0</ele></trkpt>
    <trkpt lat="48.375610" lon="-4.634728"><ele>50.4</ele></trkpt>
    <trkpt lat="48.376030" lon="-4.633714"><ele>50.6</ele></trkpt>
    <trkpt lat="48.376115" lon="-4.633403"><ele>50.4</ele></trkpt>
    <trkpt lat="48.376077" lon="-4.633333"><ele>50.4</ele></trkpt>
    <trkpt lat="48.375996" lon="-4.633319"><ele>50.4</ele></trkpt>
    <trkpt lat="48.374918" lon="-4.633377"><ele>51.4</ele></trkpt>
    <trkpt lat="48.373828" lon="-4.633551"><ele>52.0</ele></trkpt>
    <trkpt lat="48.372829" lon="-4.633948"><ele>52.6</ele></trkpt>
    <trkpt lat="48.371907" lon="-4.633964"><ele>53.2</ele></trkpt>
    <trkpt lat="48.371759" lon="-4.633903"><ele>53.8</ele></trkpt>
    <trkpt lat="48.371712" lon="-4.633829"><ele>54.2</ele></trkpt>
    <trkpt lat="48.371770" lon="-4.632952"><ele>56.0</ele></trkpt>
    <trkpt lat="48.371730" lon="-4.632799"><ele>56.0</ele></trkpt>
    <trkpt lat="48.370070" lon="-4.632116"><ele>59.2</ele></trkpt>
    <trkpt lat="48.369708" lon="-4.631720"><ele>59.6</ele></trkpt>
    <trkpt lat="48.369638" lon="-4.631703"><ele>59.8</ele></trkpt>
    <trkpt lat="48.369570" lon="-4.631753"><ele>60.0</ele></trkpt>
    <trkpt lat="48.369465" lon="-4.631939"><ele>60.2</ele></trkpt>
    <trkpt lat="48.369373" lon="-4.632263"><ele>60.6</ele></trkpt>
    <trkpt lat="48.369242" lon="-4.632525"><ele>60.6</ele></trkpt>
    <trkpt lat="48.369201" lon="-4.632673"><ele>60.8</ele></trkpt>
    <trkpt lat="48.369016" lon="-4.633807"><ele>61.6</ele></trkpt>
    <trkpt lat="48.368810" lon="-4.634800"><ele>62.4</ele></trkpt>
    <trkpt lat="48.368751" lon="-4.635529"><ele>63.6</ele></trkpt>
    <trkpt lat="48.368605" lon="-4.636493"><ele>66.8</ele></trkpt>
    <trkpt lat="48.368308" lon="-4.637794"><ele>67.8</ele></trkpt>
    <trkpt lat="48.368081" lon="-4.638551"><ele>68.0</ele></trkpt>
    <trkpt lat="48.368099" lon="-4.638594"><ele>68.0</ele></trkpt>
    <trkpt lat="48.368140" lon="-4.638559"><ele>67.8</ele></trkpt>
    <trkpt lat="48.368231" lon="-4.638254"><ele>67.4</ele></trkpt>
    <trkpt lat="48.368293" lon="-4.638183"><ele>67.0</ele></trkpt>
    <trkpt lat="48.368615" lon="-4.638362"><ele>65.6</ele></trkpt>
    <trkpt lat="48.368814" lon="-4.638414"><ele>64.6</ele></trkpt>
    <trkpt lat="48.369141" lon="-4.638425"><ele>62.6</ele></trkpt>
    <trkpt lat="48.369229" lon="-4.638720"><ele>62.2</ele></trkpt>
    <trkpt lat="48.369287" lon="-4.638773"><ele>62.0</ele></trkpt>
    <trkpt lat="48.370024" lon="-4.638705"><ele>60.6</ele></trkpt>
    <trkpt lat="48.370213" lon="-4.638735"><ele>59.6</ele></trkpt>
    <trkpt lat="48.370186" lon="-4.638800"><ele>59.4</ele></trkpt>
    <trkpt lat="48.370079" lon="-4.638861"><ele>59.4</ele></trkpt>
    <trkpt lat="48.369517" lon="-4.638973"><ele>61.2</ele></trkpt>
    <trkpt lat="48.369427" lon="-4.639058"><ele>61.2</ele></trkpt>
    <trkpt lat="48.369392" lon="-4.639156"><ele>61.2</ele></trkpt>
    <trkpt lat="48.369407" lon="-4.639715"><ele>60.6</ele></trkpt>
    <trkpt lat="48.369487" lon="-4.640246"><ele>60.4</ele></trkpt>
    <trkpt lat="48.369473" lon="-4.641507"><ele>61.0</ele></trkpt>
    <trkpt lat="48.369598" lon="-4.642052"><ele>59.8</ele></trkpt>
    <trkpt lat="48.369692" lon="-4.642218"><ele>59.2</ele></trkpt>
    <trkpt lat="48.369747" lon="-4.642199"><ele>59.2</ele></trkpt>
    <trkpt lat="48.369811" lon="-4.642046"><ele>59.2</ele></trkpt>
    <trkpt lat="48.370193" lon="-4.640627"><ele>62.0</ele></trkpt>
    <trkpt lat="48.370237" lon="-4.640220"><ele>61.4</ele></trkpt>
    <trkpt lat="48.370283" lon="-4.640143"><ele>60.6</ele></trkpt>
    <trkpt lat="48.370650" lon="-4.640074"><ele>59.0</ele></trkpt>
    <trkpt lat="48.371084" lon="-4.640361"><ele>58.2</ele></trkpt>
    <trkpt lat="48.371551" lon="-4.640595"><ele>57.2</ele></trkpt>
    <trkpt lat="48.372361" lon="-4.640602"><ele>54.8</ele></trkpt>
    <trkpt lat="48.372586" lon="-4.640508"><ele>54.0</ele></trkpt>
    <trkpt lat="48.372865" lon="-4.639967"><ele>52.6</ele></trkpt>
    <trkpt lat="48.373109" lon="-4.639821"><ele>52.0</ele></trkpt>
    <trkpt lat="48.373221" lon="-4.639568"><ele>51.4</ele></trkpt>
    <trkpt lat="48.373283" lon="-4.639506"><ele>51.2</ele></trkpt>
    <trkpt lat="48.373471" lon="-4.639555"><ele>50.8</ele></trkpt>
    <trkpt lat="48.374039" lon="-4.639912"><ele>49.6</ele></trkpt>
    <trkpt lat="48.374366" lon="-4.640023"><ele>49.0</ele></trkpt>
    <trkpt lat="48.374487" lon="-4.640023"><ele>48.8</ele></trkpt>
    <trkpt lat="48.374593" lon="-4.639936"><ele>48.6</ele></trkpt>
    <trkpt lat="48.374841" lon="-4.639561"><ele>48.4</ele></trkpt>
    <trkpt lat="48.375422" lon="-4.638927"><ele>48.8</ele></trkpt>
    <trkpt lat="48.375653" lon="-4.638531"><ele>49.6</ele></trkpt>
    <trkpt lat="48.375685" lon="-4.638375"><ele>50.0</ele></trkpt>
    <trkpt lat="48.375672" lon="-4.638264"><ele>50.2</ele></trkpt>
    <trkpt lat="48.375586" lon="-4.638147"><ele>50.2</ele></trkpt>
    <trkpt lat="48.375235" lon="-4.638036"><ele>49.6</ele></trkpt>
    <trkpt lat="48.375177" lon="-4.637972"><ele>49.2</ele></trkpt>
    <trkpt lat="48.375164" lon="-4.637884"><ele>49.0</ele></trkpt>
    <trkpt lat="48.375497" lon="-4.635621"><ele>48.8</ele></trkpt>
    <trkpt lat="48.375619" lon="-4.635086"><ele>49.8</ele></trkpt>
    <trkpt lat="48.375587" lon="-4.634771"><ele>50.2</ele></trkpt>
    <trkpt lat="48.376041" lon="-4.633672"><ele>49.8</ele></trkpt>
    <trkpt lat="48.376087" lon="-4.633465"><ele>50.0</ele></trkpt>
    <trkpt lat="48.376008" lon="-4.633375"><ele>50.2</ele></trkpt>
    <trkpt lat="48.375740" lon="-4.633350"><ele>50.4</ele></trkpt>
    <trkpt lat="48.374373" lon="-4.633465"><ele>51.0</ele></trkpt>
    <trkpt lat="48.373729" lon="-4.633594"><ele>52.4</ele></trkpt>
    <trkpt lat="48.372910" lon="-4.633947"><ele>52.8</ele></trkpt>
    <trkpt lat="48.372579" lon="-4.633998"><ele>52.2</ele></trkpt>
    <trkpt lat="48.371835" lon="-4.634004"><ele>53.8</ele></trkpt>
    <trkpt lat="48.371676" lon="-4.633918"><ele>54.4</ele></trkpt>
    <trkpt lat="48.371594" lon="-4.633809"><ele>54.8</ele></trkpt>
    <trkpt lat="48.371745" lon="-4.633069"><ele>56.0</ele></trkpt>
    <trkpt lat="48.371758" lon="-4.632865"><ele>56.0</ele></trkpt>
    <trkpt lat="48.371724" lon="-4.632773"><ele>56.2</ele></trkpt>
    <trkpt lat="48.371100" lon="-4.632571"><ele>56.8</ele></trkpt>
    <trkpt lat="48.370293" lon="-4.632194"><ele>58.6</ele></trkpt>
    <trkpt lat="48.370084" lon="-4.632141"><ele>59.4</ele></trkpt>
    <trkpt lat="48.369719" lon="-4.631736"><ele>59.4</ele></trkpt>
    <trkpt lat="48.369663" lon="-4.631713"><ele>59.4</ele></trkpt>
    <trkpt lat="48.369581" lon="-4.631764"><ele>59.6</ele></trkpt>
    <trkpt lat="48.369479" lon="-4.631938"><ele>59.6</ele></trkpt>
    <trkpt lat="48.369386" lon="-4.632266"><ele>60.0</ele></trkpt>
    <trkpt lat="48.369248" lon="-4.632507"><ele>60.2</ele></trkpt>
    <trkpt lat="48.369193" lon="-4.632699"><ele>60.2</ele></trkpt>
    <trkpt lat="48.368803" lon="-4.634786"><ele>62.0</ele></trkpt>
    <trkpt lat="48.368729" lon="-4.635523"><ele>63.0</ele></trkpt>
    <trkpt lat="48.368449" lon="-4.637169"><ele>66.2</ele></trkpt>
    <trkpt lat="48.368291" lon="-4.637685"><ele>68.0</ele></trkpt>
    <trkpt lat="48.368085" lon="-4.638568"><ele>68.4</ele></trkpt>
    <trkpt lat="48.368104" lon="-4.638607"><ele>68.2</ele></trkpt>
    <trkpt lat="48.368157" lon="-4.638574"><ele>68.2</ele></trkpt>
    <trkpt lat="48.368251" lon="-4.638271"><ele>67.6</ele></trkpt>
    <trkpt lat="48.368321" lon="-4.638216"><ele>67.2</ele></trkpt>
    <trkpt lat="48.368584" lon="-4.638402"><ele>66.2</ele></trkpt>
    <trkpt lat="48.368880" lon="-4.638470"><ele>64.2</ele></trkpt>
    <trkpt lat="48.369133" lon="-4.638463"><ele>62.4</ele></trkpt>
    <trkpt lat="48.369170" lon="-4.638508"><ele>62.2</ele></trkpt>
    <trkpt lat="48.369229" lon="-4.638740"><ele>61.8</ele></trkpt>
    <trkpt lat="48.369310" lon="-4.638805"><ele>61.6</ele></trkpt>
    <trkpt lat="48.370160" lon="-4.638697"><ele>60.0</ele></trkpt>
    <trkpt lat="48.370219" lon="-4.638723"><ele>59.8</ele></trkpt>
    <trkpt lat="48.370189" lon="-4.638812"><ele>59.8</ele></trkpt>
    <trkpt lat="48.370094" lon="-4.638878"><ele>60.0</ele></trkpt>
    <trkpt lat="48.369513" lon="-4.639002"><ele>62.2</ele></trkpt>
    <trkpt lat="48.369427" lon="-4.639099"><ele>62.2</ele></trkpt>
    <trkpt lat="48.369398" lon="-4.639207"><ele>62.0</ele></trkpt>
    <trkpt lat="48.369388" lon="-4.639577"><ele>61.4</ele></trkpt>
    <trkpt lat="48.369446" lon="-4.639962"><ele>60.8</ele></trkpt>
    <trkpt lat="48.369504" lon="-4.640831"><ele>60.4</ele></trkpt>
    <trkpt lat="48.369487" lon="-4.641527"><ele>59.8</ele></trkpt>
    <trkpt lat="48.369607" lon="-4.642051"><ele>59.6</ele></trkpt>
    <trkpt lat="48.369683" lon="-4.642202"><ele>59.6</ele></trkpt>
    <trkpt lat="48.369742" lon="-4.642208"><ele>59.6</ele></trkpt>
    <trkpt lat="48.369789" lon="-4.642125"><ele>59.8</ele></trkpt>
    <trkpt lat="48.370147" lon="-4.640782"><ele>60.8</ele></trkpt>
    <trkpt lat="48.370195" lon="-4.640323"><ele>60.8</ele></trkpt>
  </trkseg></trk>
</gpx>
