<?xml version="1.0" encoding="UTF-8"?>
<gpx version="1.1" creator="tcap-parcours" xmlns="http://www.topografix.com/GPX/1/1">
  <metadata><name>Kerlannou – Kervaer – Déolen – Coz Lannoc – 14,4 km</name></metadata>
  <trk><name>Kerlannou – Kervaer – Déolen – Coz Lannoc – 14,4 km</name><trkseg>
    <trkpt lat="48.370218" lon="-4.640415"><ele>60.4</ele></trkpt>
    <trkpt lat="48.370322" lon="-4.640208"><ele>60.0</ele></trkpt>
    <trkpt lat="48.370712" lon="-4.640033"><ele>59.0</ele></trkpt>
    <trkpt lat="48.370833" lon="-4.640095"><ele>58.6</ele></trkpt>
    <trkpt lat="48.371190" lon="-4.640403"><ele>57.8</ele></trkpt>
    <trkpt lat="48.371543" lon="-4.640585"><ele>57.4</ele></trkpt>
    <trkpt lat="48.371777" lon="-4.640564"><ele>56.6</ele></trkpt>
    <trkpt lat="48.372513" lon="-4.640612"><ele>54.6</ele></trkpt>
    <trkpt lat="48.372633" lon="-4.640505"><ele>54.4</ele></trkpt>
    <trkpt lat="48.372914" lon="-4.639893"><ele>53.4</ele></trkpt>
    <trkpt lat="48.372992" lon="-4.639833"><ele>52.8</ele></trkpt>
    <trkpt lat="48.373134" lon="-4.639816"><ele>52.0</ele></trkpt>
    <trkpt lat="48.373238" lon="-4.639555"><ele>51.0</ele></trkpt>
    <trkpt lat="48.373304" lon="-4.639501"><ele>51.0</ele></trkpt>
    <trkpt lat="48.373537" lon="-4.639571"><ele>51.2</ele></trkpt>
    <trkpt lat="48.374354" lon="-4.639945"><ele>49.0</ele></trkpt>
    <trkpt lat="48.374511" lon="-4.639981"><ele>49.0</ele></trkpt>
    <trkpt lat="48.374605" lon="-4.639925"><ele>48.8</ele></trkpt>
    <trkpt lat="48.374801" lon="-4.639592"><ele>49.2</ele></trkpt>
    <trkpt lat="48.375321" lon="-4.639025"><ele>49.4</ele></trkpt>
    <trkpt lat="48.375608" lon="-4.638589"><ele>48.6</ele></trkpt>
    <trkpt lat="48.375687" lon="-4.638396"><ele>48.6</ele></trkpt>
    <trkpt lat="48.375696" lon="-4.638259"><ele>48.8</ele></trkpt>
    <trkpt lat="48.375647" lon="-4.638149"><ele>49.0</ele></trkpt>
    <trkpt lat="48.375237" lon="-4.638080"><ele>48.4</ele></trkpt>
    <trkpt lat="48.375180" lon="-4.638019"><ele>48.4</ele></trkpt>
    <trkpt lat="48.375165" lon="-4.637915"><ele>48.4</ele></trkpt>
    <trkpt lat="48.375468" lon="-4.635787"><ele>49.4</ele></trkpt>
    <trkpt lat="48.375650" lon="-4.635087"><ele>50.2</ele></trkpt>
    <trkpt lat="48.375609" lon="-4.634814"><ele>50.4</ele></trkpt>
    <trkpt lat="48.375620" lon="-4.634707"><ele>50.4</ele></trkpt>
    <trkpt lat="48.376109" lon="-4.633574"><ele>50.2</ele></trkpt>
    <trkpt lat="48.376151" lon="-4.633442"><ele>50.4</ele></trkpt>
    <trkpt lat="48.376144" lon="-4.633346"><ele>50.6</ele></trkpt>
    <trkpt lat="48.376034" lon="-4.633285"><ele>50.8</ele></trkpt>
    <trkpt lat="48.374721" lon="-4.633448"><ele>52.6</ele></trkpt>
    <trkpt lat="48.374064" lon="-4.633482"><ele>53.0</ele></trkpt>
    <trkpt lat="48.373583" lon="-4.633644"><ele>53.2</ele></trkpt>
    <trkpt lat="48.373143" lon="-4.633875"><ele>53.0</ele></trkpt>
    <trkpt lat="48.372877" lon="-4.633967"><ele>52.6</ele></trkpt>
    <trkpt lat="48.372326" lon="-4.634015"><ele>53.8</ele></trkpt>
    <trkpt lat="48.371831" lon="-4.633999"><ele>54.6</ele></trkpt>
    <trkpt lat="48.371670" lon="-4.633917"><ele>54.6</ele></trkpt>
    <trkpt lat="48.371624" lon="-4.633806"><ele>54.8</ele></trkpt>
    <trkpt lat="48.371775" lon="-4.633065"><ele>55.6</ele></trkpt>
    <trkpt lat="48.371785" lon="-4.632891"><ele>55.8</ele></trkpt>
    <trkpt lat="48.371760" lon="-4.632794"><ele>56.0</ele></trkpt>
    <trkpt lat="48.370923" lon="-4.632496"><ele>58.2</ele></trkpt>
    <trkpt lat="48.370340" lon="-4.632194"><ele>60.0</ele></trkpt>
    <trkpt lat="48.370097" lon="-4.632131"><ele>60.2</ele></trkpt>
    <trkpt lat="48.369952" lon="-4.632001"><ele>60.0</ele></trkpt>
    <trkpt lat="48.369751" lon="-4.631715"><ele>59.8</ele></trkpt>
    <trkpt lat="48.369653" lon="-4.631676"><ele>60.0</ele></trkpt>
    <trkpt lat="48.369505" lon="-4.631850"><ele>60.8</ele></trkpt>
    <trkpt lat="48.369395" lon="-4.632242"><ele>61.6</ele></trkpt>
    <trkpt lat="48.369289" lon="-4.632411"><ele>61.6</ele></trkpt>
    <trkpt lat="48.369227" lon="-4.632583"><ele>61.6</ele></trkpt>
    <trkpt lat="48.368832" lon="-4.634754"><ele>62.6</ele></trkpt>
    <trkpt lat="48.368779" lon="-4.634899"><ele>62.8</ele></trkpt>
    <trkpt lat="48.368718" lon="-4.634931"><ele>62.8</ele></trkpt>
    <trkpt lat="48.367992" lon="-4.634817"><ele>63.8</ele></trkpt>
    <trkpt lat="48.367635" lon="-4.634665"><ele>64.0</ele></trkpt>
    <trkpt lat="48.367349" lon="-4.634471"><ele>63.6</ele></trkpt>
    <trkpt lat="48.367026" lon="-4.634005"><ele>63.2</ele></trkpt>
    <trkpt lat="48.366926" lon="-4.633964"><ele>63.0</ele></trkpt>
    <trkpt lat="48.366646" lon="-4.633959"><ele>62.2</ele></trkpt>
    <trkpt lat="48.366011" lon="-4.633689"><ele>61.2</ele></trkpt>
    <trkpt lat="48.365771" lon="-4.633526"><ele>60.6</ele></trkpt>
    <trkpt lat="48.365418" lon="-4.633135"><ele>58.4</ele></trkpt>
    <trkpt lat="48.364922" lon="-4.632925"><ele>59.4</ele></trkpt>
    <trkpt lat="48.364834" lon="-4.632729"><ele>60.0</ele></trkpt>
    <trkpt lat="48.364495" lon="-4.632429"><ele>61.6</ele></trkpt>
    <trkpt lat="48.364358" lon="-4.632022"><ele>62.6</ele></trkpt>
    <trkpt lat="48.364262" lon="-4.631160"><ele>64.4</ele></trkpt>
    <trkpt lat="48.364270" lon="-4.630442"><ele>65.0</ele></trkpt>
    <trkpt lat="48.364358" lon="-4.629909"><ele>65.4</ele></trkpt>
    <trkpt lat="48.364345" lon="-4.629762"><ele>65.8</ele></trkpt>
    <trkpt lat="48.364279" lon="-4.629698"><ele>66.2</ele></trkpt>
    <trkpt lat="48.363903" lon="-4.629622"><ele>68.4</ele></trkpt>
    <trkpt lat="48.363379" lon="-4.629394"><ele>69.8</ele></trkpt>
    <trkpt lat="48.363116" lon="-4.629127"><ele>70.6</ele></trkpt>
    <trkpt lat="48.363079" lon="-4.628997"><ele>70.6</ele></trkpt>
    <trkpt lat="48.363166" lon="-4.628738"><ele>70.6</ele></trkpt>
    <trkpt lat="48.363868" lon="-4.627316"><ele>70.2</ele></trkpt>
    <trkpt lat="48.364086" lon="-4.626469"><ele>70.0</ele></trkpt>
    <trkpt lat="48.363670" lon="-4.626276"><ele>70.8</ele></trkpt>
    <trkpt lat="48.363232" lon="-4.626009"><ele>71.8</ele></trkpt>
    <trkpt lat="48.362966" lon="-4.625763"><ele>73.0</ele></trkpt>
    <trkpt lat="48.362557" lon="-4.625544"><ele>74.8</ele></trkpt>
    <trkpt lat="48.362482" lon="-4.625465"><ele>75.0</ele></trkpt>
    <trkpt lat="48.362462" lon="-4.625384"><ele>75.2</ele></trkpt>
    <trkpt lat="48.362536" lon="-4.625247"><ele>75.6</ele></trkpt>
    <trkpt lat="48.362724" lon="-4.625071"><ele>76.2</ele></trkpt>
    <trkpt lat="48.362789" lon="-4.624816"><ele>76.6</ele></trkpt>
    <trkpt lat="48.362733" lon="-4.624464"><ele>77.2</ele></trkpt>
    <trkpt lat="48.362720" lon="-4.623627"><ele>79.0</ele></trkpt>
    <trkpt lat="48.362764" lon="-4.622550"><ele>82.4</ele></trkpt>
    <trkpt lat="48.362890" lon="-4.622528"><ele>81.0</ele></trkpt>
    <trkpt lat="48.363586" lon="-4.622683"><ele>79.8</ele></trkpt>
    <trkpt lat="48.364113" lon="-4.622644"><ele>78.8</ele></trkpt>
    <trkpt lat="48.364596" lon="-4.622691"><ele>78.2</ele></trkpt>
    <trkpt lat="48.364670" lon="-4.622661"><ele>78.4</ele></trkpt>
    <trkpt lat="48.364729" lon="-4.622518"><ele>78.6</ele></trkpt>
    <trkpt lat="48.364777" lon="-4.622186"><ele>79.0</ele></trkpt>
    <trkpt lat="48.364784" lon="-4.621303"><ele>79.2</ele></trkpt>
    <trkpt lat="48.364837" lon="-4.620765"><ele>78.6</ele></trkpt>
    <trkpt lat="48.364820" lon="-4.620597"><ele>78.6</ele></trkpt>
    <trkpt lat="48.364045" lon="-4.620364"><ele>81.0</ele></trkpt>
    <trkpt lat="48.363412" lon="-4.620384"><ele>83.4</ele></trkpt>
    <trkpt lat="48.362273" lon="-4.620498"><ele>87.8</ele></trkpt>
    <trkpt lat="48.361956" lon="-4.620588"><ele>88.2</ele></trkpt>
    <trkpt lat="48.361595" lon="-4.620754"><ele>88.6</ele></trkpt>
    <trkpt lat="48.361487" lon="-4.620762"><ele>88.6</ele></trkpt>
    <trkpt lat="48.361314" lon="-4.620536"><ele>88.6</ele></trkpt>
    <trkpt lat="48.361309" lon="-4.620186"><ele>88.8</ele></trkpt>
    <trkpt lat="48.361261" lon="-4.619971"><ele>89.0</ele></trkpt>
    <trkpt lat="48.360828" lon="-4.619422"><ele>90.8</ele></trkpt>
    <trkpt lat="48.360459" lon="-4.619063"><ele>92.6</ele></trkpt>
    <trkpt lat="48.358639" lon="-4.617591"><ele>91.4</ele></trkpt>
    <trkpt lat="48.358032" lon="-4.617230"><ele>91.2</ele></trkpt>
    <trkpt lat="48.357414" lon="-4.617211"><ele>90.6</ele></trkpt>
    <trkpt lat="48.356317" lon="-4.617429"><ele>87.8</ele></trkpt>
    <trkpt lat="48.355515" lon="-4.617500"><ele>88.4</ele></trkpt>
    <trkpt lat="48.355195" lon="-4.617616"><ele>88.2</ele></trkpt>
    <trkpt lat="48.355279" lon="-4.619465"><ele>86.0</ele></trkpt>
    <trkpt lat="48.355239" lon="-4.619855"><ele>84.8</ele></trkpt>
    <trkpt lat="48.355228" lon="-4.620705"><ele>82.2</ele></trkpt>
    <trkpt lat="48.355174" lon="-4.621715"><ele>81.0</ele></trkpt>
    <trkpt lat="48.355126" lon="-4.621755"><ele>81.0</ele></trkpt>
    <trkpt lat="48.354889" lon="-4.621600"><ele>81.6</ele></trkpt>
    <trkpt lat="48.354295" lon="-4.621338"><ele>83.8</ele></trkpt>
    <trkpt lat="48.353939" lon="-4.621317"><ele>83.4</ele></trkpt>
    <trkpt lat="48.353769" lon="-4.621378"><ele>83.2</ele></trkpt>
    <trkpt lat="48.353546" lon="-4.621365"><ele>82.6</ele></trkpt>
    <trkpt lat="48.353442" lon="-4.621430"><ele>82.2</ele></trkpt>
    <trkpt lat="48.353240" lon="-4.622093"><ele>81.2</ele></trkpt>
    <trkpt lat="48.353107" lon="-4.622347"><ele>81.0</ele></trkpt>
    <trkpt lat="48.352770" lon="-4.623927"><ele>78.2</ele></trkpt>
    <trkpt lat="48.352788" lon="-4.624258"><ele>78.0</ele></trkpt>
    <trkpt lat="48.352632" lon="-4.624600"><ele>77.2</ele></trkpt>
    <trkpt lat="48.352529" lon="-4.625195"><ele>76.0</ele></trkpt>
    <trkpt lat="48.352441" lon="-4.625264"><ele>75.8</ele></trkpt>
    <trkpt lat="48.351892" lon="-4.625264"><ele>74.8</ele></trkpt>
    <trkpt lat="48.351901" lon="-4.625723"><ele>72.8</ele></trkpt>
    <trkpt lat="48.352064" lon="-4.626418"><ele>72.8</ele></trkpt>
    <trkpt lat="48.352097" lon="-4.626814"><ele>73.0</ele></trkpt>
    <trkpt lat="48.352041" lon="-4.627870"><ele>72.0</ele></trkpt>
    <trkpt lat="48.351997" lon="-4.628049"><ele>71.6</ele></trkpt>
    <trkpt lat="48.351931" lon="-4.628113"><ele>71.4</ele></trkpt>
    <trkpt lat="48.351777" lon="-4.628167"><ele>70.8</ele></trkpt>
    <trkpt lat="48.351575" lon="-4.628164"><ele>70.4</ele></trkpt>
    <trkpt lat="48.351315" lon="-4.628122"><ele>70.2</ele></trkpt>
    <trkpt lat="48.351232" lon="-4.628047"><ele>70.2</ele></trkpt>
    <trkpt lat="48.351237" lon="-4.627572"><ele>70.4</ele></trkpt>
    <trkpt lat="48.351210" lon="-4.627414"><ele>70.2</ele></trkpt>
    <trkpt lat="48.351041" lon="-4.626900"><ele>69.6</ele></trkpt>
    <trkpt lat="48.350558" lon="-4.625832"><ele>68.8</ele></trkpt>
    <trkpt lat="48.350434" lon="-4.625185"><ele>70.0</ele></trkpt>
    <trkpt lat="48.350363" lon="-4.625021"><ele>70.4</ele></trkpt>
    <trkpt lat="48.350225" lon="-4.625004"><ele>70.4</ele></trkpt>
    <trkpt lat="48.349839" lon="-4.625215"><ele>69.4</ele></trkpt>
    <trkpt lat="48.349710" lon="-4.625186"><ele>69.2</ele></trkpt>
    <trkpt lat="48.348886" lon="-4.624436"><ele>66.0</ele></trkpt>
    <trkpt lat="48.348238" lon="-4.623519"><ele>73.0</ele></trkpt>
    <trkpt lat="48.348069" lon="-4.623589"><ele>71.2</ele></trkpt>
    <trkpt lat="48.347826" lon="-4.624549"><ele>69.6</ele></trkpt>
    <trkpt lat="48.347806" lon="-4.624863"><ele>69.4</ele></trkpt>
    <trkpt lat="48.347577" lon="-4.625348"><ele>69.8</ele></trkpt>
    <trkpt lat="48.347525" lon="-4.625347"><ele>70.0</ele></trkpt>
    <trkpt lat="48.347266" lon="-4.624969"><ele>71.4</ele></trkpt>
    <trkpt lat="48.347083" lon="-4.624765"><ele>71.2</ele></trkpt>
    <trkpt lat="48.346943" lon="-4.624634"><ele>70.6</ele></trkpt>
    <trkpt lat="48.346883" lon="-4.624623"><ele>70.2</ele></trkpt>
    <trkpt lat="48.346767" lon="-4.624824"><ele>68.8</ele></trkpt>
    <trkpt lat="48.346306" lon="-4.626017"><ele>66.0</ele></trkpt>
    <trkpt lat="48.346005" lon="-4.626464"><ele>65.0</ele></trkpt>
    <trkpt lat="48.345899" lon="-4.627014"><ele>63.6</ele></trkpt>
    <trkpt lat="48.345333" lon="-4.627880"><ele>57.8</ele></trkpt>
    <trkpt lat="48.345145" lon="-4.628003"><ele>57.4</ele></trkpt>
    <trkpt lat="48.345090" lon="-4.628112"><ele>57.0</ele></trkpt>
    <trkpt lat="48.345094" lon="-4.628279"><ele>56.2</ele></trkpt>
    <trkpt lat="48.345240" lon="-4.628991"><ele>51.4</ele></trkpt>
    <trkpt lat="48.345139" lon="-4.629654"><ele>48.6</ele></trkpt>
    <trkpt lat="48.345156" lon="-4.630363"><ele>43.6</ele></trkpt>
    <trkpt lat="48.345132" lon="-4.630556"><ele>42.2</ele></trkpt>
    <trkpt lat="48.344946" lon="-4.631175"><ele>37.2</ele></trkpt>
    <trkpt lat="48.344834" lon="-4.631424"><ele>34.8</ele></trkpt>
    <trkpt lat="48.344696" lon="-4.631573"><ele>33.0</ele></trkpt>
    <trkpt lat="48.344363" lon="-4.631765"><ele>28.2</ele></trkpt>
    <trkpt lat="48.344258" lon="-4.631946"><ele>25.8</ele></trkpt>
    <trkpt lat="48.344280" lon="-4.632007"><ele>25.0</ele></trkpt>
    <trkpt lat="48.344373" lon="-4.632055"><ele>24.0</ele></trkpt>
    <trkpt lat="48.344896" lon="-4.632128"><ele>19.6</ele></trkpt>
    <trkpt lat="48.344951" lon="-4.632195"><ele>19.0</ele></trkpt>
    <trkpt lat="48.344942" lon="-4.632244"><ele>18.8</ele></trkpt>
    <trkpt lat="48.344784" lon="-4.632356"><ele>18.0</ele></trkpt>
    <trkpt lat="48.344147" lon="-4.632616"><ele>16.4</ele></trkpt>
    <trkpt lat="48.343916" lon="-4.632770"><ele>18.8</ele></trkpt>
    <trkpt lat="48.343730" lon="-4.633084"><ele>22.6</ele></trkpt>
    <trkpt lat="48.342964" lon="-4.633850"><ele>24.2</ele></trkpt>
    <trkpt lat="48.342876" lon="-4.634218"><ele>27.2</ele></trkpt>
    <trkpt lat="48.342887" lon="-4.634362"><ele>29.0</ele></trkpt>
    <trkpt lat="48.343019" lon="-4.634750"><ele>35.6</ele></trkpt>
    <trkpt lat="48.343344" lon="-4.635464"><ele>33.0</ele></trkpt>
    <trkpt lat="48.343419" lon="-4.635502"><ele>32.8</ele></trkpt>
    <trkpt lat="48.343637" lon="-4.635477"><ele>33.4</ele></trkpt>
    <trkpt lat="48.343871" lon="-4.635802"><ele>35.2</ele></trkpt>
    <trkpt lat="48.344048" lon="-4.635892"><ele>35.8</ele></trkpt>
    <trkpt lat="48.344132" lon="-4.635993"><ele>35.8</ele></trkpt>
    <trkpt lat="48.344183" lon="-4.636161"><ele>35.2</ele></trkpt>
    <trkpt lat="48.344148" lon="-4.636449"><ele>34.6</ele></trkpt>
    <trkpt lat="48.344174" lon="-4.636548"><ele>34.4</ele></trkpt>
    <trkpt lat="48.344225" lon="-4.636558"><ele>34.4</ele></trkpt>
    <trkpt lat="48.344469" lon="-4.636397"><ele>34.4</ele></trkpt>
    <trkpt lat="48.344543" lon="-4.636397"><ele>34.6</ele></trkpt>
    <trkpt lat="48.344608" lon="-4.636456"><ele>35.0</ele></trkpt>
    <trkpt lat="48.344716" lon="-4.636750"><ele>36.0</ele></trkpt>
    <trkpt lat="48.344776" lon="-4.637333"><ele>36.4</ele></trkpt>
    <trkpt lat="48.344909" lon="-4.637756"><ele>36.2</ele></trkpt>
    <trkpt lat="48.344973" lon="-4.638327"><ele>35.6</ele></trkpt>
    <trkpt lat="48.345080" lon="-4.638530"><ele>35.2</ele></trkpt>
    <trkpt lat="48.345170" lon="-4.638626"><ele>34.8</ele></trkpt>
    <trkpt lat="48.345307" lon="-4.638690"><ele>34.2</ele></trkpt>
    <trkpt lat="48.345509" lon="-4.638677"><ele>32.8</ele></trkpt>
    <trkpt lat="48.345739" lon="-4.638832"><ele>30.6</ele></trkpt>
    <trkpt lat="48.345766" lon="-4.638936"><ele>29.6</ele></trkpt>
    <trkpt lat="48.345757" lon="-4.639538"><ele>25.8</ele></trkpt>
    <trkpt lat="48.345805" lon="-4.639697"><ele>24.8</ele></trkpt>
    <trkpt lat="48.345890" lon="-4.639829"><ele>23.6</ele></trkpt>
    <trkpt lat="48.345974" lon="-4.639889"><ele>22.6</ele></trkpt>
    <trkpt lat="48.346212" lon="-4.639908"><ele>20.0</ele></trkpt>
    <trkpt lat="48.346888" lon="-4.639701"><ele>13.8</ele></trkpt>
    <trkpt lat="48.347203" lon="-4.639733"><ele>12.4</ele></trkpt>
    <trkpt lat="48.347608" lon="-4.639608"><ele>13.2</ele></trkpt>
    <trkpt lat="48.347661" lon="-4.639654"><ele>13.0</ele></trkpt>
    <trkpt lat="48.347654" lon="-4.639789"><ele>12.8</ele></trkpt>
    <trkpt lat="48.347479" lon="-4.639960"><ele>13.2</ele></trkpt>
    <trkpt lat="48.347180" lon="-4.640424"><ele>15.2</ele></trkpt>
    <trkpt lat="48.346794" lon="-4.640616"><ele>16.4</ele></trkpt>
    <trkpt lat="48.346318" lon="-4.640985"><ele>18.6</ele></trkpt>
    <trkpt lat="48.346121" lon="-4.641201"><ele>19.6</ele></trkpt>
    <trkpt lat="48.345651" lon="-4.641912"><ele>25.0</ele></trkpt>
    <trkpt lat="48.345524" lon="-4.642253"><ele>28.4</ele></trkpt>
    <trkpt lat="48.345509" lon="-4.642554"><ele>30.8</ele></trkpt>
    <trkpt lat="48.345530" lon="-4.642768"><ele>32.6</ele></trkpt>
    <trkpt lat="48.345605" lon="-4.642816"><ele>33.6</ele></trkpt>
    <trkpt lat="48.345776" lon="-4.642745"><ele>36.2</ele></trkpt>
    <trkpt lat="48.345858" lon="-4.642780"><ele>38.0</ele></trkpt>
    <trkpt lat="48.346125" lon="-4.643190"><ele>45.8</ele></trkpt>
    <trkpt lat="48.346230" lon="-4.643271"><ele>48.6</ele></trkpt>
    <trkpt lat="48.346265" lon="-4.643386"><ele>46.8</ele></trkpt>
    <trkpt lat="48.346274" lon="-4.643687"><ele>48.0</ele></trkpt>
    <trkpt lat="48.346248" lon="-4.643830"><ele>48.4</ele></trkpt>
    <trkpt lat="48.346156" lon="-4.643929"><ele>48.6</ele></trkpt>
    <trkpt lat="48.345772" lon="-4.644134"><ele>47.2</ele></trkpt>
    <trkpt lat="48.345706" lon="-4.644226"><ele>46.6</ele></trkpt>
    <trkpt lat="48.345660" lon="-4.644390"><ele>46.4</ele></trkpt>
    <trkpt lat="48.345686" lon="-4.645068"><ele>48.8</ele></trkpt>
    <trkpt lat="48.345598" lon="-4.645530"><ele>50.8</ele></trkpt>
    <trkpt lat="48.345729" lon="-4.645830"><ele>50.4</ele></trkpt>
    <trkpt lat="48.345668" lon="-4.646173"><ele>49.2</ele></trkpt>
    <trkpt lat="48.345876" lon="-4.646968"><ele>47.8</ele></trkpt>
    <trkpt lat="48.345854" lon="-4.647130"><ele>47.0</ele></trkpt>
    <trkpt lat="48.345694" lon="-4.647460"><ele>43.8</ele></trkpt>
    <trkpt lat="48.345603" lon="-4.647778"><ele>41.8</ele></trkpt>
    <trkpt lat="48.345717" lon="-4.648362"><ele>42.8</ele></trkpt>
    <trkpt lat="48.345842" lon="-4.648544"><ele>43.8</ele></trkpt>
    <trkpt lat="48.345996" lon="-4.648868"><ele>45.4</ele></trkpt>
    <trkpt lat="48.346149" lon="-4.649454"><ele>47.8</ele></trkpt>
    <trkpt lat="48.346113" lon="-4.649662"><ele>46.4</ele></trkpt>
    <trkpt lat="48.345791" lon="-4.650377"><ele>36.8</ele></trkpt>
    <trkpt lat="48.345776" lon="-4.650621"><ele>36.0</ele></trkpt>
    <trkpt lat="48.345816" lon="-4.650737"><ele>35.8</ele></trkpt>
    <trkpt lat="48.345942" lon="-4.650911"><ele>35.6</ele></trkpt>
    <trkpt lat="48.346045" lon="-4.651288"><ele>36.2</ele></trkpt>
    <trkpt lat="48.346338" lon="-4.651686"><ele>39.4</ele></trkpt>
    <trkpt lat="48.346334" lon="-4.651967"><ele>41.6</ele></trkpt>
    <trkpt lat="48.346414" lon="-4.652204"><ele>43.4</ele></trkpt>
    <trkpt lat="48.346572" lon="-4.652437"><ele>44.4</ele></trkpt>
    <trkpt lat="48.346852" lon="-4.652680"><ele>46.2</ele></trkpt>
    <trkpt lat="48.347058" lon="-4.653200"><ele>48.2</ele></trkpt>
    <trkpt lat="48.347253" lon="-4.653483"><ele>48.0</ele></trkpt>
    <trkpt lat="48.347523" lon="-4.653744"><ele>46.2</ele></trkpt>
    <trkpt lat="48.347790" lon="-4.653851"><ele>43.8</ele></trkpt>
    <trkpt lat="48.348224" lon="-4.653702"><ele>39.2</ele></trkpt>
    <trkpt lat="48.348463" lon="-4.654039"><ele>37.4</ele></trkpt>
    <trkpt lat="48.348628" lon="-4.654574"><ele>36.8</ele></trkpt>
    <trkpt lat="48.348715" lon="-4.654710"><ele>35.6</ele></trkpt>
    <trkpt lat="48.348873" lon="-4.654852"><ele>32.8</ele></trkpt>
    <trkpt lat="48.348935" lon="-4.655050"><ele>33.2</ele></trkpt>
    <trkpt lat="48.348972" lon="-4.655448"><ele>35.4</ele></trkpt>
    <trkpt lat="48.348844" lon="-4.655920"><ele>37.2</ele></trkpt>
    <trkpt lat="48.348893" lon="-4.656310"><ele>38.8</ele></trkpt>
    <trkpt lat="48.348978" lon="-4.656440"><ele>39.2</ele></trkpt>
    <trkpt lat="48.349208" lon="-4.656595"><ele>39.4</ele></trkpt>
    <trkpt lat="48.349304" lon="-4.656715"><ele>39.0</ele></trkpt>
    <trkpt lat="48.349407" lon="-4.657014"><ele>37.6</ele></trkpt>
    <trkpt lat="48.349457" lon="-4.657504"><ele>33.0</ele></trkpt>
    <trkpt lat="48.349504" lon="-4.657653"><ele>31.6</ele></trkpt>
    <trkpt lat="48.349699" lon="-4.657839"><ele>29.8</ele></trkpt>
    <trkpt lat="48.349861" lon="-4.658096"><ele>28.4</ele></trkpt>
    <trkpt lat="48.350035" lon="-4.658249"><ele>26.6</ele></trkpt>
    <trkpt lat="48.350269" lon="-4.658606"><ele>25.6</ele></trkpt>
    <trkpt lat="48.350400" lon="-4.658899"><ele>24.8</ele></trkpt>
    <trkpt lat="48.350458" lon="-4.659137"><ele>23.8</ele></trkpt>
    <trkpt lat="48.350417" lon="-4.659627"><ele>21.4</ele></trkpt>
    <trkpt lat="48.350716" lon="-4.660085"><ele>22.6</ele></trkpt>
    <trkpt lat="48.350771" lon="-4.660250"><ele>23.6</ele></trkpt>
    <trkpt lat="48.350787" lon="-4.660494"><ele>24.6</ele></trkpt>
    <trkpt lat="48.350991" lon="-4.660806"><ele>25.4</ele></trkpt>
    <trkpt lat="48.350993" lon="-4.660912"><ele>25.6</ele></trkpt>
    <trkpt lat="48.350929" lon="-4.661096"><ele>25.4</ele></trkpt>
    <trkpt lat="48.350916" lon="-4.661426"><ele>25.4</ele></trkpt>
    <trkpt lat="48.352039" lon="-4.662780"><ele>28.8</ele></trkpt>
    <trkpt lat="48.352650" lon="-4.662853"><ele>31.4</ele></trkpt>
    <trkpt lat="48.353616" lon="-4.662658"><ele>38.6</ele></trkpt>
    <trkpt lat="48.353846" lon="-4.662658"><ele>38.4</ele></trkpt>
    <trkpt lat="48.353949" lon="-4.662711"><ele>38.6</ele></trkpt>
    <trkpt lat="48.354021" lon="-4.662811"><ele>39.2</ele></trkpt>
    <trkpt lat="48.354198" lon="-4.663585"><ele>42.4</ele></trkpt>
    <trkpt lat="48.354251" lon="-4.663697"><ele>43.0</ele></trkpt>
    <trkpt lat="48.354344" lon="-4.663725"><ele>43.2</ele></trkpt>
    <trkpt lat="48.354671" lon="-4.663540"><ele>44.0</ele></trkpt>
    <trkpt lat="48.354749" lon="-4.663232"><ele>44.8</ele></trkpt>
    <trkpt lat="48.355020" lon="-4.663123"><ele>46.4</ele></trkpt>
    <trkpt lat="48.355706" lon="-4.662610"><ele>50.6</ele></trkpt>
    <trkpt lat="48.355942" lon="-4.662285"><ele>52.0</ele></trkpt>
    <trkpt lat="48.356053" lon="-4.662186"><ele>52.6</ele></trkpt>
    <trkpt lat="48.356362" lon="-4.661978"><ele>54.8</ele></trkpt>
    <trkpt lat="48.356561" lon="-4.661912"><ele>56.6</ele></trkpt>
    <trkpt lat="48.356602" lon="-4.662023"><ele>57.2</ele></trkpt>
    <trkpt lat="48.356586" lon="-4.662474"><ele>57.8</ele></trkpt>
    <trkpt lat="48.356663" lon="-4.663444"><ele>57.4</ele></trkpt>
    <trkpt lat="48.356886" lon="-4.664174"><ele>58.2</ele></trkpt>
    <trkpt lat="48.356934" lon="-4.664617"><ele>57.6</ele></trkpt>
    <trkpt lat="48.357019" lon="-4.664749"><ele>57.6</ele></trkpt>
    <trkpt lat="48.357276" lon="-4.664654"><ele>57.6</ele></trkpt>
    <trkpt lat="48.357683" lon="-4.664371"><ele>57.6</ele></trkpt>
    <trkpt lat="48.357850" lon="-4.664337"><ele>57.6</ele></trkpt>
    <trkpt lat="48.358100" lon="-4.664395"><ele>57.8</ele></trkpt>
    <trkpt lat="48.358303" lon="-4.664233"><ele>58.0</ele></trkpt>
    <trkpt lat="48.358761" lon="-4.664060"><ele>58.4</ele></trkpt>
    <trkpt lat="48.358970" lon="-4.663939"><ele>59.2</ele></trkpt>
    <trkpt lat="48.359237" lon="-4.663510"><ele>60.6</ele></trkpt>
    <trkpt lat="48.359813" lon="-4.662708"><ele>64.8</ele></trkpt>
    <trkpt lat="48.360147" lon="-4.662166"><ele>67.4</ele></trkpt>
    <trkpt lat="48.360795" lon="-4.660798"><ele>69.6</ele></trkpt>
    <trkpt lat="48.361135" lon="-4.660532"><ele>70.4</ele></trkpt>
    <trkpt lat="48.361557" lon="-4.660088"><ele>72.0</ele></trkpt>
    <trkpt lat="48.361566" lon="-4.659933"><ele>72.8</ele></trkpt>
    <trkpt lat="48.361362" lon="-4.659395"><ele>74.0</ele></trkpt>
    <trkpt lat="48.360984" lon="-4.658573"><ele>74.4</ele></trkpt>
    <trkpt lat="48.360582" lon="-4.657796"><ele>74.6</ele></trkpt>
    <trkpt lat="48.360535" lon="-4.657262"><ele>73.8</ele></trkpt>
    <trkpt lat="48.360534" lon="-4.656134"><ele>73.2</ele></trkpt>
    <trkpt lat="48.360601" lon="-4.655977"><ele>73.2</ele></trkpt>
    <trkpt lat="48.360837" lon="-4.655700"><ele>73.4</ele></trkpt>
    <trkpt lat="48.361253" lon="-4.654921"><ele>74.8</ele></trkpt>
    <trkpt lat="48.361395" lon="-4.654394"><ele>75.8</ele></trkpt>
    <trkpt lat="48.361621" lon="-4.653810"><ele>76.8</ele></trkpt>
    <trkpt lat="48.361862" lon="-4.653344"><ele>77.0</ele></trkpt>
    <trkpt lat="48.361983" lon="-4.652985"><ele>76.8</ele></trkpt>
    <trkpt lat="48.362200" lon="-4.652708"><ele>76.8</ele></trkpt>
    <trkpt lat="48.362543" lon="-4.651950"><ele>75.8</ele></trkpt>
    <trkpt lat="48.362684" lon="-4.651158"><ele>75.8</ele></trkpt>
    <trkpt lat="48.363212" lon="-4.649495"><ele>75.6</ele></trkpt>
    <trkpt lat="48.363354" lon="-4.649149"><ele>75.2</ele></trkpt>
    <trkpt lat="48.363701" lon="-4.648470"><ele>73.6</ele></trkpt>
    <trkpt lat="48.364077" lon="-4.647119"><ele>73.0</ele></trkpt>
    <trkpt lat="48.364444" lon="-4.646179"><ele>72.4</ele></trkpt>
    <trkpt lat="48.365007" lon="-4.644450"><ele>70.4</ele></trkpt>
    <trkpt lat="48.365370" lon="-4.643763"><ele>70.2</ele></trkpt>
    <trkpt lat="48.365536" lon="-4.643381"><ele>69.6</ele></trkpt>
    <trkpt lat="48.365665" lon="-4.642827"><ele>68.6</ele></trkpt>
    <trkpt lat="48.365697" lon="-4.642476"><ele>68.4</ele></trkpt>
    <trkpt lat="48.365972" lon="-4.642171"><ele>67.6</ele></trkpt>
    <trkpt lat="48.366135" lon="-4.642315"><ele>67.4</ele></trkpt>
    <trkpt lat="48.366446" lon="-4.642309"><ele>67.6</ele></trkpt>
    <trkpt lat="48.366956" lon="-4.642521"><ele>71.0</ele></trkpt>
    <trkpt lat="48.368078" lon="-4.642886"><ele>71.0</ele></trkpt>
    <trkpt lat="48.368313" lon="-4.642786"><ele>69.8</ele></trkpt>
    <trkpt lat="48.369272" lon="-4.642834"><ele>64.2</ele></trkpt>
    <trkpt lat="48.369586" lon="-4.642796"><ele>62.4</ele></trkpt>
    <trkpt lat="48.369645" lon="-4.642736"><ele>62.0</ele></trkpt>
    <trkpt lat="48.369684" lon="-4.642622"><ele>62.0</ele></trkpt>
    <trkpt lat="48.369779" lon="-4.642164"><ele>61.6</ele></trkpt>
    <trkpt lat="48.370197" lon="-4.640641"><ele>63.4</ele></trkpt>
  </trkseg></trk>
</gpx>
