<?xml version="1.0" encoding="UTF-8"?>
<gpx version="1.1" creator="tcap-parcours" xmlns="http://www.topografix.com/GPX/1/1">
  <metadata><name>La Littorale : Bertheaume – Saint-Mathieu – Boucle 20 km</name></metadata>
  <trk><name>La Littorale : Bertheaume – Saint-Mathieu – Boucle 20 km</name><trkseg>
    <trkpt lat="48.337607" lon="-4.701758"><ele>28.2</ele></trkpt>
    <trkpt lat="48.337264" lon="-4.701620"><ele>27.6</ele></trkpt>
    <trkpt lat="48.337161" lon="-4.701640"><ele>26.6</ele></trkpt>
    <trkpt lat="48.337066" lon="-4.701836"><ele>23.2</ele></trkpt>
    <trkpt lat="48.336756" lon="-4.702262"><ele>20.6</ele></trkpt>
    <trkpt lat="48.336667" lon="-4.702479"><ele>19.4</ele></trkpt>
    <trkpt lat="48.336549" lon="-4.703125"><ele>24.4</ele></trkpt>
    <trkpt lat="48.336515" lon="-4.703590"><ele>28.8</ele></trkpt>
    <trkpt lat="48.336504" lon="-4.704544"><ele>30.8</ele></trkpt>
    <trkpt lat="48.336591" lon="-4.705372"><ele>35.0</ele></trkpt>
    <trkpt lat="48.336592" lon="-4.705760"><ele>35.6</ele></trkpt>
    <trkpt lat="48.336388" lon="-4.707249"><ele>40.6</ele></trkpt>
    <trkpt lat="48.336188" lon="-4.708246"><ele>43.4</ele></trkpt>
    <trkpt lat="48.336071" lon="-4.709071"><ele>46.2</ele></trkpt>
    <trkpt lat="48.335934" lon="-4.709679"><ele>47.2</ele></trkpt>
    <trkpt lat="48.335879" lon="-4.709713"><ele>46.8</ele></trkpt>
    <trkpt lat="48.335537" lon="-4.709593"><ele>45.4</ele></trkpt>
    <trkpt lat="48.334887" lon="-4.709481"><ele>40.2</ele></trkpt>
    <trkpt lat="48.334439" lon="-4.709296"><ele>39.6</ele></trkpt>
    <trkpt lat="48.334408" lon="-4.709205"><ele>39.4</ele></trkpt>
    <trkpt lat="48.334415" lon="-4.709111"><ele>39.2</ele></trkpt>
    <trkpt lat="48.334668" lon="-4.708136"><ele>32.0</ele></trkpt>
    <trkpt lat="48.334655" lon="-4.707751"><ele>28.4</ele></trkpt>
    <trkpt lat="48.334609" lon="-4.707538"><ele>26.6</ele></trkpt>
    <trkpt lat="48.334422" lon="-4.707229"><ele>22.2</ele></trkpt>
    <trkpt lat="48.334280" lon="-4.707068"><ele>16.4</ele></trkpt>
    <trkpt lat="48.334243" lon="-4.707076"><ele>15.6</ele></trkpt>
    <trkpt lat="48.334200" lon="-4.707217"><ele>15.2</ele></trkpt>
    <trkpt lat="48.334129" lon="-4.707703"><ele>22.6</ele></trkpt>
    <trkpt lat="48.334032" lon="-4.707855"><ele>23.8</ele></trkpt>
    <trkpt lat="48.333950" lon="-4.707858"><ele>23.2</ele></trkpt>
    <trkpt lat="48.333804" lon="-4.707743"><ele>20.4</ele></trkpt>
    <trkpt lat="48.333224" lon="-4.708102"><ele>20.0</ele></trkpt>
    <trkpt lat="48.332683" lon="-4.708129"><ele>22.0</ele></trkpt>
    <trkpt lat="48.332471" lon="-4.708096"><ele>22.0</ele></trkpt>
    <trkpt lat="48.332267" lon="-4.708226"><ele>25.6</ele></trkpt>
    <trkpt lat="48.332117" lon="-4.708485"><ele>30.0</ele></trkpt>
    <trkpt lat="48.332064" lon="-4.708985"><ele>33.0</ele></trkpt>
    <trkpt lat="48.331979" lon="-4.709267"><ele>36.6</ele></trkpt>
    <trkpt lat="48.331901" lon="-4.709379"><ele>38.2</ele></trkpt>
    <trkpt lat="48.331609" lon="-4.709594"><ele>38.8</ele></trkpt>
    <trkpt lat="48.331524" lon="-4.709756"><ele>38.2</ele></trkpt>
    <trkpt lat="48.331464" lon="-4.709996"><ele>38.0</ele></trkpt>
    <trkpt lat="48.331455" lon="-4.710497"><ele>40.2</ele></trkpt>
    <trkpt lat="48.331476" lon="-4.710705"><ele>41.6</ele></trkpt>
    <trkpt lat="48.331588" lon="-4.711041"><ele>43.6</ele></trkpt>
    <trkpt lat="48.331613" lon="-4.711326"><ele>45.4</ele></trkpt>
    <trkpt lat="48.331695" lon="-4.711696"><ele>46.2</ele></trkpt>
    <trkpt lat="48.331689" lon="-4.711925"><ele>44.8</ele></trkpt>
    <trkpt lat="48.331728" lon="-4.712149"><ele>42.4</ele></trkpt>
    <trkpt lat="48.331728" lon="-4.712664"><ele>39.2</ele></trkpt>
    <trkpt lat="48.331819" lon="-4.712842"><ele>39.4</ele></trkpt>
    <trkpt lat="48.332004" lon="-4.712865"><ele>40.8</ele></trkpt>
    <trkpt lat="48.332114" lon="-4.712958"><ele>41.6</ele></trkpt>
    <trkpt lat="48.332179" lon="-4.713220"><ele>42.4</ele></trkpt>
    <trkpt lat="48.332206" lon="-4.713520"><ele>43.2</ele></trkpt>
    <trkpt lat="48.332069" lon="-4.713695"><ele>42.8</ele></trkpt>
    <trkpt lat="48.331966" lon="-4.713755"><ele>41.8</ele></trkpt>
    <trkpt lat="48.331064" lon="-4.713897"><ele>30.6</ele></trkpt>
    <trkpt lat="48.330752" lon="-4.714035"><ele>27.4</ele></trkpt>
    <trkpt lat="48.330663" lon="-4.714131"><ele>26.6</ele></trkpt>
    <trkpt lat="48.330605" lon="-4.714266"><ele>26.4</ele></trkpt>
    <trkpt lat="48.330601" lon="-4.714387"><ele>26.4</ele></trkpt>
    <trkpt lat="48.330801" lon="-4.715081"><ele>34.2</ele></trkpt>
    <trkpt lat="48.330793" lon="-4.715261"><ele>35.0</ele></trkpt>
    <trkpt lat="48.330604" lon="-4.715683"><ele>33.2</ele></trkpt>
    <trkpt lat="48.330300" lon="-4.716102"><ele>30.6</ele></trkpt>
    <trkpt lat="48.330080" lon="-4.716523"><ele>29.0</ele></trkpt>
    <trkpt lat="48.330105" lon="-4.716647"><ele>29.0</ele></trkpt>
    <trkpt lat="48.330518" lon="-4.717489"><ele>33.0</ele></trkpt>
    <trkpt lat="48.330569" lon="-4.717540"><ele>33.2</ele></trkpt>
    <trkpt lat="48.330873" lon="-4.717284"><ele>37.6</ele></trkpt>
    <trkpt lat="48.330984" lon="-4.717054"><ele>39.8</ele></trkpt>
    <trkpt lat="48.331090" lon="-4.716940"><ele>40.0</ele></trkpt>
    <trkpt lat="48.331276" lon="-4.716934"><ele>39.0</ele></trkpt>
    <trkpt lat="48.331328" lon="-4.716820"><ele>38.6</ele></trkpt>
    <trkpt lat="48.331304" lon="-4.716968"><ele>36.8</ele></trkpt>
    <trkpt lat="48.331347" lon="-4.717065"><ele>34.6</ele></trkpt>
    <trkpt lat="48.331335" lon="-4.717430"><ele>26.4</ele></trkpt>
    <trkpt lat="48.331185" lon="-4.717838"><ele>22.6</ele></trkpt>
    <trkpt lat="48.331225" lon="-4.717987"><ele>22.8</ele></trkpt>
    <trkpt lat="48.331208" lon="-4.718071"><ele>23.2</ele></trkpt>
    <trkpt lat="48.330990" lon="-4.718373"><ele>17.4</ele></trkpt>
    <trkpt lat="48.330926" lon="-4.718516"><ele>15.8</ele></trkpt>
    <trkpt lat="48.330929" lon="-4.718918"><ele>19.6</ele></trkpt>
    <trkpt lat="48.330810" lon="-4.719243"><ele>20.4</ele></trkpt>
    <trkpt lat="48.330721" lon="-4.719780"><ele>22.2</ele></trkpt>
    <trkpt lat="48.330757" lon="-4.719863"><ele>23.0</ele></trkpt>
    <trkpt lat="48.330918" lon="-4.720022"><ele>25.4</ele></trkpt>
    <trkpt lat="48.330928" lon="-4.720126"><ele>26.4</ele></trkpt>
    <trkpt lat="48.330824" lon="-4.720396"><ele>27.8</ele></trkpt>
    <trkpt lat="48.330583" lon="-4.720845"><ele>28.4</ele></trkpt>
    <trkpt lat="48.330474" lon="-4.721138"><ele>28.0</ele></trkpt>
    <trkpt lat="48.330466" lon="-4.721474"><ele>28.2</ele></trkpt>
    <trkpt lat="48.330595" lon="-4.721707"><ele>28.2</ele></trkpt>
    <trkpt lat="48.330599" lon="-4.721802"><ele>28.0</ele></trkpt>
    <trkpt lat="48.330278" lon="-4.723067"><ele>30.2</ele></trkpt>
    <trkpt lat="48.330285" lon="-4.723299"><ele>30.4</ele></trkpt>
    <trkpt lat="48.330332" lon="-4.723467"><ele>30.0</ele></trkpt>
    <trkpt lat="48.330432" lon="-4.723614"><ele>28.2</ele></trkpt>
    <trkpt lat="48.330649" lon="-4.723822"><ele>24.4</ele></trkpt>
    <trkpt lat="48.330643" lon="-4.723878"><ele>23.6</ele></trkpt>
    <trkpt lat="48.330525" lon="-4.724032"><ele>22.6</ele></trkpt>
    <trkpt lat="48.330502" lon="-4.724183"><ele>22.8</ele></trkpt>
    <trkpt lat="48.330617" lon="-4.724476"><ele>27.0</ele></trkpt>
    <trkpt lat="48.330647" lon="-4.724640"><ele>29.8</ele></trkpt>
    <trkpt lat="48.330701" lon="-4.724729"><ele>32.2</ele></trkpt>
    <trkpt lat="48.330752" lon="-4.725035"><ele>34.2</ele></trkpt>
    <trkpt lat="48.330614" lon="-4.725662"><ele>29.6</ele></trkpt>
    <trkpt lat="48.330488" lon="-4.725812"><ele>23.0</ele></trkpt>
    <trkpt lat="48.330516" lon="-4.725948"><ele>21.0</ele></trkpt>
    <trkpt lat="48.330676" lon="-4.726202"><ele>21.8</ele></trkpt>
    <trkpt lat="48.330691" lon="-4.726557"><ele>26.4</ele></trkpt>
    <trkpt lat="48.330747" lon="-4.726907"><ele>29.6</ele></trkpt>
    <trkpt lat="48.330693" lon="-4.727272"><ele>30.6</ele></trkpt>
    <trkpt lat="48.330509" lon="-4.727790"><ele>32.8</ele></trkpt>
    <trkpt lat="48.330587" lon="-4.728605"><ele>33.8</ele></trkpt>
    <trkpt lat="48.330649" lon="-4.728840"><ele>35.0</ele></trkpt>
    <trkpt lat="48.330939" lon="-4.729270"><ele>36.2</ele></trkpt>
    <trkpt lat="48.331126" lon="-4.729662"><ele>39.6</ele></trkpt>
    <trkpt lat="48.331331" lon="-4.729943"><ele>40.4</ele></trkpt>
    <trkpt lat="48.331472" lon="-4.730343"><ele>36.2</ele></trkpt>
    <trkpt lat="48.331545" lon="-4.731047"><ele>32.4</ele></trkpt>
    <trkpt lat="48.331688" lon="-4.731433"><ele>33.0</ele></trkpt>
    <trkpt lat="48.331787" lon="-4.731501"><ele>34.0</ele></trkpt>
    <trkpt lat="48.332087" lon="-4.731453"><ele>37.8</ele></trkpt>
    <trkpt lat="48.332394" lon="-4.731647"><ele>37.6</ele></trkpt>
    <trkpt lat="48.332697" lon="-4.731709"><ele>37.2</ele></trkpt>
    <trkpt lat="48.332804" lon="-4.731850"><ele>35.4</ele></trkpt>
    <trkpt lat="48.332877" lon="-4.732187"><ele>31.4</ele></trkpt>
    <trkpt lat="48.332906" lon="-4.732574"><ele>30.0</ele></trkpt>
    <trkpt lat="48.332971" lon="-4.732952"><ele>31.0</ele></trkpt>
    <trkpt lat="48.333015" lon="-4.733036"><ele>31.4</ele></trkpt>
    <trkpt lat="48.333158" lon="-4.733159"><ele>31.6</ele></trkpt>
    <trkpt lat="48.333215" lon="-4.733364"><ele>31.2</ele></trkpt>
    <trkpt lat="48.333005" lon="-4.734196"><ele>30.4</ele></trkpt>
    <trkpt lat="48.332918" lon="-4.734658"><ele>29.0</ele></trkpt>
    <trkpt lat="48.332921" lon="-4.734814"><ele>28.8</ele></trkpt>
    <trkpt lat="48.332994" lon="-4.734935"><ele>28.8</ele></trkpt>
    <trkpt lat="48.333133" lon="-4.734897"><ele>29.4</ele></trkpt>
    <trkpt lat="48.333328" lon="-4.734926"><ele>30.4</ele></trkpt>
    <trkpt lat="48.333411" lon="-4.734969"><ele>30.4</ele></trkpt>
    <trkpt lat="48.333452" lon="-4.735053"><ele>30.0</ele></trkpt>
    <trkpt lat="48.333277" lon="-4.735578"><ele>23.8</ele></trkpt>
    <trkpt lat="48.333129" lon="-4.735894"><ele>19.2</ele></trkpt>
    <trkpt lat="48.333165" lon="-4.735924"><ele>18.8</ele></trkpt>
    <trkpt lat="48.333224" lon="-4.735895"><ele>18.6</ele></trkpt>
    <trkpt lat="48.333612" lon="-4.735492"><ele>17.8</ele></trkpt>
    <trkpt lat="48.333656" lon="-4.735518"><ele>17.2</ele></trkpt>
    <trkpt lat="48.333686" lon="-4.735809"><ele>15.8</ele></trkpt>
    <trkpt lat="48.333649" lon="-4.736070"><ele>15.0</ele></trkpt>
    <trkpt lat="48.333518" lon="-4.736246"><ele>13.8</ele></trkpt>
    <trkpt lat="48.333301" lon="-4.736680"><ele>12.0</ele></trkpt>
    <trkpt lat="48.333310" lon="-4.736926"><ele>12.0</ele></trkpt>
    <trkpt lat="48.333254" lon="-4.737074"><ele>12.6</ele></trkpt>
    <trkpt lat="48.333319" lon="-4.737198"><ele>16.8</ele></trkpt>
    <trkpt lat="48.333232" lon="-4.737299"><ele>19.6</ele></trkpt>
    <trkpt lat="48.333113" lon="-4.737547"><ele>23.4</ele></trkpt>
    <trkpt lat="48.333100" lon="-4.737640"><ele>24.4</ele></trkpt>
    <trkpt lat="48.333315" lon="-4.737901"><ele>30.2</ele></trkpt>
    <trkpt lat="48.333608" lon="-4.738054"><ele>29.2</ele></trkpt>
    <trkpt lat="48.333746" lon="-4.738295"><ele>30.0</ele></trkpt>
    <trkpt lat="48.333663" lon="-4.738402"><ele>31.2</ele></trkpt>
    <trkpt lat="48.333697" lon="-4.738514"><ele>33.6</ele></trkpt>
    <trkpt lat="48.333666" lon="-4.738586"><ele>34.2</ele></trkpt>
    <trkpt lat="48.333375" lon="-4.738603"><ele>33.4</ele></trkpt>
    <trkpt lat="48.333281" lon="-4.738890"><ele>35.4</ele></trkpt>
    <trkpt lat="48.332533" lon="-4.739242"><ele>37.6</ele></trkpt>
    <trkpt lat="48.332385" lon="-4.739432"><ele>36.4</ele></trkpt>
    <trkpt lat="48.332269" lon="-4.739947"><ele>36.6</ele></trkpt>
    <trkpt lat="48.332294" lon="-4.740271"><ele>38.4</ele></trkpt>
    <trkpt lat="48.332256" lon="-4.740584"><ele>39.4</ele></trkpt>
    <trkpt lat="48.332045" lon="-4.741423"><ele>39.6</ele></trkpt>
    <trkpt lat="48.332046" lon="-4.741589"><ele>39.8</ele></trkpt>
    <trkpt lat="48.332110" lon="-4.741922"><ele>38.4</ele></trkpt>
    <trkpt lat="48.332101" lon="-4.742123"><ele>37.4</ele></trkpt>
    <trkpt lat="48.332061" lon="-4.742231"><ele>37.0</ele></trkpt>
    <trkpt lat="48.331715" lon="-4.742710"><ele>35.4</ele></trkpt>
    <trkpt lat="48.331609" lon="-4.743039"><ele>33.4</ele></trkpt>
    <trkpt lat="48.331517" lon="-4.743875"><ele>24.8</ele></trkpt>
    <trkpt lat="48.331553" lon="-4.744247"><ele>20.6</ele></trkpt>
    <trkpt lat="48.331657" lon="-4.744567"><ele>18.4</ele></trkpt>
    <trkpt lat="48.331594" lon="-4.744609"><ele>17.8</ele></trkpt>
    <trkpt lat="48.331248" lon="-4.744649"><ele>16.0</ele></trkpt>
    <trkpt lat="48.331155" lon="-4.744603"><ele>15.8</ele></trkpt>
    <trkpt lat="48.330868" lon="-4.744335"><ele>15.8</ele></trkpt>
    <trkpt lat="48.330760" lon="-4.744304"><ele>15.8</ele></trkpt>
    <trkpt lat="48.330703" lon="-4.744345"><ele>16.0</ele></trkpt>
    <trkpt lat="48.330547" lon="-4.745004"><ele>25.8</ele></trkpt>
    <trkpt lat="48.330410" lon="-4.745329"><ele>28.6</ele></trkpt>
    <trkpt lat="48.330399" lon="-4.745724"><ele>34.6</ele></trkpt>
    <trkpt lat="48.330213" lon="-4.746037"><ele>37.0</ele></trkpt>
    <trkpt lat="48.329966" lon="-4.746671"><ele>35.4</ele></trkpt>
    <trkpt lat="48.329919" lon="-4.747051"><ele>34.6</ele></trkpt>
    <trkpt lat="48.329919" lon="-4.747485"><ele>35.2</ele></trkpt>
    <trkpt lat="48.329787" lon="-4.748574"><ele>34.6</ele></trkpt>
    <trkpt lat="48.329984" lon="-4.749318"><ele>32.2</ele></trkpt>
    <trkpt lat="48.330064" lon="-4.750094"><ele>27.4</ele></trkpt>
    <trkpt lat="48.330071" lon="-4.750711"><ele>22.2</ele></trkpt>
    <trkpt lat="48.329999" lon="-4.751162"><ele>20.2</ele></trkpt>
    <trkpt lat="48.330095" lon="-4.751467"><ele>19.0</ele></trkpt>
    <trkpt lat="48.330046" lon="-4.751745"><ele>18.4</ele></trkpt>
    <trkpt lat="48.330029" lon="-4.752217"><ele>17.8</ele></trkpt>
    <trkpt lat="48.330102" lon="-4.752456"><ele>18.0</ele></trkpt>
    <trkpt lat="48.330277" lon="-4.752567"><ele>20.0</ele></trkpt>
    <trkpt lat="48.330348" lon="-4.752662"><ele>20.8</ele></trkpt>
    <trkpt lat="48.330488" lon="-4.752752"><ele>20.0</ele></trkpt>
    <trkpt lat="48.330512" lon="-4.752812"><ele>19.0</ele></trkpt>
    <trkpt lat="48.330317" lon="-4.752998"><ele>14.0</ele></trkpt>
    <trkpt lat="48.330267" lon="-4.753117"><ele>12.6</ele></trkpt>
    <trkpt lat="48.330271" lon="-4.753362"><ele>12.0</ele></trkpt>
    <trkpt lat="48.330375" lon="-4.753582"><ele>14.6</ele></trkpt>
    <trkpt lat="48.330326" lon="-4.753697"><ele>18.2</ele></trkpt>
    <trkpt lat="48.330149" lon="-4.753770"><ele>19.8</ele></trkpt>
    <trkpt lat="48.329779" lon="-4.753688"><ele>20.8</ele></trkpt>
    <trkpt lat="48.329617" lon="-4.753743"><ele>21.2</ele></trkpt>
    <trkpt lat="48.329567" lon="-4.754109"><ele>22.2</ele></trkpt>
    <trkpt lat="48.329491" lon="-4.754405"><ele>23.4</ele></trkpt>
    <trkpt lat="48.329400" lon="-4.754606"><ele>24.0</ele></trkpt>
    <trkpt lat="48.329124" lon="-4.754980"><ele>24.8</ele></trkpt>
    <trkpt lat="48.329029" lon="-4.755182"><ele>25.2</ele></trkpt>
    <trkpt lat="48.328937" lon="-4.756029"><ele>26.2</ele></trkpt>
    <trkpt lat="48.328989" lon="-4.756899"><ele>28.0</ele></trkpt>
    <trkpt lat="48.328905" lon="-4.757824"><ele>29.0</ele></trkpt>
    <trkpt lat="48.328809" lon="-4.758452"><ele>28.4</ele></trkpt>
    <trkpt lat="48.328812" lon="-4.759445"><ele>25.0</ele></trkpt>
    <trkpt lat="48.328718" lon="-4.760064"><ele>23.6</ele></trkpt>
    <trkpt lat="48.328535" lon="-4.760770"><ele>21.2</ele></trkpt>
    <trkpt lat="48.328369" lon="-4.761115"><ele>22.0</ele></trkpt>
    <trkpt lat="48.328334" lon="-4.761587"><ele>24.0</ele></trkpt>
    <trkpt lat="48.328223" lon="-4.762097"><ele>21.6</ele></trkpt>
    <trkpt lat="48.328237" lon="-4.762274"><ele>20.6</ele></trkpt>
    <trkpt lat="48.328347" lon="-4.762708"><ele>19.8</ele></trkpt>
    <trkpt lat="48.328330" lon="-4.763011"><ele>20.2</ele></trkpt>
    <trkpt lat="48.328382" lon="-4.763446"><ele>20.0</ele></trkpt>
    <trkpt lat="48.328360" lon="-4.764405"><ele>16.6</ele></trkpt>
    <trkpt lat="48.328403" lon="-4.764529"><ele>15.4</ele></trkpt>
    <trkpt lat="48.328547" lon="-4.764680"><ele>13.8</ele></trkpt>
    <trkpt lat="48.328562" lon="-4.764737"><ele>13.6</ele></trkpt>
    <trkpt lat="48.328450" lon="-4.764999"><ele>14.2</ele></trkpt>
    <trkpt lat="48.328496" lon="-4.765196"><ele>17.2</ele></trkpt>
    <trkpt lat="48.328496" lon="-4.765830"><ele>19.6</ele></trkpt>
    <trkpt lat="48.328572" lon="-4.766318"><ele>20.2</ele></trkpt>
    <trkpt lat="48.328581" lon="-4.766701"><ele>19.0</ele></trkpt>
    <trkpt lat="48.328627" lon="-4.766826"><ele>19.0</ele></trkpt>
    <trkpt lat="48.328685" lon="-4.766850"><ele>19.2</ele></trkpt>
    <trkpt lat="48.328941" lon="-4.766621"><ele>21.2</ele></trkpt>
    <trkpt lat="48.329204" lon="-4.766469"><ele>22.2</ele></trkpt>
    <trkpt lat="48.329293" lon="-4.766523"><ele>22.2</ele></trkpt>
    <trkpt lat="48.329343" lon="-4.766656"><ele>22.0</ele></trkpt>
    <trkpt lat="48.329304" lon="-4.767023"><ele>21.0</ele></trkpt>
    <trkpt lat="48.329027" lon="-4.767427"><ele>20.4</ele></trkpt>
    <trkpt lat="48.328957" lon="-4.767593"><ele>20.4</ele></trkpt>
    <trkpt lat="48.328886" lon="-4.768042"><ele>21.0</ele></trkpt>
    <trkpt lat="48.328903" lon="-4.768290"><ele>21.8</ele></trkpt>
    <trkpt lat="48.328995" lon="-4.768521"><ele>23.2</ele></trkpt>
    <trkpt lat="48.329230" lon="-4.768857"><ele>25.2</ele></trkpt>
    <trkpt lat="48.329635" lon="-4.769219"><ele>25.2</ele></trkpt>
    <trkpt lat="48.329766" lon="-4.769438"><ele>24.8</ele></trkpt>
    <trkpt lat="48.329739" lon="-4.769709"><ele>24.2</ele></trkpt>
    <trkpt lat="48.329560" lon="-4.770656"><ele>22.0</ele></trkpt>
    <trkpt lat="48.329653" lon="-4.771103"><ele>22.0</ele></trkpt>
    <trkpt lat="48.329607" lon="-4.771651"><ele>20.8</ele></trkpt>
    <trkpt lat="48.329640" lon="-4.771794"><ele>20.0</ele></trkpt>
    <trkpt lat="48.329800" lon="-4.771991"><ele>18.6</ele></trkpt>
    <trkpt lat="48.329914" lon="-4.772066"><ele>18.0</ele></trkpt>
    <trkpt lat="48.330262" lon="-4.771952"><ele>18.8</ele></trkpt>
    <trkpt lat="48.330408" lon="-4.771720"><ele>20.4</ele></trkpt>
    <trkpt lat="48.330598" lon="-4.771636"><ele>21.6</ele></trkpt>
    <trkpt lat="48.330709" lon="-4.771646"><ele>22.0</ele></trkpt>
    <trkpt lat="48.330974" lon="-4.771813"><ele>22.4</ele></trkpt>
    <trkpt lat="48.331034" lon="-4.771883"><ele>22.2</ele></trkpt>
    <trkpt lat="48.331044" lon="-4.771950"><ele>22.0</ele></trkpt>
    <trkpt lat="48.330763" lon="-4.772666"><ele>20.2</ele></trkpt>
    <trkpt lat="48.330731" lon="-4.772823"><ele>19.8</ele></trkpt>
    <trkpt lat="48.330748" lon="-4.772942"><ele>19.4</ele></trkpt>
    <trkpt lat="48.330953" lon="-4.773317"><ele>17.4</ele></trkpt>
    <trkpt lat="48.331120" lon="-4.773489"><ele>15.6</ele></trkpt>
    <trkpt lat="48.331713" lon="-4.773485"><ele>11.4</ele></trkpt>
    <trkpt lat="48.331810" lon="-4.773446"><ele>11.0</ele></trkpt>
    <trkpt lat="48.331860" lon="-4.773360"><ele>11.0</ele></trkpt>
    <trkpt lat="48.331909" lon="-4.772999"><ele>12.2</ele></trkpt>
    <trkpt lat="48.332494" lon="-4.772264"><ele>15.2</ele></trkpt>
    <trkpt lat="48.332601" lon="-4.772038"><ele>16.6</ele></trkpt>
    <trkpt lat="48.332720" lon="-4.771882"><ele>17.8</ele></trkpt>
    <trkpt lat="48.333028" lon="-4.771794"><ele>18.8</ele></trkpt>
    <trkpt lat="48.333297" lon="-4.771554"><ele>19.4</ele></trkpt>
    <trkpt lat="48.333525" lon="-4.771449"><ele>20.0</ele></trkpt>
    <trkpt lat="48.333822" lon="-4.771504"><ele>19.2</ele></trkpt>
    <trkpt lat="48.334161" lon="-4.771430"><ele>18.2</ele></trkpt>
    <trkpt lat="48.334247" lon="-4.771468"><ele>17.6</ele></trkpt>
    <trkpt lat="48.334430" lon="-4.771648"><ele>16.0</ele></trkpt>
    <trkpt lat="48.334594" lon="-4.771659"><ele>14.8</ele></trkpt>
    <trkpt lat="48.334682" lon="-4.771609"><ele>14.4</ele></trkpt>
    <trkpt lat="48.334885" lon="-4.771362"><ele>13.0</ele></trkpt>
    <trkpt lat="48.335162" lon="-4.771179"><ele>9.4</ele></trkpt>
    <trkpt lat="48.335238" lon="-4.771189"><ele>8.0</ele></trkpt>
    <trkpt lat="48.335448" lon="-4.771342"><ele>7.2</ele></trkpt>
    <trkpt lat="48.335541" lon="-4.771652"><ele>9.0</ele></trkpt>
    <trkpt lat="48.335601" lon="-4.772291"><ele>13.2</ele></trkpt>
    <trkpt lat="48.335687" lon="-4.772625"><ele>15.0</ele></trkpt>
    <trkpt lat="48.335653" lon="-4.772924"><ele>15.0</ele></trkpt>
    <trkpt lat="48.335682" lon="-4.773298"><ele>14.6</ele></trkpt>
    <trkpt lat="48.335718" lon="-4.773407"><ele>14.6</ele></trkpt>
    <trkpt lat="48.335866" lon="-4.773543"><ele>15.4</ele></trkpt>
    <trkpt lat="48.336010" lon="-4.773805"><ele>15.2</ele></trkpt>
    <trkpt lat="48.335978" lon="-4.774243"><ele>13.2</ele></trkpt>
    <trkpt lat="48.336039" lon="-4.774300"><ele>13.6</ele></trkpt>
    <trkpt lat="48.336219" lon="-4.774224"><ele>15.6</ele></trkpt>
    <trkpt lat="48.336300" lon="-4.774261"><ele>16.6</ele></trkpt>
    <trkpt lat="48.336360" lon="-4.774407"><ele>17.2</ele></trkpt>
    <trkpt lat="48.336379" lon="-4.774843"><ele>16.0</ele></trkpt>
    <trkpt lat="48.336433" lon="-4.774912"><ele>15.6</ele></trkpt>
    <trkpt lat="48.336535" lon="-4.774942"><ele>15.0</ele></trkpt>
    <trkpt lat="48.336636" lon="-4.774911"><ele>14.6</ele></trkpt>
    <trkpt lat="48.336955" lon="-4.774625"><ele>17.0</ele></trkpt>
    <trkpt lat="48.337240" lon="-4.774264"><ele>19.6</ele></trkpt>
    <trkpt lat="48.337404" lon="-4.774134"><ele>19.6</ele></trkpt>
    <trkpt lat="48.337605" lon="-4.774140"><ele>18.4</ele></trkpt>
    <trkpt lat="48.337775" lon="-4.774366"><ele>16.2</ele></trkpt>
    <trkpt lat="48.337879" lon="-4.774383"><ele>15.4</ele></trkpt>
    <trkpt lat="48.338130" lon="-4.774264"><ele>15.2</ele></trkpt>
    <trkpt lat="48.338354" lon="-4.774039"><ele>15.6</ele></trkpt>
    <trkpt lat="48.338596" lon="-4.773934"><ele>15.4</ele></trkpt>
    <trkpt lat="48.338745" lon="-4.773747"><ele>16.0</ele></trkpt>
    <trkpt lat="48.338837" lon="-4.773473"><ele>17.0</ele></trkpt>
    <trkpt lat="48.339109" lon="-4.773321"><ele>17.8</ele></trkpt>
    <trkpt lat="48.339269" lon="-4.773021"><ele>19.4</ele></trkpt>
    <trkpt lat="48.339353" lon="-4.772979"><ele>18.8</ele></trkpt>
    <trkpt lat="48.339488" lon="-4.773013"><ele>17.2</ele></trkpt>
    <trkpt lat="48.339537" lon="-4.772985"><ele>16.6</ele></trkpt>
    <trkpt lat="48.339650" lon="-4.772735"><ele>15.0</ele></trkpt>
    <trkpt lat="48.339656" lon="-4.772480"><ele>14.6</ele></trkpt>
    <trkpt lat="48.339694" lon="-4.772402"><ele>14.8</ele></trkpt>
    <trkpt lat="48.339799" lon="-4.772410"><ele>14.6</ele></trkpt>
    <trkpt lat="48.339973" lon="-4.772634"><ele>14.2</ele></trkpt>
    <trkpt lat="48.340204" lon="-4.772608"><ele>14.4</ele></trkpt>
    <trkpt lat="48.340548" lon="-4.772711"><ele>13.0</ele></trkpt>
    <trkpt lat="48.340637" lon="-4.772634"><ele>12.4</ele></trkpt>
    <trkpt lat="48.340846" lon="-4.772154"><ele>14.8</ele></trkpt>
    <trkpt lat="48.340966" lon="-4.772011"><ele>17.0</ele></trkpt>
    <trkpt lat="48.341314" lon="-4.771942"><ele>18.6</ele></trkpt>
    <trkpt lat="48.341779" lon="-4.771754"><ele>16.8</ele></trkpt>
    <trkpt lat="48.341981" lon="-4.771721"><ele>16.0</ele></trkpt>
    <trkpt lat="48.342181" lon="-4.771595"><ele>14.8</ele></trkpt>
    <trkpt lat="48.342402" lon="-4.771610"><ele>13.6</ele></trkpt>
    <trkpt lat="48.342776" lon="-4.771559"><ele>8.8</ele></trkpt>
    <trkpt lat="48.342961" lon="-4.771307"><ele>7.4</ele></trkpt>
    <trkpt lat="48.343380" lon="-4.771444"><ele>13.0</ele></trkpt>
    <trkpt lat="48.343664" lon="-4.771799"><ele>12.6</ele></trkpt>
    <trkpt lat="48.343915" lon="-4.771876"><ele>12.4</ele></trkpt>
    <trkpt lat="48.344110" lon="-4.771863"><ele>12.2</ele></trkpt>
    <trkpt lat="48.344190" lon="-4.771814"><ele>12.2</ele></trkpt>
    <trkpt lat="48.344543" lon="-4.771402"><ele>14.2</ele></trkpt>
    <trkpt lat="48.344786" lon="-4.771259"><ele>14.6</ele></trkpt>
    <trkpt lat="48.345002" lon="-4.771066"><ele>15.0</ele></trkpt>
    <trkpt lat="48.345944" lon="-4.770497"><ele>14.6</ele></trkpt>
    <trkpt lat="48.346299" lon="-4.770080"><ele>15.6</ele></trkpt>
    <trkpt lat="48.346636" lon="-4.769857"><ele>15.2</ele></trkpt>
    <trkpt lat="48.346708" lon="-4.769824"><ele>14.8</ele></trkpt>
    <trkpt lat="48.346839" lon="-4.769862"><ele>14.0</ele></trkpt>
    <trkpt lat="48.347347" lon="-4.769844"><ele>12.6</ele></trkpt>
    <trkpt lat="48.347421" lon="-4.769787"><ele>12.6</ele></trkpt>
    <trkpt lat="48.347469" lon="-4.769676"><ele>12.4</ele></trkpt>
    <trkpt lat="48.347526" lon="-4.769215"><ele>13.4</ele></trkpt>
    <trkpt lat="48.347379" lon="-4.768809"><ele>15.8</ele></trkpt>
    <trkpt lat="48.347250" lon="-4.768719"><ele>17.2</ele></trkpt>
    <trkpt lat="48.347130" lon="-4.768692"><ele>18.2</ele></trkpt>
    <trkpt lat="48.345598" lon="-4.768869"><ele>21.8</ele></trkpt>
    <trkpt lat="48.344810" lon="-4.768851"><ele>23.6</ele></trkpt>
    <trkpt lat="48.344495" lon="-4.768959"><ele>23.4</ele></trkpt>
    <trkpt lat="48.343915" lon="-4.769386"><ele>22.2</ele></trkpt>
    <trkpt lat="48.342517" lon="-4.769410"><ele>25.4</ele></trkpt>
    <trkpt lat="48.341877" lon="-4.769706"><ele>27.8</ele></trkpt>
    <trkpt lat="48.341639" lon="-4.769748"><ele>28.4</ele></trkpt>
    <trkpt lat="48.341022" lon="-4.769718"><ele>29.6</ele></trkpt>
    <trkpt lat="48.340429" lon="-4.769497"><ele>31.6</ele></trkpt>
    <trkpt lat="48.340062" lon="-4.769420"><ele>32.0</ele></trkpt>
    <trkpt lat="48.339081" lon="-4.769373"><ele>32.8</ele></trkpt>
    <trkpt lat="48.338819" lon="-4.769261"><ele>32.4</ele></trkpt>
    <trkpt lat="48.338755" lon="-4.769182"><ele>32.4</ele></trkpt>
    <trkpt lat="48.338701" lon="-4.769206"><ele>32.4</ele></trkpt>
    <trkpt lat="48.338573" lon="-4.769094"><ele>32.0</ele></trkpt>
    <trkpt lat="48.338419" lon="-4.769080"><ele>32.4</ele></trkpt>
    <trkpt lat="48.338452" lon="-4.769062"><ele>32.2</ele></trkpt>
    <trkpt lat="48.337931" lon="-4.768766"><ele>31.8</ele></trkpt>
    <trkpt lat="48.337883" lon="-4.768682"><ele>31.6</ele></trkpt>
    <trkpt lat="48.337879" lon="-4.768567"><ele>31.4</ele></trkpt>
    <trkpt lat="48.338027" lon="-4.767656"><ele>31.6</ele></trkpt>
    <trkpt lat="48.338200" lon="-4.767131"><ele>32.8</ele></trkpt>
    <trkpt lat="48.338673" lon="-4.765939"><ele>33.0</ele></trkpt>
    <trkpt lat="48.338722" lon="-4.765708"><ele>32.4</ele></trkpt>
    <trkpt lat="48.338701" lon="-4.765546"><ele>32.0</ele></trkpt>
    <trkpt lat="48.338619" lon="-4.765436"><ele>31.6</ele></trkpt>
    <trkpt lat="48.338508" lon="-4.765389"><ele>31.2</ele></trkpt>
    <trkpt lat="48.338234" lon="-4.765452"><ele>30.2</ele></trkpt>
    <trkpt lat="48.337159" lon="-4.765519"><ele>23.2</ele></trkpt>
    <trkpt lat="48.336914" lon="-4.764965"><ele>19.6</ele></trkpt>
    <trkpt lat="48.336916" lon="-4.764817"><ele>19.6</ele></trkpt>
    <trkpt lat="48.337056" lon="-4.764638"><ele>20.2</ele></trkpt>
    <trkpt lat="48.337068" lon="-4.764547"><ele>20.6</ele></trkpt>
    <trkpt lat="48.336725" lon="-4.764044"><ele>22.6</ele></trkpt>
    <trkpt lat="48.336718" lon="-4.763961"><ele>23.2</ele></trkpt>
    <trkpt lat="48.336793" lon="-4.763791"><ele>24.2</ele></trkpt>
    <trkpt lat="48.336779" lon="-4.763703"><ele>24.8</ele></trkpt>
    <trkpt lat="48.336170" lon="-4.762961"><ele>33.4</ele></trkpt>
    <trkpt lat="48.336011" lon="-4.762836"><ele>36.0</ele></trkpt>
    <trkpt lat="48.335825" lon="-4.762753"><ele>38.2</ele></trkpt>
    <trkpt lat="48.335807" lon="-4.762646"><ele>38.6</ele></trkpt>
    <trkpt lat="48.336078" lon="-4.760365"><ele>37.4</ele></trkpt>
    <trkpt lat="48.336241" lon="-4.759558"><ele>37.2</ele></trkpt>
    <trkpt lat="48.336836" lon="-4.757396"><ele>38.2</ele></trkpt>
    <trkpt lat="48.337797" lon="-4.754189"><ele>42.4</ele></trkpt>
    <trkpt lat="48.338052" lon="-4.753684"><ele>42.6</ele></trkpt>
    <trkpt lat="48.338765" lon="-4.752892"><ele>40.8</ele></trkpt>
    <trkpt lat="48.339936" lon="-4.750373"><ele>40.8</ele></trkpt>
    <trkpt lat="48.340812" lon="-4.749156"><ele>40.6</ele></trkpt>
    <trkpt lat="48.340839" lon="-4.748999"><ele>40.6</ele></trkpt>
    <trkpt lat="48.340803" lon="-4.748885"><ele>40.8</ele></trkpt>
    <trkpt lat="48.340214" lon="-4.748255"><ele>43.4</ele></trkpt>
    <trkpt lat="48.340166" lon="-4.748174"><ele>43.6</ele></trkpt>
    <trkpt lat="48.340160" lon="-4.748076"><ele>44.0</ele></trkpt>
    <trkpt lat="48.340357" lon="-4.747643"><ele>45.2</ele></trkpt>
    <trkpt lat="48.340661" lon="-4.746677"><ele>45.8</ele></trkpt>
    <trkpt lat="48.341305" lon="-4.744849"><ele>46.8</ele></trkpt>
    <trkpt lat="48.342160" lon="-4.743250"><ele>48.4</ele></trkpt>
    <trkpt lat="48.342238" lon="-4.743035"><ele>48.8</ele></trkpt>
    <trkpt lat="48.342235" lon="-4.742919"><ele>48.8</ele></trkpt>
    <trkpt lat="48.342056" lon="-4.742278"><ele>48.8</ele></trkpt>
    <trkpt lat="48.341997" lon="-4.741760"><ele>49.6</ele></trkpt>
    <trkpt lat="48.341935" lon="-4.739705"><ele>50.6</ele></trkpt>
    <trkpt lat="48.341994" lon="-4.739348"><ele>51.2</ele></trkpt>
    <trkpt lat="48.342848" lon="-4.735511"><ele>51.6</ele></trkpt>
    <trkpt lat="48.342949" lon="-4.734768"><ele>52.0</ele></trkpt>
    <trkpt lat="48.343076" lon="-4.732118"><ele>54.4</ele></trkpt>
    <trkpt lat="48.342672" lon="-4.729826"><ele>53.2</ele></trkpt>
    <trkpt lat="48.342630" lon="-4.729461"><ele>53.2</ele></trkpt>
    <trkpt lat="48.342686" lon="-4.728762"><ele>52.0</ele></trkpt>
    <trkpt lat="48.342911" lon="-4.727908"><ele>50.6</ele></trkpt>
    <trkpt lat="48.343504" lon="-4.726293"><ele>50.8</ele></trkpt>
    <trkpt lat="48.343602" lon="-4.726202"><ele>50.4</ele></trkpt>
    <trkpt lat="48.344011" lon="-4.726035"><ele>49.4</ele></trkpt>
    <trkpt lat="48.344138" lon="-4.725941"><ele>49.2</ele></trkpt>
    <trkpt lat="48.344521" lon="-4.725413"><ele>50.0</ele></trkpt>
    <trkpt lat="48.344937" lon="-4.724703"><ele>50.6</ele></trkpt>
    <trkpt lat="48.345113" lon="-4.724328"><ele>50.2</ele></trkpt>
    <trkpt lat="48.345368" lon="-4.723960"><ele>49.8</ele></trkpt>
    <trkpt lat="48.346280" lon="-4.722997"><ele>50.2</ele></trkpt>
    <trkpt lat="48.346900" lon="-4.722408"><ele>50.0</ele></trkpt>
    <trkpt lat="48.347117" lon="-4.722145"><ele>50.0</ele></trkpt>
    <trkpt lat="48.347599" lon="-4.721051"><ele>51.2</ele></trkpt>
    <trkpt lat="48.347829" lon="-4.720414"><ele>50.6</ele></trkpt>
    <trkpt lat="48.347861" lon="-4.720204"><ele>50.4</ele></trkpt>
    <trkpt lat="48.347858" lon="-4.719491"><ele>49.0</ele></trkpt>
    <trkpt lat="48.347904" lon="-4.719431"><ele>48.8</ele></trkpt>
    <trkpt lat="48.348031" lon="-4.719392"><ele>48.6</ele></trkpt>
    <trkpt lat="48.348064" lon="-4.719337"><ele>48.4</ele></trkpt>
    <trkpt lat="48.348024" lon="-4.718912"><ele>47.2</ele></trkpt>
    <trkpt lat="48.348053" lon="-4.718688"><ele>46.6</ele></trkpt>
    <trkpt lat="48.348341" lon="-4.718510"><ele>46.0</ele></trkpt>
    <trkpt lat="48.348634" lon="-4.718476"><ele>46.0</ele></trkpt>
    <trkpt lat="48.348834" lon="-4.718405"><ele>46.2</ele></trkpt>
    <trkpt lat="48.349024" lon="-4.718303"><ele>45.8</ele></trkpt>
    <trkpt lat="48.349089" lon="-4.718218"><ele>45.4</ele></trkpt>
    <trkpt lat="48.349135" lon="-4.717868"><ele>43.6</ele></trkpt>
    <trkpt lat="48.349111" lon="-4.717442"><ele>41.6</ele></trkpt>
    <trkpt lat="48.349050" lon="-4.716843"><ele>37.6</ele></trkpt>
    <trkpt lat="48.348950" lon="-4.716329"><ele>35.0</ele></trkpt>
    <trkpt lat="48.348943" lon="-4.716100"><ele>34.4</ele></trkpt>
    <trkpt lat="48.348999" lon="-4.716038"><ele>34.2</ele></trkpt>
    <trkpt lat="48.349478" lon="-4.716050"><ele>33.4</ele></trkpt>
    <trkpt lat="48.349597" lon="-4.715927"><ele>33.6</ele></trkpt>
    <trkpt lat="48.349691" lon="-4.715740"><ele>34.2</ele></trkpt>
    <trkpt lat="48.349932" lon="-4.714235"><ele>34.4</ele></trkpt>
    <trkpt lat="48.349941" lon="-4.713179"><ele>34.0</ele></trkpt>
    <trkpt lat="48.349979" lon="-4.712694"><ele>34.0</ele></trkpt>
    <trkpt lat="48.350396" lon="-4.711264"><ele>33.4</ele></trkpt>
    <trkpt lat="48.350876" lon="-4.710069"><ele>30.8</ele></trkpt>
    <trkpt lat="48.351168" lon="-4.708704"><ele>27.6</ele></trkpt>
    <trkpt lat="48.351227" lon="-4.708569"><ele>27.4</ele></trkpt>
    <trkpt lat="48.351433" lon="-4.708304"><ele>28.0</ele></trkpt>
    <trkpt lat="48.352015" lon="-4.707808"><ele>32.2</ele></trkpt>
    <trkpt lat="48.352561" lon="-4.706858"><ele>35.8</ele></trkpt>
    <trkpt lat="48.352695" lon="-4.706486"><ele>36.2</ele></trkpt>
    <trkpt lat="48.352946" lon="-4.705938"><ele>36.6</ele></trkpt>
    <trkpt lat="48.352994" lon="-4.705673"><ele>35.6</ele></trkpt>
    <trkpt lat="48.353047" lon="-4.704979"><ele>32.6</ele></trkpt>
    <trkpt lat="48.353525" lon="-4.703970"><ele>33.2</ele></trkpt>
    <trkpt lat="48.353667" lon="-4.703215"><ele>29.8</ele></trkpt>
    <trkpt lat="48.353650" lon="-4.703100"><ele>29.8</ele></trkpt>
    <trkpt lat="48.353595" lon="-4.703018"><ele>29.8</ele></trkpt>
    <trkpt lat="48.352946" lon="-4.702409"><ele>23.8</ele></trkpt>
    <trkpt lat="48.352785" lon="-4.702290"><ele>22.2</ele></trkpt>
    <trkpt lat="48.352561" lon="-4.702203"><ele>19.6</ele></trkpt>
    <trkpt lat="48.352429" lon="-4.702091"><ele>18.2</ele></trkpt>
    <trkpt lat="48.352306" lon="-4.702064"><ele>17.4</ele></trkpt>
    <trkpt lat="48.352176" lon="-4.702423"><ele>16.6</ele></trkpt>
    <trkpt lat="48.352028" lon="-4.702601"><ele>16.8</ele></trkpt>
    <trkpt lat="48.352082" lon="-4.703156"><ele>18.0</ele></trkpt>
    <trkpt lat="48.352063" lon="-4.703325"><ele>18.4</ele></trkpt>
    <trkpt lat="48.352014" lon="-4.703433"><ele>18.8</ele></trkpt>
    <trkpt lat="48.351414" lon="-4.703997"><ele>17.6</ele></trkpt>
    <trkpt lat="48.351129" lon="-4.704463"><ele>16.2</ele></trkpt>
    <trkpt lat="48.351001" lon="-4.704616"><ele>15.6</ele></trkpt>
    <trkpt lat="48.350932" lon="-4.704605"><ele>15.4</ele></trkpt>
    <trkpt lat="48.350762" lon="-4.704442"><ele>14.4</ele></trkpt>
    <trkpt lat="48.350652" lon="-4.704452"><ele>14.0</ele></trkpt>
    <trkpt lat="48.350459" lon="-4.704934"><ele>13.2</ele></trkpt>
    <trkpt lat="48.350382" lon="-4.705006"><ele>13.2</ele></trkpt>
    <trkpt lat="48.349209" lon="-4.703465"><ele>7.2</ele></trkpt>
    <trkpt lat="48.348856" lon="-4.703113"><ele>7.2</ele></trkpt>
    <trkpt lat="48.348742" lon="-4.702922"><ele>7.6</ele></trkpt>
    <trkpt lat="48.348782" lon="-4.702611"><ele>7.4</ele></trkpt>
    <trkpt lat="48.348812" lon="-4.702563"><ele>7.4</ele></trkpt>
    <trkpt lat="48.349242" lon="-4.702142"><ele>8.8</ele></trkpt>
    <trkpt lat="48.349771" lon="-4.701488"><ele>8.8</ele></trkpt>
    <trkpt lat="48.350248" lon="-4.700978"><ele>7.0</ele></trkpt>
    <trkpt lat="48.350630" lon="-4.700198"><ele>6.4</ele></trkpt>
    <trkpt lat="48.350659" lon="-4.699986"><ele>5.6</ele></trkpt>
    <trkpt lat="48.350634" lon="-4.699923"><ele>4.6</ele></trkpt>
    <trkpt lat="48.350555" lon="-4.699946"><ele>3.4</ele></trkpt>
    <trkpt lat="48.350386" lon="-4.700093"><ele>2.6</ele></trkpt>
    <trkpt lat="48.349828" lon="-4.700825"><ele>2.6</ele></trkpt>
    <trkpt lat="48.349270" lon="-4.701239"><ele>1.0</ele></trkpt>
    <trkpt lat="48.348810" lon="-4.701684"><ele>1.4</ele></trkpt>
    <trkpt lat="48.348518" lon="-4.701859"><ele>1.6</ele></trkpt>
    <trkpt lat="48.346852" lon="-4.702602"><ele>1.2</ele></trkpt>
    <trkpt lat="48.346405" lon="-4.702636"><ele>1.8</ele></trkpt>
    <trkpt lat="48.345924" lon="-4.702593"><ele>2.2</ele></trkpt>
    <trkpt lat="48.345512" lon="-4.702619"><ele>2.0</ele></trkpt>
    <trkpt lat="48.345305" lon="-4.702521"><ele>3.2</ele></trkpt>
    <trkpt lat="48.345222" lon="-4.702586"><ele>5.4</ele></trkpt>
    <trkpt lat="48.345158" lon="-4.702585"><ele>7.2</ele></trkpt>
    <trkpt lat="48.344933" lon="-4.702812"><ele>9.6</ele></trkpt>
    <trkpt lat="48.344894" lon="-4.702715"><ele>10.0</ele></trkpt>
    <trkpt lat="48.344914" lon="-4.701995"><ele>11.0</ele></trkpt>
    <trkpt lat="48.344855" lon="-4.701804"><ele>11.6</ele></trkpt>
    <trkpt lat="48.344411" lon="-4.701427"><ele>13.4</ele></trkpt>
    <trkpt lat="48.344064" lon="-4.701245"><ele>12.6</ele></trkpt>
    <trkpt lat="48.343660" lon="-4.701303"><ele>12.6</ele></trkpt>
    <trkpt lat="48.343285" lon="-4.701274"><ele>11.0</ele></trkpt>
    <trkpt lat="48.342923" lon="-4.701525"><ele>11.2</ele></trkpt>
    <trkpt lat="48.342825" lon="-4.701540"><ele>12.0</ele></trkpt>
    <trkpt lat="48.342736" lon="-4.701488"><ele>12.8</ele></trkpt>
    <trkpt lat="48.342568" lon="-4.701229"><ele>14.2</ele></trkpt>
    <trkpt lat="48.342426" lon="-4.701114"><ele>14.0</ele></trkpt>
    <trkpt lat="48.341509" lon="-4.700611"><ele>29.6</ele></trkpt>
    <trkpt lat="48.341314" lon="-4.700574"><ele>28.0</ele></trkpt>
    <trkpt lat="48.340645" lon="-4.700652"><ele>14.8</ele></trkpt>
    <trkpt lat="48.340348" lon="-4.700956"><ele>12.4</ele></trkpt>
    <trkpt lat="48.340030" lon="-4.701153"><ele>9.0</ele></trkpt>
    <trkpt lat="48.339831" lon="-4.701482"><ele>6.6</ele></trkpt>
    <trkpt lat="48.339572" lon="-4.701302"><ele>3.6</ele></trkpt>
    <trkpt lat="48.339311" lon="-4.701248"><ele>4.6</ele></trkpt>
    <trkpt lat="48.339237" lon="-4.701169"><ele>5.6</ele></trkpt>
    <trkpt lat="48.339052" lon="-4.700774"><ele>10.4</ele></trkpt>
    <trkpt lat="48.338963" lon="-4.700482"><ele>13.6</ele></trkpt>
    <trkpt lat="48.338694" lon="-4.700291"><ele>18.8</ele></trkpt>
    <trkpt lat="48.338707" lon="-4.700140"><ele>19.2</ele></trkpt>
    <trkpt lat="48.338903" lon="-4.699805"><ele>18.0</ele></trkpt>
    <trkpt lat="48.338959" lon="-4.699648"><ele>17.0</ele></trkpt>
    <trkpt lat="48.338956" lon="-4.699412"><ele>15.2</ele></trkpt>
    <trkpt lat="48.338878" lon="-4.699208"><ele>13.6</ele></trkpt>
    <trkpt lat="48.338682" lon="-4.698896"><ele>12.4</ele></trkpt>
    <trkpt lat="48.338573" lon="-4.698809"><ele>12.4</ele></trkpt>
    <trkpt lat="48.338392" lon="-4.698770"><ele>13.2</ele></trkpt>
    <trkpt lat="48.338063" lon="-4.698797"><ele>15.8</ele></trkpt>
    <trkpt lat="48.337971" lon="-4.698840"><ele>17.2</ele></trkpt>
    <trkpt lat="48.337901" lon="-4.698944"><ele>19.0</ele></trkpt>
    <trkpt lat="48.337845" lon="-4.699156"><ele>22.6</ele></trkpt>
    <trkpt lat="48.337867" lon="-4.699310"><ele>24.4</ele></trkpt>
    <trkpt lat="48.338325" lon="-4.699436"><ele>26.4</ele></trkpt>
    <trkpt lat="48.338462" lon="-4.699575"><ele>26.6</ele></trkpt>
  </trkseg></trk>
</gpx>
