<?xml version="1.0" encoding="UTF-8"?>
<gpx version="1.1" creator="tcap-parcours" xmlns="http://www.topografix.com/GPX/1/1">
  <metadata><name>Languiforc'h – Trégana – Boucle 14,4 km</name></metadata>
  <trk><name>Languiforc'h – Trégana – Boucle 14,4 km</name><trkseg>
    <trkpt lat="48.370171" lon="-4.640515"><ele>63.4</ele></trkpt>
    <trkpt lat="48.370241" lon="-4.640335"><ele>61.6</ele></trkpt>
    <trkpt lat="48.370264" lon="-4.640145"><ele>61.4</ele></trkpt>
    <trkpt lat="48.370689" lon="-4.640040"><ele>59.8</ele></trkpt>
    <trkpt lat="48.370756" lon="-4.640065"><ele>59.6</ele></trkpt>
    <trkpt lat="48.371019" lon="-4.640329"><ele>58.8</ele></trkpt>
    <trkpt lat="48.371531" lon="-4.640608"><ele>57.4</ele></trkpt>
    <trkpt lat="48.372004" lon="-4.640563"><ele>55.8</ele></trkpt>
    <trkpt lat="48.372548" lon="-4.640617"><ele>53.6</ele></trkpt>
    <trkpt lat="48.372645" lon="-4.640523"><ele>53.2</ele></trkpt>
    <trkpt lat="48.372912" lon="-4.639893"><ele>53.0</ele></trkpt>
    <trkpt lat="48.373116" lon="-4.639832"><ele>52.6</ele></trkpt>
    <trkpt lat="48.373226" lon="-4.639535"><ele>51.8</ele></trkpt>
    <trkpt lat="48.373271" lon="-4.639487"><ele>51.6</ele></trkpt>
    <trkpt lat="48.374401" lon="-4.640063"><ele>50.0</ele></trkpt>
    <trkpt lat="48.374493" lon="-4.640076"><ele>49.8</ele></trkpt>
    <trkpt lat="48.374589" lon="-4.640010"><ele>49.8</ele></trkpt>
    <trkpt lat="48.374795" lon="-4.639660"><ele>49.6</ele></trkpt>
    <trkpt lat="48.375292" lon="-4.639079"><ele>49.0</ele></trkpt>
    <trkpt lat="48.375701" lon="-4.638396"><ele>48.8</ele></trkpt>
    <trkpt lat="48.375707" lon="-4.638251"><ele>48.6</ele></trkpt>
    <trkpt lat="48.375658" lon="-4.638166"><ele>48.8</ele></trkpt>
    <trkpt lat="48.375229" lon="-4.638062"><ele>49.0</ele></trkpt>
    <trkpt lat="48.375182" lon="-4.638014"><ele>49.2</ele></trkpt>
    <trkpt lat="48.375171" lon="-4.637884"><ele>49.2</ele></trkpt>
    <trkpt lat="48.375456" lon="-4.635928"><ele>49.0</ele></trkpt>
    <trkpt lat="48.375537" lon="-4.635529"><ele>49.4</ele></trkpt>
    <trkpt lat="48.375669" lon="-4.635093"><ele>49.6</ele></trkpt>
    <trkpt lat="48.375596" lon="-4.634806"><ele>50.0</ele></trkpt>
    <trkpt lat="48.376102" lon="-4.633618"><ele>50.6</ele></trkpt>
    <trkpt lat="48.376147" lon="-4.633401"><ele>50.4</ele></trkpt>
    <trkpt lat="48.376084" lon="-4.633344"><ele>50.2</ele></trkpt>
    <trkpt lat="48.375822" lon="-4.633317"><ele>50.4</ele></trkpt>
    <trkpt lat="48.375036" lon="-4.633342"><ele>51.6</ele></trkpt>
    <trkpt lat="48.373788" lon="-4.633545"><ele>52.8</ele></trkpt>
    <trkpt lat="48.373473" lon="-4.633706"><ele>53.0</ele></trkpt>
    <trkpt lat="48.372750" lon="-4.633948"><ele>53.4</ele></trkpt>
    <trkpt lat="48.372448" lon="-4.633987"><ele>53.8</ele></trkpt>
    <trkpt lat="48.371815" lon="-4.633978"><ele>54.2</ele></trkpt>
    <trkpt lat="48.371657" lon="-4.633907"><ele>54.2</ele></trkpt>
    <trkpt lat="48.371628" lon="-4.633831"><ele>54.4</ele></trkpt>
    <trkpt lat="48.371788" lon="-4.632970"><ele>56.4</ele></trkpt>
    <trkpt lat="48.371769" lon="-4.632807"><ele>56.6</ele></trkpt>
    <trkpt lat="48.370981" lon="-4.632526"><ele>57.8</ele></trkpt>
    <trkpt lat="48.370324" lon="-4.632193"><ele>59.0</ele></trkpt>
    <trkpt lat="48.370094" lon="-4.632139"><ele>59.4</ele></trkpt>
    <trkpt lat="48.369994" lon="-4.632051"><ele>59.6</ele></trkpt>
    <trkpt lat="48.369751" lon="-4.631712"><ele>59.8</ele></trkpt>
    <trkpt lat="48.369660" lon="-4.631675"><ele>59.8</ele></trkpt>
    <trkpt lat="48.369524" lon="-4.631854"><ele>60.0</ele></trkpt>
    <trkpt lat="48.369383" lon="-4.632280"><ele>60.6</ele></trkpt>
    <trkpt lat="48.369274" lon="-4.632421"><ele>60.8</ele></trkpt>
    <trkpt lat="48.369227" lon="-4.632546"><ele>60.8</ele></trkpt>
    <trkpt lat="48.368812" lon="-4.634768"><ele>62.6</ele></trkpt>
    <trkpt lat="48.368741" lon="-4.634898"><ele>62.8</ele></trkpt>
    <trkpt lat="48.368490" lon="-4.634816"><ele>63.6</ele></trkpt>
    <trkpt lat="48.368023" lon="-4.634785"><ele>64.2</ele></trkpt>
    <trkpt lat="48.367503" lon="-4.634555"><ele>63.8</ele></trkpt>
    <trkpt lat="48.367336" lon="-4.634417"><ele>63.4</ele></trkpt>
    <trkpt lat="48.367130" lon="-4.634064"><ele>63.0</ele></trkpt>
    <trkpt lat="48.367049" lon="-4.633986"><ele>62.8</ele></trkpt>
    <trkpt lat="48.366930" lon="-4.633937"><ele>62.6</ele></trkpt>
    <trkpt lat="48.366644" lon="-4.633912"><ele>62.6</ele></trkpt>
    <trkpt lat="48.365927" lon="-4.633613"><ele>61.2</ele></trkpt>
    <trkpt lat="48.365774" lon="-4.633499"><ele>60.8</ele></trkpt>
    <trkpt lat="48.365415" lon="-4.633105"><ele>59.6</ele></trkpt>
    <trkpt lat="48.364920" lon="-4.632896"><ele>59.8</ele></trkpt>
    <trkpt lat="48.364851" lon="-4.632730"><ele>59.8</ele></trkpt>
    <trkpt lat="48.364600" lon="-4.632536"><ele>60.8</ele></trkpt>
    <trkpt lat="48.364507" lon="-4.632408"><ele>61.4</ele></trkpt>
    <trkpt lat="48.364377" lon="-4.631955"><ele>62.8</ele></trkpt>
    <trkpt lat="48.364289" lon="-4.631232"><ele>64.2</ele></trkpt>
    <trkpt lat="48.364251" lon="-4.630610"><ele>65.4</ele></trkpt>
    <trkpt lat="48.364284" lon="-4.630296"><ele>66.0</ele></trkpt>
    <trkpt lat="48.364368" lon="-4.629939"><ele>66.4</ele></trkpt>
    <trkpt lat="48.364354" lon="-4.629793"><ele>66.6</ele></trkpt>
    <trkpt lat="48.364265" lon="-4.629716"><ele>66.6</ele></trkpt>
    <trkpt lat="48.363783" lon="-4.629595"><ele>67.8</ele></trkpt>
    <trkpt lat="48.363319" lon="-4.629379"><ele>68.8</ele></trkpt>
    <trkpt lat="48.363126" lon="-4.629168"><ele>68.2</ele></trkpt>
    <trkpt lat="48.363073" lon="-4.628992"><ele>71.2</ele></trkpt>
    <trkpt lat="48.363284" lon="-4.628429"><ele>70.6</ele></trkpt>
    <trkpt lat="48.363566" lon="-4.627933"><ele>70.4</ele></trkpt>
    <trkpt lat="48.363857" lon="-4.627294"><ele>69.6</ele></trkpt>
    <trkpt lat="48.364071" lon="-4.626573"><ele>69.0</ele></trkpt>
    <trkpt lat="48.364069" lon="-4.626469"><ele>69.2</ele></trkpt>
    <trkpt lat="48.363266" lon="-4.626032"><ele>72.0</ele></trkpt>
    <trkpt lat="48.362681" lon="-4.625627"><ele>74.4</ele></trkpt>
    <trkpt lat="48.362487" lon="-4.625443"><ele>75.0</ele></trkpt>
    <trkpt lat="48.362491" lon="-4.625313"><ele>75.2</ele></trkpt>
    <trkpt lat="48.362715" lon="-4.625094"><ele>75.4</ele></trkpt>
    <trkpt lat="48.362791" lon="-4.624828"><ele>76.0</ele></trkpt>
    <trkpt lat="48.362726" lon="-4.624323"><ele>77.4</ele></trkpt>
    <trkpt lat="48.362759" lon="-4.622639"><ele>78.8</ele></trkpt>
    <trkpt lat="48.362482" lon="-4.622316"><ele>85.4</ele></trkpt>
    <trkpt lat="48.361902" lon="-4.622046"><ele>85.2</ele></trkpt>
    <trkpt lat="48.361562" lon="-4.621973"><ele>86.2</ele></trkpt>
    <trkpt lat="48.361067" lon="-4.622139"><ele>86.6</ele></trkpt>
    <trkpt lat="48.360929" lon="-4.622143"><ele>86.8</ele></trkpt>
    <trkpt lat="48.360730" lon="-4.622058"><ele>87.0</ele></trkpt>
    <trkpt lat="48.360455" lon="-4.621814"><ele>87.2</ele></trkpt>
    <trkpt lat="48.360392" lon="-4.621798"><ele>87.0</ele></trkpt>
    <trkpt lat="48.360110" lon="-4.622209"><ele>87.0</ele></trkpt>
    <trkpt lat="48.359739" lon="-4.622867"><ele>86.2</ele></trkpt>
    <trkpt lat="48.359604" lon="-4.622844"><ele>86.4</ele></trkpt>
    <trkpt lat="48.359416" lon="-4.622736"><ele>86.4</ele></trkpt>
    <trkpt lat="48.359288" lon="-4.622724"><ele>86.4</ele></trkpt>
    <trkpt lat="48.358635" lon="-4.622923"><ele>84.6</ele></trkpt>
    <trkpt lat="48.358412" lon="-4.623057"><ele>83.8</ele></trkpt>
    <trkpt lat="48.358331" lon="-4.623166"><ele>83.6</ele></trkpt>
    <trkpt lat="48.358241" lon="-4.623396"><ele>83.0</ele></trkpt>
    <trkpt lat="48.358160" lon="-4.623433"><ele>82.6</ele></trkpt>
    <trkpt lat="48.357256" lon="-4.623084"><ele>78.6</ele></trkpt>
    <trkpt lat="48.356822" lon="-4.623043"><ele>76.0</ele></trkpt>
    <trkpt lat="48.356465" lon="-4.622935"><ele>73.6</ele></trkpt>
    <trkpt lat="48.356420" lon="-4.622980"><ele>72.8</ele></trkpt>
    <trkpt lat="48.356184" lon="-4.623007"><ele>73.4</ele></trkpt>
    <trkpt lat="48.356114" lon="-4.622917"><ele>73.8</ele></trkpt>
    <trkpt lat="48.356107" lon="-4.622557"><ele>74.6</ele></trkpt>
    <trkpt lat="48.356033" lon="-4.622300"><ele>75.2</ele></trkpt>
    <trkpt lat="48.355504" lon="-4.622032"><ele>77.2</ele></trkpt>
    <trkpt lat="48.355163" lon="-4.621727"><ele>78.8</ele></trkpt>
    <trkpt lat="48.354930" lon="-4.621576"><ele>79.8</ele></trkpt>
    <trkpt lat="48.354280" lon="-4.621301"><ele>81.0</ele></trkpt>
    <trkpt lat="48.353983" lon="-4.621266"><ele>81.6</ele></trkpt>
    <trkpt lat="48.353795" lon="-4.621354"><ele>81.4</ele></trkpt>
    <trkpt lat="48.353525" lon="-4.621346"><ele>81.2</ele></trkpt>
    <trkpt lat="48.353441" lon="-4.621468"><ele>81.2</ele></trkpt>
    <trkpt lat="48.353235" lon="-4.622090"><ele>80.6</ele></trkpt>
    <trkpt lat="48.353091" lon="-4.622394"><ele>80.4</ele></trkpt>
    <trkpt lat="48.352994" lon="-4.622981"><ele>79.0</ele></trkpt>
    <trkpt lat="48.352787" lon="-4.623847"><ele>77.8</ele></trkpt>
    <trkpt lat="48.352796" lon="-4.624246"><ele>77.4</ele></trkpt>
    <trkpt lat="48.352594" lon="-4.624554"><ele>76.2</ele></trkpt>
    <trkpt lat="48.352508" lon="-4.625188"><ele>75.2</ele></trkpt>
    <trkpt lat="48.352412" lon="-4.625235"><ele>75.0</ele></trkpt>
    <trkpt lat="48.351917" lon="-4.625271"><ele>73.4</ele></trkpt>
    <trkpt lat="48.351844" lon="-4.625305"><ele>73.2</ele></trkpt>
    <trkpt lat="48.351797" lon="-4.625385"><ele>73.0</ele></trkpt>
    <trkpt lat="48.351807" lon="-4.625543"><ele>72.8</ele></trkpt>
    <trkpt lat="48.351985" lon="-4.626321"><ele>73.2</ele></trkpt>
    <trkpt lat="48.352045" lon="-4.627017"><ele>73.0</ele></trkpt>
    <trkpt lat="48.352046" lon="-4.627950"><ele>71.0</ele></trkpt>
    <trkpt lat="48.352002" lon="-4.628064"><ele>70.6</ele></trkpt>
    <trkpt lat="48.351872" lon="-4.628116"><ele>70.0</ele></trkpt>
    <trkpt lat="48.351448" lon="-4.628112"><ele>69.4</ele></trkpt>
    <trkpt lat="48.351314" lon="-4.628090"><ele>69.2</ele></trkpt>
    <trkpt lat="48.351266" lon="-4.628043"><ele>69.2</ele></trkpt>
    <trkpt lat="48.351254" lon="-4.627940"><ele>69.0</ele></trkpt>
    <trkpt lat="48.351292" lon="-4.627690"><ele>69.2</ele></trkpt>
    <trkpt lat="48.351264" lon="-4.627514"><ele>69.2</ele></trkpt>
    <trkpt lat="48.351019" lon="-4.626822"><ele>67.8</ele></trkpt>
    <trkpt lat="48.350607" lon="-4.625905"><ele>66.6</ele></trkpt>
    <trkpt lat="48.350521" lon="-4.625607"><ele>66.6</ele></trkpt>
    <trkpt lat="48.350451" lon="-4.625158"><ele>67.4</ele></trkpt>
    <trkpt lat="48.350390" lon="-4.625013"><ele>67.8</ele></trkpt>
    <trkpt lat="48.350288" lon="-4.624992"><ele>68.0</ele></trkpt>
    <trkpt lat="48.349941" lon="-4.625174"><ele>67.2</ele></trkpt>
    <trkpt lat="48.349746" lon="-4.625191"><ele>66.8</ele></trkpt>
    <trkpt lat="48.348882" lon="-4.624437"><ele>62.8</ele></trkpt>
    <trkpt lat="48.348344" lon="-4.623680"><ele>69.2</ele></trkpt>
    <trkpt lat="48.348232" lon="-4.623546"><ele>68.0</ele></trkpt>
    <trkpt lat="48.348108" lon="-4.623503"><ele>73.6</ele></trkpt>
    <trkpt lat="48.348032" lon="-4.623706"><ele>71.0</ele></trkpt>
    <trkpt lat="48.347844" lon="-4.624590"><ele>69.2</ele></trkpt>
    <trkpt lat="48.347871" lon="-4.624806"><ele>68.6</ele></trkpt>
    <trkpt lat="48.347630" lon="-4.625296"><ele>67.8</ele></trkpt>
    <trkpt lat="48.347574" lon="-4.625346"><ele>67.8</ele></trkpt>
    <trkpt lat="48.347530" lon="-4.625323"><ele>68.0</ele></trkpt>
    <trkpt lat="48.347119" lon="-4.624783"><ele>69.2</ele></trkpt>
    <trkpt lat="48.346942" lon="-4.624623"><ele>69.0</ele></trkpt>
    <trkpt lat="48.346868" lon="-4.624639"><ele>69.0</ele></trkpt>
    <trkpt lat="48.346660" lon="-4.625221"><ele>68.4</ele></trkpt>
    <trkpt lat="48.346312" lon="-4.626012"><ele>65.8</ele></trkpt>
    <trkpt lat="48.345991" lon="-4.626440"><ele>64.0</ele></trkpt>
    <trkpt lat="48.345919" lon="-4.626978"><ele>62.8</ele></trkpt>
    <trkpt lat="48.345712" lon="-4.627247"><ele>62.2</ele></trkpt>
    <trkpt lat="48.345344" lon="-4.627883"><ele>57.2</ele></trkpt>
    <trkpt lat="48.345267" lon="-4.627927"><ele>56.0</ele></trkpt>
    <trkpt lat="48.345155" lon="-4.627909"><ele>55.4</ele></trkpt>
    <trkpt lat="48.345107" lon="-4.627964"><ele>55.4</ele></trkpt>
    <trkpt lat="48.345084" lon="-4.628265"><ele>55.6</ele></trkpt>
    <trkpt lat="48.345139" lon="-4.628706"><ele>53.8</ele></trkpt>
    <trkpt lat="48.345219" lon="-4.629060"><ele>51.0</ele></trkpt>
    <trkpt lat="48.345134" lon="-4.630100"><ele>43.6</ele></trkpt>
    <trkpt lat="48.345160" lon="-4.630528"><ele>40.0</ele></trkpt>
    <trkpt lat="48.345015" lon="-4.631050"><ele>34.6</ele></trkpt>
    <trkpt lat="48.344865" lon="-4.631387"><ele>32.0</ele></trkpt>
    <trkpt lat="48.344653" lon="-4.631603"><ele>30.6</ele></trkpt>
    <trkpt lat="48.344352" lon="-4.631756"><ele>28.8</ele></trkpt>
    <trkpt lat="48.344226" lon="-4.631960"><ele>26.2</ele></trkpt>
    <trkpt lat="48.344297" lon="-4.632040"><ele>25.2</ele></trkpt>
    <trkpt lat="48.344772" lon="-4.632081"><ele>20.0</ele></trkpt>
    <trkpt lat="48.345057" lon="-4.632219"><ele>20.2</ele></trkpt>
    <trkpt lat="48.346588" lon="-4.631891"><ele>28.2</ele></trkpt>
    <trkpt lat="48.346755" lon="-4.631801"><ele>29.6</ele></trkpt>
    <trkpt lat="48.346975" lon="-4.631502"><ele>31.6</ele></trkpt>
    <trkpt lat="48.347050" lon="-4.631467"><ele>32.2</ele></trkpt>
    <trkpt lat="48.347156" lon="-4.631488"><ele>33.0</ele></trkpt>
    <trkpt lat="48.348028" lon="-4.632151"><ele>44.2</ele></trkpt>
    <trkpt lat="48.348116" lon="-4.632464"><ele>46.6</ele></trkpt>
    <trkpt lat="48.348199" lon="-4.633019"><ele>48.6</ele></trkpt>
    <trkpt lat="48.348210" lon="-4.633847"><ele>50.4</ele></trkpt>
    <trkpt lat="48.348301" lon="-4.634079"><ele>50.4</ele></trkpt>
    <trkpt lat="48.348420" lon="-4.634151"><ele>50.8</ele></trkpt>
    <trkpt lat="48.349196" lon="-4.634268"><ele>53.0</ele></trkpt>
    <trkpt lat="48.349309" lon="-4.634322"><ele>52.4</ele></trkpt>
    <trkpt lat="48.349359" lon="-4.634406"><ele>51.4</ele></trkpt>
    <trkpt lat="48.349319" lon="-4.634521"><ele>56.2</ele></trkpt>
    <trkpt lat="48.349299" lon="-4.635272"><ele>53.2</ele></trkpt>
    <trkpt lat="48.349458" lon="-4.635865"><ele>51.8</ele></trkpt>
    <trkpt lat="48.349694" lon="-4.637540"><ele>41.4</ele></trkpt>
    <trkpt lat="48.349774" lon="-4.637801"><ele>38.8</ele></trkpt>
    <trkpt lat="48.349894" lon="-4.638050"><ele>34.8</ele></trkpt>
    <trkpt lat="48.349817" lon="-4.638042"><ele>37.6</ele></trkpt>
    <trkpt lat="48.349642" lon="-4.638154"><ele>37.0</ele></trkpt>
    <trkpt lat="48.349058" lon="-4.638363"><ele>35.0</ele></trkpt>
    <trkpt lat="48.348873" lon="-4.638467"><ele>34.6</ele></trkpt>
    <trkpt lat="48.348456" lon="-4.638583"><ele>30.6</ele></trkpt>
    <trkpt lat="48.347988" lon="-4.638865"><ele>26.4</ele></trkpt>
    <trkpt lat="48.347455" lon="-4.639573"><ele>14.8</ele></trkpt>
    <trkpt lat="48.347480" lon="-4.639634"><ele>13.6</ele></trkpt>
    <trkpt lat="48.347636" lon="-4.639650"><ele>12.8</ele></trkpt>
    <trkpt lat="48.347628" lon="-4.639844"><ele>12.8</ele></trkpt>
    <trkpt lat="48.347490" lon="-4.639932"><ele>12.2</ele></trkpt>
    <trkpt lat="48.347309" lon="-4.640229"><ele>12.8</ele></trkpt>
    <trkpt lat="48.347177" lon="-4.640357"><ele>14.0</ele></trkpt>
    <trkpt lat="48.346844" lon="-4.640495"><ele>13.8</ele></trkpt>
    <trkpt lat="48.346670" lon="-4.640667"><ele>14.2</ele></trkpt>
    <trkpt lat="48.346381" lon="-4.640869"><ele>16.0</ele></trkpt>
    <trkpt lat="48.346123" lon="-4.641156"><ele>17.4</ele></trkpt>
    <trkpt lat="48.345705" lon="-4.641742"><ele>21.0</ele></trkpt>
    <trkpt lat="48.345630" lon="-4.641901"><ele>22.2</ele></trkpt>
    <trkpt lat="48.345547" lon="-4.642208"><ele>24.4</ele></trkpt>
    <trkpt lat="48.345528" lon="-4.642732"><ele>29.8</ele></trkpt>
    <trkpt lat="48.345596" lon="-4.642792"><ele>31.4</ele></trkpt>
    <trkpt lat="48.345821" lon="-4.642736"><ele>35.4</ele></trkpt>
    <trkpt lat="48.346262" lon="-4.643287"><ele>49.0</ele></trkpt>
    <trkpt lat="48.346287" lon="-4.643593"><ele>48.0</ele></trkpt>
    <trkpt lat="48.346272" lon="-4.644287"><ele>51.2</ele></trkpt>
    <trkpt lat="48.346327" lon="-4.644640"><ele>53.2</ele></trkpt>
    <trkpt lat="48.346327" lon="-4.645377"><ele>55.8</ele></trkpt>
    <trkpt lat="48.346372" lon="-4.645860"><ele>58.4</ele></trkpt>
    <trkpt lat="48.346656" lon="-4.647169"><ele>55.6</ele></trkpt>
    <trkpt lat="48.346842" lon="-4.647773"><ele>54.8</ele></trkpt>
    <trkpt lat="48.347132" lon="-4.649384"><ele>52.2</ele></trkpt>
    <trkpt lat="48.347654" lon="-4.650903"><ele>54.8</ele></trkpt>
    <trkpt lat="48.347875" lon="-4.651039"><ele>55.4</ele></trkpt>
    <trkpt lat="48.348363" lon="-4.651919"><ele>52.4</ele></trkpt>
    <trkpt lat="48.348462" lon="-4.652003"><ele>50.2</ele></trkpt>
    <trkpt lat="48.348593" lon="-4.652200"><ele>47.8</ele></trkpt>
    <trkpt lat="48.348752" lon="-4.652263"><ele>46.0</ele></trkpt>
    <trkpt lat="48.349175" lon="-4.652224"><ele>44.6</ele></trkpt>
    <trkpt lat="48.349405" lon="-4.652286"><ele>45.2</ele></trkpt>
    <trkpt lat="48.349517" lon="-4.652381"><ele>45.4</ele></trkpt>
    <trkpt lat="48.349858" lon="-4.652825"><ele>43.4</ele></trkpt>
    <trkpt lat="48.349983" lon="-4.652922"><ele>43.6</ele></trkpt>
    <trkpt lat="48.350129" lon="-4.652855"><ele>44.0</ele></trkpt>
    <trkpt lat="48.350966" lon="-4.651612"><ele>50.8</ele></trkpt>
    <trkpt lat="48.351119" lon="-4.651453"><ele>51.8</ele></trkpt>
    <trkpt lat="48.351194" lon="-4.651482"><ele>52.2</ele></trkpt>
    <trkpt lat="48.351489" lon="-4.652610"><ele>54.2</ele></trkpt>
    <trkpt lat="48.351721" lon="-4.654133"><ele>53.0</ele></trkpt>
    <trkpt lat="48.351907" lon="-4.654842"><ele>49.8</ele></trkpt>
    <trkpt lat="48.352078" lon="-4.655246"><ele>48.8</ele></trkpt>
    <trkpt lat="48.352209" lon="-4.655678"><ele>49.0</ele></trkpt>
    <trkpt lat="48.352574" lon="-4.657513"><ele>50.0</ele></trkpt>
    <trkpt lat="48.352766" lon="-4.658686"><ele>48.0</ele></trkpt>
    <trkpt lat="48.352975" lon="-4.659568"><ele>47.4</ele></trkpt>
    <trkpt lat="48.353272" lon="-4.660368"><ele>45.2</ele></trkpt>
    <trkpt lat="48.353473" lon="-4.660737"><ele>44.0</ele></trkpt>
    <trkpt lat="48.353877" lon="-4.661283"><ele>42.4</ele></trkpt>
    <trkpt lat="48.354280" lon="-4.661617"><ele>41.4</ele></trkpt>
    <trkpt lat="48.354552" lon="-4.662080"><ele>38.4</ele></trkpt>
    <trkpt lat="48.354538" lon="-4.662633"><ele>42.4</ele></trkpt>
    <trkpt lat="48.354578" lon="-4.663063"><ele>43.0</ele></trkpt>
    <trkpt lat="48.354769" lon="-4.664068"><ele>43.8</ele></trkpt>
    <trkpt lat="48.354819" lon="-4.664168"><ele>44.0</ele></trkpt>
    <trkpt lat="48.354961" lon="-4.664296"><ele>44.6</ele></trkpt>
    <trkpt lat="48.355072" lon="-4.664853"><ele>45.8</ele></trkpt>
    <trkpt lat="48.355048" lon="-4.665548"><ele>45.2</ele></trkpt>
    <trkpt lat="48.355068" lon="-4.665954"><ele>45.0</ele></trkpt>
    <trkpt lat="48.355128" lon="-4.666313"><ele>44.8</ele></trkpt>
    <trkpt lat="48.355526" lon="-4.666882"><ele>45.6</ele></trkpt>
    <trkpt lat="48.355745" lon="-4.667373"><ele>46.6</ele></trkpt>
    <trkpt lat="48.355885" lon="-4.667618"><ele>46.8</ele></trkpt>
    <trkpt lat="48.355955" lon="-4.667680"><ele>47.0</ele></trkpt>
    <trkpt lat="48.356046" lon="-4.667668"><ele>47.2</ele></trkpt>
    <trkpt lat="48.356329" lon="-4.667488"><ele>48.0</ele></trkpt>
    <trkpt lat="48.356360" lon="-4.667302"><ele>48.6</ele></trkpt>
    <trkpt lat="48.356517" lon="-4.666956"><ele>49.6</ele></trkpt>
    <trkpt lat="48.356566" lon="-4.666522"><ele>50.4</ele></trkpt>
    <trkpt lat="48.356988" lon="-4.665305"><ele>53.8</ele></trkpt>
    <trkpt lat="48.357031" lon="-4.665050"><ele>54.2</ele></trkpt>
    <trkpt lat="48.357041" lon="-4.664727"><ele>54.8</ele></trkpt>
    <trkpt lat="48.357197" lon="-4.664674"><ele>55.6</ele></trkpt>
    <trkpt lat="48.357703" lon="-4.664348"><ele>57.2</ele></trkpt>
    <trkpt lat="48.358050" lon="-4.664408"><ele>57.4</ele></trkpt>
    <trkpt lat="48.358963" lon="-4.663994"><ele>58.4</ele></trkpt>
    <trkpt lat="48.359240" lon="-4.663525"><ele>59.8</ele></trkpt>
    <trkpt lat="48.360093" lon="-4.662247"><ele>64.6</ele></trkpt>
    <trkpt lat="48.360180" lon="-4.661997"><ele>63.8</ele></trkpt>
    <trkpt lat="48.360192" lon="-4.661540"><ele>70.2</ele></trkpt>
    <trkpt lat="48.360450" lon="-4.661151"><ele>68.6</ele></trkpt>
    <trkpt lat="48.360705" lon="-4.660826"><ele>69.4</ele></trkpt>
    <trkpt lat="48.361208" lon="-4.660467"><ele>70.4</ele></trkpt>
    <trkpt lat="48.361563" lon="-4.660098"><ele>71.0</ele></trkpt>
    <trkpt lat="48.361554" lon="-4.659922"><ele>71.2</ele></trkpt>
    <trkpt lat="48.361241" lon="-4.659106"><ele>72.2</ele></trkpt>
    <trkpt lat="48.360604" lon="-4.657858"><ele>71.8</ele></trkpt>
    <trkpt lat="48.360529" lon="-4.657297"><ele>71.0</ele></trkpt>
    <trkpt lat="48.360528" lon="-4.656189"><ele>69.8</ele></trkpt>
    <trkpt lat="48.360596" lon="-4.655999"><ele>70.2</ele></trkpt>
    <trkpt lat="48.360866" lon="-4.655664"><ele>71.4</ele></trkpt>
    <trkpt lat="48.361201" lon="-4.654972"><ele>73.0</ele></trkpt>
    <trkpt lat="48.361378" lon="-4.654314"><ele>74.2</ele></trkpt>
    <trkpt lat="48.361832" lon="-4.653394"><ele>75.2</ele></trkpt>
    <trkpt lat="48.361932" lon="-4.653074"><ele>75.4</ele></trkpt>
    <trkpt lat="48.362217" lon="-4.652700"><ele>75.2</ele></trkpt>
    <trkpt lat="48.362497" lon="-4.652212"><ele>75.6</ele></trkpt>
    <trkpt lat="48.362711" lon="-4.651166"><ele>75.2</ele></trkpt>
    <trkpt lat="48.362925" lon="-4.650343"><ele>74.4</ele></trkpt>
    <trkpt lat="48.363139" lon="-4.649831"><ele>74.2</ele></trkpt>
    <trkpt lat="48.363264" lon="-4.649404"><ele>73.8</ele></trkpt>
    <trkpt lat="48.363736" lon="-4.648293"><ele>72.2</ele></trkpt>
    <trkpt lat="48.363952" lon="-4.647438"><ele>71.8</ele></trkpt>
    <trkpt lat="48.364532" lon="-4.645923"><ele>69.6</ele></trkpt>
    <trkpt lat="48.364979" lon="-4.644495"><ele>68.2</ele></trkpt>
    <trkpt lat="48.365070" lon="-4.644289"><ele>68.0</ele></trkpt>
    <trkpt lat="48.365431" lon="-4.643697"><ele>67.8</ele></trkpt>
    <trkpt lat="48.365542" lon="-4.643428"><ele>67.6</ele></trkpt>
    <trkpt lat="48.365633" lon="-4.643105"><ele>67.4</ele></trkpt>
    <trkpt lat="48.365797" lon="-4.642117"><ele>66.8</ele></trkpt>
    <trkpt lat="48.365833" lon="-4.642079"><ele>66.8</ele></trkpt>
    <trkpt lat="48.365917" lon="-4.642084"><ele>67.0</ele></trkpt>
    <trkpt lat="48.366216" lon="-4.642338"><ele>67.6</ele></trkpt>
    <trkpt lat="48.366490" lon="-4.642299"><ele>68.0</ele></trkpt>
    <trkpt lat="48.367705" lon="-4.642715"><ele>68.6</ele></trkpt>
    <trkpt lat="48.368088" lon="-4.642899"><ele>68.2</ele></trkpt>
    <trkpt lat="48.368388" lon="-4.642792"><ele>67.0</ele></trkpt>
    <trkpt lat="48.368767" lon="-4.642840"><ele>64.8</ele></trkpt>
    <trkpt lat="48.369563" lon="-4.642813"><ele>60.8</ele></trkpt>
    <trkpt lat="48.369658" lon="-4.642703"><ele>60.6</ele></trkpt>
    <trkpt lat="48.370185" lon="-4.640612"><ele>59.0</ele></trkpt>
  </trkseg></trk>
</gpx>
