<?xml version="1.0" encoding="UTF-8"?>
<gpx version="1.1" creator="tcap-parcours" xmlns="http://www.topografix.com/GPX/1/1">
  <metadata><name>Lanhir – Coat-Edern – Coscastel – 12,6 km</name></metadata>
  <trk><name>Lanhir – Coat-Edern – Coscastel – 12,6 km</name><trkseg>
    <trkpt lat="48.370284" lon="-4.640332"><ele>59.8</ele></trkpt>
    <trkpt lat="48.370301" lon="-4.640245"><ele>59.8</ele></trkpt>
    <trkpt lat="48.370485" lon="-4.640170"><ele>59.8</ele></trkpt>
    <trkpt lat="48.370576" lon="-4.640057"><ele>59.6</ele></trkpt>
    <trkpt lat="48.370700" lon="-4.640024"><ele>59.2</ele></trkpt>
    <trkpt lat="48.370826" lon="-4.640087"><ele>58.8</ele></trkpt>
    <trkpt lat="48.371167" lon="-4.640374"><ele>57.8</ele></trkpt>
    <trkpt lat="48.371580" lon="-4.640608"><ele>57.2</ele></trkpt>
    <trkpt lat="48.372483" lon="-4.640645"><ele>54.4</ele></trkpt>
    <trkpt lat="48.372548" lon="-4.640737"><ele>53.8</ele></trkpt>
    <trkpt lat="48.372572" lon="-4.641081"><ele>52.4</ele></trkpt>
    <trkpt lat="48.372631" lon="-4.641390"><ele>51.2</ele></trkpt>
    <trkpt lat="48.372788" lon="-4.641757"><ele>50.8</ele></trkpt>
    <trkpt lat="48.372892" lon="-4.641863"><ele>51.0</ele></trkpt>
    <trkpt lat="48.373030" lon="-4.641855"><ele>50.8</ele></trkpt>
    <trkpt lat="48.373249" lon="-4.641713"><ele>50.2</ele></trkpt>
    <trkpt lat="48.373323" lon="-4.641568"><ele>50.0</ele></trkpt>
    <trkpt lat="48.373441" lon="-4.641188"><ele>49.2</ele></trkpt>
    <trkpt lat="48.373533" lon="-4.641113"><ele>49.2</ele></trkpt>
    <trkpt lat="48.373621" lon="-4.641149"><ele>49.2</ele></trkpt>
    <trkpt lat="48.373743" lon="-4.641273"><ele>49.6</ele></trkpt>
    <trkpt lat="48.373906" lon="-4.641589"><ele>50.0</ele></trkpt>
    <trkpt lat="48.374391" lon="-4.642193"><ele>50.8</ele></trkpt>
    <trkpt lat="48.374922" lon="-4.642346"><ele>50.6</ele></trkpt>
    <trkpt lat="48.375513" lon="-4.642339"><ele>50.6</ele></trkpt>
    <trkpt lat="48.375726" lon="-4.642448"><ele>50.8</ele></trkpt>
    <trkpt lat="48.375856" lon="-4.642408"><ele>50.8</ele></trkpt>
    <trkpt lat="48.376007" lon="-4.642198"><ele>50.4</ele></trkpt>
    <trkpt lat="48.376416" lon="-4.641888"><ele>48.8</ele></trkpt>
    <trkpt lat="48.376635" lon="-4.641598"><ele>48.6</ele></trkpt>
    <trkpt lat="48.376830" lon="-4.641258"><ele>49.0</ele></trkpt>
    <trkpt lat="48.377338" lon="-4.640139"><ele>49.6</ele></trkpt>
    <trkpt lat="48.377673" lon="-4.639577"><ele>49.6</ele></trkpt>
    <trkpt lat="48.377925" lon="-4.638889"><ele>49.4</ele></trkpt>
    <trkpt lat="48.378837" lon="-4.636923"><ele>48.2</ele></trkpt>
    <trkpt lat="48.379208" lon="-4.636005"><ele>47.4</ele></trkpt>
    <trkpt lat="48.379266" lon="-4.635769"><ele>47.0</ele></trkpt>
    <trkpt lat="48.379291" lon="-4.635488"><ele>47.0</ele></trkpt>
    <trkpt lat="48.379245" lon="-4.634550"><ele>46.2</ele></trkpt>
    <trkpt lat="48.379029" lon="-4.633426"><ele>47.6</ele></trkpt>
    <trkpt lat="48.378764" lon="-4.632682"><ele>49.4</ele></trkpt>
    <trkpt lat="48.378443" lon="-4.631981"><ele>49.2</ele></trkpt>
    <trkpt lat="48.378094" lon="-4.631094"><ele>50.4</ele></trkpt>
    <trkpt lat="48.377863" lon="-4.630397"><ele>51.0</ele></trkpt>
    <trkpt lat="48.377726" lon="-4.629806"><ele>51.2</ele></trkpt>
    <trkpt lat="48.377668" lon="-4.629429"><ele>50.8</ele></trkpt>
    <trkpt lat="48.377606" lon="-4.628668"><ele>49.8</ele></trkpt>
    <trkpt lat="48.377679" lon="-4.627893"><ele>48.2</ele></trkpt>
    <trkpt lat="48.377810" lon="-4.627354"><ele>48.2</ele></trkpt>
    <trkpt lat="48.378092" lon="-4.626736"><ele>47.4</ele></trkpt>
    <trkpt lat="48.378636" lon="-4.625918"><ele>48.4</ele></trkpt>
    <trkpt lat="48.379386" lon="-4.625075"><ele>50.6</ele></trkpt>
    <trkpt lat="48.379687" lon="-4.624339"><ele>52.6</ele></trkpt>
    <trkpt lat="48.379944" lon="-4.623829"><ele>54.2</ele></trkpt>
    <trkpt lat="48.379960" lon="-4.623505"><ele>54.8</ele></trkpt>
    <trkpt lat="48.380092" lon="-4.622987"><ele>55.8</ele></trkpt>
    <trkpt lat="48.380315" lon="-4.622587"><ele>57.6</ele></trkpt>
    <trkpt lat="48.380420" lon="-4.622189"><ele>59.8</ele></trkpt>
    <trkpt lat="48.380285" lon="-4.621757"><ele>60.4</ele></trkpt>
    <trkpt lat="48.380034" lon="-4.621262"><ele>59.8</ele></trkpt>
    <trkpt lat="48.380011" lon="-4.621130"><ele>59.6</ele></trkpt>
    <trkpt lat="48.380024" lon="-4.620989"><ele>59.6</ele></trkpt>
    <trkpt lat="48.380171" lon="-4.620679"><ele>60.2</ele></trkpt>
    <trkpt lat="48.380284" lon="-4.620326"><ele>60.8</ele></trkpt>
    <trkpt lat="48.380601" lon="-4.620082"><ele>61.6</ele></trkpt>
    <trkpt lat="48.380719" lon="-4.619903"><ele>62.4</ele></trkpt>
    <trkpt lat="48.380793" lon="-4.619697"><ele>63.0</ele></trkpt>
    <trkpt lat="48.380728" lon="-4.619303"><ele>63.0</ele></trkpt>
    <trkpt lat="48.380307" lon="-4.618506"><ele>63.4</ele></trkpt>
    <trkpt lat="48.380287" lon="-4.618397"><ele>63.6</ele></trkpt>
    <trkpt lat="48.380508" lon="-4.618104"><ele>64.8</ele></trkpt>
    <trkpt lat="48.381458" lon="-4.617387"><ele>72.2</ele></trkpt>
    <trkpt lat="48.381540" lon="-4.617250"><ele>73.0</ele></trkpt>
    <trkpt lat="48.381628" lon="-4.616877"><ele>73.4</ele></trkpt>
    <trkpt lat="48.381606" lon="-4.616236"><ele>75.2</ele></trkpt>
    <trkpt lat="48.381641" lon="-4.615964"><ele>76.0</ele></trkpt>
    <trkpt lat="48.381530" lon="-4.615600"><ele>76.4</ele></trkpt>
    <trkpt lat="48.381539" lon="-4.614797"><ele>76.0</ele></trkpt>
    <trkpt lat="48.381581" lon="-4.614390"><ele>75.8</ele></trkpt>
    <trkpt lat="48.381709" lon="-4.613949"><ele>76.2</ele></trkpt>
    <trkpt lat="48.381888" lon="-4.612621"><ele>75.4</ele></trkpt>
    <trkpt lat="48.382036" lon="-4.611936"><ele>74.6</ele></trkpt>
    <trkpt lat="48.382192" lon="-4.610631"><ele>74.4</ele></trkpt>
    <trkpt lat="48.382139" lon="-4.609762"><ele>74.2</ele></trkpt>
    <trkpt lat="48.382212" lon="-4.609306"><ele>74.4</ele></trkpt>
    <trkpt lat="48.382182" lon="-4.609179"><ele>74.4</ele></trkpt>
    <trkpt lat="48.381933" lon="-4.608753"><ele>74.0</ele></trkpt>
    <trkpt lat="48.381792" lon="-4.607945"><ele>73.2</ele></trkpt>
    <trkpt lat="48.381675" lon="-4.607475"><ele>72.8</ele></trkpt>
    <trkpt lat="48.381364" lon="-4.606480"><ele>73.6</ele></trkpt>
    <trkpt lat="48.381229" lon="-4.606243"><ele>74.0</ele></trkpt>
    <trkpt lat="48.381155" lon="-4.606017"><ele>74.4</ele></trkpt>
    <trkpt lat="48.381144" lon="-4.605637"><ele>74.6</ele></trkpt>
    <trkpt lat="48.380845" lon="-4.604241"><ele>74.8</ele></trkpt>
    <trkpt lat="48.380668" lon="-4.603119"><ele>76.6</ele></trkpt>
    <trkpt lat="48.380509" lon="-4.602358"><ele>77.4</ele></trkpt>
    <trkpt lat="48.380085" lon="-4.601080"><ele>76.6</ele></trkpt>
    <trkpt lat="48.379889" lon="-4.600713"><ele>76.8</ele></trkpt>
    <trkpt lat="48.379684" lon="-4.600510"><ele>76.8</ele></trkpt>
    <trkpt lat="48.379340" lon="-4.600047"><ele>77.0</ele></trkpt>
    <trkpt lat="48.378904" lon="-4.599573"><ele>76.8</ele></trkpt>
    <trkpt lat="48.378677" lon="-4.599264"><ele>76.6</ele></trkpt>
    <trkpt lat="48.378178" lon="-4.598825"><ele>77.6</ele></trkpt>
    <trkpt lat="48.377822" lon="-4.598283"><ele>78.0</ele></trkpt>
    <trkpt lat="48.377262" lon="-4.597810"><ele>78.0</ele></trkpt>
    <trkpt lat="48.376630" lon="-4.597394"><ele>78.8</ele></trkpt>
    <trkpt lat="48.375796" lon="-4.596669"><ele>80.4</ele></trkpt>
    <trkpt lat="48.375527" lon="-4.596529"><ele>81.0</ele></trkpt>
    <trkpt lat="48.374725" lon="-4.595867"><ele>82.6</ele></trkpt>
    <trkpt lat="48.374408" lon="-4.595369"><ele>84.4</ele></trkpt>
    <trkpt lat="48.374054" lon="-4.593995"><ele>88.6</ele></trkpt>
    <trkpt lat="48.373787" lon="-4.593084"><ele>91.0</ele></trkpt>
    <trkpt lat="48.373646" lon="-4.592718"><ele>92.2</ele></trkpt>
    <trkpt lat="48.373523" lon="-4.592552"><ele>92.8</ele></trkpt>
    <trkpt lat="48.372977" lon="-4.592032"><ele>93.0</ele></trkpt>
    <trkpt lat="48.372441" lon="-4.591868"><ele>93.0</ele></trkpt>
    <trkpt lat="48.372304" lon="-4.591703"><ele>93.0</ele></trkpt>
    <trkpt lat="48.372271" lon="-4.591615"><ele>93.0</ele></trkpt>
    <trkpt lat="48.372284" lon="-4.591394"><ele>93.0</ele></trkpt>
    <trkpt lat="48.372334" lon="-4.591195"><ele>93.0</ele></trkpt>
    <trkpt lat="48.372778" lon="-4.590383"><ele>93.8</ele></trkpt>
    <trkpt lat="48.372838" lon="-4.590162"><ele>93.8</ele></trkpt>
    <trkpt lat="48.373129" lon="-4.589426"><ele>93.6</ele></trkpt>
    <trkpt lat="48.373235" lon="-4.589012"><ele>93.2</ele></trkpt>
    <trkpt lat="48.373373" lon="-4.588732"><ele>93.4</ele></trkpt>
    <trkpt lat="48.373471" lon="-4.588180"><ele>93.6</ele></trkpt>
    <trkpt lat="48.373698" lon="-4.587401"><ele>93.4</ele></trkpt>
    <trkpt lat="48.373748" lon="-4.587060"><ele>93.8</ele></trkpt>
    <trkpt lat="48.373887" lon="-4.584713"><ele>92.4</ele></trkpt>
    <trkpt lat="48.373949" lon="-4.584387"><ele>92.4</ele></trkpt>
    <trkpt lat="48.374028" lon="-4.584158"><ele>92.6</ele></trkpt>
    <trkpt lat="48.374208" lon="-4.584200"><ele>92.8</ele></trkpt>
    <trkpt lat="48.375422" lon="-4.584215"><ele>91.2</ele></trkpt>
    <trkpt lat="48.376252" lon="-4.584403"><ele>87.0</ele></trkpt>
    <trkpt lat="48.376527" lon="-4.584282"><ele>86.0</ele></trkpt>
    <trkpt lat="48.376795" lon="-4.584287"><ele>85.0</ele></trkpt>
    <trkpt lat="48.376973" lon="-4.584358"><ele>84.0</ele></trkpt>
    <trkpt lat="48.377152" lon="-4.584525"><ele>82.4</ele></trkpt>
    <trkpt lat="48.377248" lon="-4.584699"><ele>80.8</ele></trkpt>
    <trkpt lat="48.377343" lon="-4.585001"><ele>78.2</ele></trkpt>
    <trkpt lat="48.377390" lon="-4.585309"><ele>76.0</ele></trkpt>
    <trkpt lat="48.377435" lon="-4.586612"><ele>71.6</ele></trkpt>
    <trkpt lat="48.377520" lon="-4.586895"><ele>71.2</ele></trkpt>
    <trkpt lat="48.377643" lon="-4.587049"><ele>70.8</ele></trkpt>
    <trkpt lat="48.377961" lon="-4.587292"><ele>68.8</ele></trkpt>
    <trkpt lat="48.378692" lon="-4.587626"><ele>65.8</ele></trkpt>
    <trkpt lat="48.378909" lon="-4.587767"><ele>65.0</ele></trkpt>
    <trkpt lat="48.379009" lon="-4.587909"><ele>64.6</ele></trkpt>
    <trkpt lat="48.379030" lon="-4.588120"><ele>64.2</ele></trkpt>
    <trkpt lat="48.379011" lon="-4.588656"><ele>63.8</ele></trkpt>
    <trkpt lat="48.379156" lon="-4.589479"><ele>63.8</ele></trkpt>
    <trkpt lat="48.380011" lon="-4.591304"><ele>64.8</ele></trkpt>
    <trkpt lat="48.380283" lon="-4.591982"><ele>66.0</ele></trkpt>
    <trkpt lat="48.380414" lon="-4.592445"><ele>67.0</ele></trkpt>
    <trkpt lat="48.380487" lon="-4.593065"><ele>69.2</ele></trkpt>
    <trkpt lat="48.380566" lon="-4.594350"><ele>73.0</ele></trkpt>
    <trkpt lat="48.380664" lon="-4.595409"><ele>77.0</ele></trkpt>
    <trkpt lat="48.380646" lon="-4.596415"><ele>78.6</ele></trkpt>
    <trkpt lat="48.380831" lon="-4.597039"><ele>80.6</ele></trkpt>
    <trkpt lat="48.382200" lon="-4.597223"><ele>85.2</ele></trkpt>
    <trkpt lat="48.382702" lon="-4.597431"><ele>87.4</ele></trkpt>
    <trkpt lat="48.383253" lon="-4.597752"><ele>90.8</ele></trkpt>
    <trkpt lat="48.383616" lon="-4.597814"><ele>93.0</ele></trkpt>
    <trkpt lat="48.383960" lon="-4.597706"><ele>94.4</ele></trkpt>
    <trkpt lat="48.384258" lon="-4.597714"><ele>96.2</ele></trkpt>
    <trkpt lat="48.385186" lon="-4.598156"><ele>99.2</ele></trkpt>
    <trkpt lat="48.385348" lon="-4.598420"><ele>99.2</ele></trkpt>
    <trkpt lat="48.385442" lon="-4.598693"><ele>99.2</ele></trkpt>
    <trkpt lat="48.385622" lon="-4.599708"><ele>97.6</ele></trkpt>
    <trkpt lat="48.385772" lon="-4.601142"><ele>92.8</ele></trkpt>
    <trkpt lat="48.385767" lon="-4.601386"><ele>92.4</ele></trkpt>
    <trkpt lat="48.385719" lon="-4.601620"><ele>92.0</ele></trkpt>
    <trkpt lat="48.385629" lon="-4.601834"><ele>91.6</ele></trkpt>
    <trkpt lat="48.385412" lon="-4.602018"><ele>91.0</ele></trkpt>
    <trkpt lat="48.384059" lon="-4.602293"><ele>88.8</ele></trkpt>
    <trkpt lat="48.383757" lon="-4.602435"><ele>87.8</ele></trkpt>
    <trkpt lat="48.383164" lon="-4.603413"><ele>85.2</ele></trkpt>
    <trkpt lat="48.382816" lon="-4.603897"><ele>82.4</ele></trkpt>
    <trkpt lat="48.381946" lon="-4.605406"><ele>76.2</ele></trkpt>
    <trkpt lat="48.381807" lon="-4.605597"><ele>75.6</ele></trkpt>
    <trkpt lat="48.381310" lon="-4.606058"><ele>73.6</ele></trkpt>
    <trkpt lat="48.381180" lon="-4.606243"><ele>73.0</ele></trkpt>
    <trkpt lat="48.381206" lon="-4.606362"><ele>73.0</ele></trkpt>
    <trkpt lat="48.381349" lon="-4.606553"><ele>73.2</ele></trkpt>
    <trkpt lat="48.381614" lon="-4.607427"><ele>72.8</ele></trkpt>
    <trkpt lat="48.381941" lon="-4.608876"><ele>73.4</ele></trkpt>
    <trkpt lat="48.382143" lon="-4.609207"><ele>74.2</ele></trkpt>
    <trkpt lat="48.382173" lon="-4.609312"><ele>74.2</ele></trkpt>
    <trkpt lat="48.382148" lon="-4.609467"><ele>74.2</ele></trkpt>
    <trkpt lat="48.382064" lon="-4.609681"><ele>74.2</ele></trkpt>
    <trkpt lat="48.382124" lon="-4.610210"><ele>74.0</ele></trkpt>
    <trkpt lat="48.382133" lon="-4.610597"><ele>74.0</ele></trkpt>
    <trkpt lat="48.382016" lon="-4.611679"><ele>74.8</ele></trkpt>
    <trkpt lat="48.382012" lon="-4.612023"><ele>75.0</ele></trkpt>
    <trkpt lat="48.381874" lon="-4.612498"><ele>76.0</ele></trkpt>
    <trkpt lat="48.381712" lon="-4.613448"><ele>77.2</ele></trkpt>
    <trkpt lat="48.381669" lon="-4.613936"><ele>77.8</ele></trkpt>
    <trkpt lat="48.381498" lon="-4.614575"><ele>77.2</ele></trkpt>
    <trkpt lat="48.381477" lon="-4.615214"><ele>76.4</ele></trkpt>
    <trkpt lat="48.381496" lon="-4.615585"><ele>77.4</ele></trkpt>
    <trkpt lat="48.381601" lon="-4.616054"><ele>76.6</ele></trkpt>
    <trkpt lat="48.381555" lon="-4.616333"><ele>75.6</ele></trkpt>
    <trkpt lat="48.381565" lon="-4.616822"><ele>74.2</ele></trkpt>
    <trkpt lat="48.381593" lon="-4.617103"><ele>73.4</ele></trkpt>
    <trkpt lat="48.381663" lon="-4.617295"><ele>72.2</ele></trkpt>
    <trkpt lat="48.381629" lon="-4.617522"><ele>71.2</ele></trkpt>
    <trkpt lat="48.381729" lon="-4.619082"><ele>69.6</ele></trkpt>
    <trkpt lat="48.381735" lon="-4.620401"><ele>71.0</ele></trkpt>
    <trkpt lat="48.381916" lon="-4.621035"><ele>72.2</ele></trkpt>
    <trkpt lat="48.382097" lon="-4.621280"><ele>73.2</ele></trkpt>
    <trkpt lat="48.382193" lon="-4.621481"><ele>73.6</ele></trkpt>
    <trkpt lat="48.382313" lon="-4.621968"><ele>73.0</ele></trkpt>
    <trkpt lat="48.382314" lon="-4.622160"><ele>72.4</ele></trkpt>
    <trkpt lat="48.382271" lon="-4.622302"><ele>71.8</ele></trkpt>
    <trkpt lat="48.382095" lon="-4.622334"><ele>71.0</ele></trkpt>
    <trkpt lat="48.381768" lon="-4.622268"><ele>70.4</ele></trkpt>
    <trkpt lat="48.381556" lon="-4.622028"><ele>68.6</ele></trkpt>
    <trkpt lat="48.381447" lon="-4.622003"><ele>67.8</ele></trkpt>
    <trkpt lat="48.380899" lon="-4.622456"><ele>62.2</ele></trkpt>
    <trkpt lat="48.380488" lon="-4.622610"><ele>58.8</ele></trkpt>
    <trkpt lat="48.380318" lon="-4.622756"><ele>57.8</ele></trkpt>
    <trkpt lat="48.380115" lon="-4.623155"><ele>56.4</ele></trkpt>
    <trkpt lat="48.379924" lon="-4.623675"><ele>54.8</ele></trkpt>
    <trkpt lat="48.379383" lon="-4.624871"><ele>51.6</ele></trkpt>
    <trkpt lat="48.379187" lon="-4.625176"><ele>51.4</ele></trkpt>
    <trkpt lat="48.378524" lon="-4.625938"><ele>49.2</ele></trkpt>
    <trkpt lat="48.378208" lon="-4.626433"><ele>48.6</ele></trkpt>
    <trkpt lat="48.377867" lon="-4.627053"><ele>48.0</ele></trkpt>
    <trkpt lat="48.377693" lon="-4.627629"><ele>48.8</ele></trkpt>
    <trkpt lat="48.377637" lon="-4.627991"><ele>50.0</ele></trkpt>
    <trkpt lat="48.377600" lon="-4.628640"><ele>51.2</ele></trkpt>
    <trkpt lat="48.377680" lon="-4.629576"><ele>51.6</ele></trkpt>
    <trkpt lat="48.377757" lon="-4.629965"><ele>52.0</ele></trkpt>
    <trkpt lat="48.378116" lon="-4.631248"><ele>50.4</ele></trkpt>
    <trkpt lat="48.378932" lon="-4.633172"><ele>47.8</ele></trkpt>
    <trkpt lat="48.379135" lon="-4.634018"><ele>47.4</ele></trkpt>
    <trkpt lat="48.379200" lon="-4.634603"><ele>46.8</ele></trkpt>
    <trkpt lat="48.379244" lon="-4.635479"><ele>48.0</ele></trkpt>
    <trkpt lat="48.379205" lon="-4.635871"><ele>47.6</ele></trkpt>
    <trkpt lat="48.379134" lon="-4.636159"><ele>47.6</ele></trkpt>
    <trkpt lat="48.378796" lon="-4.636911"><ele>49.0</ele></trkpt>
    <trkpt lat="48.378364" lon="-4.637734"><ele>49.6</ele></trkpt>
    <trkpt lat="48.377880" lon="-4.638758"><ele>49.4</ele></trkpt>
    <trkpt lat="48.377536" lon="-4.639566"><ele>49.6</ele></trkpt>
    <trkpt lat="48.376647" lon="-4.641345"><ele>49.6</ele></trkpt>
    <trkpt lat="48.376497" lon="-4.641598"><ele>49.6</ele></trkpt>
    <trkpt lat="48.375651" lon="-4.642386"><ele>50.6</ele></trkpt>
    <trkpt lat="48.375253" lon="-4.642408"><ele>50.6</ele></trkpt>
    <trkpt lat="48.374997" lon="-4.642360"><ele>51.0</ele></trkpt>
    <trkpt lat="48.374352" lon="-4.642068"><ele>50.6</ele></trkpt>
    <trkpt lat="48.374039" lon="-4.641621"><ele>50.0</ele></trkpt>
    <trkpt lat="48.373878" lon="-4.641513"><ele>49.8</ele></trkpt>
    <trkpt lat="48.373709" lon="-4.641182"><ele>50.0</ele></trkpt>
    <trkpt lat="48.373538" lon="-4.641070"><ele>50.4</ele></trkpt>
    <trkpt lat="48.373449" lon="-4.641073"><ele>50.4</ele></trkpt>
    <trkpt lat="48.373362" lon="-4.641133"><ele>50.6</ele></trkpt>
    <trkpt lat="48.373167" lon="-4.641659"><ele>51.4</ele></trkpt>
    <trkpt lat="48.372983" lon="-4.641756"><ele>51.8</ele></trkpt>
    <trkpt lat="48.372851" lon="-4.641766"><ele>52.2</ele></trkpt>
    <trkpt lat="48.372766" lon="-4.641664"><ele>52.4</ele></trkpt>
    <trkpt lat="48.372637" lon="-4.641284"><ele>53.0</ele></trkpt>
    <trkpt lat="48.372568" lon="-4.640683"><ele>54.2</ele></trkpt>
    <trkpt lat="48.372495" lon="-4.640549"><ele>54.8</ele></trkpt>
    <trkpt lat="48.371522" lon="-4.640530"><ele>57.6</ele></trkpt>
    <trkpt lat="48.371012" lon="-4.640276"><ele>58.8</ele></trkpt>
    <trkpt lat="48.370642" lon="-4.639962"><ele>60.0</ele></trkpt>
    <trkpt lat="48.370318" lon="-4.640078"><ele>60.8</ele></trkpt>
  </trkseg></trk>
</gpx>
