<?xml version="1.0" encoding="UTF-8"?>
<gpx version="1.1" creator="tcap-parcours" xmlns="http://www.topografix.com/GPX/1/1">
  <metadata><name>Lanhir – Kernazec – Kroas-Saliou – 11,2 km</name></metadata>
  <trk><name>Lanhir – Kernazec – Kroas-Saliou – 11,2 km</name><trkseg>
    <trkpt lat="48.371289" lon="-4.640435"><ele>57.6</ele></trkpt>
    <trkpt lat="48.371567" lon="-4.640559"><ele>57.2</ele></trkpt>
    <trkpt lat="48.371810" lon="-4.640509"><ele>56.4</ele></trkpt>
    <trkpt lat="48.372529" lon="-4.640585"><ele>54.0</ele></trkpt>
    <trkpt lat="48.372613" lon="-4.640504"><ele>53.8</ele></trkpt>
    <trkpt lat="48.372774" lon="-4.640123"><ele>53.6</ele></trkpt>
    <trkpt lat="48.372915" lon="-4.639909"><ele>53.0</ele></trkpt>
    <trkpt lat="48.372982" lon="-4.639867"><ele>52.8</ele></trkpt>
    <trkpt lat="48.373216" lon="-4.639905"><ele>52.0</ele></trkpt>
    <trkpt lat="48.373472" lon="-4.640043"><ele>51.6</ele></trkpt>
    <trkpt lat="48.373734" lon="-4.640277"><ele>51.4</ele></trkpt>
    <trkpt lat="48.373786" lon="-4.640516"><ele>51.4</ele></trkpt>
    <trkpt lat="48.373718" lon="-4.641035"><ele>50.4</ele></trkpt>
    <trkpt lat="48.373754" lon="-4.641255"><ele>50.0</ele></trkpt>
    <trkpt lat="48.373908" lon="-4.641609"><ele>50.0</ele></trkpt>
    <trkpt lat="48.374041" lon="-4.641733"><ele>50.0</ele></trkpt>
    <trkpt lat="48.374309" lon="-4.642116"><ele>50.8</ele></trkpt>
    <trkpt lat="48.374777" lon="-4.642294"><ele>51.4</ele></trkpt>
    <trkpt lat="48.375128" lon="-4.642351"><ele>50.8</ele></trkpt>
    <trkpt lat="48.375508" lon="-4.642338"><ele>50.4</ele></trkpt>
    <trkpt lat="48.375711" lon="-4.642412"><ele>50.8</ele></trkpt>
    <trkpt lat="48.376161" lon="-4.641911"><ele>50.8</ele></trkpt>
    <trkpt lat="48.376393" lon="-4.641871"><ele>50.2</ele></trkpt>
    <trkpt lat="48.376598" lon="-4.641625"><ele>49.6</ele></trkpt>
    <trkpt lat="48.376904" lon="-4.641036"><ele>49.2</ele></trkpt>
    <trkpt lat="48.377268" lon="-4.640224"><ele>49.0</ele></trkpt>
    <trkpt lat="48.377668" lon="-4.639475"><ele>49.2</ele></trkpt>
    <trkpt lat="48.378286" lon="-4.638066"><ele>49.4</ele></trkpt>
    <trkpt lat="48.378732" lon="-4.637165"><ele>49.0</ele></trkpt>
    <trkpt lat="48.378911" lon="-4.636665"><ele>48.6</ele></trkpt>
    <trkpt lat="48.379177" lon="-4.636075"><ele>48.0</ele></trkpt>
    <trkpt lat="48.379248" lon="-4.635751"><ele>47.4</ele></trkpt>
    <trkpt lat="48.379267" lon="-4.635313"><ele>47.0</ele></trkpt>
    <trkpt lat="48.379192" lon="-4.634274"><ele>46.2</ele></trkpt>
    <trkpt lat="48.379100" lon="-4.633816"><ele>46.8</ele></trkpt>
    <trkpt lat="48.378922" lon="-4.633195"><ele>48.2</ele></trkpt>
    <trkpt lat="48.378083" lon="-4.631098"><ele>50.8</ele></trkpt>
    <trkpt lat="48.377788" lon="-4.630149"><ele>51.4</ele></trkpt>
    <trkpt lat="48.377666" lon="-4.629505"><ele>50.8</ele></trkpt>
    <trkpt lat="48.377590" lon="-4.628556"><ele>49.4</ele></trkpt>
    <trkpt lat="48.377690" lon="-4.627797"><ele>49.0</ele></trkpt>
    <trkpt lat="48.377823" lon="-4.627319"><ele>49.0</ele></trkpt>
    <trkpt lat="48.377954" lon="-4.627023"><ele>48.8</ele></trkpt>
    <trkpt lat="48.378424" lon="-4.626202"><ele>48.2</ele></trkpt>
    <trkpt lat="48.378647" lon="-4.625900"><ele>49.6</ele></trkpt>
    <trkpt lat="48.379016" lon="-4.625492"><ele>52.0</ele></trkpt>
    <trkpt lat="48.379421" lon="-4.624924"><ele>52.8</ele></trkpt>
    <trkpt lat="48.379915" lon="-4.623827"><ele>55.0</ele></trkpt>
    <trkpt lat="48.380055" lon="-4.623046"><ele>56.8</ele></trkpt>
    <trkpt lat="48.380269" lon="-4.622602"><ele>58.0</ele></trkpt>
    <trkpt lat="48.380363" lon="-4.622166"><ele>59.8</ele></trkpt>
    <trkpt lat="48.380252" lon="-4.621699"><ele>60.0</ele></trkpt>
    <trkpt lat="48.380024" lon="-4.621263"><ele>59.6</ele></trkpt>
    <trkpt lat="48.380009" lon="-4.621006"><ele>59.6</ele></trkpt>
    <trkpt lat="48.380053" lon="-4.620880"><ele>59.8</ele></trkpt>
    <trkpt lat="48.380146" lon="-4.620757"><ele>60.2</ele></trkpt>
    <trkpt lat="48.380288" lon="-4.620348"><ele>61.4</ele></trkpt>
    <trkpt lat="48.380542" lon="-4.620111"><ele>62.2</ele></trkpt>
    <trkpt lat="48.380693" lon="-4.619773"><ele>63.2</ele></trkpt>
    <trkpt lat="48.380722" lon="-4.619618"><ele>63.4</ele></trkpt>
    <trkpt lat="48.380708" lon="-4.619442"><ele>63.4</ele></trkpt>
    <trkpt lat="48.380655" lon="-4.619293"><ele>63.2</ele></trkpt>
    <trkpt lat="48.380114" lon="-4.618188"><ele>64.4</ele></trkpt>
    <trkpt lat="48.379767" lon="-4.616990"><ele>67.0</ele></trkpt>
    <trkpt lat="48.379542" lon="-4.615640"><ele>69.2</ele></trkpt>
    <trkpt lat="48.379495" lon="-4.615025"><ele>69.6</ele></trkpt>
    <trkpt lat="48.379332" lon="-4.614364"><ele>68.2</ele></trkpt>
    <trkpt lat="48.379312" lon="-4.614105"><ele>67.6</ele></trkpt>
    <trkpt lat="48.379236" lon="-4.613761"><ele>66.8</ele></trkpt>
    <trkpt lat="48.379196" lon="-4.612261"><ele>64.4</ele></trkpt>
    <trkpt lat="48.378806" lon="-4.611956"><ele>62.0</ele></trkpt>
    <trkpt lat="48.378148" lon="-4.611699"><ele>58.8</ele></trkpt>
    <trkpt lat="48.378008" lon="-4.611581"><ele>58.4</ele></trkpt>
    <trkpt lat="48.377988" lon="-4.611426"><ele>58.2</ele></trkpt>
    <trkpt lat="48.378045" lon="-4.610969"><ele>58.4</ele></trkpt>
    <trkpt lat="48.378020" lon="-4.610760"><ele>58.6</ele></trkpt>
    <trkpt lat="48.377953" lon="-4.610632"><ele>58.8</ele></trkpt>
    <trkpt lat="48.377660" lon="-4.610277"><ele>59.2</ele></trkpt>
    <trkpt lat="48.377465" lon="-4.609722"><ele>59.0</ele></trkpt>
    <trkpt lat="48.377451" lon="-4.609430"><ele>58.8</ele></trkpt>
    <trkpt lat="48.377481" lon="-4.608711"><ele>59.6</ele></trkpt>
    <trkpt lat="48.377426" lon="-4.608158"><ele>60.2</ele></trkpt>
    <trkpt lat="48.376928" lon="-4.607676"><ele>61.6</ele></trkpt>
    <trkpt lat="48.376371" lon="-4.606836"><ele>64.0</ele></trkpt>
    <trkpt lat="48.376148" lon="-4.606390"><ele>63.8</ele></trkpt>
    <trkpt lat="48.375930" lon="-4.605762"><ele>64.0</ele></trkpt>
    <trkpt lat="48.375680" lon="-4.604512"><ele>67.4</ele></trkpt>
    <trkpt lat="48.375586" lon="-4.604266"><ele>68.4</ele></trkpt>
    <trkpt lat="48.375222" lon="-4.603585"><ele>69.6</ele></trkpt>
    <trkpt lat="48.375159" lon="-4.603019"><ele>70.4</ele></trkpt>
    <trkpt lat="48.374918" lon="-4.602706"><ele>71.2</ele></trkpt>
    <trkpt lat="48.374166" lon="-4.601933"><ele>74.2</ele></trkpt>
    <trkpt lat="48.373256" lon="-4.600490"><ele>79.8</ele></trkpt>
    <trkpt lat="48.372348" lon="-4.599182"><ele>86.2</ele></trkpt>
    <trkpt lat="48.371941" lon="-4.598439"><ele>87.8</ele></trkpt>
    <trkpt lat="48.371690" lon="-4.597855"><ele>89.4</ele></trkpt>
    <trkpt lat="48.371572" lon="-4.597499"><ele>89.0</ele></trkpt>
    <trkpt lat="48.371549" lon="-4.596713"><ele>90.2</ele></trkpt>
    <trkpt lat="48.371609" lon="-4.596018"><ele>91.2</ele></trkpt>
    <trkpt lat="48.371510" lon="-4.594287"><ele>92.6</ele></trkpt>
    <trkpt lat="48.371737" lon="-4.593023"><ele>93.0</ele></trkpt>
    <trkpt lat="48.371854" lon="-4.592160"><ele>92.8</ele></trkpt>
    <trkpt lat="48.372031" lon="-4.591702"><ele>93.2</ele></trkpt>
    <trkpt lat="48.372153" lon="-4.591779"><ele>93.6</ele></trkpt>
    <trkpt lat="48.372242" lon="-4.591638"><ele>93.6</ele></trkpt>
    <trkpt lat="48.372334" lon="-4.591197"><ele>93.2</ele></trkpt>
    <trkpt lat="48.372515" lon="-4.590833"><ele>93.4</ele></trkpt>
    <trkpt lat="48.372701" lon="-4.590546"><ele>93.4</ele></trkpt>
    <trkpt lat="48.372825" lon="-4.590138"><ele>93.8</ele></trkpt>
    <trkpt lat="48.373098" lon="-4.589447"><ele>93.8</ele></trkpt>
    <trkpt lat="48.373228" lon="-4.588993"><ele>93.6</ele></trkpt>
    <trkpt lat="48.373425" lon="-4.588772"><ele>94.0</ele></trkpt>
    <trkpt lat="48.374012" lon="-4.589301"><ele>92.8</ele></trkpt>
    <trkpt lat="48.374624" lon="-4.589776"><ele>92.4</ele></trkpt>
    <trkpt lat="48.374985" lon="-4.589912"><ele>93.0</ele></trkpt>
    <trkpt lat="48.375688" lon="-4.590295"><ele>91.4</ele></trkpt>
    <trkpt lat="48.375711" lon="-4.590395"><ele>91.2</ele></trkpt>
    <trkpt lat="48.375622" lon="-4.590943"><ele>91.2</ele></trkpt>
    <trkpt lat="48.375628" lon="-4.591224"><ele>91.0</ele></trkpt>
    <trkpt lat="48.375753" lon="-4.591540"><ele>91.0</ele></trkpt>
    <trkpt lat="48.376136" lon="-4.592140"><ele>89.8</ele></trkpt>
    <trkpt lat="48.376333" lon="-4.593150"><ele>88.8</ele></trkpt>
    <trkpt lat="48.377053" lon="-4.594306"><ele>84.0</ele></trkpt>
    <trkpt lat="48.377243" lon="-4.594691"><ele>82.4</ele></trkpt>
    <trkpt lat="48.377568" lon="-4.594947"><ele>80.6</ele></trkpt>
    <trkpt lat="48.377679" lon="-4.595077"><ele>80.2</ele></trkpt>
    <trkpt lat="48.377773" lon="-4.595243"><ele>80.2</ele></trkpt>
    <trkpt lat="48.377928" lon="-4.595666"><ele>80.2</ele></trkpt>
    <trkpt lat="48.378095" lon="-4.595886"><ele>80.6</ele></trkpt>
    <trkpt lat="48.378548" lon="-4.596202"><ele>82.0</ele></trkpt>
    <trkpt lat="48.379370" lon="-4.596587"><ele>81.4</ele></trkpt>
    <trkpt lat="48.380239" lon="-4.596912"><ele>80.4</ele></trkpt>
    <trkpt lat="48.380918" lon="-4.597052"><ele>80.6</ele></trkpt>
    <trkpt lat="48.381589" lon="-4.597083"><ele>82.8</ele></trkpt>
    <trkpt lat="48.381937" lon="-4.597178"><ele>84.2</ele></trkpt>
    <trkpt lat="48.382305" lon="-4.597219"><ele>85.6</ele></trkpt>
    <trkpt lat="48.382962" lon="-4.597544"><ele>89.0</ele></trkpt>
    <trkpt lat="48.383167" lon="-4.597708"><ele>90.0</ele></trkpt>
    <trkpt lat="48.383202" lon="-4.597850"><ele>90.2</ele></trkpt>
    <trkpt lat="48.382894" lon="-4.598734"><ele>89.0</ele></trkpt>
    <trkpt lat="48.382688" lon="-4.599191"><ele>87.8</ele></trkpt>
    <trkpt lat="48.382598" lon="-4.599322"><ele>87.2</ele></trkpt>
    <trkpt lat="48.381079" lon="-4.600488"><ele>81.0</ele></trkpt>
    <trkpt lat="48.380542" lon="-4.600768"><ele>79.8</ele></trkpt>
    <trkpt lat="48.380495" lon="-4.600857"><ele>79.4</ele></trkpt>
    <trkpt lat="48.380552" lon="-4.601296"><ele>78.6</ele></trkpt>
    <trkpt lat="48.380540" lon="-4.601404"><ele>78.6</ele></trkpt>
    <trkpt lat="48.380215" lon="-4.601686"><ele>79.0</ele></trkpt>
    <trkpt lat="48.380411" lon="-4.602290"><ele>77.8</ele></trkpt>
    <trkpt lat="48.380640" lon="-4.603263"><ele>77.2</ele></trkpt>
    <trkpt lat="48.380849" lon="-4.604465"><ele>76.0</ele></trkpt>
    <trkpt lat="48.381109" lon="-4.605673"><ele>72.6</ele></trkpt>
    <trkpt lat="48.381091" lon="-4.606058"><ele>72.2</ele></trkpt>
    <trkpt lat="48.381360" lon="-4.606601"><ele>73.2</ele></trkpt>
    <trkpt lat="48.381602" lon="-4.607429"><ele>72.8</ele></trkpt>
    <trkpt lat="48.381895" lon="-4.608710"><ele>72.6</ele></trkpt>
    <trkpt lat="48.382162" lon="-4.609292"><ele>74.4</ele></trkpt>
    <trkpt lat="48.382157" lon="-4.609450"><ele>74.4</ele></trkpt>
    <trkpt lat="48.382079" lon="-4.609710"><ele>74.4</ele></trkpt>
    <trkpt lat="48.382146" lon="-4.610589"><ele>74.4</ele></trkpt>
    <trkpt lat="48.382072" lon="-4.611032"><ele>73.6</ele></trkpt>
    <trkpt lat="48.382003" lon="-4.612039"><ele>75.4</ele></trkpt>
    <trkpt lat="48.381822" lon="-4.612689"><ele>76.6</ele></trkpt>
    <trkpt lat="48.381684" lon="-4.613506"><ele>75.8</ele></trkpt>
    <trkpt lat="48.381644" lon="-4.613944"><ele>76.4</ele></trkpt>
    <trkpt lat="48.381479" lon="-4.614669"><ele>77.0</ele></trkpt>
    <trkpt lat="48.381454" lon="-4.615287"><ele>76.8</ele></trkpt>
    <trkpt lat="48.381536" lon="-4.616307"><ele>75.6</ele></trkpt>
    <trkpt lat="48.381555" lon="-4.617022"><ele>73.6</ele></trkpt>
    <trkpt lat="48.381488" lon="-4.617113"><ele>73.0</ele></trkpt>
    <trkpt lat="48.381428" lon="-4.617350"><ele>71.8</ele></trkpt>
    <trkpt lat="48.381361" lon="-4.617466"><ele>70.8</ele></trkpt>
    <trkpt lat="48.381196" lon="-4.617628"><ele>68.6</ele></trkpt>
    <trkpt lat="48.380321" lon="-4.618259"><ele>65.0</ele></trkpt>
    <trkpt lat="48.380234" lon="-4.618396"><ele>64.6</ele></trkpt>
    <trkpt lat="48.380258" lon="-4.618558"><ele>64.2</ele></trkpt>
    <trkpt lat="48.380585" lon="-4.619175"><ele>63.0</ele></trkpt>
    <trkpt lat="48.380726" lon="-4.619544"><ele>63.2</ele></trkpt>
    <trkpt lat="48.380688" lon="-4.619761"><ele>63.0</ele></trkpt>
    <trkpt lat="48.380592" lon="-4.619946"><ele>62.6</ele></trkpt>
    <trkpt lat="48.380204" lon="-4.620346"><ele>61.8</ele></trkpt>
    <trkpt lat="48.380091" lon="-4.620734"><ele>61.2</ele></trkpt>
    <trkpt lat="48.379986" lon="-4.620896"><ele>60.6</ele></trkpt>
    <trkpt lat="48.379949" lon="-4.621041"><ele>60.4</ele></trkpt>
    <trkpt lat="48.379968" lon="-4.621330"><ele>60.2</ele></trkpt>
    <trkpt lat="48.380247" lon="-4.621853"><ele>60.0</ele></trkpt>
    <trkpt lat="48.380339" lon="-4.622190"><ele>59.4</ele></trkpt>
    <trkpt lat="48.380339" lon="-4.622297"><ele>59.0</ele></trkpt>
    <trkpt lat="48.380225" lon="-4.622630"><ele>57.8</ele></trkpt>
    <trkpt lat="48.380007" lon="-4.623087"><ele>56.8</ele></trkpt>
    <trkpt lat="48.379946" lon="-4.623351"><ele>56.4</ele></trkpt>
    <trkpt lat="48.379836" lon="-4.623638"><ele>55.6</ele></trkpt>
    <trkpt lat="48.379771" lon="-4.624007"><ele>54.4</ele></trkpt>
    <trkpt lat="48.379436" lon="-4.624852"><ele>52.4</ele></trkpt>
    <trkpt lat="48.379236" lon="-4.625212"><ele>51.2</ele></trkpt>
    <trkpt lat="48.378721" lon="-4.625736"><ele>49.2</ele></trkpt>
    <trkpt lat="48.378113" lon="-4.626622"><ele>49.0</ele></trkpt>
    <trkpt lat="48.377892" lon="-4.627058"><ele>48.4</ele></trkpt>
    <trkpt lat="48.377720" lon="-4.627493"><ele>48.6</ele></trkpt>
    <trkpt lat="48.377597" lon="-4.628174"><ele>50.8</ele></trkpt>
    <trkpt lat="48.377576" lon="-4.628705"><ele>51.8</ele></trkpt>
    <trkpt lat="48.377662" lon="-4.629546"><ele>52.0</ele></trkpt>
    <trkpt lat="48.377777" lon="-4.630138"><ele>51.4</ele></trkpt>
    <trkpt lat="48.378139" lon="-4.631279"><ele>50.4</ele></trkpt>
    <trkpt lat="48.378118" lon="-4.631584"><ele>49.8</ele></trkpt>
    <trkpt lat="48.378211" lon="-4.631534"><ele>49.6</ele></trkpt>
    <trkpt lat="48.378614" lon="-4.632432"><ele>49.6</ele></trkpt>
    <trkpt lat="48.378895" lon="-4.633096"><ele>47.8</ele></trkpt>
    <trkpt lat="48.379121" lon="-4.633927"><ele>46.8</ele></trkpt>
    <trkpt lat="48.379219" lon="-4.634629"><ele>46.6</ele></trkpt>
    <trkpt lat="48.379245" lon="-4.635436"><ele>48.2</ele></trkpt>
    <trkpt lat="48.379148" lon="-4.636081"><ele>49.2</ele></trkpt>
    <trkpt lat="48.378483" lon="-4.637568"><ele>51.0</ele></trkpt>
    <trkpt lat="48.376678" lon="-4.641326"><ele>49.6</ele></trkpt>
    <trkpt lat="48.376435" lon="-4.641720"><ele>49.4</ele></trkpt>
    <trkpt lat="48.376323" lon="-4.641719"><ele>49.6</ele></trkpt>
    <trkpt lat="48.375635" lon="-4.642362"><ele>51.0</ele></trkpt>
    <trkpt lat="48.375479" lon="-4.642271"><ele>51.0</ele></trkpt>
    <trkpt lat="48.375010" lon="-4.642292"><ele>51.2</ele></trkpt>
    <trkpt lat="48.374611" lon="-4.642209"><ele>51.2</ele></trkpt>
    <trkpt lat="48.374262" lon="-4.642044"><ele>50.6</ele></trkpt>
    <trkpt lat="48.374172" lon="-4.641956"><ele>50.2</ele></trkpt>
    <trkpt lat="48.374039" lon="-4.641605"><ele>49.8</ele></trkpt>
    <trkpt lat="48.373883" lon="-4.641482"><ele>49.6</ele></trkpt>
    <trkpt lat="48.373785" lon="-4.641268"><ele>49.8</ele></trkpt>
    <trkpt lat="48.373632" lon="-4.641108"><ele>50.2</ele></trkpt>
    <trkpt lat="48.373502" lon="-4.641046"><ele>50.4</ele></trkpt>
    <trkpt lat="48.373421" lon="-4.641046"><ele>50.6</ele></trkpt>
    <trkpt lat="48.373348" lon="-4.641114"><ele>50.6</ele></trkpt>
    <trkpt lat="48.373231" lon="-4.641536"><ele>50.8</ele></trkpt>
    <trkpt lat="48.373168" lon="-4.641660"><ele>51.2</ele></trkpt>
    <trkpt lat="48.372979" lon="-4.641763"><ele>52.2</ele></trkpt>
    <trkpt lat="48.372856" lon="-4.641773"><ele>52.4</ele></trkpt>
    <trkpt lat="48.372757" lon="-4.641643"><ele>52.6</ele></trkpt>
    <trkpt lat="48.372637" lon="-4.641360"><ele>52.6</ele></trkpt>
    <trkpt lat="48.372593" lon="-4.641162"><ele>52.8</ele></trkpt>
    <trkpt lat="48.372555" lon="-4.640715"><ele>53.6</ele></trkpt>
    <trkpt lat="48.372475" lon="-4.640563"><ele>54.2</ele></trkpt>
    <trkpt lat="48.371727" lon="-4.640497"><ele>56.4</ele></trkpt>
    <trkpt lat="48.371482" lon="-4.640547"><ele>57.2</ele></trkpt>
    <trkpt lat="48.371005" lon="-4.640279"><ele>58.0</ele></trkpt>
    <trkpt lat="48.370706" lon="-4.640001"><ele>59.4</ele></trkpt>
    <trkpt lat="48.370415" lon="-4.640024"><ele>60.0</ele></trkpt>
  </trkseg></trk>
</gpx>
