<?xml version="1.0" encoding="UTF-8"?>
<gpx version="1.1" creator="tcap-parcours" xmlns="http://www.topografix.com/GPX/1/1">
  <metadata><name>lesconvel-portez-trez-hir-2</name></metadata>
  <trk><name>lesconvel-portez-trez-hir-2</name><trkseg>
    <trkpt lat="48.370245" lon="-4.640380"><ele>60.4</ele></trkpt>
    <trkpt lat="48.370257" lon="-4.640215"><ele>60.2</ele></trkpt>
    <trkpt lat="48.370288" lon="-4.640156"><ele>60.2</ele></trkpt>
    <trkpt lat="48.370740" lon="-4.640039"><ele>59.0</ele></trkpt>
    <trkpt lat="48.370787" lon="-4.640055"><ele>59.0</ele></trkpt>
    <trkpt lat="48.370949" lon="-4.640260"><ele>58.4</ele></trkpt>
    <trkpt lat="48.371174" lon="-4.640426"><ele>58.2</ele></trkpt>
    <trkpt lat="48.371526" lon="-4.640587"><ele>57.6</ele></trkpt>
    <trkpt lat="48.371763" lon="-4.640548"><ele>57.0</ele></trkpt>
    <trkpt lat="48.372553" lon="-4.640615"><ele>54.0</ele></trkpt>
    <trkpt lat="48.372635" lon="-4.640536"><ele>54.0</ele></trkpt>
    <trkpt lat="48.372937" lon="-4.639912"><ele>53.4</ele></trkpt>
    <trkpt lat="48.372985" lon="-4.639861"><ele>53.2</ele></trkpt>
    <trkpt lat="48.373142" lon="-4.639840"><ele>52.2</ele></trkpt>
    <trkpt lat="48.373228" lon="-4.639553"><ele>51.2</ele></trkpt>
    <trkpt lat="48.373296" lon="-4.639501"><ele>51.0</ele></trkpt>
    <trkpt lat="48.374365" lon="-4.640068"><ele>50.0</ele></trkpt>
    <trkpt lat="48.374490" lon="-4.640080"><ele>50.0</ele></trkpt>
    <trkpt lat="48.374584" lon="-4.640012"><ele>50.0</ele></trkpt>
    <trkpt lat="48.374793" lon="-4.639649"><ele>49.6</ele></trkpt>
    <trkpt lat="48.375279" lon="-4.639073"><ele>49.2</ele></trkpt>
    <trkpt lat="48.375703" lon="-4.638424"><ele>49.2</ele></trkpt>
    <trkpt lat="48.375697" lon="-4.638245"><ele>49.2</ele></trkpt>
    <trkpt lat="48.375632" lon="-4.638145"><ele>49.6</ele></trkpt>
    <trkpt lat="48.375234" lon="-4.638050"><ele>49.8</ele></trkpt>
    <trkpt lat="48.375180" lon="-4.638000"><ele>49.8</ele></trkpt>
    <trkpt lat="48.375171" lon="-4.637937"><ele>49.8</ele></trkpt>
    <trkpt lat="48.375367" lon="-4.636460"><ele>48.4</ele></trkpt>
    <trkpt lat="48.375530" lon="-4.635541"><ele>49.8</ele></trkpt>
    <trkpt lat="48.375658" lon="-4.635106"><ele>50.2</ele></trkpt>
    <trkpt lat="48.375658" lon="-4.635000"><ele>50.2</ele></trkpt>
    <trkpt lat="48.375591" lon="-4.634799"><ele>50.2</ele></trkpt>
    <trkpt lat="48.376120" lon="-4.633551"><ele>51.0</ele></trkpt>
    <trkpt lat="48.376137" lon="-4.633389"><ele>51.0</ele></trkpt>
    <trkpt lat="48.376043" lon="-4.633329"><ele>51.2</ele></trkpt>
    <trkpt lat="48.375483" lon="-4.633331"><ele>52.2</ele></trkpt>
    <trkpt lat="48.374055" lon="-4.633489"><ele>52.8</ele></trkpt>
    <trkpt lat="48.373652" lon="-4.633607"><ele>53.4</ele></trkpt>
    <trkpt lat="48.373223" lon="-4.633820"><ele>53.4</ele></trkpt>
    <trkpt lat="48.372877" lon="-4.633940"><ele>53.4</ele></trkpt>
    <trkpt lat="48.371779" lon="-4.633961"><ele>54.6</ele></trkpt>
    <trkpt lat="48.371664" lon="-4.633914"><ele>55.0</ele></trkpt>
    <trkpt lat="48.371626" lon="-4.633827"><ele>55.4</ele></trkpt>
    <trkpt lat="48.371796" lon="-4.632947"><ele>56.6</ele></trkpt>
    <trkpt lat="48.371772" lon="-4.632781"><ele>56.8</ele></trkpt>
    <trkpt lat="48.370915" lon="-4.632483"><ele>58.2</ele></trkpt>
    <trkpt lat="48.370306" lon="-4.632174"><ele>59.8</ele></trkpt>
    <trkpt lat="48.370099" lon="-4.632124"><ele>60.0</ele></trkpt>
    <trkpt lat="48.369992" lon="-4.632039"><ele>60.2</ele></trkpt>
    <trkpt lat="48.369732" lon="-4.631693"><ele>60.8</ele></trkpt>
    <trkpt lat="48.369663" lon="-4.631663"><ele>60.8</ele></trkpt>
    <trkpt lat="48.369495" lon="-4.631877"><ele>61.6</ele></trkpt>
    <trkpt lat="48.369395" lon="-4.632236"><ele>62.2</ele></trkpt>
    <trkpt lat="48.369285" lon="-4.632386"><ele>61.8</ele></trkpt>
    <trkpt lat="48.369250" lon="-4.632492"><ele>61.6</ele></trkpt>
    <trkpt lat="48.368787" lon="-4.634879"><ele>63.2</ele></trkpt>
    <trkpt lat="48.368023" lon="-4.634777"><ele>64.6</ele></trkpt>
    <trkpt lat="48.367501" lon="-4.634535"><ele>63.8</ele></trkpt>
    <trkpt lat="48.367342" lon="-4.634419"><ele>63.4</ele></trkpt>
    <trkpt lat="48.367142" lon="-4.634070"><ele>63.0</ele></trkpt>
    <trkpt lat="48.367056" lon="-4.633983"><ele>63.0</ele></trkpt>
    <trkpt lat="48.366928" lon="-4.633934"><ele>62.8</ele></trkpt>
    <trkpt lat="48.366654" lon="-4.633935"><ele>62.8</ele></trkpt>
    <trkpt lat="48.365901" lon="-4.633604"><ele>61.6</ele></trkpt>
    <trkpt lat="48.365403" lon="-4.633116"><ele>60.6</ele></trkpt>
    <trkpt lat="48.364918" lon="-4.632931"><ele>60.0</ele></trkpt>
    <trkpt lat="48.364862" lon="-4.632735"><ele>60.8</ele></trkpt>
    <trkpt lat="48.364471" lon="-4.632384"><ele>63.0</ele></trkpt>
    <trkpt lat="48.364387" lon="-4.632092"><ele>63.6</ele></trkpt>
    <trkpt lat="48.364268" lon="-4.631183"><ele>65.2</ele></trkpt>
    <trkpt lat="48.364245" lon="-4.630346"><ele>65.6</ele></trkpt>
    <trkpt lat="48.364346" lon="-4.629848"><ele>66.6</ele></trkpt>
    <trkpt lat="48.364302" lon="-4.629732"><ele>67.0</ele></trkpt>
    <trkpt lat="48.363621" lon="-4.629536"><ele>69.6</ele></trkpt>
    <trkpt lat="48.363323" lon="-4.629385"><ele>70.0</ele></trkpt>
    <trkpt lat="48.363072" lon="-4.629149"><ele>70.6</ele></trkpt>
    <trkpt lat="48.362935" lon="-4.629255"><ele>70.6</ele></trkpt>
    <trkpt lat="48.362719" lon="-4.629694"><ele>69.6</ele></trkpt>
    <trkpt lat="48.362555" lon="-4.629769"><ele>69.8</ele></trkpt>
    <trkpt lat="48.362362" lon="-4.629711"><ele>70.4</ele></trkpt>
    <trkpt lat="48.361872" lon="-4.629268"><ele>72.4</ele></trkpt>
    <trkpt lat="48.361716" lon="-4.629231"><ele>72.8</ele></trkpt>
    <trkpt lat="48.361360" lon="-4.629241"><ele>74.0</ele></trkpt>
    <trkpt lat="48.360994" lon="-4.628538"><ele>76.2</ele></trkpt>
    <trkpt lat="48.360031" lon="-4.627658"><ele>79.6</ele></trkpt>
    <trkpt lat="48.359002" lon="-4.626788"><ele>82.8</ele></trkpt>
    <trkpt lat="48.358962" lon="-4.626677"><ele>82.4</ele></trkpt>
    <trkpt lat="48.359031" lon="-4.625745"><ele>83.2</ele></trkpt>
    <trkpt lat="48.359065" lon="-4.625422"><ele>83.0</ele></trkpt>
    <trkpt lat="48.359152" lon="-4.625025"><ele>83.4</ele></trkpt>
    <trkpt lat="48.359076" lon="-4.624839"><ele>83.6</ele></trkpt>
    <trkpt lat="48.358627" lon="-4.624563"><ele>83.8</ele></trkpt>
    <trkpt lat="48.358324" lon="-4.624161"><ele>83.4</ele></trkpt>
    <trkpt lat="48.358245" lon="-4.623979"><ele>83.2</ele></trkpt>
    <trkpt lat="48.358279" lon="-4.623547"><ele>83.4</ele></trkpt>
    <trkpt lat="48.358243" lon="-4.623428"><ele>83.4</ele></trkpt>
    <trkpt lat="48.357259" lon="-4.623086"><ele>79.6</ele></trkpt>
    <trkpt lat="48.356492" lon="-4.622970"><ele>75.8</ele></trkpt>
    <trkpt lat="48.356377" lon="-4.622992"><ele>75.8</ele></trkpt>
    <trkpt lat="48.356324" lon="-4.623052"><ele>75.6</ele></trkpt>
    <trkpt lat="48.356144" lon="-4.623438"><ele>74.2</ele></trkpt>
    <trkpt lat="48.356050" lon="-4.623868"><ele>73.2</ele></trkpt>
    <trkpt lat="48.355743" lon="-4.624454"><ele>72.2</ele></trkpt>
    <trkpt lat="48.355771" lon="-4.624530"><ele>72.0</ele></trkpt>
    <trkpt lat="48.356217" lon="-4.625088"><ele>73.6</ele></trkpt>
    <trkpt lat="48.356262" lon="-4.625196"><ele>73.6</ele></trkpt>
    <trkpt lat="48.356264" lon="-4.626102"><ele>75.2</ele></trkpt>
    <trkpt lat="48.356307" lon="-4.626187"><ele>75.6</ele></trkpt>
    <trkpt lat="48.356484" lon="-4.626328"><ele>76.2</ele></trkpt>
    <trkpt lat="48.356519" lon="-4.626447"><ele>76.2</ele></trkpt>
    <trkpt lat="48.356379" lon="-4.627555"><ele>73.8</ele></trkpt>
    <trkpt lat="48.356421" lon="-4.627685"><ele>73.6</ele></trkpt>
    <trkpt lat="48.356578" lon="-4.627861"><ele>73.2</ele></trkpt>
    <trkpt lat="48.356628" lon="-4.627967"><ele>73.0</ele></trkpt>
    <trkpt lat="48.356692" lon="-4.628390"><ele>72.6</ele></trkpt>
    <trkpt lat="48.356697" lon="-4.628619"><ele>72.8</ele></trkpt>
    <trkpt lat="48.356623" lon="-4.629145"><ele>72.4</ele></trkpt>
    <trkpt lat="48.356556" lon="-4.629216"><ele>71.8</ele></trkpt>
    <trkpt lat="48.356459" lon="-4.629172"><ele>71.2</ele></trkpt>
    <trkpt lat="48.356305" lon="-4.628814"><ele>69.6</ele></trkpt>
    <trkpt lat="48.356081" lon="-4.628621"><ele>69.6</ele></trkpt>
    <trkpt lat="48.356088" lon="-4.628710"><ele>69.2</ele></trkpt>
    <trkpt lat="48.356131" lon="-4.628775"><ele>69.2</ele></trkpt>
    <trkpt lat="48.356310" lon="-4.628921"><ele>69.6</ele></trkpt>
    <trkpt lat="48.356473" lon="-4.629213"><ele>71.2</ele></trkpt>
    <trkpt lat="48.356589" lon="-4.629308"><ele>72.4</ele></trkpt>
    <trkpt lat="48.356607" lon="-4.629364"><ele>72.6</ele></trkpt>
    <trkpt lat="48.356564" lon="-4.629979"><ele>72.2</ele></trkpt>
    <trkpt lat="48.356506" lon="-4.630160"><ele>72.0</ele></trkpt>
    <trkpt lat="48.356447" lon="-4.630552"><ele>72.0</ele></trkpt>
    <trkpt lat="48.356343" lon="-4.630836"><ele>71.4</ele></trkpt>
    <trkpt lat="48.356298" lon="-4.631288"><ele>71.4</ele></trkpt>
    <trkpt lat="48.356350" lon="-4.631803"><ele>72.6</ele></trkpt>
    <trkpt lat="48.356346" lon="-4.632023"><ele>73.2</ele></trkpt>
    <trkpt lat="48.356156" lon="-4.632990"><ele>72.2</ele></trkpt>
    <trkpt lat="48.356157" lon="-4.633063"><ele>72.0</ele></trkpt>
    <trkpt lat="48.356282" lon="-4.633255"><ele>72.0</ele></trkpt>
    <trkpt lat="48.356294" lon="-4.633350"><ele>72.0</ele></trkpt>
    <trkpt lat="48.355817" lon="-4.635015"><ele>69.0</ele></trkpt>
    <trkpt lat="48.355762" lon="-4.635505"><ele>69.8</ele></trkpt>
    <trkpt lat="48.355795" lon="-4.635749"><ele>70.2</ele></trkpt>
    <trkpt lat="48.355781" lon="-4.635991"><ele>70.2</ele></trkpt>
    <trkpt lat="48.355739" lon="-4.636409"><ele>70.0</ele></trkpt>
    <trkpt lat="48.355697" lon="-4.636566"><ele>70.4</ele></trkpt>
    <trkpt lat="48.355760" lon="-4.636727"><ele>71.0</ele></trkpt>
    <trkpt lat="48.356020" lon="-4.637823"><ele>73.8</ele></trkpt>
    <trkpt lat="48.356015" lon="-4.638289"><ele>74.8</ele></trkpt>
    <trkpt lat="48.356083" lon="-4.638603"><ele>75.4</ele></trkpt>
    <trkpt lat="48.356000" lon="-4.638887"><ele>76.0</ele></trkpt>
    <trkpt lat="48.355998" lon="-4.638989"><ele>76.2</ele></trkpt>
    <trkpt lat="48.356058" lon="-4.639063"><ele>76.4</ele></trkpt>
    <trkpt lat="48.356738" lon="-4.639518"><ele>76.6</ele></trkpt>
    <trkpt lat="48.356814" lon="-4.639657"><ele>76.6</ele></trkpt>
    <trkpt lat="48.356525" lon="-4.640791"><ele>78.8</ele></trkpt>
    <trkpt lat="48.356533" lon="-4.641131"><ele>79.4</ele></trkpt>
    <trkpt lat="48.356490" lon="-4.641507"><ele>80.0</ele></trkpt>
    <trkpt lat="48.356202" lon="-4.642331"><ele>81.6</ele></trkpt>
    <trkpt lat="48.356183" lon="-4.642523"><ele>81.4</ele></trkpt>
    <trkpt lat="48.356274" lon="-4.643194"><ele>81.0</ele></trkpt>
    <trkpt lat="48.356375" lon="-4.643467"><ele>80.4</ele></trkpt>
    <trkpt lat="48.356695" lon="-4.644091"><ele>79.8</ele></trkpt>
    <trkpt lat="48.356727" lon="-4.644229"><ele>79.8</ele></trkpt>
    <trkpt lat="48.356720" lon="-4.644341"><ele>80.0</ele></trkpt>
    <trkpt lat="48.356674" lon="-4.644433"><ele>80.0</ele></trkpt>
    <trkpt lat="48.356447" lon="-4.644632"><ele>80.4</ele></trkpt>
    <trkpt lat="48.355931" lon="-4.645257"><ele>80.4</ele></trkpt>
    <trkpt lat="48.354482" lon="-4.645973"><ele>75.4</ele></trkpt>
    <trkpt lat="48.354247" lon="-4.645913"><ele>75.0</ele></trkpt>
    <trkpt lat="48.353543" lon="-4.645511"><ele>74.6</ele></trkpt>
    <trkpt lat="48.352854" lon="-4.645280"><ele>75.4</ele></trkpt>
    <trkpt lat="48.352389" lon="-4.645244"><ele>76.2</ele></trkpt>
    <trkpt lat="48.352041" lon="-4.645361"><ele>75.6</ele></trkpt>
    <trkpt lat="48.351755" lon="-4.645551"><ele>75.4</ele></trkpt>
    <trkpt lat="48.351438" lon="-4.645865"><ele>74.8</ele></trkpt>
    <trkpt lat="48.350929" lon="-4.646697"><ele>71.0</ele></trkpt>
    <trkpt lat="48.350896" lon="-4.646804"><ele>70.6</ele></trkpt>
    <trkpt lat="48.351108" lon="-4.647360"><ele>68.2</ele></trkpt>
    <trkpt lat="48.351172" lon="-4.647699"><ele>66.6</ele></trkpt>
    <trkpt lat="48.351404" lon="-4.648408"><ele>64.0</ele></trkpt>
    <trkpt lat="48.351436" lon="-4.648671"><ele>62.8</ele></trkpt>
    <trkpt lat="48.351392" lon="-4.649083"><ele>61.2</ele></trkpt>
    <trkpt lat="48.351696" lon="-4.650100"><ele>56.8</ele></trkpt>
    <trkpt lat="48.351717" lon="-4.650383"><ele>56.6</ele></trkpt>
    <trkpt lat="48.351698" lon="-4.650477"><ele>56.6</ele></trkpt>
    <trkpt lat="48.351313" lon="-4.650922"><ele>55.2</ele></trkpt>
    <trkpt lat="48.351187" lon="-4.651232"><ele>54.2</ele></trkpt>
    <trkpt lat="48.351164" lon="-4.651390"><ele>54.0</ele></trkpt>
    <trkpt lat="48.351183" lon="-4.651559"><ele>53.8</ele></trkpt>
    <trkpt lat="48.351381" lon="-4.652165"><ele>55.4</ele></trkpt>
    <trkpt lat="48.351455" lon="-4.652504"><ele>55.6</ele></trkpt>
    <trkpt lat="48.351631" lon="-4.653797"><ele>54.0</ele></trkpt>
    <trkpt lat="48.351885" lon="-4.654786"><ele>50.0</ele></trkpt>
    <trkpt lat="48.352017" lon="-4.655104"><ele>49.8</ele></trkpt>
    <trkpt lat="48.352194" lon="-4.655691"><ele>49.8</ele></trkpt>
    <trkpt lat="48.352458" lon="-4.656992"><ele>50.4</ele></trkpt>
    <trkpt lat="48.352751" lon="-4.658678"><ele>48.2</ele></trkpt>
    <trkpt lat="48.353010" lon="-4.659712"><ele>47.0</ele></trkpt>
    <trkpt lat="48.353261" lon="-4.660378"><ele>45.6</ele></trkpt>
    <trkpt lat="48.353627" lon="-4.660974"><ele>43.8</ele></trkpt>
    <trkpt lat="48.353842" lon="-4.661249"><ele>43.0</ele></trkpt>
    <trkpt lat="48.354296" lon="-4.661648"><ele>41.8</ele></trkpt>
    <trkpt lat="48.354523" lon="-4.662082"><ele>42.8</ele></trkpt>
    <trkpt lat="48.354513" lon="-4.662720"><ele>42.6</ele></trkpt>
    <trkpt lat="48.354565" lon="-4.663173"><ele>43.2</ele></trkpt>
    <trkpt lat="48.354795" lon="-4.664144"><ele>44.6</ele></trkpt>
    <trkpt lat="48.354947" lon="-4.664297"><ele>45.0</ele></trkpt>
    <trkpt lat="48.354982" lon="-4.664397"><ele>45.2</ele></trkpt>
    <trkpt lat="48.355041" lon="-4.664908"><ele>45.2</ele></trkpt>
    <trkpt lat="48.355084" lon="-4.666172"><ele>47.9</ele></trkpt>
    <trkpt lat="48.355192" lon="-4.666172"><ele>45.0</ele></trkpt>
    <trkpt lat="48.355516" lon="-4.665847"><ele>47.2</ele></trkpt>
    <trkpt lat="48.356701" lon="-4.665685"><ele>52.6</ele></trkpt>
    <trkpt lat="48.356917" lon="-4.665198"><ele>54.2</ele></trkpt>
    <trkpt lat="48.357025" lon="-4.664711"><ele>55.6</ele></trkpt>
    <trkpt lat="48.357019" lon="-4.664788"><ele>55.6</ele></trkpt>
    <trkpt lat="48.357045" lon="-4.664745"><ele>55.6</ele></trkpt>
    <trkpt lat="48.357275" lon="-4.664668"><ele>56.0</ele></trkpt>
    <trkpt lat="48.357718" lon="-4.664371"><ele>56.4</ele></trkpt>
    <trkpt lat="48.357869" lon="-4.664350"><ele>56.4</ele></trkpt>
    <trkpt lat="48.358090" lon="-4.664412"><ele>56.4</ele></trkpt>
    <trkpt lat="48.358988" lon="-4.663971"><ele>57.8</ele></trkpt>
    <trkpt lat="48.360109" lon="-4.662234"><ele>66.4</ele></trkpt>
    <trkpt lat="48.360175" lon="-4.662008"><ele>67.6</ele></trkpt>
    <trkpt lat="48.360107" lon="-4.661687"><ele>69.0</ele></trkpt>
    <trkpt lat="48.360215" lon="-4.661490"><ele>68.0</ele></trkpt>
    <trkpt lat="48.360611" lon="-4.660944"><ele>69.4</ele></trkpt>
    <trkpt lat="48.360841" lon="-4.660734"><ele>70.0</ele></trkpt>
    <trkpt lat="48.361128" lon="-4.660552"><ele>70.8</ele></trkpt>
    <trkpt lat="48.361547" lon="-4.660114"><ele>72.0</ele></trkpt>
    <trkpt lat="48.361556" lon="-4.659945"><ele>72.4</ele></trkpt>
    <trkpt lat="48.361302" lon="-4.659253"><ele>72.8</ele></trkpt>
    <trkpt lat="48.361036" lon="-4.658657"><ele>72.4</ele></trkpt>
    <trkpt lat="48.360665" lon="-4.657997"><ele>72.8</ele></trkpt>
    <trkpt lat="48.360598" lon="-4.657818"><ele>72.6</ele></trkpt>
    <trkpt lat="48.360539" lon="-4.657327"><ele>71.6</ele></trkpt>
    <trkpt lat="48.360544" lon="-4.656105"><ele>71.8</ele></trkpt>
    <trkpt lat="48.360603" lon="-4.655982"><ele>71.8</ele></trkpt>
    <trkpt lat="48.360829" lon="-4.655730"><ele>72.0</ele></trkpt>
    <trkpt lat="48.360949" lon="-4.655517"><ele>72.6</ele></trkpt>
    <trkpt lat="48.361252" lon="-4.654842"><ele>74.4</ele></trkpt>
    <trkpt lat="48.361414" lon="-4.654202"><ele>75.0</ele></trkpt>
    <trkpt lat="48.361585" lon="-4.653798"><ele>75.6</ele></trkpt>
    <trkpt lat="48.361795" lon="-4.653431"><ele>76.0</ele></trkpt>
    <trkpt lat="48.361904" lon="-4.653059"><ele>76.6</ele></trkpt>
    <trkpt lat="48.362209" lon="-4.652696"><ele>76.6</ele></trkpt>
    <trkpt lat="48.362473" lon="-4.652111"><ele>75.8</ele></trkpt>
    <trkpt lat="48.362922" lon="-4.650330"><ele>75.0</ele></trkpt>
    <trkpt lat="48.363225" lon="-4.649384"><ele>74.4</ele></trkpt>
    <trkpt lat="48.363692" lon="-4.648401"><ele>72.4</ele></trkpt>
    <trkpt lat="48.364057" lon="-4.647108"><ele>72.2</ele></trkpt>
    <trkpt lat="48.364582" lon="-4.645727"><ele>71.0</ele></trkpt>
    <trkpt lat="48.364989" lon="-4.644442"><ele>69.2</ele></trkpt>
    <trkpt lat="48.365351" lon="-4.643788"><ele>69.4</ele></trkpt>
    <trkpt lat="48.365533" lon="-4.643372"><ele>68.6</ele></trkpt>
    <trkpt lat="48.365688" lon="-4.642824"><ele>68.0</ele></trkpt>
    <trkpt lat="48.365777" lon="-4.642103"><ele>66.8</ele></trkpt>
    <trkpt lat="48.366007" lon="-4.642188"><ele>67.4</ele></trkpt>
    <trkpt lat="48.366195" lon="-4.642360"><ele>67.6</ele></trkpt>
    <trkpt lat="48.366473" lon="-4.642340"><ele>67.8</ele></trkpt>
    <trkpt lat="48.367330" lon="-4.642591"><ele>69.4</ele></trkpt>
    <trkpt lat="48.368239" lon="-4.642922"><ele>68.4</ele></trkpt>
    <trkpt lat="48.369531" lon="-4.642951"><ele>61.2</ele></trkpt>
    <trkpt lat="48.369654" lon="-4.642659"><ele>61.0</ele></trkpt>
    <trkpt lat="48.369740" lon="-4.642157"><ele>60.8</ele></trkpt>
    <trkpt lat="48.370174" lon="-4.640635"><ele>62.0</ele></trkpt>
  </trkseg></trk>
</gpx>
