<?xml version="1.0" encoding="UTF-8"?>
<gpx version="1.1" creator="tcap-parcours" xmlns="http://www.topografix.com/GPX/1/1">
  <metadata><name>Lesconvel – Portez – Trez-Hir – Boucle 19 km</name></metadata>
  <trk><name>Lesconvel – Portez – Trez-Hir – Boucle 19 km</name><trkseg>
    <trkpt lat="48.370245" lon="-4.640380"><ele>60.4</ele></trkpt>
    <trkpt lat="48.370257" lon="-4.640215"><ele>60.2</ele></trkpt>
    <trkpt lat="48.370288" lon="-4.640156"><ele>60.2</ele></trkpt>
    <trkpt lat="48.370740" lon="-4.640039"><ele>59.0</ele></trkpt>
    <trkpt lat="48.370787" lon="-4.640055"><ele>59.0</ele></trkpt>
    <trkpt lat="48.370949" lon="-4.640260"><ele>58.4</ele></trkpt>
    <trkpt lat="48.371174" lon="-4.640426"><ele>58.2</ele></trkpt>
    <trkpt lat="48.371526" lon="-4.640587"><ele>57.6</ele></trkpt>
    <trkpt lat="48.371763" lon="-4.640548"><ele>57.0</ele></trkpt>
    <trkpt lat="48.372553" lon="-4.640615"><ele>54.0</ele></trkpt>
    <trkpt lat="48.372635" lon="-4.640536"><ele>54.0</ele></trkpt>
    <trkpt lat="48.372937" lon="-4.639912"><ele>53.4</ele></trkpt>
    <trkpt lat="48.372985" lon="-4.639861"><ele>53.2</ele></trkpt>
    <trkpt lat="48.373142" lon="-4.639840"><ele>52.2</ele></trkpt>
    <trkpt lat="48.373228" lon="-4.639553"><ele>51.2</ele></trkpt>
    <trkpt lat="48.373296" lon="-4.639501"><ele>51.0</ele></trkpt>
    <trkpt lat="48.374365" lon="-4.640068"><ele>50.0</ele></trkpt>
    <trkpt lat="48.374490" lon="-4.640080"><ele>50.0</ele></trkpt>
    <trkpt lat="48.374584" lon="-4.640012"><ele>50.0</ele></trkpt>
    <trkpt lat="48.374793" lon="-4.639649"><ele>49.6</ele></trkpt>
    <trkpt lat="48.375279" lon="-4.639073"><ele>49.2</ele></trkpt>
    <trkpt lat="48.375703" lon="-4.638424"><ele>49.2</ele></trkpt>
    <trkpt lat="48.375697" lon="-4.638245"><ele>49.2</ele></trkpt>
    <trkpt lat="48.375632" lon="-4.638145"><ele>49.6</ele></trkpt>
    <trkpt lat="48.375234" lon="-4.638050"><ele>49.8</ele></trkpt>
    <trkpt lat="48.375180" lon="-4.638000"><ele>49.8</ele></trkpt>
    <trkpt lat="48.375171" lon="-4.637937"><ele>49.8</ele></trkpt>
    <trkpt lat="48.375367" lon="-4.636460"><ele>48.4</ele></trkpt>
    <trkpt lat="48.375530" lon="-4.635541"><ele>49.8</ele></trkpt>
    <trkpt lat="48.375658" lon="-4.635106"><ele>50.2</ele></trkpt>
    <trkpt lat="48.375658" lon="-4.635000"><ele>50.2</ele></trkpt>
    <trkpt lat="48.375591" lon="-4.634799"><ele>50.2</ele></trkpt>
    <trkpt lat="48.376120" lon="-4.633551"><ele>51.0</ele></trkpt>
    <trkpt lat="48.376137" lon="-4.633389"><ele>51.0</ele></trkpt>
    <trkpt lat="48.376043" lon="-4.633329"><ele>51.2</ele></trkpt>
    <trkpt lat="48.375483" lon="-4.633331"><ele>52.2</ele></trkpt>
    <trkpt lat="48.374055" lon="-4.633489"><ele>52.8</ele></trkpt>
    <trkpt lat="48.373652" lon="-4.633607"><ele>53.4</ele></trkpt>
    <trkpt lat="48.373223" lon="-4.633820"><ele>53.4</ele></trkpt>
    <trkpt lat="48.372877" lon="-4.633940"><ele>53.4</ele></trkpt>
    <trkpt lat="48.371779" lon="-4.633961"><ele>54.6</ele></trkpt>
    <trkpt lat="48.371664" lon="-4.633914"><ele>55.0</ele></trkpt>
    <trkpt lat="48.371626" lon="-4.633827"><ele>55.4</ele></trkpt>
    <trkpt lat="48.371796" lon="-4.632947"><ele>56.6</ele></trkpt>
    <trkpt lat="48.371772" lon="-4.632781"><ele>56.8</ele></trkpt>
    <trkpt lat="48.370915" lon="-4.632483"><ele>58.2</ele></trkpt>
    <trkpt lat="48.370306" lon="-4.632174"><ele>59.8</ele></trkpt>
    <trkpt lat="48.370099" lon="-4.632124"><ele>60.0</ele></trkpt>
    <trkpt lat="48.369992" lon="-4.632039"><ele>60.2</ele></trkpt>
    <trkpt lat="48.369732" lon="-4.631693"><ele>60.8</ele></trkpt>
    <trkpt lat="48.369663" lon="-4.631663"><ele>60.8</ele></trkpt>
    <trkpt lat="48.369495" lon="-4.631877"><ele>61.6</ele></trkpt>
    <trkpt lat="48.369395" lon="-4.632236"><ele>62.2</ele></trkpt>
    <trkpt lat="48.369285" lon="-4.632386"><ele>61.8</ele></trkpt>
    <trkpt lat="48.369250" lon="-4.632492"><ele>61.6</ele></trkpt>
    <trkpt lat="48.368787" lon="-4.634879"><ele>63.2</ele></trkpt>
    <trkpt lat="48.368023" lon="-4.634777"><ele>64.6</ele></trkpt>
    <trkpt lat="48.367501" lon="-4.634535"><ele>63.8</ele></trkpt>
    <trkpt lat="48.367342" lon="-4.634419"><ele>63.4</ele></trkpt>
    <trkpt lat="48.367142" lon="-4.634070"><ele>63.0</ele></trkpt>
    <trkpt lat="48.367056" lon="-4.633983"><ele>63.0</ele></trkpt>
    <trkpt lat="48.366928" lon="-4.633934"><ele>62.8</ele></trkpt>
    <trkpt lat="48.366654" lon="-4.633935"><ele>62.8</ele></trkpt>
    <trkpt lat="48.365901" lon="-4.633604"><ele>61.6</ele></trkpt>
    <trkpt lat="48.365403" lon="-4.633116"><ele>60.6</ele></trkpt>
    <trkpt lat="48.364918" lon="-4.632931"><ele>60.0</ele></trkpt>
    <trkpt lat="48.364862" lon="-4.632735"><ele>60.8</ele></trkpt>
    <trkpt lat="48.364471" lon="-4.632384"><ele>63.0</ele></trkpt>
    <trkpt lat="48.364387" lon="-4.632092"><ele>63.6</ele></trkpt>
    <trkpt lat="48.364268" lon="-4.631183"><ele>65.2</ele></trkpt>
    <trkpt lat="48.364245" lon="-4.630346"><ele>65.6</ele></trkpt>
    <trkpt lat="48.364346" lon="-4.629848"><ele>66.6</ele></trkpt>
    <trkpt lat="48.364302" lon="-4.629732"><ele>67.0</ele></trkpt>
    <trkpt lat="48.363621" lon="-4.629536"><ele>69.6</ele></trkpt>
    <trkpt lat="48.363323" lon="-4.629385"><ele>70.0</ele></trkpt>
    <trkpt lat="48.363072" lon="-4.629149"><ele>70.6</ele></trkpt>
    <trkpt lat="48.362935" lon="-4.629255"><ele>70.6</ele></trkpt>
    <trkpt lat="48.362719" lon="-4.629694"><ele>69.6</ele></trkpt>
    <trkpt lat="48.362555" lon="-4.629769"><ele>69.8</ele></trkpt>
    <trkpt lat="48.362362" lon="-4.629711"><ele>70.4</ele></trkpt>
    <trkpt lat="48.361872" lon="-4.629268"><ele>72.4</ele></trkpt>
    <trkpt lat="48.361716" lon="-4.629231"><ele>72.8</ele></trkpt>
    <trkpt lat="48.361360" lon="-4.629241"><ele>74.0</ele></trkpt>
    <trkpt lat="48.360994" lon="-4.628538"><ele>76.2</ele></trkpt>
    <trkpt lat="48.360031" lon="-4.627658"><ele>79.6</ele></trkpt>
    <trkpt lat="48.359002" lon="-4.626788"><ele>82.8</ele></trkpt>
    <trkpt lat="48.358962" lon="-4.626677"><ele>82.4</ele></trkpt>
    <trkpt lat="48.359031" lon="-4.625745"><ele>83.2</ele></trkpt>
    <trkpt lat="48.359065" lon="-4.625422"><ele>83.0</ele></trkpt>
    <trkpt lat="48.359152" lon="-4.625025"><ele>83.4</ele></trkpt>
    <trkpt lat="48.359076" lon="-4.624839"><ele>83.6</ele></trkpt>
    <trkpt lat="48.358627" lon="-4.624563"><ele>83.8</ele></trkpt>
    <trkpt lat="48.358324" lon="-4.624161"><ele>83.4</ele></trkpt>
    <trkpt lat="48.358245" lon="-4.623979"><ele>83.2</ele></trkpt>
    <trkpt lat="48.358279" lon="-4.623547"><ele>83.4</ele></trkpt>
    <trkpt lat="48.358243" lon="-4.623428"><ele>83.4</ele></trkpt>
    <trkpt lat="48.357259" lon="-4.623086"><ele>79.6</ele></trkpt>
    <trkpt lat="48.356492" lon="-4.622970"><ele>75.8</ele></trkpt>
    <trkpt lat="48.356377" lon="-4.622992"><ele>75.8</ele></trkpt>
    <trkpt lat="48.356324" lon="-4.623052"><ele>75.6</ele></trkpt>
    <trkpt lat="48.356144" lon="-4.623438"><ele>74.2</ele></trkpt>
    <trkpt lat="48.356050" lon="-4.623868"><ele>73.2</ele></trkpt>
    <trkpt lat="48.355765" lon="-4.624369"><ele>72.2</ele></trkpt>
    <trkpt lat="48.355743" lon="-4.624454"><ele>72.2</ele></trkpt>
    <trkpt lat="48.355771" lon="-4.624530"><ele>72.0</ele></trkpt>
    <trkpt lat="48.356217" lon="-4.625088"><ele>73.6</ele></trkpt>
    <trkpt lat="48.356262" lon="-4.625196"><ele>73.6</ele></trkpt>
    <trkpt lat="48.356264" lon="-4.626102"><ele>75.2</ele></trkpt>
    <trkpt lat="48.356307" lon="-4.626187"><ele>75.6</ele></trkpt>
    <trkpt lat="48.356484" lon="-4.626328"><ele>76.2</ele></trkpt>
    <trkpt lat="48.356519" lon="-4.626447"><ele>76.2</ele></trkpt>
    <trkpt lat="48.356379" lon="-4.627555"><ele>73.8</ele></trkpt>
    <trkpt lat="48.356421" lon="-4.627685"><ele>73.6</ele></trkpt>
    <trkpt lat="48.356578" lon="-4.627861"><ele>73.2</ele></trkpt>
    <trkpt lat="48.356628" lon="-4.627967"><ele>73.0</ele></trkpt>
    <trkpt lat="48.356692" lon="-4.628390"><ele>72.6</ele></trkpt>
    <trkpt lat="48.356697" lon="-4.628619"><ele>72.8</ele></trkpt>
    <trkpt lat="48.356623" lon="-4.629145"><ele>72.4</ele></trkpt>
    <trkpt lat="48.356556" lon="-4.629216"><ele>71.8</ele></trkpt>
    <trkpt lat="48.356459" lon="-4.629172"><ele>71.2</ele></trkpt>
    <trkpt lat="48.356305" lon="-4.628814"><ele>69.6</ele></trkpt>
    <trkpt lat="48.356081" lon="-4.628621"><ele>69.6</ele></trkpt>
    <trkpt lat="48.356088" lon="-4.628710"><ele>69.2</ele></trkpt>
    <trkpt lat="48.356131" lon="-4.628775"><ele>69.2</ele></trkpt>
    <trkpt lat="48.356310" lon="-4.628921"><ele>69.6</ele></trkpt>
    <trkpt lat="48.356473" lon="-4.629213"><ele>71.2</ele></trkpt>
    <trkpt lat="48.356589" lon="-4.629308"><ele>72.4</ele></trkpt>
    <trkpt lat="48.356607" lon="-4.629364"><ele>72.6</ele></trkpt>
    <trkpt lat="48.356564" lon="-4.629979"><ele>72.2</ele></trkpt>
    <trkpt lat="48.356506" lon="-4.630160"><ele>72.0</ele></trkpt>
    <trkpt lat="48.356447" lon="-4.630552"><ele>72.0</ele></trkpt>
    <trkpt lat="48.356343" lon="-4.630836"><ele>71.4</ele></trkpt>
    <trkpt lat="48.356298" lon="-4.631288"><ele>71.4</ele></trkpt>
    <trkpt lat="48.356350" lon="-4.631803"><ele>72.6</ele></trkpt>
    <trkpt lat="48.356346" lon="-4.632023"><ele>73.2</ele></trkpt>
    <trkpt lat="48.356156" lon="-4.632990"><ele>72.2</ele></trkpt>
    <trkpt lat="48.356157" lon="-4.633063"><ele>72.0</ele></trkpt>
    <trkpt lat="48.356282" lon="-4.633255"><ele>72.0</ele></trkpt>
    <trkpt lat="48.356294" lon="-4.633350"><ele>72.0</ele></trkpt>
    <trkpt lat="48.355817" lon="-4.635015"><ele>69.0</ele></trkpt>
    <trkpt lat="48.355762" lon="-4.635505"><ele>69.8</ele></trkpt>
    <trkpt lat="48.355795" lon="-4.635749"><ele>70.2</ele></trkpt>
    <trkpt lat="48.355781" lon="-4.635991"><ele>70.2</ele></trkpt>
    <trkpt lat="48.355739" lon="-4.636409"><ele>70.0</ele></trkpt>
    <trkpt lat="48.355697" lon="-4.636566"><ele>70.4</ele></trkpt>
    <trkpt lat="48.355760" lon="-4.636727"><ele>71.0</ele></trkpt>
    <trkpt lat="48.356020" lon="-4.637823"><ele>73.8</ele></trkpt>
    <trkpt lat="48.356015" lon="-4.638289"><ele>74.8</ele></trkpt>
    <trkpt lat="48.356083" lon="-4.638603"><ele>75.4</ele></trkpt>
    <trkpt lat="48.356000" lon="-4.638887"><ele>76.0</ele></trkpt>
    <trkpt lat="48.355998" lon="-4.638989"><ele>76.2</ele></trkpt>
    <trkpt lat="48.356058" lon="-4.639063"><ele>76.4</ele></trkpt>
    <trkpt lat="48.356738" lon="-4.639518"><ele>76.6</ele></trkpt>
    <trkpt lat="48.356814" lon="-4.639657"><ele>76.6</ele></trkpt>
    <trkpt lat="48.356525" lon="-4.640791"><ele>78.8</ele></trkpt>
    <trkpt lat="48.356533" lon="-4.641131"><ele>79.4</ele></trkpt>
    <trkpt lat="48.356490" lon="-4.641507"><ele>80.0</ele></trkpt>
    <trkpt lat="48.356202" lon="-4.642331"><ele>81.6</ele></trkpt>
    <trkpt lat="48.356183" lon="-4.642523"><ele>81.4</ele></trkpt>
    <trkpt lat="48.356274" lon="-4.643194"><ele>81.0</ele></trkpt>
    <trkpt lat="48.356375" lon="-4.643467"><ele>80.4</ele></trkpt>
    <trkpt lat="48.356695" lon="-4.644091"><ele>79.8</ele></trkpt>
    <trkpt lat="48.356727" lon="-4.644229"><ele>79.8</ele></trkpt>
    <trkpt lat="48.356720" lon="-4.644341"><ele>80.0</ele></trkpt>
    <trkpt lat="48.356674" lon="-4.644433"><ele>80.0</ele></trkpt>
    <trkpt lat="48.356447" lon="-4.644632"><ele>80.4</ele></trkpt>
    <trkpt lat="48.355931" lon="-4.645257"><ele>80.4</ele></trkpt>
    <trkpt lat="48.354482" lon="-4.645973"><ele>75.4</ele></trkpt>
    <trkpt lat="48.354247" lon="-4.645913"><ele>75.0</ele></trkpt>
    <trkpt lat="48.353543" lon="-4.645511"><ele>74.6</ele></trkpt>
    <trkpt lat="48.352854" lon="-4.645280"><ele>75.4</ele></trkpt>
    <trkpt lat="48.352389" lon="-4.645244"><ele>76.2</ele></trkpt>
    <trkpt lat="48.352041" lon="-4.645361"><ele>75.6</ele></trkpt>
    <trkpt lat="48.351755" lon="-4.645551"><ele>75.4</ele></trkpt>
    <trkpt lat="48.351438" lon="-4.645865"><ele>74.8</ele></trkpt>
    <trkpt lat="48.350929" lon="-4.646697"><ele>71.0</ele></trkpt>
    <trkpt lat="48.350896" lon="-4.646804"><ele>70.6</ele></trkpt>
    <trkpt lat="48.351108" lon="-4.647360"><ele>68.2</ele></trkpt>
    <trkpt lat="48.351172" lon="-4.647699"><ele>66.6</ele></trkpt>
    <trkpt lat="48.351404" lon="-4.648408"><ele>64.0</ele></trkpt>
    <trkpt lat="48.351436" lon="-4.648671"><ele>62.8</ele></trkpt>
    <trkpt lat="48.351392" lon="-4.649083"><ele>61.2</ele></trkpt>
    <trkpt lat="48.351696" lon="-4.650100"><ele>56.8</ele></trkpt>
    <trkpt lat="48.351717" lon="-4.650383"><ele>56.6</ele></trkpt>
    <trkpt lat="48.351698" lon="-4.650477"><ele>56.6</ele></trkpt>
    <trkpt lat="48.351313" lon="-4.650922"><ele>55.2</ele></trkpt>
    <trkpt lat="48.351187" lon="-4.651232"><ele>54.2</ele></trkpt>
    <trkpt lat="48.351164" lon="-4.651390"><ele>54.0</ele></trkpt>
    <trkpt lat="48.351183" lon="-4.651559"><ele>53.8</ele></trkpt>
    <trkpt lat="48.351381" lon="-4.652165"><ele>55.4</ele></trkpt>
    <trkpt lat="48.351455" lon="-4.652504"><ele>55.6</ele></trkpt>
    <trkpt lat="48.351631" lon="-4.653797"><ele>54.0</ele></trkpt>
    <trkpt lat="48.351885" lon="-4.654786"><ele>50.0</ele></trkpt>
    <trkpt lat="48.352017" lon="-4.655104"><ele>49.8</ele></trkpt>
    <trkpt lat="48.352194" lon="-4.655691"><ele>49.8</ele></trkpt>
    <trkpt lat="48.352458" lon="-4.656992"><ele>50.4</ele></trkpt>
    <trkpt lat="48.352751" lon="-4.658678"><ele>48.2</ele></trkpt>
    <trkpt lat="48.353010" lon="-4.659712"><ele>47.0</ele></trkpt>
    <trkpt lat="48.353261" lon="-4.660378"><ele>45.6</ele></trkpt>
    <trkpt lat="48.353627" lon="-4.660974"><ele>43.8</ele></trkpt>
    <trkpt lat="48.353842" lon="-4.661249"><ele>43.0</ele></trkpt>
    <trkpt lat="48.354296" lon="-4.661648"><ele>41.8</ele></trkpt>
    <trkpt lat="48.354523" lon="-4.662082"><ele>42.8</ele></trkpt>
    <trkpt lat="48.354513" lon="-4.662720"><ele>42.6</ele></trkpt>
    <trkpt lat="48.354565" lon="-4.663173"><ele>43.2</ele></trkpt>
    <trkpt lat="48.354795" lon="-4.664144"><ele>44.6</ele></trkpt>
    <trkpt lat="48.354947" lon="-4.664297"><ele>45.0</ele></trkpt>
    <trkpt lat="48.354982" lon="-4.664397"><ele>45.2</ele></trkpt>
    <trkpt lat="48.355041" lon="-4.664908"><ele>45.2</ele></trkpt>
    <trkpt lat="48.355021" lon="-4.665529"><ele>44.4</ele></trkpt>
    <trkpt lat="48.355074" lon="-4.666043"><ele>44.2</ele></trkpt>
    <trkpt lat="48.355144" lon="-4.666348"><ele>44.6</ele></trkpt>
    <trkpt lat="48.355212" lon="-4.666484"><ele>45.0</ele></trkpt>
    <trkpt lat="48.355478" lon="-4.666820"><ele>46.4</ele></trkpt>
    <trkpt lat="48.355748" lon="-4.667433"><ele>47.6</ele></trkpt>
    <trkpt lat="48.355882" lon="-4.667645"><ele>47.6</ele></trkpt>
    <trkpt lat="48.356000" lon="-4.667682"><ele>47.8</ele></trkpt>
    <trkpt lat="48.356255" lon="-4.667539"><ele>47.6</ele></trkpt>
    <trkpt lat="48.356343" lon="-4.667604"><ele>48.4</ele></trkpt>
    <trkpt lat="48.356416" lon="-4.668109"><ele>47.8</ele></trkpt>
    <trkpt lat="48.356480" lon="-4.668286"><ele>47.2</ele></trkpt>
    <trkpt lat="48.356778" lon="-4.668321"><ele>46.4</ele></trkpt>
    <trkpt lat="48.357240" lon="-4.668465"><ele>44.2</ele></trkpt>
    <trkpt lat="48.357453" lon="-4.668344"><ele>43.2</ele></trkpt>
    <trkpt lat="48.357619" lon="-4.668395"><ele>43.2</ele></trkpt>
    <trkpt lat="48.357852" lon="-4.668372"><ele>41.8</ele></trkpt>
    <trkpt lat="48.357919" lon="-4.668404"><ele>40.8</ele></trkpt>
    <trkpt lat="48.357961" lon="-4.668477"><ele>39.6</ele></trkpt>
    <trkpt lat="48.357944" lon="-4.668679"><ele>37.4</ele></trkpt>
    <trkpt lat="48.357895" lon="-4.668813"><ele>36.2</ele></trkpt>
    <trkpt lat="48.357598" lon="-4.669114"><ele>33.2</ele></trkpt>
    <trkpt lat="48.357559" lon="-4.669450"><ele>30.8</ele></trkpt>
    <trkpt lat="48.356898" lon="-4.670186"><ele>29.4</ele></trkpt>
    <trkpt lat="48.356822" lon="-4.670433"><ele>27.8</ele></trkpt>
    <trkpt lat="48.356903" lon="-4.670785"><ele>24.6</ele></trkpt>
    <trkpt lat="48.356872" lon="-4.670939"><ele>23.4</ele></trkpt>
    <trkpt lat="48.356501" lon="-4.671401"><ele>21.8</ele></trkpt>
    <trkpt lat="48.356047" lon="-4.672065"><ele>20.2</ele></trkpt>
    <trkpt lat="48.355989" lon="-4.672250"><ele>19.4</ele></trkpt>
    <trkpt lat="48.355982" lon="-4.672630"><ele>17.8</ele></trkpt>
    <trkpt lat="48.355938" lon="-4.672812"><ele>16.8</ele></trkpt>
    <trkpt lat="48.355793" lon="-4.672956"><ele>16.2</ele></trkpt>
    <trkpt lat="48.355469" lon="-4.673118"><ele>15.2</ele></trkpt>
    <trkpt lat="48.355127" lon="-4.673367"><ele>13.2</ele></trkpt>
    <trkpt lat="48.354767" lon="-4.673791"><ele>10.4</ele></trkpt>
    <trkpt lat="48.354656" lon="-4.673870"><ele>9.8</ele></trkpt>
    <trkpt lat="48.354629" lon="-4.674067"><ele>8.0</ele></trkpt>
    <trkpt lat="48.354658" lon="-4.674853"><ele>7.8</ele></trkpt>
    <trkpt lat="48.354777" lon="-4.675519"><ele>11.4</ele></trkpt>
    <trkpt lat="48.354818" lon="-4.675967"><ele>13.2</ele></trkpt>
    <trkpt lat="48.354872" lon="-4.676224"><ele>14.2</ele></trkpt>
    <trkpt lat="48.355013" lon="-4.676461"><ele>15.6</ele></trkpt>
    <trkpt lat="48.355147" lon="-4.676954"><ele>17.2</ele></trkpt>
    <trkpt lat="48.355170" lon="-4.677428"><ele>17.6</ele></trkpt>
    <trkpt lat="48.355209" lon="-4.677603"><ele>17.6</ele></trkpt>
    <trkpt lat="48.355357" lon="-4.678029"><ele>16.0</ele></trkpt>
    <trkpt lat="48.355537" lon="-4.678258"><ele>13.8</ele></trkpt>
    <trkpt lat="48.355657" lon="-4.678322"><ele>12.2</ele></trkpt>
    <trkpt lat="48.355932" lon="-4.678849"><ele>8.4</ele></trkpt>
    <trkpt lat="48.356005" lon="-4.678907"><ele>8.2</ele></trkpt>
    <trkpt lat="48.356171" lon="-4.678928"><ele>7.8</ele></trkpt>
    <trkpt lat="48.356236" lon="-4.678994"><ele>7.8</ele></trkpt>
    <trkpt lat="48.356302" lon="-4.679443"><ele>8.6</ele></trkpt>
    <trkpt lat="48.356234" lon="-4.679911"><ele>9.0</ele></trkpt>
    <trkpt lat="48.356067" lon="-4.680351"><ele>10.4</ele></trkpt>
    <trkpt lat="48.356040" lon="-4.680639"><ele>12.6</ele></trkpt>
    <trkpt lat="48.356076" lon="-4.680753"><ele>13.8</ele></trkpt>
    <trkpt lat="48.356038" lon="-4.680749"><ele>13.6</ele></trkpt>
    <trkpt lat="48.355922" lon="-4.680933"><ele>13.4</ele></trkpt>
    <trkpt lat="48.355605" lon="-4.681289"><ele>15.2</ele></trkpt>
    <trkpt lat="48.355499" lon="-4.681483"><ele>17.4</ele></trkpt>
    <trkpt lat="48.355356" lon="-4.681627"><ele>19.0</ele></trkpt>
    <trkpt lat="48.355309" lon="-4.681750"><ele>19.8</ele></trkpt>
    <trkpt lat="48.355297" lon="-4.682016"><ele>21.8</ele></trkpt>
    <trkpt lat="48.355262" lon="-4.682081"><ele>22.4</ele></trkpt>
    <trkpt lat="48.354985" lon="-4.682343"><ele>22.8</ele></trkpt>
    <trkpt lat="48.354732" lon="-4.682197"><ele>20.0</ele></trkpt>
    <trkpt lat="48.354621" lon="-4.682204"><ele>19.6</ele></trkpt>
    <trkpt lat="48.354518" lon="-4.682382"><ele>19.4</ele></trkpt>
    <trkpt lat="48.354367" lon="-4.682523"><ele>19.8</ele></trkpt>
    <trkpt lat="48.354390" lon="-4.682738"><ele>20.4</ele></trkpt>
    <trkpt lat="48.354364" lon="-4.682823"><ele>20.2</ele></trkpt>
    <trkpt lat="48.354026" lon="-4.683057"><ele>16.6</ele></trkpt>
    <trkpt lat="48.353980" lon="-4.683162"><ele>16.2</ele></trkpt>
    <trkpt lat="48.353898" lon="-4.683604"><ele>16.6</ele></trkpt>
    <trkpt lat="48.353893" lon="-4.683728"><ele>17.2</ele></trkpt>
    <trkpt lat="48.353940" lon="-4.683986"><ele>18.8</ele></trkpt>
    <trkpt lat="48.353926" lon="-4.684104"><ele>19.4</ele></trkpt>
    <trkpt lat="48.353872" lon="-4.684215"><ele>19.4</ele></trkpt>
    <trkpt lat="48.353738" lon="-4.684343"><ele>19.2</ele></trkpt>
    <trkpt lat="48.353606" lon="-4.684658"><ele>19.2</ele></trkpt>
    <trkpt lat="48.353611" lon="-4.684785"><ele>19.6</ele></trkpt>
    <trkpt lat="48.353718" lon="-4.685096"><ele>22.0</ele></trkpt>
    <trkpt lat="48.353794" lon="-4.685200"><ele>23.4</ele></trkpt>
    <trkpt lat="48.354029" lon="-4.685282"><ele>27.4</ele></trkpt>
    <trkpt lat="48.354545" lon="-4.685206"><ele>31.6</ele></trkpt>
    <trkpt lat="48.354600" lon="-4.685341"><ele>31.4</ele></trkpt>
    <trkpt lat="48.354603" lon="-4.685764"><ele>31.6</ele></trkpt>
    <trkpt lat="48.354534" lon="-4.687203"><ele>25.8</ele></trkpt>
    <trkpt lat="48.354570" lon="-4.687444"><ele>23.8</ele></trkpt>
    <trkpt lat="48.354790" lon="-4.688257"><ele>20.2</ele></trkpt>
    <trkpt lat="48.354743" lon="-4.688893"><ele>17.6</ele></trkpt>
    <trkpt lat="48.354841" lon="-4.689277"><ele>15.4</ele></trkpt>
    <trkpt lat="48.354804" lon="-4.689410"><ele>14.4</ele></trkpt>
    <trkpt lat="48.354655" lon="-4.689603"><ele>12.6</ele></trkpt>
    <trkpt lat="48.354612" lon="-4.689803"><ele>11.2</ele></trkpt>
    <trkpt lat="48.354675" lon="-4.690063"><ele>9.8</ele></trkpt>
    <trkpt lat="48.354840" lon="-4.690373"><ele>8.4</ele></trkpt>
    <trkpt lat="48.354867" lon="-4.691111"><ele>10.8</ele></trkpt>
    <trkpt lat="48.354924" lon="-4.691198"><ele>12.8</ele></trkpt>
    <trkpt lat="48.354524" lon="-4.691632"><ele>18.4</ele></trkpt>
    <trkpt lat="48.354476" lon="-4.691805"><ele>19.0</ele></trkpt>
    <trkpt lat="48.354353" lon="-4.691992"><ele>18.4</ele></trkpt>
    <trkpt lat="48.353959" lon="-4.692193"><ele>16.4</ele></trkpt>
    <trkpt lat="48.353853" lon="-4.692333"><ele>16.8</ele></trkpt>
    <trkpt lat="48.353699" lon="-4.692763"><ele>17.8</ele></trkpt>
    <trkpt lat="48.353636" lon="-4.693064"><ele>18.4</ele></trkpt>
    <trkpt lat="48.353599" lon="-4.693554"><ele>18.8</ele></trkpt>
    <trkpt lat="48.353635" lon="-4.694236"><ele>16.6</ele></trkpt>
    <trkpt lat="48.353585" lon="-4.694644"><ele>15.8</ele></trkpt>
    <trkpt lat="48.353497" lon="-4.694894"><ele>14.8</ele></trkpt>
    <trkpt lat="48.353091" lon="-4.695353"><ele>7.4</ele></trkpt>
    <trkpt lat="48.352876" lon="-4.695232"><ele>1.4</ele></trkpt>
    <trkpt lat="48.352608" lon="-4.695525"><ele>1.6</ele></trkpt>
    <trkpt lat="48.352248" lon="-4.696006"><ele>2.6</ele></trkpt>
    <trkpt lat="48.352204" lon="-4.696119"><ele>2.8</ele></trkpt>
    <trkpt lat="48.352146" lon="-4.696568"><ele>3.0</ele></trkpt>
    <trkpt lat="48.351934" lon="-4.696678"><ele>2.8</ele></trkpt>
    <trkpt lat="48.351767" lon="-4.696968"><ele>3.0</ele></trkpt>
    <trkpt lat="48.351386" lon="-4.697859"><ele>3.6</ele></trkpt>
    <trkpt lat="48.350818" lon="-4.698939"><ele>3.8</ele></trkpt>
    <trkpt lat="48.350138" lon="-4.700403"><ele>4.2</ele></trkpt>
    <trkpt lat="48.349944" lon="-4.700717"><ele>3.8</ele></trkpt>
    <trkpt lat="48.349347" lon="-4.701176"><ele>3.8</ele></trkpt>
    <trkpt lat="48.349037" lon="-4.701480"><ele>3.4</ele></trkpt>
    <trkpt lat="48.348324" lon="-4.702061"><ele>3.4</ele></trkpt>
    <trkpt lat="48.347786" lon="-4.702399"><ele>3.0</ele></trkpt>
    <trkpt lat="48.347141" lon="-4.702693"><ele>1.6</ele></trkpt>
    <trkpt lat="48.346795" lon="-4.702920"><ele>1.6</ele></trkpt>
    <trkpt lat="48.346420" lon="-4.703093"><ele>2.6</ele></trkpt>
    <trkpt lat="48.346052" lon="-4.703132"><ele>4.0</ele></trkpt>
    <trkpt lat="48.345543" lon="-4.703017"><ele>4.0</ele></trkpt>
    <trkpt lat="48.345381" lon="-4.702941"><ele>4.2</ele></trkpt>
    <trkpt lat="48.345335" lon="-4.702864"><ele>4.4</ele></trkpt>
    <trkpt lat="48.345470" lon="-4.702999"><ele>3.8</ele></trkpt>
    <trkpt lat="48.345701" lon="-4.703135"><ele>3.0</ele></trkpt>
    <trkpt lat="48.346141" lon="-4.703218"><ele>3.2</ele></trkpt>
    <trkpt lat="48.346552" lon="-4.703183"><ele>3.4</ele></trkpt>
    <trkpt lat="48.347065" lon="-4.703010"><ele>3.8</ele></trkpt>
    <trkpt lat="48.347449" lon="-4.702648"><ele>4.2</ele></trkpt>
    <trkpt lat="48.348799" lon="-4.701692"><ele>3.0</ele></trkpt>
    <trkpt lat="48.349427" lon="-4.701150"><ele>2.8</ele></trkpt>
    <trkpt lat="48.349923" lon="-4.700780"><ele>4.2</ele></trkpt>
    <trkpt lat="48.350160" lon="-4.700423"><ele>4.4</ele></trkpt>
    <trkpt lat="48.350575" lon="-4.699529"><ele>3.4</ele></trkpt>
    <trkpt lat="48.351269" lon="-4.698298"><ele>3.2</ele></trkpt>
    <trkpt lat="48.351477" lon="-4.697684"><ele>2.8</ele></trkpt>
    <trkpt lat="48.351678" lon="-4.697328"><ele>2.4</ele></trkpt>
    <trkpt lat="48.351801" lon="-4.696991"><ele>2.2</ele></trkpt>
    <trkpt lat="48.351966" lon="-4.696698"><ele>2.4</ele></trkpt>
    <trkpt lat="48.352093" lon="-4.696550"><ele>2.4</ele></trkpt>
    <trkpt lat="48.352145" lon="-4.696310"><ele>2.2</ele></trkpt>
    <trkpt lat="48.352266" lon="-4.696275"><ele>1.8</ele></trkpt>
    <trkpt lat="48.352316" lon="-4.696001"><ele>1.6</ele></trkpt>
    <trkpt lat="48.353268" lon="-4.695064"><ele>10.2</ele></trkpt>
    <trkpt lat="48.353573" lon="-4.694699"><ele>13.6</ele></trkpt>
    <trkpt lat="48.353648" lon="-4.694159"><ele>16.8</ele></trkpt>
    <trkpt lat="48.353602" lon="-4.693534"><ele>17.6</ele></trkpt>
    <trkpt lat="48.353610" lon="-4.693149"><ele>18.0</ele></trkpt>
    <trkpt lat="48.353748" lon="-4.692557"><ele>16.8</ele></trkpt>
    <trkpt lat="48.353949" lon="-4.692196"><ele>16.0</ele></trkpt>
    <trkpt lat="48.354420" lon="-4.691979"><ele>18.2</ele></trkpt>
    <trkpt lat="48.354944" lon="-4.691181"><ele>11.8</ele></trkpt>
    <trkpt lat="48.354898" lon="-4.691091"><ele>10.2</ele></trkpt>
    <trkpt lat="48.354916" lon="-4.690823"><ele>8.4</ele></trkpt>
    <trkpt lat="48.354878" lon="-4.690416"><ele>7.8</ele></trkpt>
    <trkpt lat="48.354665" lon="-4.689957"><ele>10.6</ele></trkpt>
    <trkpt lat="48.354637" lon="-4.689837"><ele>11.4</ele></trkpt>
    <trkpt lat="48.354659" lon="-4.689611"><ele>12.8</ele></trkpt>
    <trkpt lat="48.354839" lon="-4.689358"><ele>15.0</ele></trkpt>
    <trkpt lat="48.354865" lon="-4.689242"><ele>15.8</ele></trkpt>
    <trkpt lat="48.354755" lon="-4.688797"><ele>18.0</ele></trkpt>
    <trkpt lat="48.354793" lon="-4.688193"><ele>20.6</ele></trkpt>
    <trkpt lat="48.354543" lon="-4.687220"><ele>25.2</ele></trkpt>
    <trkpt lat="48.354633" lon="-4.685258"><ele>31.6</ele></trkpt>
    <trkpt lat="48.354590" lon="-4.685199"><ele>31.2</ele></trkpt>
    <trkpt lat="48.354383" lon="-4.685149"><ele>29.8</ele></trkpt>
    <trkpt lat="48.353982" lon="-4.685186"><ele>25.6</ele></trkpt>
    <trkpt lat="48.353803" lon="-4.685135"><ele>23.2</ele></trkpt>
    <trkpt lat="48.353703" lon="-4.685004"><ele>21.8</ele></trkpt>
    <trkpt lat="48.353635" lon="-4.684729"><ele>20.8</ele></trkpt>
    <trkpt lat="48.353635" lon="-4.684613"><ele>20.6</ele></trkpt>
    <trkpt lat="48.353777" lon="-4.684303"><ele>20.2</ele></trkpt>
    <trkpt lat="48.353924" lon="-4.684173"><ele>19.4</ele></trkpt>
    <trkpt lat="48.353946" lon="-4.683996"><ele>18.6</ele></trkpt>
    <trkpt lat="48.353907" lon="-4.683644"><ele>17.2</ele></trkpt>
    <trkpt lat="48.354025" lon="-4.683166"><ele>16.0</ele></trkpt>
    <trkpt lat="48.354138" lon="-4.682983"><ele>16.4</ele></trkpt>
    <trkpt lat="48.354372" lon="-4.682838"><ele>20.4</ele></trkpt>
    <trkpt lat="48.354411" lon="-4.682728"><ele>20.8</ele></trkpt>
    <trkpt lat="48.354427" lon="-4.682445"><ele>20.2</ele></trkpt>
    <trkpt lat="48.354595" lon="-4.682318"><ele>19.0</ele></trkpt>
    <trkpt lat="48.354704" lon="-4.682155"><ele>18.4</ele></trkpt>
    <trkpt lat="48.354949" lon="-4.682330"><ele>21.2</ele></trkpt>
    <trkpt lat="48.355080" lon="-4.682318"><ele>21.8</ele></trkpt>
    <trkpt lat="48.355311" lon="-4.682024"><ele>21.4</ele></trkpt>
    <trkpt lat="48.355345" lon="-4.681759"><ele>20.0</ele></trkpt>
    <trkpt lat="48.355393" lon="-4.681643"><ele>19.0</ele></trkpt>
    <trkpt lat="48.355573" lon="-4.681451"><ele>17.8</ele></trkpt>
    <trkpt lat="48.355672" lon="-4.681287"><ele>17.0</ele></trkpt>
    <trkpt lat="48.355805" lon="-4.681171"><ele>15.8</ele></trkpt>
    <trkpt lat="48.356034" lon="-4.680820"><ele>13.2</ele></trkpt>
    <trkpt lat="48.356070" lon="-4.680706"><ele>12.2</ele></trkpt>
    <trkpt lat="48.356061" lon="-4.680551"><ele>10.8</ele></trkpt>
    <trkpt lat="48.356106" lon="-4.680274"><ele>8.6</ele></trkpt>
    <trkpt lat="48.356261" lon="-4.679929"><ele>9.2</ele></trkpt>
    <trkpt lat="48.356334" lon="-4.679392"><ele>8.6</ele></trkpt>
    <trkpt lat="48.356215" lon="-4.678934"><ele>8.4</ele></trkpt>
    <trkpt lat="48.356118" lon="-4.678854"><ele>8.6</ele></trkpt>
    <trkpt lat="48.355926" lon="-4.678817"><ele>9.2</ele></trkpt>
    <trkpt lat="48.355792" lon="-4.678455"><ele>10.8</ele></trkpt>
    <trkpt lat="48.355525" lon="-4.678225"><ele>14.6</ele></trkpt>
    <trkpt lat="48.355357" lon="-4.677992"><ele>17.4</ele></trkpt>
    <trkpt lat="48.355193" lon="-4.677544"><ele>18.2</ele></trkpt>
    <trkpt lat="48.355151" lon="-4.676888"><ele>17.0</ele></trkpt>
    <trkpt lat="48.354998" lon="-4.676396"><ele>15.0</ele></trkpt>
    <trkpt lat="48.354897" lon="-4.676218"><ele>13.8</ele></trkpt>
    <trkpt lat="48.354864" lon="-4.676081"><ele>13.0</ele></trkpt>
    <trkpt lat="48.354849" lon="-4.675732"><ele>11.6</ele></trkpt>
    <trkpt lat="48.354710" lon="-4.674787"><ele>8.8</ele></trkpt>
    <trkpt lat="48.354675" lon="-4.674297"><ele>8.6</ele></trkpt>
    <trkpt lat="48.354691" lon="-4.674089"><ele>8.8</ele></trkpt>
    <trkpt lat="48.354760" lon="-4.673861"><ele>9.4</ele></trkpt>
    <trkpt lat="48.355085" lon="-4.673482"><ele>10.8</ele></trkpt>
    <trkpt lat="48.355389" lon="-4.673242"><ele>12.4</ele></trkpt>
    <trkpt lat="48.355811" lon="-4.672999"><ele>14.6</ele></trkpt>
    <trkpt lat="48.355970" lon="-4.672842"><ele>15.4</ele></trkpt>
    <trkpt lat="48.356029" lon="-4.672670"><ele>15.8</ele></trkpt>
    <trkpt lat="48.356058" lon="-4.672276"><ele>17.2</ele></trkpt>
    <trkpt lat="48.356097" lon="-4.672111"><ele>18.2</ele></trkpt>
    <trkpt lat="48.356940" lon="-4.670950"><ele>21.8</ele></trkpt>
    <trkpt lat="48.356953" lon="-4.670806"><ele>22.8</ele></trkpt>
    <trkpt lat="48.356861" lon="-4.670458"><ele>26.8</ele></trkpt>
    <trkpt lat="48.356878" lon="-4.670397"><ele>27.2</ele></trkpt>
    <trkpt lat="48.356994" lon="-4.670208"><ele>27.8</ele></trkpt>
    <trkpt lat="48.357456" lon="-4.669802"><ele>28.2</ele></trkpt>
    <trkpt lat="48.357625" lon="-4.669519"><ele>29.8</ele></trkpt>
    <trkpt lat="48.357631" lon="-4.669205"><ele>33.6</ele></trkpt>
    <trkpt lat="48.357875" lon="-4.669024"><ele>36.2</ele></trkpt>
    <trkpt lat="48.357990" lon="-4.668730"><ele>37.8</ele></trkpt>
    <trkpt lat="48.357980" lon="-4.668434"><ele>40.0</ele></trkpt>
    <trkpt lat="48.357882" lon="-4.668313"><ele>41.4</ele></trkpt>
    <trkpt lat="48.357480" lon="-4.668273"><ele>44.6</ele></trkpt>
    <trkpt lat="48.357131" lon="-4.668385"><ele>45.0</ele></trkpt>
    <trkpt lat="48.356802" lon="-4.668274"><ele>46.0</ele></trkpt>
    <trkpt lat="48.356424" lon="-4.668215"><ele>46.6</ele></trkpt>
    <trkpt lat="48.356347" lon="-4.667967"><ele>47.4</ele></trkpt>
    <trkpt lat="48.356303" lon="-4.667597"><ele>48.2</ele></trkpt>
    <trkpt lat="48.356323" lon="-4.667383"><ele>48.6</ele></trkpt>
    <trkpt lat="48.356495" lon="-4.666907"><ele>50.4</ele></trkpt>
    <trkpt lat="48.356546" lon="-4.666481"><ele>51.8</ele></trkpt>
    <trkpt lat="48.356763" lon="-4.665807"><ele>53.4</ele></trkpt>
    <trkpt lat="48.357000" lon="-4.665256"><ele>54.2</ele></trkpt>
    <trkpt lat="48.357041" lon="-4.665044"><ele>54.8</ele></trkpt>
    <trkpt lat="48.357019" lon="-4.664788"><ele>55.6</ele></trkpt>
    <trkpt lat="48.357045" lon="-4.664745"><ele>55.6</ele></trkpt>
    <trkpt lat="48.357275" lon="-4.664668"><ele>56.0</ele></trkpt>
    <trkpt lat="48.357718" lon="-4.664371"><ele>56.4</ele></trkpt>
    <trkpt lat="48.357869" lon="-4.664350"><ele>56.4</ele></trkpt>
    <trkpt lat="48.358090" lon="-4.664412"><ele>56.4</ele></trkpt>
    <trkpt lat="48.358988" lon="-4.663971"><ele>57.8</ele></trkpt>
    <trkpt lat="48.360109" lon="-4.662234"><ele>66.4</ele></trkpt>
    <trkpt lat="48.360175" lon="-4.662008"><ele>67.6</ele></trkpt>
    <trkpt lat="48.360107" lon="-4.661687"><ele>69.0</ele></trkpt>
    <trkpt lat="48.360215" lon="-4.661490"><ele>68.0</ele></trkpt>
    <trkpt lat="48.360611" lon="-4.660944"><ele>69.4</ele></trkpt>
    <trkpt lat="48.360841" lon="-4.660734"><ele>70.0</ele></trkpt>
    <trkpt lat="48.361128" lon="-4.660552"><ele>70.8</ele></trkpt>
    <trkpt lat="48.361547" lon="-4.660114"><ele>72.0</ele></trkpt>
    <trkpt lat="48.361556" lon="-4.659945"><ele>72.4</ele></trkpt>
    <trkpt lat="48.361302" lon="-4.659253"><ele>72.8</ele></trkpt>
    <trkpt lat="48.361036" lon="-4.658657"><ele>72.4</ele></trkpt>
    <trkpt lat="48.360665" lon="-4.657997"><ele>72.8</ele></trkpt>
    <trkpt lat="48.360598" lon="-4.657818"><ele>72.6</ele></trkpt>
    <trkpt lat="48.360539" lon="-4.657327"><ele>71.6</ele></trkpt>
    <trkpt lat="48.360544" lon="-4.656105"><ele>71.8</ele></trkpt>
    <trkpt lat="48.360603" lon="-4.655982"><ele>71.8</ele></trkpt>
    <trkpt lat="48.360829" lon="-4.655730"><ele>72.0</ele></trkpt>
    <trkpt lat="48.360949" lon="-4.655517"><ele>72.6</ele></trkpt>
    <trkpt lat="48.361252" lon="-4.654842"><ele>74.4</ele></trkpt>
    <trkpt lat="48.361414" lon="-4.654202"><ele>75.0</ele></trkpt>
    <trkpt lat="48.361585" lon="-4.653798"><ele>75.6</ele></trkpt>
    <trkpt lat="48.361795" lon="-4.653431"><ele>76.0</ele></trkpt>
    <trkpt lat="48.361904" lon="-4.653059"><ele>76.6</ele></trkpt>
    <trkpt lat="48.362209" lon="-4.652696"><ele>76.6</ele></trkpt>
    <trkpt lat="48.362473" lon="-4.652111"><ele>75.8</ele></trkpt>
    <trkpt lat="48.362922" lon="-4.650330"><ele>75.0</ele></trkpt>
    <trkpt lat="48.363225" lon="-4.649384"><ele>74.4</ele></trkpt>
    <trkpt lat="48.363692" lon="-4.648401"><ele>72.4</ele></trkpt>
    <trkpt lat="48.364057" lon="-4.647108"><ele>72.2</ele></trkpt>
    <trkpt lat="48.364582" lon="-4.645727"><ele>71.0</ele></trkpt>
    <trkpt lat="48.364989" lon="-4.644442"><ele>69.2</ele></trkpt>
    <trkpt lat="48.365351" lon="-4.643788"><ele>69.4</ele></trkpt>
    <trkpt lat="48.365533" lon="-4.643372"><ele>68.6</ele></trkpt>
    <trkpt lat="48.365688" lon="-4.642824"><ele>68.0</ele></trkpt>
    <trkpt lat="48.365777" lon="-4.642103"><ele>66.8</ele></trkpt>
    <trkpt lat="48.366007" lon="-4.642188"><ele>67.4</ele></trkpt>
    <trkpt lat="48.366195" lon="-4.642360"><ele>67.6</ele></trkpt>
    <trkpt lat="48.366473" lon="-4.642340"><ele>67.8</ele></trkpt>
    <trkpt lat="48.367330" lon="-4.642591"><ele>69.4</ele></trkpt>
    <trkpt lat="48.368239" lon="-4.642922"><ele>68.4</ele></trkpt>
    <trkpt lat="48.369531" lon="-4.642951"><ele>61.2</ele></trkpt>
    <trkpt lat="48.369654" lon="-4.642659"><ele>61.0</ele></trkpt>
    <trkpt lat="48.369740" lon="-4.642157"><ele>60.8</ele></trkpt>
    <trkpt lat="48.370174" lon="-4.640635"><ele>62.0</ele></trkpt>
  </trkseg></trk>
</gpx>
