<?xml version="1.0" encoding="UTF-8"?>
<gpx version="1.1" creator="tcap-parcours" xmlns="http://www.topografix.com/GPX/1/1">
  <metadata><name>mengant-minou-kerfezan-2</name></metadata>
  <trk><name>mengant-minou-kerfezan-2</name><trkseg>
    <trkpt lat="48.370094" lon="-4.640136"><ele>60.6</ele></trkpt>
    <trkpt lat="48.370765" lon="-4.640049"><ele>59.2</ele></trkpt>
    <trkpt lat="48.370939" lon="-4.640263"><ele>59.0</ele></trkpt>
    <trkpt lat="48.371090" lon="-4.640377"><ele>58.8</ele></trkpt>
    <trkpt lat="48.371560" lon="-4.640580"><ele>57.8</ele></trkpt>
    <trkpt lat="48.371972" lon="-4.640544"><ele>56.2</ele></trkpt>
    <trkpt lat="48.372356" lon="-4.640610"><ele>54.4</ele></trkpt>
    <trkpt lat="48.372542" lon="-4.640600"><ele>54.2</ele></trkpt>
    <trkpt lat="48.372622" lon="-4.640537"><ele>54.2</ele></trkpt>
    <trkpt lat="48.372910" lon="-4.639841"><ele>53.2</ele></trkpt>
    <trkpt lat="48.373124" lon="-4.639810"><ele>52.2</ele></trkpt>
    <trkpt lat="48.373215" lon="-4.639558"><ele>51.6</ele></trkpt>
    <trkpt lat="48.373282" lon="-4.639518"><ele>51.4</ele></trkpt>
    <trkpt lat="48.373455" lon="-4.639571"><ele>51.0</ele></trkpt>
    <trkpt lat="48.374408" lon="-4.640116"><ele>51.0</ele></trkpt>
    <trkpt lat="48.374475" lon="-4.640135"><ele>50.8</ele></trkpt>
    <trkpt lat="48.374543" lon="-4.640093"><ele>50.8</ele></trkpt>
    <trkpt lat="48.374813" lon="-4.639606"><ele>49.2</ele></trkpt>
    <trkpt lat="48.375410" lon="-4.638915"><ele>49.4</ele></trkpt>
    <trkpt lat="48.375594" lon="-4.638620"><ele>49.0</ele></trkpt>
    <trkpt lat="48.375686" lon="-4.638402"><ele>48.8</ele></trkpt>
    <trkpt lat="48.375694" lon="-4.638261"><ele>48.8</ele></trkpt>
    <trkpt lat="48.375641" lon="-4.638153"><ele>48.8</ele></trkpt>
    <trkpt lat="48.375205" lon="-4.638029"><ele>47.8</ele></trkpt>
    <trkpt lat="48.375159" lon="-4.637951"><ele>47.8</ele></trkpt>
    <trkpt lat="48.375440" lon="-4.635920"><ele>49.6</ele></trkpt>
    <trkpt lat="48.375645" lon="-4.635048"><ele>49.8</ele></trkpt>
    <trkpt lat="48.375586" lon="-4.634771"><ele>50.0</ele></trkpt>
    <trkpt lat="48.376052" lon="-4.633663"><ele>49.8</ele></trkpt>
    <trkpt lat="48.376116" lon="-4.633455"><ele>49.8</ele></trkpt>
    <trkpt lat="48.376106" lon="-4.633363"><ele>50.0</ele></trkpt>
    <trkpt lat="48.375974" lon="-4.633309"><ele>50.4</ele></trkpt>
    <trkpt lat="48.374028" lon="-4.633494"><ele>51.4</ele></trkpt>
    <trkpt lat="48.373758" lon="-4.633575"><ele>51.8</ele></trkpt>
    <trkpt lat="48.372984" lon="-4.633921"><ele>52.4</ele></trkpt>
    <trkpt lat="48.372581" lon="-4.633972"><ele>52.6</ele></trkpt>
    <trkpt lat="48.371808" lon="-4.633984"><ele>53.6</ele></trkpt>
    <trkpt lat="48.371651" lon="-4.633922"><ele>53.8</ele></trkpt>
    <trkpt lat="48.371613" lon="-4.633846"><ele>54.0</ele></trkpt>
    <trkpt lat="48.371763" lon="-4.633021"><ele>56.4</ele></trkpt>
    <trkpt lat="48.371775" lon="-4.632856"><ele>56.4</ele></trkpt>
    <trkpt lat="48.371744" lon="-4.632764"><ele>56.4</ele></trkpt>
    <trkpt lat="48.371045" lon="-4.632543"><ele>56.6</ele></trkpt>
    <trkpt lat="48.370306" lon="-4.632186"><ele>58.8</ele></trkpt>
    <trkpt lat="48.370094" lon="-4.632140"><ele>59.2</ele></trkpt>
    <trkpt lat="48.369982" lon="-4.632052"><ele>59.4</ele></trkpt>
    <trkpt lat="48.369719" lon="-4.631711"><ele>59.6</ele></trkpt>
    <trkpt lat="48.369650" lon="-4.631685"><ele>59.8</ele></trkpt>
    <trkpt lat="48.369577" lon="-4.631742"><ele>59.8</ele></trkpt>
    <trkpt lat="48.369486" lon="-4.631893"><ele>60.0</ele></trkpt>
    <trkpt lat="48.369380" lon="-4.632283"><ele>60.4</ele></trkpt>
    <trkpt lat="48.369239" lon="-4.632551"><ele>61.0</ele></trkpt>
    <trkpt lat="48.368814" lon="-4.634767"><ele>62.8</ele></trkpt>
    <trkpt lat="48.368775" lon="-4.634873"><ele>63.0</ele></trkpt>
    <trkpt lat="48.368731" lon="-4.634893"><ele>63.0</ele></trkpt>
    <trkpt lat="48.368041" lon="-4.634805"><ele>62.8</ele></trkpt>
    <trkpt lat="48.367661" lon="-4.634658"><ele>62.8</ele></trkpt>
    <trkpt lat="48.367373" lon="-4.634473"><ele>62.0</ele></trkpt>
    <trkpt lat="48.367131" lon="-4.634093"><ele>61.4</ele></trkpt>
    <trkpt lat="48.367025" lon="-4.633992"><ele>61.6</ele></trkpt>
    <trkpt lat="48.366620" lon="-4.633924"><ele>61.8</ele></trkpt>
    <trkpt lat="48.366003" lon="-4.633675"><ele>60.4</ele></trkpt>
    <trkpt lat="48.365735" lon="-4.633492"><ele>59.2</ele></trkpt>
    <trkpt lat="48.365391" lon="-4.633139"><ele>58.4</ele></trkpt>
    <trkpt lat="48.364917" lon="-4.632953"><ele>58.8</ele></trkpt>
    <trkpt lat="48.364877" lon="-4.632900"><ele>59.4</ele></trkpt>
    <trkpt lat="48.364846" lon="-4.632753"><ele>59.8</ele></trkpt>
    <trkpt lat="48.364458" lon="-4.632357"><ele>61.2</ele></trkpt>
    <trkpt lat="48.364347" lon="-4.632034"><ele>62.4</ele></trkpt>
    <trkpt lat="48.364256" lon="-4.630653"><ele>65.4</ele></trkpt>
    <trkpt lat="48.364362" lon="-4.629890"><ele>66.2</ele></trkpt>
    <trkpt lat="48.364352" lon="-4.629789"><ele>66.4</ele></trkpt>
    <trkpt lat="48.364288" lon="-4.629729"><ele>66.8</ele></trkpt>
    <trkpt lat="48.363965" lon="-4.629685"><ele>67.0</ele></trkpt>
    <trkpt lat="48.363355" lon="-4.629440"><ele>68.8</ele></trkpt>
    <trkpt lat="48.363158" lon="-4.629234"><ele>69.4</ele></trkpt>
    <trkpt lat="48.363088" lon="-4.629042"><ele>69.2</ele></trkpt>
    <trkpt lat="48.363152" lon="-4.628820"><ele>69.2</ele></trkpt>
    <trkpt lat="48.363886" lon="-4.627310"><ele>69.8</ele></trkpt>
    <trkpt lat="48.364085" lon="-4.626562"><ele>68.2</ele></trkpt>
    <trkpt lat="48.364695" lon="-4.626006"><ele>68.8</ele></trkpt>
    <trkpt lat="48.364892" lon="-4.625654"><ele>70.6</ele></trkpt>
    <trkpt lat="48.365277" lon="-4.624173"><ele>73.8</ele></trkpt>
    <trkpt lat="48.365283" lon="-4.624090"><ele>74.0</ele></trkpt>
    <trkpt lat="48.365242" lon="-4.624030"><ele>74.2</ele></trkpt>
    <trkpt lat="48.364485" lon="-4.623717"><ele>74.2</ele></trkpt>
    <trkpt lat="48.364432" lon="-4.623590"><ele>74.6</ele></trkpt>
    <trkpt lat="48.364531" lon="-4.622852"><ele>77.0</ele></trkpt>
    <trkpt lat="48.364688" lon="-4.622599"><ele>77.4</ele></trkpt>
    <trkpt lat="48.364754" lon="-4.622265"><ele>77.4</ele></trkpt>
    <trkpt lat="48.364768" lon="-4.621146"><ele>77.4</ele></trkpt>
    <trkpt lat="48.364843" lon="-4.620558"><ele>76.6</ele></trkpt>
    <trkpt lat="48.364759" lon="-4.620589"><ele>77.4</ele></trkpt>
    <trkpt lat="48.364019" lon="-4.620355"><ele>80.0</ele></trkpt>
    <trkpt lat="48.363820" lon="-4.620406"><ele>81.8</ele></trkpt>
    <trkpt lat="48.363033" lon="-4.620363"><ele>84.4</ele></trkpt>
    <trkpt lat="48.362292" lon="-4.620446"><ele>86.6</ele></trkpt>
    <trkpt lat="48.361645" lon="-4.620690"><ele>87.4</ele></trkpt>
    <trkpt lat="48.361468" lon="-4.620696"><ele>87.6</ele></trkpt>
    <trkpt lat="48.361335" lon="-4.620518"><ele>88.0</ele></trkpt>
    <trkpt lat="48.361332" lon="-4.620140"><ele>88.8</ele></trkpt>
    <trkpt lat="48.361263" lon="-4.619941"><ele>89.4</ele></trkpt>
    <trkpt lat="48.360722" lon="-4.619290"><ele>90.2</ele></trkpt>
    <trkpt lat="48.360371" lon="-4.618954"><ele>89.4</ele></trkpt>
    <trkpt lat="48.358652" lon="-4.617552"><ele>88.4</ele></trkpt>
    <trkpt lat="48.358175" lon="-4.617274"><ele>89.2</ele></trkpt>
    <trkpt lat="48.357919" lon="-4.617210"><ele>88.8</ele></trkpt>
    <trkpt lat="48.357421" lon="-4.617183"><ele>88.2</ele></trkpt>
    <trkpt lat="48.356724" lon="-4.617292"><ele>86.4</ele></trkpt>
    <trkpt lat="48.356632" lon="-4.617272"><ele>86.4</ele></trkpt>
    <trkpt lat="48.356593" lon="-4.617207"><ele>86.4</ele></trkpt>
    <trkpt lat="48.356597" lon="-4.617086"><ele>86.6</ele></trkpt>
    <trkpt lat="48.356940" lon="-4.615576"><ele>89.2</ele></trkpt>
    <trkpt lat="48.356594" lon="-4.617167"><ele>86.4</ele></trkpt>
    <trkpt lat="48.356270" lon="-4.617329"><ele>86.6</ele></trkpt>
    <trkpt lat="48.355408" lon="-4.617491"><ele>85.8</ele></trkpt>
    <trkpt lat="48.355192" lon="-4.617654"><ele>88.2</ele></trkpt>
    <trkpt lat="48.355300" lon="-4.619439"><ele>86.0</ele></trkpt>
    <trkpt lat="48.355192" lon="-4.621710"><ele>81.0</ele></trkpt>
    <trkpt lat="48.355084" lon="-4.621710"><ele>81.0</ele></trkpt>
    <trkpt lat="48.354330" lon="-4.621386"><ele>83.8</ele></trkpt>
    <trkpt lat="48.353467" lon="-4.621386"><ele>82.2</ele></trkpt>
    <trkpt lat="48.353144" lon="-4.622359"><ele>81.0</ele></trkpt>
    <trkpt lat="48.352821" lon="-4.623982"><ele>78.2</ele></trkpt>
    <trkpt lat="48.352821" lon="-4.624307"><ele>77.4</ele></trkpt>
    <trkpt lat="48.352605" lon="-4.624469"><ele>76.2</ele></trkpt>
    <trkpt lat="48.352497" lon="-4.625118"><ele>75.2</ele></trkpt>
    <trkpt lat="48.351958" lon="-4.625280"><ele>73.4</ele></trkpt>
    <trkpt lat="48.351851" lon="-4.625443"><ele>73.0</ele></trkpt>
    <trkpt lat="48.352066" lon="-4.627065"><ele>73.0</ele></trkpt>
    <trkpt lat="48.352066" lon="-4.627877"><ele>71.0</ele></trkpt>
    <trkpt lat="48.351958" lon="-4.628039"><ele>70.6</ele></trkpt>
    <trkpt lat="48.351527" lon="-4.628201"><ele>70.4</ele></trkpt>
    <trkpt lat="48.351204" lon="-4.628039"><ele>70.2</ele></trkpt>
    <trkpt lat="48.351204" lon="-4.627390"><ele>70.2</ele></trkpt>
    <trkpt lat="48.350988" lon="-4.626903"><ele>69.6</ele></trkpt>
    <trkpt lat="48.350665" lon="-4.625929"><ele>66.8</ele></trkpt>
    <trkpt lat="48.350449" lon="-4.625118"><ele>68.2</ele></trkpt>
    <trkpt lat="48.350621" lon="-4.625993"><ele>66.8</ele></trkpt>
    <trkpt lat="48.351125" lon="-4.627176"><ele>68.6</ele></trkpt>
    <trkpt lat="48.351231" lon="-4.627597"><ele>69.2</ele></trkpt>
    <trkpt lat="48.351254" lon="-4.628073"><ele>69.0</ele></trkpt>
    <trkpt lat="48.351310" lon="-4.628174"><ele>69.2</ele></trkpt>
    <trkpt lat="48.351624" lon="-4.628205"><ele>69.2</ele></trkpt>
    <trkpt lat="48.351958" lon="-4.628134"><ele>69.4</ele></trkpt>
    <trkpt lat="48.352119" lon="-4.628416"><ele>69.4</ele></trkpt>
    <trkpt lat="48.352174" lon="-4.628438"><ele>69.4</ele></trkpt>
    <trkpt lat="48.353170" lon="-4.627678"><ele>71.0</ele></trkpt>
    <trkpt lat="48.353540" lon="-4.627313"><ele>70.4</ele></trkpt>
    <trkpt lat="48.354121" lon="-4.627021"><ele>69.0</ele></trkpt>
    <trkpt lat="48.354310" lon="-4.626770"><ele>68.6</ele></trkpt>
    <trkpt lat="48.354676" lon="-4.625938"><ele>68.2</ele></trkpt>
    <trkpt lat="48.355366" lon="-4.624942"><ele>70.4</ele></trkpt>
    <trkpt lat="48.355754" lon="-4.624520"><ele>70.8</ele></trkpt>
    <trkpt lat="48.355810" lon="-4.624530"><ele>71.0</ele></trkpt>
    <trkpt lat="48.356163" lon="-4.624986"><ele>72.6</ele></trkpt>
    <trkpt lat="48.356253" lon="-4.625165"><ele>73.4</ele></trkpt>
    <trkpt lat="48.356270" lon="-4.626094"><ele>75.4</ele></trkpt>
    <trkpt lat="48.356313" lon="-4.626187"><ele>75.8</ele></trkpt>
    <trkpt lat="48.356501" lon="-4.626349"><ele>76.2</ele></trkpt>
    <trkpt lat="48.356524" lon="-4.626443"><ele>76.0</ele></trkpt>
    <trkpt lat="48.356384" lon="-4.627597"><ele>73.8</ele></trkpt>
    <trkpt lat="48.356431" lon="-4.627691"><ele>73.6</ele></trkpt>
    <trkpt lat="48.356577" lon="-4.627791"><ele>73.4</ele></trkpt>
    <trkpt lat="48.356647" lon="-4.627899"><ele>73.0</ele></trkpt>
    <trkpt lat="48.356730" lon="-4.628430"><ele>72.8</ele></trkpt>
    <trkpt lat="48.356734" lon="-4.628627"><ele>72.8</ele></trkpt>
    <trkpt lat="48.356606" lon="-4.629559"><ele>72.4</ele></trkpt>
    <trkpt lat="48.356574" lon="-4.630022"><ele>71.8</ele></trkpt>
    <trkpt lat="48.356450" lon="-4.630635"><ele>71.6</ele></trkpt>
    <trkpt lat="48.356368" lon="-4.630860"><ele>71.6</ele></trkpt>
    <trkpt lat="48.356314" lon="-4.631280"><ele>72.0</ele></trkpt>
    <trkpt lat="48.356345" lon="-4.631978"><ele>72.6</ele></trkpt>
    <trkpt lat="48.356179" lon="-4.633011"><ele>72.0</ele></trkpt>
    <trkpt lat="48.356289" lon="-4.633385"><ele>72.2</ele></trkpt>
    <trkpt lat="48.356101" lon="-4.634167"><ele>70.8</ele></trkpt>
    <trkpt lat="48.355922" lon="-4.634671"><ele>69.8</ele></trkpt>
    <trkpt lat="48.355826" lon="-4.635062"><ele>69.8</ele></trkpt>
    <trkpt lat="48.355776" lon="-4.635505"><ele>70.2</ele></trkpt>
    <trkpt lat="48.355792" lon="-4.635812"><ele>70.0</ele></trkpt>
    <trkpt lat="48.355753" lon="-4.636470"><ele>70.2</ele></trkpt>
    <trkpt lat="48.355718" lon="-4.636593"><ele>70.8</ele></trkpt>
    <trkpt lat="48.355869" lon="-4.637123"><ele>73.0</ele></trkpt>
    <trkpt lat="48.355909" lon="-4.637391"><ele>73.4</ele></trkpt>
    <trkpt lat="48.356021" lon="-4.637722"><ele>73.2</ele></trkpt>
    <trkpt lat="48.356019" lon="-4.638285"><ele>74.2</ele></trkpt>
    <trkpt lat="48.356081" lon="-4.638603"><ele>74.8</ele></trkpt>
    <trkpt lat="48.356026" lon="-4.638821"><ele>75.6</ele></trkpt>
    <trkpt lat="48.356017" lon="-4.639003"><ele>76.0</ele></trkpt>
    <trkpt lat="48.356582" lon="-4.639388"><ele>76.4</ele></trkpt>
    <trkpt lat="48.356776" lon="-4.639558"><ele>76.4</ele></trkpt>
    <trkpt lat="48.356807" lon="-4.639645"><ele>76.4</ele></trkpt>
    <trkpt lat="48.356759" lon="-4.639986"><ele>76.8</ele></trkpt>
    <trkpt lat="48.356560" lon="-4.640866"><ele>78.4</ele></trkpt>
    <trkpt lat="48.356568" lon="-4.641134"><ele>79.0</ele></trkpt>
    <trkpt lat="48.356510" lon="-4.641506"><ele>79.8</ele></trkpt>
    <trkpt lat="48.356246" lon="-4.642347"><ele>81.0</ele></trkpt>
    <trkpt lat="48.356216" lon="-4.642605"><ele>81.4</ele></trkpt>
    <trkpt lat="48.356236" lon="-4.642897"><ele>81.4</ele></trkpt>
    <trkpt lat="48.356316" lon="-4.643264"><ele>81.4</ele></trkpt>
    <trkpt lat="48.356848" lon="-4.644438"><ele>79.6</ele></trkpt>
    <trkpt lat="48.357362" lon="-4.644630"><ele>79.6</ele></trkpt>
    <trkpt lat="48.357654" lon="-4.644567"><ele>79.4</ele></trkpt>
    <trkpt lat="48.357740" lon="-4.644462"><ele>79.2</ele></trkpt>
    <trkpt lat="48.358115" lon="-4.643746"><ele>76.8</ele></trkpt>
    <trkpt lat="48.358503" lon="-4.643315"><ele>74.8</ele></trkpt>
    <trkpt lat="48.358662" lon="-4.643270"><ele>74.2</ele></trkpt>
    <trkpt lat="48.358868" lon="-4.643371"><ele>73.4</ele></trkpt>
    <trkpt lat="48.358946" lon="-4.643360"><ele>73.2</ele></trkpt>
    <trkpt lat="48.359168" lon="-4.643118"><ele>73.0</ele></trkpt>
    <trkpt lat="48.359313" lon="-4.643018"><ele>73.0</ele></trkpt>
    <trkpt lat="48.359630" lon="-4.642894"><ele>72.6</ele></trkpt>
    <trkpt lat="48.359781" lon="-4.642896"><ele>72.4</ele></trkpt>
    <trkpt lat="48.359913" lon="-4.642780"><ele>72.2</ele></trkpt>
    <trkpt lat="48.360130" lon="-4.642670"><ele>72.0</ele></trkpt>
    <trkpt lat="48.360337" lon="-4.642473"><ele>72.2</ele></trkpt>
    <trkpt lat="48.360751" lon="-4.641849"><ele>73.4</ele></trkpt>
    <trkpt lat="48.361006" lon="-4.641623"><ele>73.6</ele></trkpt>
    <trkpt lat="48.361376" lon="-4.641475"><ele>73.6</ele></trkpt>
    <trkpt lat="48.362443" lon="-4.641263"><ele>71.2</ele></trkpt>
    <trkpt lat="48.362903" lon="-4.641237"><ele>70.0</ele></trkpt>
    <trkpt lat="48.364805" lon="-4.641493"><ele>66.6</ele></trkpt>
    <trkpt lat="48.364987" lon="-4.641561"><ele>66.8</ele></trkpt>
    <trkpt lat="48.365569" lon="-4.642007"><ele>67.6</ele></trkpt>
    <trkpt lat="48.365771" lon="-4.642103"><ele>68.0</ele></trkpt>
    <trkpt lat="48.366008" lon="-4.642154"><ele>68.4</ele></trkpt>
    <trkpt lat="48.366197" lon="-4.642358"><ele>68.4</ele></trkpt>
    <trkpt lat="48.366452" lon="-4.642310"><ele>68.6</ele></trkpt>
    <trkpt lat="48.367403" lon="-4.642614"><ele>69.4</ele></trkpt>
    <trkpt lat="48.367737" lon="-4.642555"><ele>69.0</ele></trkpt>
    <trkpt lat="48.368114" lon="-4.642739"><ele>68.4</ele></trkpt>
    <trkpt lat="48.368425" lon="-4.642823"><ele>66.8</ele></trkpt>
    <trkpt lat="48.369555" lon="-4.642821"><ele>61.4</ele></trkpt>
    <trkpt lat="48.369634" lon="-4.642768"><ele>61.4</ele></trkpt>
    <trkpt lat="48.369666" lon="-4.642684"><ele>61.6</ele></trkpt>
    <trkpt lat="48.369800" lon="-4.641994"><ele>62.6</ele></trkpt>
    <trkpt lat="48.370187" lon="-4.640602"><ele>63.4</ele></trkpt>
  </trkseg></trk>
</gpx>
