<?xml version="1.0" encoding="UTF-8"?>
<gpx version="1.1" creator="tcap-parcours" xmlns="http://www.topografix.com/GPX/1/1">
  <metadata><name>Mengant – Minou par Kerfezan – Boucle 17,3 km</name></metadata>
  <trk><name>Mengant – Minou par Kerfezan – Boucle 17,3 km</name><trkseg>
    <trkpt lat="48.370094" lon="-4.640136"><ele>60.6</ele></trkpt>
    <trkpt lat="48.370765" lon="-4.640049"><ele>59.2</ele></trkpt>
    <trkpt lat="48.370939" lon="-4.640263"><ele>59.0</ele></trkpt>
    <trkpt lat="48.371090" lon="-4.640377"><ele>58.8</ele></trkpt>
    <trkpt lat="48.371560" lon="-4.640580"><ele>57.8</ele></trkpt>
    <trkpt lat="48.371972" lon="-4.640544"><ele>56.2</ele></trkpt>
    <trkpt lat="48.372356" lon="-4.640610"><ele>54.4</ele></trkpt>
    <trkpt lat="48.372542" lon="-4.640600"><ele>54.2</ele></trkpt>
    <trkpt lat="48.372622" lon="-4.640537"><ele>54.2</ele></trkpt>
    <trkpt lat="48.372910" lon="-4.639841"><ele>53.2</ele></trkpt>
    <trkpt lat="48.373124" lon="-4.639810"><ele>52.2</ele></trkpt>
    <trkpt lat="48.373215" lon="-4.639558"><ele>51.6</ele></trkpt>
    <trkpt lat="48.373282" lon="-4.639518"><ele>51.4</ele></trkpt>
    <trkpt lat="48.373455" lon="-4.639571"><ele>51.0</ele></trkpt>
    <trkpt lat="48.374408" lon="-4.640116"><ele>51.0</ele></trkpt>
    <trkpt lat="48.374475" lon="-4.640135"><ele>50.8</ele></trkpt>
    <trkpt lat="48.374543" lon="-4.640093"><ele>50.8</ele></trkpt>
    <trkpt lat="48.374813" lon="-4.639606"><ele>49.2</ele></trkpt>
    <trkpt lat="48.375410" lon="-4.638915"><ele>49.4</ele></trkpt>
    <trkpt lat="48.375594" lon="-4.638620"><ele>49.0</ele></trkpt>
    <trkpt lat="48.375686" lon="-4.638402"><ele>48.8</ele></trkpt>
    <trkpt lat="48.375694" lon="-4.638261"><ele>48.8</ele></trkpt>
    <trkpt lat="48.375641" lon="-4.638153"><ele>48.8</ele></trkpt>
    <trkpt lat="48.375205" lon="-4.638029"><ele>47.8</ele></trkpt>
    <trkpt lat="48.375159" lon="-4.637951"><ele>47.8</ele></trkpt>
    <trkpt lat="48.375440" lon="-4.635920"><ele>49.6</ele></trkpt>
    <trkpt lat="48.375645" lon="-4.635048"><ele>49.8</ele></trkpt>
    <trkpt lat="48.375586" lon="-4.634771"><ele>50.0</ele></trkpt>
    <trkpt lat="48.376052" lon="-4.633663"><ele>49.8</ele></trkpt>
    <trkpt lat="48.376116" lon="-4.633455"><ele>49.8</ele></trkpt>
    <trkpt lat="48.376106" lon="-4.633363"><ele>50.0</ele></trkpt>
    <trkpt lat="48.375974" lon="-4.633309"><ele>50.4</ele></trkpt>
    <trkpt lat="48.374028" lon="-4.633494"><ele>51.4</ele></trkpt>
    <trkpt lat="48.373758" lon="-4.633575"><ele>51.8</ele></trkpt>
    <trkpt lat="48.372984" lon="-4.633921"><ele>52.4</ele></trkpt>
    <trkpt lat="48.372581" lon="-4.633972"><ele>52.6</ele></trkpt>
    <trkpt lat="48.371808" lon="-4.633984"><ele>53.6</ele></trkpt>
    <trkpt lat="48.371651" lon="-4.633922"><ele>53.8</ele></trkpt>
    <trkpt lat="48.371613" lon="-4.633846"><ele>54.0</ele></trkpt>
    <trkpt lat="48.371763" lon="-4.633021"><ele>56.4</ele></trkpt>
    <trkpt lat="48.371775" lon="-4.632856"><ele>56.4</ele></trkpt>
    <trkpt lat="48.371744" lon="-4.632764"><ele>56.4</ele></trkpt>
    <trkpt lat="48.371045" lon="-4.632543"><ele>56.6</ele></trkpt>
    <trkpt lat="48.370306" lon="-4.632186"><ele>58.8</ele></trkpt>
    <trkpt lat="48.370094" lon="-4.632140"><ele>59.2</ele></trkpt>
    <trkpt lat="48.369982" lon="-4.632052"><ele>59.4</ele></trkpt>
    <trkpt lat="48.369719" lon="-4.631711"><ele>59.6</ele></trkpt>
    <trkpt lat="48.369650" lon="-4.631685"><ele>59.8</ele></trkpt>
    <trkpt lat="48.369577" lon="-4.631742"><ele>59.8</ele></trkpt>
    <trkpt lat="48.369486" lon="-4.631893"><ele>60.0</ele></trkpt>
    <trkpt lat="48.369380" lon="-4.632283"><ele>60.4</ele></trkpt>
    <trkpt lat="48.369239" lon="-4.632551"><ele>61.0</ele></trkpt>
    <trkpt lat="48.368814" lon="-4.634767"><ele>62.8</ele></trkpt>
    <trkpt lat="48.368775" lon="-4.634873"><ele>63.0</ele></trkpt>
    <trkpt lat="48.368731" lon="-4.634893"><ele>63.0</ele></trkpt>
    <trkpt lat="48.368041" lon="-4.634805"><ele>62.8</ele></trkpt>
    <trkpt lat="48.367661" lon="-4.634658"><ele>62.8</ele></trkpt>
    <trkpt lat="48.367373" lon="-4.634473"><ele>62.0</ele></trkpt>
    <trkpt lat="48.367131" lon="-4.634093"><ele>61.4</ele></trkpt>
    <trkpt lat="48.367025" lon="-4.633992"><ele>61.6</ele></trkpt>
    <trkpt lat="48.366620" lon="-4.633924"><ele>61.8</ele></trkpt>
    <trkpt lat="48.366003" lon="-4.633675"><ele>60.4</ele></trkpt>
    <trkpt lat="48.365735" lon="-4.633492"><ele>59.2</ele></trkpt>
    <trkpt lat="48.365391" lon="-4.633139"><ele>58.4</ele></trkpt>
    <trkpt lat="48.364917" lon="-4.632953"><ele>58.8</ele></trkpt>
    <trkpt lat="48.364877" lon="-4.632900"><ele>59.4</ele></trkpt>
    <trkpt lat="48.364846" lon="-4.632753"><ele>59.8</ele></trkpt>
    <trkpt lat="48.364458" lon="-4.632357"><ele>61.2</ele></trkpt>
    <trkpt lat="48.364347" lon="-4.632034"><ele>62.4</ele></trkpt>
    <trkpt lat="48.364256" lon="-4.630653"><ele>65.4</ele></trkpt>
    <trkpt lat="48.364362" lon="-4.629890"><ele>66.2</ele></trkpt>
    <trkpt lat="48.364352" lon="-4.629789"><ele>66.4</ele></trkpt>
    <trkpt lat="48.364288" lon="-4.629729"><ele>66.8</ele></trkpt>
    <trkpt lat="48.363965" lon="-4.629685"><ele>67.0</ele></trkpt>
    <trkpt lat="48.363355" lon="-4.629440"><ele>68.8</ele></trkpt>
    <trkpt lat="48.363158" lon="-4.629234"><ele>69.4</ele></trkpt>
    <trkpt lat="48.363088" lon="-4.629042"><ele>69.2</ele></trkpt>
    <trkpt lat="48.363152" lon="-4.628820"><ele>69.2</ele></trkpt>
    <trkpt lat="48.363886" lon="-4.627310"><ele>69.8</ele></trkpt>
    <trkpt lat="48.364085" lon="-4.626562"><ele>68.2</ele></trkpt>
    <trkpt lat="48.364695" lon="-4.626006"><ele>68.8</ele></trkpt>
    <trkpt lat="48.364892" lon="-4.625654"><ele>70.6</ele></trkpt>
    <trkpt lat="48.365277" lon="-4.624173"><ele>73.8</ele></trkpt>
    <trkpt lat="48.365283" lon="-4.624090"><ele>74.0</ele></trkpt>
    <trkpt lat="48.365242" lon="-4.624030"><ele>74.2</ele></trkpt>
    <trkpt lat="48.364485" lon="-4.623717"><ele>74.2</ele></trkpt>
    <trkpt lat="48.364432" lon="-4.623590"><ele>74.6</ele></trkpt>
    <trkpt lat="48.364531" lon="-4.622852"><ele>77.0</ele></trkpt>
    <trkpt lat="48.364688" lon="-4.622599"><ele>77.4</ele></trkpt>
    <trkpt lat="48.364754" lon="-4.622265"><ele>77.4</ele></trkpt>
    <trkpt lat="48.364768" lon="-4.621146"><ele>77.4</ele></trkpt>
    <trkpt lat="48.364843" lon="-4.620558"><ele>76.6</ele></trkpt>
    <trkpt lat="48.364759" lon="-4.620589"><ele>77.4</ele></trkpt>
    <trkpt lat="48.364019" lon="-4.620355"><ele>80.0</ele></trkpt>
    <trkpt lat="48.363820" lon="-4.620406"><ele>81.8</ele></trkpt>
    <trkpt lat="48.363033" lon="-4.620363"><ele>84.4</ele></trkpt>
    <trkpt lat="48.362292" lon="-4.620446"><ele>86.6</ele></trkpt>
    <trkpt lat="48.361645" lon="-4.620690"><ele>87.4</ele></trkpt>
    <trkpt lat="48.361468" lon="-4.620696"><ele>87.6</ele></trkpt>
    <trkpt lat="48.361335" lon="-4.620518"><ele>88.0</ele></trkpt>
    <trkpt lat="48.361332" lon="-4.620140"><ele>88.8</ele></trkpt>
    <trkpt lat="48.361263" lon="-4.619941"><ele>89.4</ele></trkpt>
    <trkpt lat="48.360722" lon="-4.619290"><ele>90.2</ele></trkpt>
    <trkpt lat="48.360371" lon="-4.618954"><ele>89.4</ele></trkpt>
    <trkpt lat="48.358652" lon="-4.617552"><ele>88.4</ele></trkpt>
    <trkpt lat="48.358175" lon="-4.617274"><ele>89.2</ele></trkpt>
    <trkpt lat="48.357919" lon="-4.617210"><ele>88.8</ele></trkpt>
    <trkpt lat="48.357421" lon="-4.617183"><ele>88.2</ele></trkpt>
    <trkpt lat="48.356724" lon="-4.617292"><ele>86.4</ele></trkpt>
    <trkpt lat="48.356632" lon="-4.617272"><ele>86.4</ele></trkpt>
    <trkpt lat="48.356593" lon="-4.617207"><ele>86.4</ele></trkpt>
    <trkpt lat="48.356597" lon="-4.617086"><ele>86.6</ele></trkpt>
    <trkpt lat="48.356940" lon="-4.615576"><ele>89.2</ele></trkpt>
    <trkpt lat="48.357006" lon="-4.615126"><ele>89.0</ele></trkpt>
    <trkpt lat="48.357027" lon="-4.614439"><ele>89.0</ele></trkpt>
    <trkpt lat="48.357069" lon="-4.614136"><ele>88.8</ele></trkpt>
    <trkpt lat="48.357377" lon="-4.612641"><ele>87.8</ele></trkpt>
    <trkpt lat="48.357411" lon="-4.612566"><ele>87.6</ele></trkpt>
    <trkpt lat="48.357457" lon="-4.612554"><ele>87.6</ele></trkpt>
    <trkpt lat="48.357633" lon="-4.612651"><ele>88.0</ele></trkpt>
    <trkpt lat="48.357812" lon="-4.612683"><ele>88.4</ele></trkpt>
    <trkpt lat="48.357907" lon="-4.612631"><ele>88.8</ele></trkpt>
    <trkpt lat="48.357937" lon="-4.612502"><ele>89.0</ele></trkpt>
    <trkpt lat="48.357955" lon="-4.611934"><ele>89.8</ele></trkpt>
    <trkpt lat="48.358158" lon="-4.611101"><ele>89.6</ele></trkpt>
    <trkpt lat="48.358152" lon="-4.610556"><ele>89.4</ele></trkpt>
    <trkpt lat="48.358114" lon="-4.610409"><ele>89.6</ele></trkpt>
    <trkpt lat="48.358030" lon="-4.610350"><ele>89.6</ele></trkpt>
    <trkpt lat="48.357553" lon="-4.610220"><ele>88.2</ele></trkpt>
    <trkpt lat="48.357426" lon="-4.610110"><ele>87.8</ele></trkpt>
    <trkpt lat="48.357404" lon="-4.610001"><ele>87.6</ele></trkpt>
    <trkpt lat="48.357636" lon="-4.609054"><ele>86.2</ele></trkpt>
    <trkpt lat="48.357767" lon="-4.608662"><ele>85.8</ele></trkpt>
    <trkpt lat="48.358483" lon="-4.607438"><ele>86.8</ele></trkpt>
    <trkpt lat="48.358570" lon="-4.607189"><ele>86.8</ele></trkpt>
    <trkpt lat="48.358564" lon="-4.606302"><ele>87.2</ele></trkpt>
    <trkpt lat="48.358609" lon="-4.605422"><ele>88.8</ele></trkpt>
    <trkpt lat="48.358490" lon="-4.604001"><ele>90.6</ele></trkpt>
    <trkpt lat="48.358583" lon="-4.603872"><ele>90.8</ele></trkpt>
    <trkpt lat="48.359185" lon="-4.603831"><ele>90.4</ele></trkpt>
    <trkpt lat="48.359250" lon="-4.603793"><ele>90.4</ele></trkpt>
    <trkpt lat="48.359293" lon="-4.603699"><ele>90.4</ele></trkpt>
    <trkpt lat="48.359295" lon="-4.603556"><ele>90.2</ele></trkpt>
    <trkpt lat="48.359122" lon="-4.602369"><ele>89.2</ele></trkpt>
    <trkpt lat="48.359114" lon="-4.601045"><ele>88.2</ele></trkpt>
    <trkpt lat="48.359189" lon="-4.599936"><ele>86.4</ele></trkpt>
    <trkpt lat="48.359226" lon="-4.599797"><ele>86.2</ele></trkpt>
    <trkpt lat="48.359299" lon="-4.599706"><ele>86.2</ele></trkpt>
    <trkpt lat="48.359708" lon="-4.599489"><ele>87.0</ele></trkpt>
    <trkpt lat="48.360367" lon="-4.599449"><ele>88.2</ele></trkpt>
    <trkpt lat="48.360457" lon="-4.599400"><ele>88.2</ele></trkpt>
    <trkpt lat="48.360594" lon="-4.598786"><ele>86.8</ele></trkpt>
    <trkpt lat="48.360657" lon="-4.597911"><ele>85.2</ele></trkpt>
    <trkpt lat="48.360780" lon="-4.597211"><ele>83.0</ele></trkpt>
    <trkpt lat="48.360890" lon="-4.597110"><ele>83.4</ele></trkpt>
    <trkpt lat="48.361257" lon="-4.597072"><ele>85.6</ele></trkpt>
    <trkpt lat="48.361396" lon="-4.597026"><ele>86.0</ele></trkpt>
    <trkpt lat="48.361448" lon="-4.596964"><ele>86.2</ele></trkpt>
    <trkpt lat="48.361587" lon="-4.595809"><ele>83.6</ele></trkpt>
    <trkpt lat="48.361810" lon="-4.594584"><ele>81.0</ele></trkpt>
    <trkpt lat="48.361889" lon="-4.593839"><ele>77.2</ele></trkpt>
    <trkpt lat="48.362047" lon="-4.593006"><ele>72.6</ele></trkpt>
    <trkpt lat="48.362199" lon="-4.592492"><ele>73.6</ele></trkpt>
    <trkpt lat="48.362309" lon="-4.591778"><ele>78.0</ele></trkpt>
    <trkpt lat="48.362439" lon="-4.590798"><ele>83.8</ele></trkpt>
    <trkpt lat="48.362468" lon="-4.590283"><ele>85.8</ele></trkpt>
    <trkpt lat="48.362630" lon="-4.589165"><ele>88.8</ele></trkpt>
    <trkpt lat="48.362604" lon="-4.589034"><ele>89.0</ele></trkpt>
    <trkpt lat="48.361804" lon="-4.588561"><ele>87.6</ele></trkpt>
    <trkpt lat="48.361444" lon="-4.588462"><ele>86.0</ele></trkpt>
    <trkpt lat="48.361037" lon="-4.588527"><ele>84.0</ele></trkpt>
    <trkpt lat="48.359972" lon="-4.588576"><ele>76.4</ele></trkpt>
    <trkpt lat="48.359463" lon="-4.588514"><ele>73.4</ele></trkpt>
    <trkpt lat="48.358623" lon="-4.588557"><ele>68.8</ele></trkpt>
    <trkpt lat="48.358573" lon="-4.588505"><ele>68.4</ele></trkpt>
    <trkpt lat="48.358546" lon="-4.588399"><ele>67.8</ele></trkpt>
    <trkpt lat="48.358482" lon="-4.587719"><ele>66.4</ele></trkpt>
    <trkpt lat="48.358361" lon="-4.587471"><ele>66.6</ele></trkpt>
    <trkpt lat="48.358122" lon="-4.587519"><ele>65.4</ele></trkpt>
    <trkpt lat="48.357564" lon="-4.587429"><ele>62.8</ele></trkpt>
    <trkpt lat="48.357278" lon="-4.587543"><ele>60.4</ele></trkpt>
    <trkpt lat="48.356795" lon="-4.588034"><ele>57.2</ele></trkpt>
    <trkpt lat="48.356192" lon="-4.588531"><ele>54.0</ele></trkpt>
    <trkpt lat="48.356031" lon="-4.588768"><ele>52.2</ele></trkpt>
    <trkpt lat="48.355955" lon="-4.588961"><ele>51.0</ele></trkpt>
    <trkpt lat="48.355747" lon="-4.589942"><ele>48.2</ele></trkpt>
    <trkpt lat="48.355684" lon="-4.590089"><ele>47.8</ele></trkpt>
    <trkpt lat="48.355595" lon="-4.590197"><ele>47.2</ele></trkpt>
    <trkpt lat="48.355137" lon="-4.590353"><ele>44.8</ele></trkpt>
    <trkpt lat="48.354616" lon="-4.590729"><ele>39.6</ele></trkpt>
    <trkpt lat="48.354224" lon="-4.590754"><ele>37.0</ele></trkpt>
    <trkpt lat="48.353652" lon="-4.590709"><ele>35.0</ele></trkpt>
    <trkpt lat="48.353329" lon="-4.590823"><ele>32.8</ele></trkpt>
    <trkpt lat="48.353057" lon="-4.590976"><ele>30.8</ele></trkpt>
    <trkpt lat="48.353034" lon="-4.591044"><ele>30.4</ele></trkpt>
    <trkpt lat="48.353046" lon="-4.591151"><ele>30.0</ele></trkpt>
    <trkpt lat="48.352909" lon="-4.591045"><ele>31.4</ele></trkpt>
    <trkpt lat="48.352834" lon="-4.591856"><ele>36.4</ele></trkpt>
    <trkpt lat="48.352509" lon="-4.592907"><ele>43.0</ele></trkpt>
    <trkpt lat="48.352294" lon="-4.593232"><ele>44.8</ele></trkpt>
    <trkpt lat="48.352141" lon="-4.593381"><ele>46.2</ele></trkpt>
    <trkpt lat="48.351601" lon="-4.594184"><ele>49.8</ele></trkpt>
    <trkpt lat="48.351212" lon="-4.594954"><ele>53.4</ele></trkpt>
    <trkpt lat="48.350718" lon="-4.595608"><ele>58.4</ele></trkpt>
    <trkpt lat="48.350596" lon="-4.595865"><ele>60.4</ele></trkpt>
    <trkpt lat="48.350570" lon="-4.596047"><ele>61.6</ele></trkpt>
    <trkpt lat="48.350600" lon="-4.596332"><ele>63.2</ele></trkpt>
    <trkpt lat="48.351010" lon="-4.597940"><ele>66.0</ele></trkpt>
    <trkpt lat="48.351094" lon="-4.598348"><ele>66.4</ele></trkpt>
    <trkpt lat="48.351125" lon="-4.598747"><ele>68.6</ele></trkpt>
    <trkpt lat="48.351032" lon="-4.599087"><ele>70.4</ele></trkpt>
    <trkpt lat="48.350836" lon="-4.600101"><ele>74.2</ele></trkpt>
    <trkpt lat="48.350676" lon="-4.600640"><ele>74.8</ele></trkpt>
    <trkpt lat="48.350605" lon="-4.600992"><ele>74.8</ele></trkpt>
    <trkpt lat="48.350369" lon="-4.601421"><ele>75.0</ele></trkpt>
    <trkpt lat="48.349932" lon="-4.601559"><ele>72.0</ele></trkpt>
    <trkpt lat="48.349751" lon="-4.601655"><ele>71.0</ele></trkpt>
    <trkpt lat="48.349382" lon="-4.601900"><ele>69.2</ele></trkpt>
    <trkpt lat="48.348987" lon="-4.602229"><ele>66.0</ele></trkpt>
    <trkpt lat="48.348133" lon="-4.602418"><ele>60.2</ele></trkpt>
    <trkpt lat="48.347640" lon="-4.602293"><ele>56.6</ele></trkpt>
    <trkpt lat="48.347177" lon="-4.602064"><ele>54.6</ele></trkpt>
    <trkpt lat="48.346214" lon="-4.601342"><ele>55.2</ele></trkpt>
    <trkpt lat="48.345926" lon="-4.601186"><ele>54.6</ele></trkpt>
    <trkpt lat="48.345785" lon="-4.601174"><ele>54.0</ele></trkpt>
    <trkpt lat="48.345697" lon="-4.601250"><ele>52.2</ele></trkpt>
    <trkpt lat="48.345616" lon="-4.601389"><ele>51.4</ele></trkpt>
    <trkpt lat="48.345513" lon="-4.601436"><ele>51.2</ele></trkpt>
    <trkpt lat="48.345028" lon="-4.601003"><ele>50.6</ele></trkpt>
    <trkpt lat="48.344921" lon="-4.601011"><ele>51.2</ele></trkpt>
    <trkpt lat="48.344122" lon="-4.601336"><ele>60.0</ele></trkpt>
    <trkpt lat="48.344013" lon="-4.601302"><ele>60.8</ele></trkpt>
    <trkpt lat="48.343497" lon="-4.600966"><ele>62.0</ele></trkpt>
    <trkpt lat="48.343380" lon="-4.600958"><ele>61.0</ele></trkpt>
    <trkpt lat="48.343292" lon="-4.601046"><ele>60.4</ele></trkpt>
    <trkpt lat="48.343180" lon="-4.601322"><ele>59.2</ele></trkpt>
    <trkpt lat="48.342904" lon="-4.601702"><ele>56.6</ele></trkpt>
    <trkpt lat="48.342590" lon="-4.602427"><ele>54.2</ele></trkpt>
    <trkpt lat="48.342094" lon="-4.603193"><ele>53.8</ele></trkpt>
    <trkpt lat="48.341716" lon="-4.604290"><ele>55.0</ele></trkpt>
    <trkpt lat="48.341466" lon="-4.605304"><ele>54.6</ele></trkpt>
    <trkpt lat="48.341466" lon="-4.605424"><ele>54.4</ele></trkpt>
    <trkpt lat="48.341511" lon="-4.605527"><ele>54.2</ele></trkpt>
    <trkpt lat="48.341826" lon="-4.605795"><ele>53.6</ele></trkpt>
    <trkpt lat="48.341952" lon="-4.605999"><ele>54.4</ele></trkpt>
    <trkpt lat="48.342005" lon="-4.606844"><ele>58.6</ele></trkpt>
    <trkpt lat="48.341986" lon="-4.607178"><ele>58.4</ele></trkpt>
    <trkpt lat="48.341940" lon="-4.607381"><ele>58.2</ele></trkpt>
    <trkpt lat="48.341718" lon="-4.607733"><ele>57.0</ele></trkpt>
    <trkpt lat="48.341384" lon="-4.608836"><ele>55.6</ele></trkpt>
    <trkpt lat="48.341302" lon="-4.609624"><ele>57.0</ele></trkpt>
    <trkpt lat="48.341226" lon="-4.610022"><ele>56.8</ele></trkpt>
    <trkpt lat="48.341226" lon="-4.610312"><ele>56.8</ele></trkpt>
    <trkpt lat="48.341281" lon="-4.610734"><ele>57.8</ele></trkpt>
    <trkpt lat="48.341382" lon="-4.611216"><ele>59.0</ele></trkpt>
    <trkpt lat="48.341455" lon="-4.611373"><ele>58.8</ele></trkpt>
    <trkpt lat="48.341514" lon="-4.611606"><ele>58.4</ele></trkpt>
    <trkpt lat="48.341632" lon="-4.612332"><ele>57.0</ele></trkpt>
    <trkpt lat="48.341691" lon="-4.612450"><ele>56.8</ele></trkpt>
    <trkpt lat="48.341886" lon="-4.612524"><ele>57.0</ele></trkpt>
    <trkpt lat="48.342422" lon="-4.612398"><ele>58.6</ele></trkpt>
    <trkpt lat="48.342456" lon="-4.612491"><ele>58.6</ele></trkpt>
    <trkpt lat="48.342471" lon="-4.612858"><ele>57.0</ele></trkpt>
    <trkpt lat="48.342557" lon="-4.612984"><ele>55.8</ele></trkpt>
    <trkpt lat="48.342660" lon="-4.613036"><ele>54.6</ele></trkpt>
    <trkpt lat="48.343322" lon="-4.612833"><ele>49.4</ele></trkpt>
    <trkpt lat="48.343771" lon="-4.612867"><ele>45.8</ele></trkpt>
    <trkpt lat="48.344228" lon="-4.612553"><ele>42.6</ele></trkpt>
    <trkpt lat="48.344376" lon="-4.612505"><ele>42.4</ele></trkpt>
    <trkpt lat="48.344605" lon="-4.612520"><ele>42.4</ele></trkpt>
    <trkpt lat="48.345051" lon="-4.612647"><ele>40.4</ele></trkpt>
    <trkpt lat="48.344606" lon="-4.612612"><ele>40.8</ele></trkpt>
    <trkpt lat="48.344563" lon="-4.612702"><ele>40.4</ele></trkpt>
    <trkpt lat="48.344911" lon="-4.612892"><ele>38.2</ele></trkpt>
    <trkpt lat="48.345033" lon="-4.613004"><ele>38.2</ele></trkpt>
    <trkpt lat="48.345207" lon="-4.613303"><ele>39.0</ele></trkpt>
    <trkpt lat="48.345249" lon="-4.613441"><ele>39.4</ele></trkpt>
    <trkpt lat="48.345327" lon="-4.613500"><ele>41.2</ele></trkpt>
    <trkpt lat="48.345525" lon="-4.613968"><ele>44.4</ele></trkpt>
    <trkpt lat="48.345523" lon="-4.614382"><ele>46.0</ele></trkpt>
    <trkpt lat="48.345473" lon="-4.614687"><ele>46.6</ele></trkpt>
    <trkpt lat="48.345476" lon="-4.615434"><ele>49.4</ele></trkpt>
    <trkpt lat="48.345505" lon="-4.615683"><ele>50.6</ele></trkpt>
    <trkpt lat="48.345599" lon="-4.616016"><ele>52.0</ele></trkpt>
    <trkpt lat="48.345785" lon="-4.616171"><ele>54.4</ele></trkpt>
    <trkpt lat="48.346062" lon="-4.616256"><ele>58.0</ele></trkpt>
    <trkpt lat="48.346353" lon="-4.616519"><ele>58.8</ele></trkpt>
    <trkpt lat="48.346497" lon="-4.616594"><ele>59.4</ele></trkpt>
    <trkpt lat="48.346652" lon="-4.616615"><ele>60.2</ele></trkpt>
    <trkpt lat="48.347093" lon="-4.616554"><ele>63.4</ele></trkpt>
    <trkpt lat="48.347182" lon="-4.616654"><ele>64.0</ele></trkpt>
    <trkpt lat="48.347254" lon="-4.616912"><ele>64.8</ele></trkpt>
    <trkpt lat="48.347240" lon="-4.617024"><ele>65.0</ele></trkpt>
    <trkpt lat="48.347318" lon="-4.617740"><ele>66.8</ele></trkpt>
    <trkpt lat="48.347310" lon="-4.618137"><ele>68.4</ele></trkpt>
    <trkpt lat="48.347374" lon="-4.619065"><ele>69.8</ele></trkpt>
    <trkpt lat="48.347316" lon="-4.621146"><ele>71.8</ele></trkpt>
    <trkpt lat="48.347345" lon="-4.621816"><ele>71.8</ele></trkpt>
    <trkpt lat="48.347335" lon="-4.622744"><ele>71.2</ele></trkpt>
    <trkpt lat="48.347430" lon="-4.622932"><ele>70.8</ele></trkpt>
    <trkpt lat="48.347888" lon="-4.622788"><ele>71.6</ele></trkpt>
    <trkpt lat="48.348188" lon="-4.622641"><ele>72.0</ele></trkpt>
    <trkpt lat="48.348264" lon="-4.622666"><ele>72.2</ele></trkpt>
    <trkpt lat="48.348320" lon="-4.622757"><ele>72.2</ele></trkpt>
    <trkpt lat="48.348336" lon="-4.622870"><ele>72.2</ele></trkpt>
    <trkpt lat="48.348191" lon="-4.623354"><ele>71.2</ele></trkpt>
    <trkpt lat="48.348211" lon="-4.623538"><ele>70.6</ele></trkpt>
    <trkpt lat="48.348873" lon="-4.624455"><ele>63.6</ele></trkpt>
    <trkpt lat="48.349788" lon="-4.625204"><ele>66.6</ele></trkpt>
    <trkpt lat="48.349900" lon="-4.625212"><ele>66.8</ele></trkpt>
    <trkpt lat="48.350322" lon="-4.625047"><ele>68.0</ele></trkpt>
    <trkpt lat="48.350418" lon="-4.625069"><ele>68.2</ele></trkpt>
    <trkpt lat="48.350468" lon="-4.625195"><ele>68.4</ele></trkpt>
    <trkpt lat="48.350621" lon="-4.625993"><ele>66.8</ele></trkpt>
    <trkpt lat="48.351125" lon="-4.627176"><ele>68.6</ele></trkpt>
    <trkpt lat="48.351231" lon="-4.627597"><ele>69.2</ele></trkpt>
    <trkpt lat="48.351254" lon="-4.628073"><ele>69.0</ele></trkpt>
    <trkpt lat="48.351310" lon="-4.628174"><ele>69.2</ele></trkpt>
    <trkpt lat="48.351624" lon="-4.628205"><ele>69.2</ele></trkpt>
    <trkpt lat="48.351958" lon="-4.628134"><ele>69.4</ele></trkpt>
    <trkpt lat="48.352119" lon="-4.628416"><ele>69.4</ele></trkpt>
    <trkpt lat="48.352174" lon="-4.628438"><ele>69.4</ele></trkpt>
    <trkpt lat="48.353170" lon="-4.627678"><ele>71.0</ele></trkpt>
    <trkpt lat="48.353540" lon="-4.627313"><ele>70.4</ele></trkpt>
    <trkpt lat="48.354121" lon="-4.627021"><ele>69.0</ele></trkpt>
    <trkpt lat="48.354310" lon="-4.626770"><ele>68.6</ele></trkpt>
    <trkpt lat="48.354676" lon="-4.625938"><ele>68.2</ele></trkpt>
    <trkpt lat="48.355366" lon="-4.624942"><ele>70.4</ele></trkpt>
    <trkpt lat="48.355754" lon="-4.624520"><ele>70.8</ele></trkpt>
    <trkpt lat="48.355810" lon="-4.624530"><ele>71.0</ele></trkpt>
    <trkpt lat="48.356163" lon="-4.624986"><ele>72.6</ele></trkpt>
    <trkpt lat="48.356253" lon="-4.625165"><ele>73.4</ele></trkpt>
    <trkpt lat="48.356270" lon="-4.626094"><ele>75.4</ele></trkpt>
    <trkpt lat="48.356313" lon="-4.626187"><ele>75.8</ele></trkpt>
    <trkpt lat="48.356501" lon="-4.626349"><ele>76.2</ele></trkpt>
    <trkpt lat="48.356524" lon="-4.626443"><ele>76.0</ele></trkpt>
    <trkpt lat="48.356384" lon="-4.627597"><ele>73.8</ele></trkpt>
    <trkpt lat="48.356431" lon="-4.627691"><ele>73.6</ele></trkpt>
    <trkpt lat="48.356577" lon="-4.627791"><ele>73.4</ele></trkpt>
    <trkpt lat="48.356647" lon="-4.627899"><ele>73.0</ele></trkpt>
    <trkpt lat="48.356730" lon="-4.628430"><ele>72.8</ele></trkpt>
    <trkpt lat="48.356734" lon="-4.628627"><ele>72.8</ele></trkpt>
    <trkpt lat="48.356606" lon="-4.629559"><ele>72.4</ele></trkpt>
    <trkpt lat="48.356574" lon="-4.630022"><ele>71.8</ele></trkpt>
    <trkpt lat="48.356450" lon="-4.630635"><ele>71.6</ele></trkpt>
    <trkpt lat="48.356368" lon="-4.630860"><ele>71.6</ele></trkpt>
    <trkpt lat="48.356314" lon="-4.631280"><ele>72.0</ele></trkpt>
    <trkpt lat="48.356345" lon="-4.631978"><ele>72.6</ele></trkpt>
    <trkpt lat="48.356179" lon="-4.633011"><ele>72.0</ele></trkpt>
    <trkpt lat="48.356289" lon="-4.633385"><ele>72.2</ele></trkpt>
    <trkpt lat="48.356101" lon="-4.634167"><ele>70.8</ele></trkpt>
    <trkpt lat="48.355922" lon="-4.634671"><ele>69.8</ele></trkpt>
    <trkpt lat="48.355826" lon="-4.635062"><ele>69.8</ele></trkpt>
    <trkpt lat="48.355776" lon="-4.635505"><ele>70.2</ele></trkpt>
    <trkpt lat="48.355792" lon="-4.635812"><ele>70.0</ele></trkpt>
    <trkpt lat="48.355753" lon="-4.636470"><ele>70.2</ele></trkpt>
    <trkpt lat="48.355718" lon="-4.636593"><ele>70.8</ele></trkpt>
    <trkpt lat="48.355869" lon="-4.637123"><ele>73.0</ele></trkpt>
    <trkpt lat="48.355909" lon="-4.637391"><ele>73.4</ele></trkpt>
    <trkpt lat="48.356021" lon="-4.637722"><ele>73.2</ele></trkpt>
    <trkpt lat="48.356019" lon="-4.638285"><ele>74.2</ele></trkpt>
    <trkpt lat="48.356081" lon="-4.638603"><ele>74.8</ele></trkpt>
    <trkpt lat="48.356026" lon="-4.638821"><ele>75.6</ele></trkpt>
    <trkpt lat="48.356017" lon="-4.639003"><ele>76.0</ele></trkpt>
    <trkpt lat="48.356582" lon="-4.639388"><ele>76.4</ele></trkpt>
    <trkpt lat="48.356776" lon="-4.639558"><ele>76.4</ele></trkpt>
    <trkpt lat="48.356807" lon="-4.639645"><ele>76.4</ele></trkpt>
    <trkpt lat="48.356759" lon="-4.639986"><ele>76.8</ele></trkpt>
    <trkpt lat="48.356560" lon="-4.640866"><ele>78.4</ele></trkpt>
    <trkpt lat="48.356568" lon="-4.641134"><ele>79.0</ele></trkpt>
    <trkpt lat="48.356510" lon="-4.641506"><ele>79.8</ele></trkpt>
    <trkpt lat="48.356246" lon="-4.642347"><ele>81.0</ele></trkpt>
    <trkpt lat="48.356216" lon="-4.642605"><ele>81.4</ele></trkpt>
    <trkpt lat="48.356236" lon="-4.642897"><ele>81.4</ele></trkpt>
    <trkpt lat="48.356316" lon="-4.643264"><ele>81.4</ele></trkpt>
    <trkpt lat="48.356848" lon="-4.644438"><ele>79.6</ele></trkpt>
    <trkpt lat="48.357362" lon="-4.644630"><ele>79.6</ele></trkpt>
    <trkpt lat="48.357654" lon="-4.644567"><ele>79.4</ele></trkpt>
    <trkpt lat="48.357740" lon="-4.644462"><ele>79.2</ele></trkpt>
    <trkpt lat="48.358115" lon="-4.643746"><ele>76.8</ele></trkpt>
    <trkpt lat="48.358503" lon="-4.643315"><ele>74.8</ele></trkpt>
    <trkpt lat="48.358662" lon="-4.643270"><ele>74.2</ele></trkpt>
    <trkpt lat="48.358868" lon="-4.643371"><ele>73.4</ele></trkpt>
    <trkpt lat="48.358946" lon="-4.643360"><ele>73.2</ele></trkpt>
    <trkpt lat="48.359168" lon="-4.643118"><ele>73.0</ele></trkpt>
    <trkpt lat="48.359313" lon="-4.643018"><ele>73.0</ele></trkpt>
    <trkpt lat="48.359630" lon="-4.642894"><ele>72.6</ele></trkpt>
    <trkpt lat="48.359781" lon="-4.642896"><ele>72.4</ele></trkpt>
    <trkpt lat="48.359913" lon="-4.642780"><ele>72.2</ele></trkpt>
    <trkpt lat="48.360130" lon="-4.642670"><ele>72.0</ele></trkpt>
    <trkpt lat="48.360337" lon="-4.642473"><ele>72.2</ele></trkpt>
    <trkpt lat="48.360751" lon="-4.641849"><ele>73.4</ele></trkpt>
    <trkpt lat="48.361006" lon="-4.641623"><ele>73.6</ele></trkpt>
    <trkpt lat="48.361376" lon="-4.641475"><ele>73.6</ele></trkpt>
    <trkpt lat="48.362443" lon="-4.641263"><ele>71.2</ele></trkpt>
    <trkpt lat="48.362903" lon="-4.641237"><ele>70.0</ele></trkpt>
    <trkpt lat="48.364805" lon="-4.641493"><ele>66.6</ele></trkpt>
    <trkpt lat="48.364987" lon="-4.641561"><ele>66.8</ele></trkpt>
    <trkpt lat="48.365569" lon="-4.642007"><ele>67.6</ele></trkpt>
    <trkpt lat="48.365771" lon="-4.642103"><ele>68.0</ele></trkpt>
    <trkpt lat="48.366008" lon="-4.642154"><ele>68.4</ele></trkpt>
    <trkpt lat="48.366197" lon="-4.642358"><ele>68.4</ele></trkpt>
    <trkpt lat="48.366452" lon="-4.642310"><ele>68.6</ele></trkpt>
    <trkpt lat="48.367403" lon="-4.642614"><ele>69.4</ele></trkpt>
    <trkpt lat="48.367737" lon="-4.642555"><ele>69.0</ele></trkpt>
    <trkpt lat="48.368114" lon="-4.642739"><ele>68.4</ele></trkpt>
    <trkpt lat="48.368425" lon="-4.642823"><ele>66.8</ele></trkpt>
    <trkpt lat="48.369555" lon="-4.642821"><ele>61.4</ele></trkpt>
    <trkpt lat="48.369634" lon="-4.642768"><ele>61.4</ele></trkpt>
    <trkpt lat="48.369666" lon="-4.642684"><ele>61.6</ele></trkpt>
    <trkpt lat="48.369800" lon="-4.641994"><ele>62.6</ele></trkpt>
    <trkpt lat="48.370187" lon="-4.640602"><ele>63.4</ele></trkpt>
  </trkseg></trk>
</gpx>
