<?xml version="1.0" encoding="UTF-8"?>
<gpx version="1.1" creator="tcap-parcours" xmlns="http://www.topografix.com/GPX/1/1">
  <metadata><name>Odyssea Brest (Moulin Blanc) – 10 km</name></metadata>
  <trk><name>Odyssea Brest (Moulin Blanc) – 10 km</name><trkseg>
    <trkpt lat="48.396744" lon="-4.420758"><ele>4.6</ele></trkpt>
    <trkpt lat="48.396582" lon="-4.420153"><ele>5.0</ele></trkpt>
    <trkpt lat="48.396601" lon="-4.419984"><ele>5.0</ele></trkpt>
    <trkpt lat="48.396647" lon="-4.419882"><ele>5.0</ele></trkpt>
    <trkpt lat="48.397108" lon="-4.419589"><ele>8.4</ele></trkpt>
    <trkpt lat="48.397876" lon="-4.419245"><ele>10.0</ele></trkpt>
    <trkpt lat="48.397990" lon="-4.419138"><ele>10.8</ele></trkpt>
    <trkpt lat="48.398146" lon="-4.418247"><ele>14.2</ele></trkpt>
    <trkpt lat="48.398168" lon="-4.417917"><ele>16.0</ele></trkpt>
    <trkpt lat="48.398144" lon="-4.417540"><ele>18.2</ele></trkpt>
    <trkpt lat="48.398010" lon="-4.417222"><ele>19.6</ele></trkpt>
    <trkpt lat="48.397421" lon="-4.416497"><ele>21.6</ele></trkpt>
    <trkpt lat="48.397127" lon="-4.416229"><ele>22.2</ele></trkpt>
    <trkpt lat="48.396868" lon="-4.416096"><ele>22.2</ele></trkpt>
    <trkpt lat="48.396341" lon="-4.415702"><ele>22.6</ele></trkpt>
    <trkpt lat="48.396019" lon="-4.415357"><ele>23.4</ele></trkpt>
    <trkpt lat="48.395969" lon="-4.415228"><ele>24.0</ele></trkpt>
    <trkpt lat="48.396703" lon="-4.413707"><ele>29.0</ele></trkpt>
    <trkpt lat="48.397828" lon="-4.411769"><ele>31.6</ele></trkpt>
    <trkpt lat="48.398243" lon="-4.410891"><ele>30.4</ele></trkpt>
    <trkpt lat="48.398290" lon="-4.410688"><ele>30.4</ele></trkpt>
    <trkpt lat="48.398279" lon="-4.410440"><ele>30.6</ele></trkpt>
    <trkpt lat="48.398042" lon="-4.409885"><ele>31.2</ele></trkpt>
    <trkpt lat="48.398002" lon="-4.409637"><ele>31.0</ele></trkpt>
    <trkpt lat="48.398036" lon="-4.409427"><ele>30.0</ele></trkpt>
    <trkpt lat="48.398409" lon="-4.408037"><ele>26.6</ele></trkpt>
    <trkpt lat="48.398476" lon="-4.407640"><ele>25.8</ele></trkpt>
    <trkpt lat="48.398427" lon="-4.407457"><ele>25.8</ele></trkpt>
    <trkpt lat="48.398334" lon="-4.407380"><ele>26.0</ele></trkpt>
    <trkpt lat="48.397968" lon="-4.407246"><ele>27.6</ele></trkpt>
    <trkpt lat="48.397473" lon="-4.407174"><ele>28.4</ele></trkpt>
    <trkpt lat="48.397343" lon="-4.407074"><ele>27.8</ele></trkpt>
    <trkpt lat="48.397321" lon="-4.406904"><ele>27.2</ele></trkpt>
    <trkpt lat="48.397425" lon="-4.406276"><ele>25.8</ele></trkpt>
    <trkpt lat="48.397347" lon="-4.405751"><ele>24.8</ele></trkpt>
    <trkpt lat="48.397552" lon="-4.405283"><ele>22.8</ele></trkpt>
    <trkpt lat="48.397585" lon="-4.405037"><ele>22.2</ele></trkpt>
    <trkpt lat="48.397506" lon="-4.404869"><ele>22.2</ele></trkpt>
    <trkpt lat="48.396642" lon="-4.403931"><ele>26.4</ele></trkpt>
    <trkpt lat="48.396304" lon="-4.403631"><ele>28.2</ele></trkpt>
    <trkpt lat="48.396067" lon="-4.402193"><ele>28.8</ele></trkpt>
    <trkpt lat="48.396023" lon="-4.401526"><ele>29.0</ele></trkpt>
    <trkpt lat="48.395752" lon="-4.400491"><ele>28.4</ele></trkpt>
    <trkpt lat="48.395792" lon="-4.400319"><ele>28.4</ele></trkpt>
    <trkpt lat="48.396134" lon="-4.399500"><ele>27.6</ele></trkpt>
    <trkpt lat="48.396304" lon="-4.398575"><ele>26.8</ele></trkpt>
    <trkpt lat="48.396815" lon="-4.397439"><ele>25.4</ele></trkpt>
    <trkpt lat="48.396891" lon="-4.397179"><ele>25.0</ele></trkpt>
    <trkpt lat="48.396925" lon="-4.396899"><ele>24.4</ele></trkpt>
    <trkpt lat="48.396928" lon="-4.396294"><ele>22.6</ele></trkpt>
    <trkpt lat="48.396816" lon="-4.395354"><ele>17.6</ele></trkpt>
    <trkpt lat="48.396753" lon="-4.394263"><ele>8.0</ele></trkpt>
    <trkpt lat="48.396837" lon="-4.394039"><ele>6.0</ele></trkpt>
    <trkpt lat="48.397122" lon="-4.393753"><ele>4.8</ele></trkpt>
    <trkpt lat="48.397364" lon="-4.393346"><ele>6.2</ele></trkpt>
    <trkpt lat="48.397734" lon="-4.392342"><ele>10.0</ele></trkpt>
    <trkpt lat="48.397870" lon="-4.391866"><ele>10.8</ele></trkpt>
    <trkpt lat="48.397937" lon="-4.391512"><ele>11.2</ele></trkpt>
    <trkpt lat="48.398045" lon="-4.389163"><ele>11.8</ele></trkpt>
    <trkpt lat="48.398067" lon="-4.388154"><ele>11.6</ele></trkpt>
    <trkpt lat="48.398048" lon="-4.387683"><ele>11.8</ele></trkpt>
    <trkpt lat="48.397924" lon="-4.386654"><ele>10.6</ele></trkpt>
    <trkpt lat="48.397599" lon="-4.385649"><ele>10.6</ele></trkpt>
    <trkpt lat="48.397572" lon="-4.385433"><ele>11.4</ele></trkpt>
    <trkpt lat="48.397613" lon="-4.385333"><ele>12.0</ele></trkpt>
    <trkpt lat="48.397700" lon="-4.385249"><ele>12.8</ele></trkpt>
    <trkpt lat="48.398390" lon="-4.385159"><ele>18.0</ele></trkpt>
    <trkpt lat="48.398920" lon="-4.385228"><ele>22.2</ele></trkpt>
    <trkpt lat="48.398989" lon="-4.385167"><ele>22.2</ele></trkpt>
    <trkpt lat="48.399007" lon="-4.385078"><ele>22.4</ele></trkpt>
    <trkpt lat="48.398946" lon="-4.384742"><ele>22.2</ele></trkpt>
    <trkpt lat="48.398675" lon="-4.383742"><ele>23.2</ele></trkpt>
    <trkpt lat="48.398480" lon="-4.382800"><ele>23.4</ele></trkpt>
    <trkpt lat="48.398398" lon="-4.382566"><ele>23.4</ele></trkpt>
    <trkpt lat="48.398077" lon="-4.382127"><ele>22.6</ele></trkpt>
    <trkpt lat="48.397728" lon="-4.381773"><ele>19.6</ele></trkpt>
    <trkpt lat="48.397542" lon="-4.381664"><ele>18.2</ele></trkpt>
    <trkpt lat="48.397439" lon="-4.381727"><ele>17.6</ele></trkpt>
    <trkpt lat="48.397290" lon="-4.382081"><ele>17.2</ele></trkpt>
    <trkpt lat="48.396937" lon="-4.383351"><ele>14.0</ele></trkpt>
    <trkpt lat="48.396875" lon="-4.383694"><ele>12.0</ele></trkpt>
    <trkpt lat="48.397058" lon="-4.384430"><ele>10.2</ele></trkpt>
    <trkpt lat="48.397464" lon="-4.385359"><ele>11.0</ele></trkpt>
    <trkpt lat="48.397822" lon="-4.386555"><ele>10.4</ele></trkpt>
    <trkpt lat="48.397934" lon="-4.387179"><ele>11.4</ele></trkpt>
    <trkpt lat="48.397986" lon="-4.387653"><ele>12.0</ele></trkpt>
    <trkpt lat="48.397999" lon="-4.388374"><ele>11.8</ele></trkpt>
    <trkpt lat="48.397933" lon="-4.390677"><ele>10.4</ele></trkpt>
    <trkpt lat="48.397886" lon="-4.391414"><ele>10.0</ele></trkpt>
    <trkpt lat="48.397780" lon="-4.392000"><ele>9.2</ele></trkpt>
    <trkpt lat="48.397309" lon="-4.393322"><ele>5.8</ele></trkpt>
    <trkpt lat="48.396614" lon="-4.394234"><ele>8.6</ele></trkpt>
    <trkpt lat="48.396258" lon="-4.394598"><ele>11.0</ele></trkpt>
    <trkpt lat="48.396057" lon="-4.394963"><ele>12.6</ele></trkpt>
    <trkpt lat="48.395939" lon="-4.395385"><ele>14.6</ele></trkpt>
    <trkpt lat="48.395778" lon="-4.396352"><ele>18.6</ele></trkpt>
    <trkpt lat="48.395473" lon="-4.397743"><ele>22.8</ele></trkpt>
    <trkpt lat="48.395291" lon="-4.398923"><ele>24.6</ele></trkpt>
    <trkpt lat="48.395285" lon="-4.399410"><ele>25.8</ele></trkpt>
    <trkpt lat="48.395456" lon="-4.400224"><ele>28.4</ele></trkpt>
    <trkpt lat="48.395808" lon="-4.401112"><ele>28.6</ele></trkpt>
    <trkpt lat="48.395904" lon="-4.401435"><ele>29.0</ele></trkpt>
    <trkpt lat="48.396048" lon="-4.402762"><ele>30.2</ele></trkpt>
    <trkpt lat="48.396184" lon="-4.403556"><ele>29.2</ele></trkpt>
    <trkpt lat="48.396220" lon="-4.404218"><ele>29.8</ele></trkpt>
    <trkpt lat="48.396058" lon="-4.404982"><ele>30.6</ele></trkpt>
    <trkpt lat="48.395856" lon="-4.405460"><ele>31.0</ele></trkpt>
    <trkpt lat="48.395622" lon="-4.406185"><ele>32.6</ele></trkpt>
    <trkpt lat="48.395260" lon="-4.407794"><ele>32.4</ele></trkpt>
    <trkpt lat="48.395129" lon="-4.408178"><ele>33.0</ele></trkpt>
    <trkpt lat="48.395027" lon="-4.408343"><ele>34.0</ele></trkpt>
    <trkpt lat="48.394915" lon="-4.408345"><ele>34.8</ele></trkpt>
    <trkpt lat="48.394792" lon="-4.408169"><ele>35.6</ele></trkpt>
    <trkpt lat="48.394551" lon="-4.407203"><ele>35.8</ele></trkpt>
    <trkpt lat="48.394100" lon="-4.406055"><ele>31.2</ele></trkpt>
    <trkpt lat="48.393846" lon="-4.405498"><ele>28.4</ele></trkpt>
    <trkpt lat="48.393589" lon="-4.405038"><ele>26.0</ele></trkpt>
    <trkpt lat="48.393055" lon="-4.404371"><ele>23.8</ele></trkpt>
    <trkpt lat="48.392671" lon="-4.404000"><ele>24.4</ele></trkpt>
    <trkpt lat="48.392089" lon="-4.403533"><ele>25.4</ele></trkpt>
    <trkpt lat="48.391748" lon="-4.403151"><ele>26.2</ele></trkpt>
    <trkpt lat="48.388584" lon="-4.400648"><ele>38.4</ele></trkpt>
    <trkpt lat="48.384259" lon="-4.397086"><ele>32.4</ele></trkpt>
    <trkpt lat="48.384088" lon="-4.396904"><ele>29.8</ele></trkpt>
    <trkpt lat="48.383876" lon="-4.396580"><ele>30.8</ele></trkpt>
    <trkpt lat="48.383848" lon="-4.396595"><ele>31.4</ele></trkpt>
    <trkpt lat="48.383979" lon="-4.396900"><ele>32.0</ele></trkpt>
    <trkpt lat="48.384263" lon="-4.397204"><ele>30.2</ele></trkpt>
    <trkpt lat="48.384761" lon="-4.397558"><ele>26.4</ele></trkpt>
    <trkpt lat="48.386255" lon="-4.398848"><ele>41.6</ele></trkpt>
    <trkpt lat="48.387588" lon="-4.399884"><ele>42.4</ele></trkpt>
    <trkpt lat="48.388364" lon="-4.400583"><ele>41.2</ele></trkpt>
    <trkpt lat="48.389038" lon="-4.401061"><ele>41.0</ele></trkpt>
    <trkpt lat="48.389987" lon="-4.401877"><ele>35.6</ele></trkpt>
    <trkpt lat="48.390902" lon="-4.402592"><ele>25.4</ele></trkpt>
    <trkpt lat="48.392104" lon="-4.403686"><ele>24.8</ele></trkpt>
    <trkpt lat="48.392563" lon="-4.403979"><ele>23.6</ele></trkpt>
    <trkpt lat="48.392826" lon="-4.404227"><ele>24.0</ele></trkpt>
    <trkpt lat="48.393421" lon="-4.404909"><ele>26.6</ele></trkpt>
    <trkpt lat="48.393778" lon="-4.405487"><ele>29.6</ele></trkpt>
    <trkpt lat="48.394006" lon="-4.405991"><ele>31.6</ele></trkpt>
    <trkpt lat="48.394356" lon="-4.406914"><ele>34.6</ele></trkpt>
    <trkpt lat="48.394820" lon="-4.408647"><ele>35.6</ele></trkpt>
    <trkpt lat="48.394846" lon="-4.409098"><ele>34.8</ele></trkpt>
    <trkpt lat="48.395077" lon="-4.410454"><ele>32.6</ele></trkpt>
    <trkpt lat="48.395188" lon="-4.411471"><ele>31.6</ele></trkpt>
    <trkpt lat="48.395204" lon="-4.412593"><ele>28.6</ele></trkpt>
    <trkpt lat="48.395124" lon="-4.413899"><ele>25.0</ele></trkpt>
    <trkpt lat="48.395415" lon="-4.416030"><ele>19.0</ele></trkpt>
    <trkpt lat="48.395506" lon="-4.417296"><ele>12.6</ele></trkpt>
    <trkpt lat="48.395748" lon="-4.418459"><ele>8.0</ele></trkpt>
    <trkpt lat="48.396359" lon="-4.419913"><ele>7.0</ele></trkpt>
    <trkpt lat="48.396513" lon="-4.420450"><ele>6.0</ele></trkpt>
    <trkpt lat="48.396555" lon="-4.420816"><ele>5.8</ele></trkpt>
    <trkpt lat="48.396629" lon="-4.421018"><ele>5.8</ele></trkpt>
  </trkseg></trk>
</gpx>
