<?xml version="1.0" encoding="UTF-8"?>
<gpx version="1.1" creator="tcap-parcours" xmlns="http://www.topografix.com/GPX/1/1">
  <metadata><name>Porspoder – Argenton – Kersaint – 21 km, arrivée déportée</name></metadata>
  <trk><name>Porspoder – Argenton – Kersaint – 21 km, arrivée déportée</name><trkseg>
    <trkpt lat="48.513807" lon="-4.768227"><ele>14.0</ele></trkpt>
    <trkpt lat="48.513911" lon="-4.767376"><ele>12.8</ele></trkpt>
    <trkpt lat="48.514026" lon="-4.766967"><ele>11.2</ele></trkpt>
    <trkpt lat="48.514066" lon="-4.766657"><ele>9.8</ele></trkpt>
    <trkpt lat="48.514033" lon="-4.766072"><ele>8.4</ele></trkpt>
    <trkpt lat="48.513888" lon="-4.765730"><ele>8.2</ele></trkpt>
    <trkpt lat="48.513929" lon="-4.765637"><ele>8.2</ele></trkpt>
    <trkpt lat="48.514207" lon="-4.765672"><ele>9.2</ele></trkpt>
    <trkpt lat="48.514347" lon="-4.765643"><ele>9.4</ele></trkpt>
    <trkpt lat="48.514716" lon="-4.765312"><ele>9.2</ele></trkpt>
    <trkpt lat="48.515076" lon="-4.765076"><ele>8.8</ele></trkpt>
    <trkpt lat="48.515432" lon="-4.764734"><ele>8.4</ele></trkpt>
    <trkpt lat="48.515661" lon="-4.764619"><ele>7.8</ele></trkpt>
    <trkpt lat="48.515692" lon="-4.764657"><ele>7.8</ele></trkpt>
    <trkpt lat="48.515694" lon="-4.764737"><ele>7.6</ele></trkpt>
    <trkpt lat="48.515564" lon="-4.765799"><ele>7.6</ele></trkpt>
    <trkpt lat="48.515619" lon="-4.766010"><ele>7.4</ele></trkpt>
    <trkpt lat="48.515746" lon="-4.766136"><ele>7.2</ele></trkpt>
    <trkpt lat="48.515906" lon="-4.766212"><ele>7.0</ele></trkpt>
    <trkpt lat="48.516062" lon="-4.766355"><ele>6.4</ele></trkpt>
    <trkpt lat="48.516164" lon="-4.766386"><ele>5.8</ele></trkpt>
    <trkpt lat="48.516856" lon="-4.766225"><ele>2.8</ele></trkpt>
    <trkpt lat="48.517605" lon="-4.766171"><ele>2.0</ele></trkpt>
    <trkpt lat="48.518160" lon="-4.765652"><ele>2.2</ele></trkpt>
    <trkpt lat="48.518652" lon="-4.765044"><ele>2.0</ele></trkpt>
    <trkpt lat="48.518911" lon="-4.764779"><ele>2.4</ele></trkpt>
    <trkpt lat="48.520091" lon="-4.763777"><ele>4.4</ele></trkpt>
    <trkpt lat="48.520114" lon="-4.763691"><ele>5.0</ele></trkpt>
    <trkpt lat="48.520099" lon="-4.763589"><ele>5.2</ele></trkpt>
    <trkpt lat="48.519692" lon="-4.762944"><ele>4.2</ele></trkpt>
    <trkpt lat="48.519630" lon="-4.762680"><ele>4.2</ele></trkpt>
    <trkpt lat="48.519663" lon="-4.762580"><ele>4.2</ele></trkpt>
    <trkpt lat="48.519846" lon="-4.762353"><ele>4.2</ele></trkpt>
    <trkpt lat="48.519944" lon="-4.762000"><ele>4.0</ele></trkpt>
    <trkpt lat="48.520157" lon="-4.761444"><ele>3.2</ele></trkpt>
    <trkpt lat="48.520218" lon="-4.761182"><ele>3.6</ele></trkpt>
    <trkpt lat="48.520395" lon="-4.760766"><ele>3.8</ele></trkpt>
    <trkpt lat="48.520411" lon="-4.760646"><ele>4.2</ele></trkpt>
    <trkpt lat="48.520313" lon="-4.760210"><ele>8.2</ele></trkpt>
    <trkpt lat="48.519973" lon="-4.760092"><ele>8.8</ele></trkpt>
    <trkpt lat="48.519916" lon="-4.760024"><ele>9.0</ele></trkpt>
    <trkpt lat="48.519914" lon="-4.759908"><ele>9.0</ele></trkpt>
    <trkpt lat="48.520002" lon="-4.759668"><ele>9.2</ele></trkpt>
    <trkpt lat="48.520264" lon="-4.759663"><ele>9.2</ele></trkpt>
    <trkpt lat="48.520464" lon="-4.759577"><ele>8.8</ele></trkpt>
    <trkpt lat="48.520587" lon="-4.759076"><ele>7.6</ele></trkpt>
    <trkpt lat="48.520774" lon="-4.758627"><ele>5.6</ele></trkpt>
    <trkpt lat="48.520784" lon="-4.758056"><ele>4.6</ele></trkpt>
    <trkpt lat="48.520817" lon="-4.758007"><ele>4.6</ele></trkpt>
    <trkpt lat="48.521034" lon="-4.757933"><ele>4.6</ele></trkpt>
    <trkpt lat="48.521229" lon="-4.757904"><ele>4.6</ele></trkpt>
    <trkpt lat="48.521394" lon="-4.757934"><ele>4.6</ele></trkpt>
    <trkpt lat="48.521574" lon="-4.758030"><ele>4.2</ele></trkpt>
    <trkpt lat="48.521867" lon="-4.758283"><ele>3.0</ele></trkpt>
    <trkpt lat="48.522044" lon="-4.758322"><ele>3.4</ele></trkpt>
    <trkpt lat="48.522307" lon="-4.758491"><ele>3.6</ele></trkpt>
    <trkpt lat="48.522806" lon="-4.758704"><ele>3.4</ele></trkpt>
    <trkpt lat="48.523258" lon="-4.758818"><ele>5.6</ele></trkpt>
    <trkpt lat="48.523415" lon="-4.759044"><ele>5.4</ele></trkpt>
    <trkpt lat="48.523649" lon="-4.759672"><ele>5.4</ele></trkpt>
    <trkpt lat="48.523757" lon="-4.759859"><ele>6.0</ele></trkpt>
    <trkpt lat="48.524016" lon="-4.760154"><ele>7.2</ele></trkpt>
    <trkpt lat="48.524439" lon="-4.760421"><ele>8.2</ele></trkpt>
    <trkpt lat="48.525165" lon="-4.760184"><ele>8.0</ele></trkpt>
    <trkpt lat="48.525291" lon="-4.759824"><ele>8.8</ele></trkpt>
    <trkpt lat="48.525503" lon="-4.759582"><ele>9.2</ele></trkpt>
    <trkpt lat="48.525788" lon="-4.759532"><ele>8.8</ele></trkpt>
    <trkpt lat="48.526017" lon="-4.759584"><ele>8.6</ele></trkpt>
    <trkpt lat="48.526347" lon="-4.759834"><ele>9.0</ele></trkpt>
    <trkpt lat="48.526616" lon="-4.760172"><ele>9.2</ele></trkpt>
    <trkpt lat="48.526655" lon="-4.760321"><ele>9.0</ele></trkpt>
    <trkpt lat="48.526622" lon="-4.760667"><ele>7.2</ele></trkpt>
    <trkpt lat="48.526653" lon="-4.760761"><ele>6.8</ele></trkpt>
    <trkpt lat="48.526934" lon="-4.760903"><ele>7.2</ele></trkpt>
    <trkpt lat="48.527156" lon="-4.760939"><ele>8.2</ele></trkpt>
    <trkpt lat="48.527223" lon="-4.761126"><ele>8.8</ele></trkpt>
    <trkpt lat="48.527466" lon="-4.761541"><ele>10.2</ele></trkpt>
    <trkpt lat="48.527509" lon="-4.761920"><ele>11.4</ele></trkpt>
    <trkpt lat="48.527481" lon="-4.762289"><ele>11.0</ele></trkpt>
    <trkpt lat="48.527418" lon="-4.762527"><ele>10.4</ele></trkpt>
    <trkpt lat="48.527407" lon="-4.762842"><ele>9.2</ele></trkpt>
    <trkpt lat="48.527444" lon="-4.763422"><ele>8.0</ele></trkpt>
    <trkpt lat="48.527524" lon="-4.763645"><ele>7.8</ele></trkpt>
    <trkpt lat="48.527725" lon="-4.763721"><ele>7.6</ele></trkpt>
    <trkpt lat="48.527874" lon="-4.763661"><ele>8.0</ele></trkpt>
    <trkpt lat="48.528067" lon="-4.763347"><ele>9.0</ele></trkpt>
    <trkpt lat="48.528209" lon="-4.763220"><ele>9.6</ele></trkpt>
    <trkpt lat="48.528344" lon="-4.763024"><ele>11.4</ele></trkpt>
    <trkpt lat="48.528490" lon="-4.762888"><ele>13.2</ele></trkpt>
    <trkpt lat="48.528575" lon="-4.762858"><ele>13.8</ele></trkpt>
    <trkpt lat="48.528674" lon="-4.762955"><ele>13.8</ele></trkpt>
    <trkpt lat="48.528809" lon="-4.762907"><ele>12.4</ele></trkpt>
    <trkpt lat="48.529126" lon="-4.763083"><ele>10.6</ele></trkpt>
    <trkpt lat="48.529217" lon="-4.763090"><ele>10.4</ele></trkpt>
    <trkpt lat="48.529367" lon="-4.763008"><ele>9.8</ele></trkpt>
    <trkpt lat="48.529554" lon="-4.763072"><ele>9.0</ele></trkpt>
    <trkpt lat="48.530117" lon="-4.763613"><ele>7.4</ele></trkpt>
    <trkpt lat="48.530461" lon="-4.764275"><ele>6.0</ele></trkpt>
    <trkpt lat="48.530625" lon="-4.764315"><ele>6.8</ele></trkpt>
    <trkpt lat="48.530789" lon="-4.764203"><ele>7.4</ele></trkpt>
    <trkpt lat="48.530828" lon="-4.764126"><ele>7.4</ele></trkpt>
    <trkpt lat="48.530843" lon="-4.763957"><ele>7.2</ele></trkpt>
    <trkpt lat="48.530824" lon="-4.763515"><ele>6.6</ele></trkpt>
    <trkpt lat="48.530700" lon="-4.763020"><ele>6.4</ele></trkpt>
    <trkpt lat="48.530417" lon="-4.762339"><ele>9.4</ele></trkpt>
    <trkpt lat="48.530348" lon="-4.761695"><ele>10.4</ele></trkpt>
    <trkpt lat="48.530334" lon="-4.760862"><ele>11.2</ele></trkpt>
    <trkpt lat="48.530306" lon="-4.760674"><ele>11.4</ele></trkpt>
    <trkpt lat="48.529910" lon="-4.759540"><ele>8.4</ele></trkpt>
    <trkpt lat="48.529776" lon="-4.758936"><ele>8.6</ele></trkpt>
    <trkpt lat="48.529594" lon="-4.758519"><ele>9.0</ele></trkpt>
    <trkpt lat="48.529532" lon="-4.758245"><ele>9.4</ele></trkpt>
    <trkpt lat="48.529647" lon="-4.757751"><ele>9.4</ele></trkpt>
    <trkpt lat="48.529726" lon="-4.757113"><ele>10.2</ele></trkpt>
    <trkpt lat="48.529756" lon="-4.757036"><ele>10.2</ele></trkpt>
    <trkpt lat="48.529857" lon="-4.756992"><ele>10.0</ele></trkpt>
    <trkpt lat="48.530422" lon="-4.757135"><ele>10.6</ele></trkpt>
    <trkpt lat="48.531161" lon="-4.757119"><ele>10.4</ele></trkpt>
    <trkpt lat="48.531301" lon="-4.756971"><ele>10.0</ele></trkpt>
    <trkpt lat="48.531501" lon="-4.756659"><ele>8.8</ele></trkpt>
    <trkpt lat="48.531993" lon="-4.756202"><ele>8.0</ele></trkpt>
    <trkpt lat="48.532410" lon="-4.755531"><ele>8.4</ele></trkpt>
    <trkpt lat="48.532433" lon="-4.755439"><ele>8.0</ele></trkpt>
    <trkpt lat="48.532154" lon="-4.754838"><ele>6.2</ele></trkpt>
    <trkpt lat="48.531821" lon="-4.754614"><ele>7.2</ele></trkpt>
    <trkpt lat="48.531752" lon="-4.754504"><ele>8.0</ele></trkpt>
    <trkpt lat="48.531678" lon="-4.754214"><ele>8.8</ele></trkpt>
    <trkpt lat="48.531638" lon="-4.753813"><ele>9.4</ele></trkpt>
    <trkpt lat="48.531520" lon="-4.753527"><ele>10.0</ele></trkpt>
    <trkpt lat="48.531406" lon="-4.753004"><ele>11.8</ele></trkpt>
    <trkpt lat="48.531242" lon="-4.752529"><ele>11.2</ele></trkpt>
    <trkpt lat="48.530996" lon="-4.752024"><ele>9.0</ele></trkpt>
    <trkpt lat="48.530900" lon="-4.751971"><ele>8.8</ele></trkpt>
    <trkpt lat="48.530703" lon="-4.751984"><ele>8.6</ele></trkpt>
    <trkpt lat="48.530550" lon="-4.751889"><ele>8.4</ele></trkpt>
    <trkpt lat="48.530314" lon="-4.751938"><ele>7.2</ele></trkpt>
    <trkpt lat="48.529512" lon="-4.751633"><ele>4.6</ele></trkpt>
    <trkpt lat="48.529500" lon="-4.751549"><ele>4.4</ele></trkpt>
    <trkpt lat="48.529566" lon="-4.751258"><ele>3.4</ele></trkpt>
    <trkpt lat="48.529560" lon="-4.751021"><ele>2.6</ele></trkpt>
    <trkpt lat="48.529321" lon="-4.750362"><ele>1.8</ele></trkpt>
    <trkpt lat="48.529142" lon="-4.750070"><ele>1.4</ele></trkpt>
    <trkpt lat="48.528654" lon="-4.749498"><ele>0.8</ele></trkpt>
    <trkpt lat="48.528467" lon="-4.749071"><ele>1.6</ele></trkpt>
    <trkpt lat="48.528235" lon="-4.748810"><ele>2.6</ele></trkpt>
    <trkpt lat="48.528045" lon="-4.748473"><ele>3.4</ele></trkpt>
    <trkpt lat="48.528018" lon="-4.748246"><ele>4.6</ele></trkpt>
    <trkpt lat="48.528044" lon="-4.747865"><ele>7.6</ele></trkpt>
    <trkpt lat="48.528881" lon="-4.746374"><ele>6.0</ele></trkpt>
    <trkpt lat="48.529065" lon="-4.746171"><ele>6.2</ele></trkpt>
    <trkpt lat="48.529201" lon="-4.746112"><ele>6.4</ele></trkpt>
    <trkpt lat="48.529570" lon="-4.746408"><ele>10.2</ele></trkpt>
    <trkpt lat="48.529934" lon="-4.746830"><ele>14.6</ele></trkpt>
    <trkpt lat="48.529969" lon="-4.747015"><ele>14.8</ele></trkpt>
    <trkpt lat="48.529769" lon="-4.747397"><ele>14.2</ele></trkpt>
    <trkpt lat="48.529706" lon="-4.747608"><ele>14.2</ele></trkpt>
    <trkpt lat="48.529667" lon="-4.748181"><ele>14.8</ele></trkpt>
    <trkpt lat="48.529737" lon="-4.748305"><ele>14.6</ele></trkpt>
    <trkpt lat="48.530046" lon="-4.748484"><ele>13.6</ele></trkpt>
    <trkpt lat="48.530529" lon="-4.748382"><ele>11.0</ele></trkpt>
    <trkpt lat="48.530338" lon="-4.748870"><ele>9.8</ele></trkpt>
    <trkpt lat="48.530311" lon="-4.749119"><ele>9.8</ele></trkpt>
    <trkpt lat="48.530421" lon="-4.749410"><ele>10.2</ele></trkpt>
    <trkpt lat="48.530690" lon="-4.749904"><ele>9.2</ele></trkpt>
    <trkpt lat="48.531204" lon="-4.750302"><ele>7.8</ele></trkpt>
    <trkpt lat="48.531629" lon="-4.750187"><ele>8.4</ele></trkpt>
    <trkpt lat="48.532108" lon="-4.750200"><ele>8.2</ele></trkpt>
    <trkpt lat="48.532546" lon="-4.750430"><ele>9.2</ele></trkpt>
    <trkpt lat="48.532776" lon="-4.750752"><ele>9.6</ele></trkpt>
    <trkpt lat="48.533070" lon="-4.750958"><ele>9.0</ele></trkpt>
    <trkpt lat="48.533417" lon="-4.750945"><ele>8.4</ele></trkpt>
    <trkpt lat="48.533533" lon="-4.750883"><ele>8.8</ele></trkpt>
    <trkpt lat="48.533700" lon="-4.750487"><ele>10.4</ele></trkpt>
    <trkpt lat="48.533819" lon="-4.750067"><ele>12.2</ele></trkpt>
    <trkpt lat="48.534001" lon="-4.749812"><ele>12.4</ele></trkpt>
    <trkpt lat="48.534236" lon="-4.749612"><ele>11.6</ele></trkpt>
    <trkpt lat="48.534560" lon="-4.749458"><ele>10.6</ele></trkpt>
    <trkpt lat="48.534758" lon="-4.749304"><ele>11.4</ele></trkpt>
    <trkpt lat="48.535142" lon="-4.749167"><ele>13.0</ele></trkpt>
    <trkpt lat="48.535465" lon="-4.748916"><ele>13.6</ele></trkpt>
    <trkpt lat="48.535951" lon="-4.748708"><ele>15.4</ele></trkpt>
    <trkpt lat="48.536202" lon="-4.748528"><ele>16.6</ele></trkpt>
    <trkpt lat="48.536680" lon="-4.748408"><ele>17.0</ele></trkpt>
    <trkpt lat="48.537372" lon="-4.748600"><ele>15.8</ele></trkpt>
    <trkpt lat="48.537641" lon="-4.748827"><ele>15.8</ele></trkpt>
    <trkpt lat="48.537839" lon="-4.748933"><ele>16.2</ele></trkpt>
    <trkpt lat="48.538121" lon="-4.749315"><ele>15.2</ele></trkpt>
    <trkpt lat="48.538630" lon="-4.749625"><ele>16.8</ele></trkpt>
    <trkpt lat="48.539120" lon="-4.749752"><ele>16.0</ele></trkpt>
    <trkpt lat="48.539766" lon="-4.750016"><ele>17.2</ele></trkpt>
    <trkpt lat="48.539858" lon="-4.750001"><ele>18.2</ele></trkpt>
    <trkpt lat="48.540172" lon="-4.749761"><ele>23.6</ele></trkpt>
    <trkpt lat="48.540312" lon="-4.749933"><ele>23.2</ele></trkpt>
    <trkpt lat="48.540453" lon="-4.750005"><ele>22.2</ele></trkpt>
    <trkpt lat="48.542458" lon="-4.750620"><ele>19.4</ele></trkpt>
    <trkpt lat="48.542816" lon="-4.751109"><ele>16.0</ele></trkpt>
    <trkpt lat="48.543055" lon="-4.751225"><ele>15.0</ele></trkpt>
    <trkpt lat="48.543121" lon="-4.751220"><ele>14.6</ele></trkpt>
    <trkpt lat="48.543154" lon="-4.751118"><ele>14.4</ele></trkpt>
    <trkpt lat="48.543129" lon="-4.750203"><ele>12.6</ele></trkpt>
    <trkpt lat="48.543203" lon="-4.749628"><ele>11.8</ele></trkpt>
    <trkpt lat="48.543599" lon="-4.748735"><ele>11.6</ele></trkpt>
    <trkpt lat="48.543668" lon="-4.748417"><ele>12.0</ele></trkpt>
    <trkpt lat="48.543939" lon="-4.747703"><ele>11.2</ele></trkpt>
    <trkpt lat="48.544072" lon="-4.747196"><ele>9.4</ele></trkpt>
    <trkpt lat="48.544429" lon="-4.746515"><ele>9.4</ele></trkpt>
    <trkpt lat="48.544587" lon="-4.746560"><ele>8.8</ele></trkpt>
    <trkpt lat="48.544760" lon="-4.746448"><ele>8.6</ele></trkpt>
    <trkpt lat="48.545318" lon="-4.745735"><ele>12.0</ele></trkpt>
    <trkpt lat="48.545554" lon="-4.745611"><ele>12.0</ele></trkpt>
    <trkpt lat="48.545878" lon="-4.745662"><ele>12.6</ele></trkpt>
    <trkpt lat="48.545993" lon="-4.745589"><ele>13.0</ele></trkpt>
    <trkpt lat="48.546167" lon="-4.745275"><ele>13.4</ele></trkpt>
    <trkpt lat="48.546217" lon="-4.744814"><ele>12.6</ele></trkpt>
    <trkpt lat="48.546438" lon="-4.744290"><ele>13.4</ele></trkpt>
    <trkpt lat="48.546487" lon="-4.744217"><ele>13.6</ele></trkpt>
    <trkpt lat="48.546660" lon="-4.744125"><ele>13.8</ele></trkpt>
    <trkpt lat="48.546798" lon="-4.743934"><ele>13.8</ele></trkpt>
    <trkpt lat="48.546879" lon="-4.743608"><ele>13.6</ele></trkpt>
    <trkpt lat="48.546826" lon="-4.743263"><ele>13.8</ele></trkpt>
    <trkpt lat="48.546962" lon="-4.743090"><ele>14.0</ele></trkpt>
    <trkpt lat="48.547004" lon="-4.742861"><ele>14.2</ele></trkpt>
    <trkpt lat="48.546915" lon="-4.742161"><ele>15.8</ele></trkpt>
    <trkpt lat="48.546913" lon="-4.741397"><ele>16.0</ele></trkpt>
    <trkpt lat="48.547138" lon="-4.740434"><ele>17.4</ele></trkpt>
    <trkpt lat="48.547220" lon="-4.740222"><ele>18.0</ele></trkpt>
    <trkpt lat="48.547350" lon="-4.740013"><ele>18.4</ele></trkpt>
    <trkpt lat="48.547430" lon="-4.739697"><ele>18.2</ele></trkpt>
    <trkpt lat="48.547521" lon="-4.739532"><ele>17.4</ele></trkpt>
    <trkpt lat="48.547507" lon="-4.739126"><ele>16.4</ele></trkpt>
    <trkpt lat="48.547693" lon="-4.738745"><ele>14.8</ele></trkpt>
    <trkpt lat="48.547862" lon="-4.738536"><ele>15.0</ele></trkpt>
    <trkpt lat="48.547971" lon="-4.738541"><ele>15.2</ele></trkpt>
    <trkpt lat="48.548134" lon="-4.738413"><ele>14.6</ele></trkpt>
    <trkpt lat="48.548289" lon="-4.738164"><ele>13.8</ele></trkpt>
    <trkpt lat="48.548463" lon="-4.738031"><ele>14.4</ele></trkpt>
    <trkpt lat="48.548697" lon="-4.737767"><ele>16.2</ele></trkpt>
    <trkpt lat="48.549010" lon="-4.737265"><ele>17.0</ele></trkpt>
    <trkpt lat="48.549258" lon="-4.736739"><ele>17.0</ele></trkpt>
    <trkpt lat="48.549376" lon="-4.736043"><ele>15.6</ele></trkpt>
    <trkpt lat="48.549490" lon="-4.735844"><ele>13.8</ele></trkpt>
    <trkpt lat="48.549471" lon="-4.735634"><ele>12.2</ele></trkpt>
    <trkpt lat="48.549666" lon="-4.735386"><ele>13.4</ele></trkpt>
    <trkpt lat="48.549743" lon="-4.735158"><ele>14.8</ele></trkpt>
    <trkpt lat="48.550119" lon="-4.734525"><ele>14.8</ele></trkpt>
    <trkpt lat="48.550372" lon="-4.734352"><ele>14.6</ele></trkpt>
    <trkpt lat="48.550536" lon="-4.734330"><ele>14.2</ele></trkpt>
    <trkpt lat="48.550595" lon="-4.734236"><ele>14.0</ele></trkpt>
    <trkpt lat="48.550741" lon="-4.734257"><ele>14.8</ele></trkpt>
    <trkpt lat="48.550813" lon="-4.734159"><ele>15.6</ele></trkpt>
    <trkpt lat="48.551334" lon="-4.733857"><ele>15.0</ele></trkpt>
    <trkpt lat="48.551649" lon="-4.733526"><ele>13.4</ele></trkpt>
    <trkpt lat="48.551798" lon="-4.733466"><ele>13.0</ele></trkpt>
    <trkpt lat="48.552002" lon="-4.733307"><ele>12.8</ele></trkpt>
    <trkpt lat="48.552561" lon="-4.733262"><ele>14.2</ele></trkpt>
    <trkpt lat="48.552733" lon="-4.733156"><ele>14.4</ele></trkpt>
    <trkpt lat="48.553724" lon="-4.732279"><ele>12.8</ele></trkpt>
    <trkpt lat="48.554089" lon="-4.731757"><ele>12.8</ele></trkpt>
    <trkpt lat="48.554398" lon="-4.731426"><ele>14.0</ele></trkpt>
    <trkpt lat="48.555285" lon="-4.730941"><ele>13.0</ele></trkpt>
    <trkpt lat="48.555615" lon="-4.730603"><ele>11.6</ele></trkpt>
    <trkpt lat="48.555874" lon="-4.730527"><ele>11.6</ele></trkpt>
    <trkpt lat="48.556003" lon="-4.730399"><ele>11.8</ele></trkpt>
    <trkpt lat="48.556060" lon="-4.730262"><ele>12.2</ele></trkpt>
    <trkpt lat="48.556162" lon="-4.729662"><ele>13.8</ele></trkpt>
    <trkpt lat="48.556194" lon="-4.729152"><ele>13.4</ele></trkpt>
    <trkpt lat="48.556374" lon="-4.728627"><ele>13.8</ele></trkpt>
    <trkpt lat="48.556591" lon="-4.728136"><ele>14.2</ele></trkpt>
    <trkpt lat="48.556803" lon="-4.727916"><ele>12.6</ele></trkpt>
    <trkpt lat="48.557169" lon="-4.726725"><ele>10.2</ele></trkpt>
    <trkpt lat="48.557190" lon="-4.726149"><ele>10.8</ele></trkpt>
    <trkpt lat="48.557361" lon="-4.725577"><ele>9.0</ele></trkpt>
    <trkpt lat="48.557457" lon="-4.725138"><ele>9.4</ele></trkpt>
    <trkpt lat="48.557460" lon="-4.724957"><ele>10.0</ele></trkpt>
    <trkpt lat="48.557406" lon="-4.724812"><ele>10.2</ele></trkpt>
    <trkpt lat="48.557538" lon="-4.724487"><ele>9.0</ele></trkpt>
    <trkpt lat="48.557545" lon="-4.724117"><ele>9.8</ele></trkpt>
    <trkpt lat="48.557937" lon="-4.723327"><ele>11.0</ele></trkpt>
    <trkpt lat="48.558451" lon="-4.722995"><ele>10.2</ele></trkpt>
    <trkpt lat="48.558519" lon="-4.722899"><ele>10.2</ele></trkpt>
    <trkpt lat="48.558629" lon="-4.722601"><ele>10.8</ele></trkpt>
    <trkpt lat="48.558821" lon="-4.722378"><ele>12.0</ele></trkpt>
    <trkpt lat="48.558886" lon="-4.722175"><ele>12.2</ele></trkpt>
    <trkpt lat="48.558903" lon="-4.721942"><ele>12.0</ele></trkpt>
    <trkpt lat="48.558839" lon="-4.721636"><ele>11.6</ele></trkpt>
    <trkpt lat="48.558597" lon="-4.721172"><ele>12.6</ele></trkpt>
    <trkpt lat="48.558384" lon="-4.721014"><ele>14.8</ele></trkpt>
    <trkpt lat="48.558132" lon="-4.720717"><ele>16.6</ele></trkpt>
    <trkpt lat="48.557958" lon="-4.720615"><ele>17.8</ele></trkpt>
    <trkpt lat="48.557907" lon="-4.720627"><ele>18.4</ele></trkpt>
    <trkpt lat="48.557848" lon="-4.721006"><ele>20.2</ele></trkpt>
    <trkpt lat="48.557873" lon="-4.721228"><ele>19.4</ele></trkpt>
    <trkpt lat="48.557854" lon="-4.721308"><ele>19.4</ele></trkpt>
    <trkpt lat="48.557191" lon="-4.722220"><ele>20.8</ele></trkpt>
    <trkpt lat="48.557210" lon="-4.722324"><ele>20.4</ele></trkpt>
    <trkpt lat="48.557548" lon="-4.722872"><ele>16.8</ele></trkpt>
    <trkpt lat="48.557568" lon="-4.723039"><ele>15.8</ele></trkpt>
    <trkpt lat="48.557383" lon="-4.723649"><ele>15.6</ele></trkpt>
    <trkpt lat="48.557101" lon="-4.724305"><ele>15.2</ele></trkpt>
    <trkpt lat="48.556993" lon="-4.724677"><ele>16.6</ele></trkpt>
    <trkpt lat="48.556723" lon="-4.725102"><ele>18.4</ele></trkpt>
    <trkpt lat="48.554864" lon="-4.727342"><ele>26.0</ele></trkpt>
    <trkpt lat="48.554400" lon="-4.728089"><ele>27.0</ele></trkpt>
    <trkpt lat="48.554236" lon="-4.728296"><ele>27.4</ele></trkpt>
    <trkpt lat="48.553823" lon="-4.728727"><ele>28.6</ele></trkpt>
    <trkpt lat="48.552877" lon="-4.729422"><ele>26.8</ele></trkpt>
    <trkpt lat="48.552516" lon="-4.729750"><ele>27.0</ele></trkpt>
    <trkpt lat="48.552358" lon="-4.729986"><ele>26.2</ele></trkpt>
    <trkpt lat="48.552023" lon="-4.730711"><ele>23.8</ele></trkpt>
    <trkpt lat="48.551904" lon="-4.730863"><ele>23.2</ele></trkpt>
    <trkpt lat="48.551310" lon="-4.731013"><ele>22.8</ele></trkpt>
    <trkpt lat="48.551087" lon="-4.730949"><ele>23.0</ele></trkpt>
    <trkpt lat="48.550880" lon="-4.730738"><ele>23.4</ele></trkpt>
    <trkpt lat="48.550763" lon="-4.730676"><ele>23.6</ele></trkpt>
    <trkpt lat="48.550640" lon="-4.730695"><ele>23.8</ele></trkpt>
    <trkpt lat="48.550460" lon="-4.730797"><ele>24.6</ele></trkpt>
    <trkpt lat="48.549984" lon="-4.731631"><ele>25.6</ele></trkpt>
    <trkpt lat="48.549668" lon="-4.731964"><ele>26.0</ele></trkpt>
    <trkpt lat="48.549181" lon="-4.732369"><ele>26.6</ele></trkpt>
    <trkpt lat="48.549046" lon="-4.732531"><ele>26.6</ele></trkpt>
    <trkpt lat="48.548946" lon="-4.732773"><ele>26.8</ele></trkpt>
    <trkpt lat="48.548893" lon="-4.733049"><ele>26.8</ele></trkpt>
    <trkpt lat="48.548756" lon="-4.733124"><ele>26.4</ele></trkpt>
    <trkpt lat="48.548729" lon="-4.733179"><ele>26.2</ele></trkpt>
    <trkpt lat="48.548734" lon="-4.733722"><ele>25.4</ele></trkpt>
    <trkpt lat="48.548673" lon="-4.733865"><ele>25.2</ele></trkpt>
    <trkpt lat="48.548330" lon="-4.733957"><ele>24.0</ele></trkpt>
    <trkpt lat="48.547972" lon="-4.734133"><ele>22.2</ele></trkpt>
    <trkpt lat="48.547409" lon="-4.734009"><ele>22.6</ele></trkpt>
    <trkpt lat="48.547223" lon="-4.734020"><ele>22.8</ele></trkpt>
    <trkpt lat="48.546473" lon="-4.734356"><ele>22.4</ele></trkpt>
    <trkpt lat="48.546195" lon="-4.734441"><ele>22.8</ele></trkpt>
    <trkpt lat="48.545893" lon="-4.734467"><ele>23.8</ele></trkpt>
    <trkpt lat="48.545622" lon="-4.734390"><ele>24.2</ele></trkpt>
    <trkpt lat="48.545477" lon="-4.734583"><ele>24.6</ele></trkpt>
    <trkpt lat="48.545200" lon="-4.734640"><ele>24.8</ele></trkpt>
    <trkpt lat="48.544941" lon="-4.734905"><ele>24.4</ele></trkpt>
    <trkpt lat="48.544471" lon="-4.735239"><ele>25.2</ele></trkpt>
    <trkpt lat="48.544124" lon="-4.735413"><ele>25.0</ele></trkpt>
    <trkpt lat="48.543871" lon="-4.735359"><ele>25.2</ele></trkpt>
    <trkpt lat="48.543672" lon="-4.735600"><ele>25.4</ele></trkpt>
    <trkpt lat="48.543566" lon="-4.735674"><ele>25.4</ele></trkpt>
    <trkpt lat="48.541986" lon="-4.735813"><ele>24.4</ele></trkpt>
    <trkpt lat="48.541853" lon="-4.735876"><ele>24.4</ele></trkpt>
    <trkpt lat="48.541804" lon="-4.736047"><ele>24.4</ele></trkpt>
    <trkpt lat="48.541920" lon="-4.736355"><ele>24.0</ele></trkpt>
    <trkpt lat="48.541985" lon="-4.736672"><ele>23.4</ele></trkpt>
    <trkpt lat="48.542036" lon="-4.737304"><ele>24.8</ele></trkpt>
    <trkpt lat="48.542144" lon="-4.738001"><ele>24.6</ele></trkpt>
    <trkpt lat="48.542140" lon="-4.738406"><ele>24.4</ele></trkpt>
    <trkpt lat="48.542061" lon="-4.738573"><ele>24.6</ele></trkpt>
    <trkpt lat="48.541814" lon="-4.738805"><ele>25.2</ele></trkpt>
    <trkpt lat="48.541649" lon="-4.739018"><ele>25.4</ele></trkpt>
    <trkpt lat="48.541307" lon="-4.739629"><ele>26.0</ele></trkpt>
    <trkpt lat="48.541273" lon="-4.739843"><ele>26.2</ele></trkpt>
    <trkpt lat="48.541298" lon="-4.740257"><ele>26.0</ele></trkpt>
    <trkpt lat="48.541198" lon="-4.740639"><ele>26.0</ele></trkpt>
    <trkpt lat="48.540816" lon="-4.740925"><ele>27.6</ele></trkpt>
    <trkpt lat="48.540505" lon="-4.741016"><ele>28.4</ele></trkpt>
    <trkpt lat="48.540018" lon="-4.740877"><ele>29.8</ele></trkpt>
    <trkpt lat="48.539677" lon="-4.741096"><ele>29.8</ele></trkpt>
    <trkpt lat="48.539170" lon="-4.741287"><ele>27.2</ele></trkpt>
    <trkpt lat="48.538922" lon="-4.741368"><ele>26.6</ele></trkpt>
    <trkpt lat="48.538807" lon="-4.741295"><ele>26.2</ele></trkpt>
    <trkpt lat="48.538402" lon="-4.740576"><ele>25.8</ele></trkpt>
    <trkpt lat="48.538378" lon="-4.740040"><ele>26.4</ele></trkpt>
    <trkpt lat="48.538338" lon="-4.739862"><ele>26.4</ele></trkpt>
    <trkpt lat="48.537945" lon="-4.739362"><ele>25.2</ele></trkpt>
    <trkpt lat="48.537673" lon="-4.738810"><ele>23.6</ele></trkpt>
    <trkpt lat="48.537563" lon="-4.738443"><ele>23.6</ele></trkpt>
    <trkpt lat="48.537460" lon="-4.737742"><ele>22.0</ele></trkpt>
    <trkpt lat="48.536872" lon="-4.736033"><ele>22.6</ele></trkpt>
    <trkpt lat="48.536754" lon="-4.735874"><ele>22.4</ele></trkpt>
    <trkpt lat="48.536682" lon="-4.735917"><ele>22.4</ele></trkpt>
    <trkpt lat="48.536608" lon="-4.736035"><ele>22.2</ele></trkpt>
    <trkpt lat="48.536362" lon="-4.736583"><ele>21.8</ele></trkpt>
    <trkpt lat="48.535773" lon="-4.737734"><ele>19.4</ele></trkpt>
    <trkpt lat="48.535572" lon="-4.738393"><ele>18.8</ele></trkpt>
    <trkpt lat="48.535499" lon="-4.738748"><ele>18.8</ele></trkpt>
    <trkpt lat="48.535490" lon="-4.739442"><ele>19.0</ele></trkpt>
    <trkpt lat="48.535193" lon="-4.739938"><ele>18.6</ele></trkpt>
    <trkpt lat="48.534601" lon="-4.740585"><ele>17.0</ele></trkpt>
    <trkpt lat="48.534318" lon="-4.740806"><ele>17.2</ele></trkpt>
    <trkpt lat="48.533952" lon="-4.741043"><ele>16.8</ele></trkpt>
    <trkpt lat="48.533705" lon="-4.741143"><ele>17.0</ele></trkpt>
    <trkpt lat="48.533353" lon="-4.741402"><ele>17.6</ele></trkpt>
    <trkpt lat="48.533193" lon="-4.741487"><ele>17.4</ele></trkpt>
    <trkpt lat="48.533081" lon="-4.741492"><ele>17.2</ele></trkpt>
    <trkpt lat="48.532873" lon="-4.741374"><ele>17.2</ele></trkpt>
    <trkpt lat="48.532292" lon="-4.740921"><ele>15.8</ele></trkpt>
    <trkpt lat="48.532244" lon="-4.740816"><ele>15.4</ele></trkpt>
    <trkpt lat="48.532304" lon="-4.740460"><ele>14.0</ele></trkpt>
    <trkpt lat="48.532267" lon="-4.740249"><ele>13.4</ele></trkpt>
    <trkpt lat="48.532011" lon="-4.739971"><ele>13.4</ele></trkpt>
    <trkpt lat="48.531904" lon="-4.739931"><ele>13.8</ele></trkpt>
    <trkpt lat="48.531799" lon="-4.739947"><ele>14.4</ele></trkpt>
    <trkpt lat="48.531667" lon="-4.740075"><ele>15.4</ele></trkpt>
    <trkpt lat="48.531248" lon="-4.740759"><ele>15.8</ele></trkpt>
    <trkpt lat="48.531035" lon="-4.740953"><ele>15.8</ele></trkpt>
    <trkpt lat="48.530787" lon="-4.741050"><ele>16.4</ele></trkpt>
    <trkpt lat="48.530324" lon="-4.741133"><ele>18.0</ele></trkpt>
    <trkpt lat="48.529814" lon="-4.741283"><ele>20.4</ele></trkpt>
    <trkpt lat="48.528824" lon="-4.741747"><ele>24.8</ele></trkpt>
    <trkpt lat="48.528562" lon="-4.741813"><ele>25.0</ele></trkpt>
    <trkpt lat="48.528315" lon="-4.742000"><ele>25.2</ele></trkpt>
    <trkpt lat="48.527842" lon="-4.742184"><ele>26.8</ele></trkpt>
    <trkpt lat="48.527543" lon="-4.742390"><ele>28.0</ele></trkpt>
    <trkpt lat="48.527363" lon="-4.742617"><ele>28.2</ele></trkpt>
    <trkpt lat="48.526754" lon="-4.743652"><ele>27.0</ele></trkpt>
    <trkpt lat="48.526523" lon="-4.744281"><ele>26.4</ele></trkpt>
    <trkpt lat="48.526331" lon="-4.744682"><ele>26.0</ele></trkpt>
    <trkpt lat="48.526127" lon="-4.744957"><ele>26.4</ele></trkpt>
    <trkpt lat="48.525891" lon="-4.745135"><ele>26.4</ele></trkpt>
    <trkpt lat="48.525752" lon="-4.745149"><ele>26.4</ele></trkpt>
    <trkpt lat="48.525689" lon="-4.745075"><ele>26.8</ele></trkpt>
    <trkpt lat="48.525662" lon="-4.744464"><ele>30.4</ele></trkpt>
    <trkpt lat="48.525612" lon="-4.744152"><ele>31.8</ele></trkpt>
    <trkpt lat="48.525371" lon="-4.743465"><ele>32.4</ele></trkpt>
    <trkpt lat="48.525406" lon="-4.743150"><ele>32.2</ele></trkpt>
    <trkpt lat="48.525641" lon="-4.742558"><ele>32.8</ele></trkpt>
    <trkpt lat="48.525614" lon="-4.742369"><ele>33.0</ele></trkpt>
    <trkpt lat="48.525527" lon="-4.742255"><ele>33.2</ele></trkpt>
    <trkpt lat="48.525432" lon="-4.742208"><ele>33.0</ele></trkpt>
    <trkpt lat="48.524438" lon="-4.742102"><ele>30.0</ele></trkpt>
    <trkpt lat="48.524131" lon="-4.742140"><ele>30.0</ele></trkpt>
    <trkpt lat="48.524003" lon="-4.742245"><ele>30.0</ele></trkpt>
    <trkpt lat="48.523991" lon="-4.742353"><ele>30.0</ele></trkpt>
    <trkpt lat="48.524116" lon="-4.743283"><ele>29.6</ele></trkpt>
    <trkpt lat="48.524087" lon="-4.743607"><ele>29.6</ele></trkpt>
    <trkpt lat="48.523886" lon="-4.744040"><ele>29.6</ele></trkpt>
    <trkpt lat="48.523598" lon="-4.744469"><ele>28.6</ele></trkpt>
    <trkpt lat="48.523316" lon="-4.745093"><ele>26.4</ele></trkpt>
    <trkpt lat="48.523175" lon="-4.745294"><ele>25.4</ele></trkpt>
    <trkpt lat="48.523091" lon="-4.745282"><ele>25.2</ele></trkpt>
    <trkpt lat="48.523012" lon="-4.745200"><ele>25.4</ele></trkpt>
    <trkpt lat="48.522852" lon="-4.744952"><ele>27.8</ele></trkpt>
    <trkpt lat="48.522622" lon="-4.744484"><ele>30.2</ele></trkpt>
    <trkpt lat="48.522586" lon="-4.744307"><ele>30.8</ele></trkpt>
    <trkpt lat="48.522775" lon="-4.744106"><ele>31.8</ele></trkpt>
    <trkpt lat="48.522786" lon="-4.743979"><ele>32.0</ele></trkpt>
    <trkpt lat="48.522408" lon="-4.743296"><ele>34.0</ele></trkpt>
    <trkpt lat="48.522323" lon="-4.743216"><ele>33.6</ele></trkpt>
    <trkpt lat="48.522210" lon="-4.743281"><ele>33.4</ele></trkpt>
    <trkpt lat="48.522132" lon="-4.743429"><ele>33.4</ele></trkpt>
    <trkpt lat="48.522105" lon="-4.743584"><ele>32.2</ele></trkpt>
    <trkpt lat="48.521834" lon="-4.744321"><ele>28.4</ele></trkpt>
    <trkpt lat="48.521629" lon="-4.744457"><ele>28.2</ele></trkpt>
    <trkpt lat="48.521562" lon="-4.744708"><ele>28.0</ele></trkpt>
    <trkpt lat="48.521573" lon="-4.744896"><ele>28.4</ele></trkpt>
    <trkpt lat="48.521289" lon="-4.745608"><ele>33.0</ele></trkpt>
    <trkpt lat="48.521073" lon="-4.745816"><ele>34.2</ele></trkpt>
    <trkpt lat="48.520877" lon="-4.746173"><ele>34.2</ele></trkpt>
    <trkpt lat="48.520786" lon="-4.746261"><ele>33.8</ele></trkpt>
    <trkpt lat="48.520643" lon="-4.746253"><ele>33.4</ele></trkpt>
    <trkpt lat="48.519232" lon="-4.745144"><ele>38.6</ele></trkpt>
    <trkpt lat="48.518810" lon="-4.744967"><ele>38.4</ele></trkpt>
    <trkpt lat="48.518519" lon="-4.744995"><ele>38.2</ele></trkpt>
    <trkpt lat="48.518155" lon="-4.744919"><ele>37.4</ele></trkpt>
    <trkpt lat="48.518041" lon="-4.744941"><ele>36.6</ele></trkpt>
    <trkpt lat="48.517987" lon="-4.745061"><ele>35.8</ele></trkpt>
    <trkpt lat="48.517931" lon="-4.746128"><ele>32.4</ele></trkpt>
    <trkpt lat="48.517869" lon="-4.746462"><ele>31.0</ele></trkpt>
    <trkpt lat="48.517788" lon="-4.746700"><ele>30.0</ele></trkpt>
    <trkpt lat="48.517463" lon="-4.747296"><ele>26.4</ele></trkpt>
    <trkpt lat="48.517307" lon="-4.747667"><ele>24.4</ele></trkpt>
    <trkpt lat="48.517264" lon="-4.748101"><ele>22.4</ele></trkpt>
    <trkpt lat="48.517141" lon="-4.748684"><ele>18.6</ele></trkpt>
    <trkpt lat="48.516710" lon="-4.749658"><ele>15.8</ele></trkpt>
    <trkpt lat="48.516336" lon="-4.750113"><ele>18.2</ele></trkpt>
    <trkpt lat="48.516100" lon="-4.750591"><ele>21.8</ele></trkpt>
    <trkpt lat="48.515622" lon="-4.751048"><ele>25.4</ele></trkpt>
    <trkpt lat="48.515412" lon="-4.751553"><ele>27.8</ele></trkpt>
    <trkpt lat="48.515249" lon="-4.751786"><ele>27.6</ele></trkpt>
    <trkpt lat="48.514583" lon="-4.752253"><ele>30.0</ele></trkpt>
    <trkpt lat="48.514290" lon="-4.752394"><ele>31.6</ele></trkpt>
    <trkpt lat="48.514057" lon="-4.752761"><ele>32.0</ele></trkpt>
    <trkpt lat="48.513384" lon="-4.753026"><ele>32.6</ele></trkpt>
    <trkpt lat="48.513070" lon="-4.752851"><ele>34.2</ele></trkpt>
    <trkpt lat="48.512612" lon="-4.752817"><ele>35.4</ele></trkpt>
    <trkpt lat="48.512552" lon="-4.752871"><ele>35.8</ele></trkpt>
    <trkpt lat="48.512408" lon="-4.753211"><ele>36.4</ele></trkpt>
    <trkpt lat="48.512132" lon="-4.753650"><ele>36.2</ele></trkpt>
    <trkpt lat="48.512058" lon="-4.753836"><ele>36.2</ele></trkpt>
    <trkpt lat="48.512033" lon="-4.754016"><ele>36.4</ele></trkpt>
    <trkpt lat="48.512144" lon="-4.755160"><ele>36.2</ele></trkpt>
    <trkpt lat="48.512082" lon="-4.755611"><ele>35.4</ele></trkpt>
    <trkpt lat="48.511932" lon="-4.755838"><ele>34.8</ele></trkpt>
    <trkpt lat="48.511209" lon="-4.756546"><ele>34.0</ele></trkpt>
    <trkpt lat="48.511088" lon="-4.756724"><ele>33.4</ele></trkpt>
    <trkpt lat="48.511054" lon="-4.756910"><ele>33.2</ele></trkpt>
    <trkpt lat="48.511066" lon="-4.757593"><ele>33.8</ele></trkpt>
    <trkpt lat="48.511037" lon="-4.757869"><ele>33.8</ele></trkpt>
    <trkpt lat="48.510894" lon="-4.758340"><ele>33.6</ele></trkpt>
    <trkpt lat="48.510841" lon="-4.758764"><ele>33.0</ele></trkpt>
    <trkpt lat="48.510800" lon="-4.758953"><ele>32.8</ele></trkpt>
    <trkpt lat="48.510759" lon="-4.759013"><ele>32.8</ele></trkpt>
    <trkpt lat="48.510701" lon="-4.758963"><ele>32.8</ele></trkpt>
    <trkpt lat="48.510396" lon="-4.758261"><ele>33.2</ele></trkpt>
    <trkpt lat="48.510187" lon="-4.757532"><ele>32.6</ele></trkpt>
    <trkpt lat="48.510094" lon="-4.756985"><ele>32.8</ele></trkpt>
    <trkpt lat="48.510037" lon="-4.756863"><ele>32.8</ele></trkpt>
    <trkpt lat="48.509801" lon="-4.756829"><ele>32.6</ele></trkpt>
    <trkpt lat="48.509555" lon="-4.756871"><ele>32.4</ele></trkpt>
    <trkpt lat="48.509202" lon="-4.756981"><ele>31.2</ele></trkpt>
    <trkpt lat="48.508985" lon="-4.757098"><ele>30.8</ele></trkpt>
    <trkpt lat="48.508779" lon="-4.757126"><ele>30.2</ele></trkpt>
    <trkpt lat="48.508664" lon="-4.756880"><ele>30.0</ele></trkpt>
    <trkpt lat="48.508545" lon="-4.756730"><ele>30.0</ele></trkpt>
    <trkpt lat="48.508496" lon="-4.756585"><ele>30.2</ele></trkpt>
    <trkpt lat="48.508488" lon="-4.755974"><ele>32.0</ele></trkpt>
    <trkpt lat="48.508553" lon="-4.755678"><ele>31.8</ele></trkpt>
    <trkpt lat="48.508538" lon="-4.755557"><ele>31.6</ele></trkpt>
    <trkpt lat="48.508436" lon="-4.755480"><ele>31.4</ele></trkpt>
    <trkpt lat="48.508066" lon="-4.755592"><ele>31.6</ele></trkpt>
    <trkpt lat="48.507949" lon="-4.755590"><ele>31.6</ele></trkpt>
    <trkpt lat="48.507878" lon="-4.755533"><ele>31.4</ele></trkpt>
    <trkpt lat="48.507717" lon="-4.754544"><ele>31.4</ele></trkpt>
    <trkpt lat="48.507448" lon="-4.753811"><ele>31.0</ele></trkpt>
    <trkpt lat="48.507357" lon="-4.753684"><ele>31.4</ele></trkpt>
    <trkpt lat="48.507180" lon="-4.753556"><ele>32.2</ele></trkpt>
    <trkpt lat="48.507042" lon="-4.753338"><ele>32.4</ele></trkpt>
    <trkpt lat="48.506850" lon="-4.753185"><ele>32.2</ele></trkpt>
    <trkpt lat="48.506776" lon="-4.753042"><ele>32.4</ele></trkpt>
    <trkpt lat="48.506699" lon="-4.752759"><ele>32.6</ele></trkpt>
    <trkpt lat="48.506483" lon="-4.752479"><ele>33.0</ele></trkpt>
    <trkpt lat="48.506670" lon="-4.751285"><ele>34.0</ele></trkpt>
    <trkpt lat="48.506667" lon="-4.750883"><ele>33.8</ele></trkpt>
    <trkpt lat="48.506615" lon="-4.750638"><ele>34.4</ele></trkpt>
    <trkpt lat="48.506299" lon="-4.749669"><ele>34.8</ele></trkpt>
    <trkpt lat="48.506096" lon="-4.748829"><ele>35.4</ele></trkpt>
    <trkpt lat="48.505912" lon="-4.748428"><ele>37.0</ele></trkpt>
    <trkpt lat="48.505667" lon="-4.748062"><ele>37.8</ele></trkpt>
    <trkpt lat="48.505203" lon="-4.747681"><ele>38.2</ele></trkpt>
    <trkpt lat="48.505149" lon="-4.747450"><ele>38.4</ele></trkpt>
    <trkpt lat="48.505176" lon="-4.747363"><ele>38.2</ele></trkpt>
    <trkpt lat="48.505227" lon="-4.747361"><ele>37.8</ele></trkpt>
    <trkpt lat="48.505212" lon="-4.747394"><ele>38.2</ele></trkpt>
    <trkpt lat="48.505037" lon="-4.747412"><ele>38.8</ele></trkpt>
    <trkpt lat="48.504948" lon="-4.747370"><ele>38.8</ele></trkpt>
    <trkpt lat="48.503413" lon="-4.745866"><ele>42.4</ele></trkpt>
    <trkpt lat="48.503204" lon="-4.745622"><ele>42.4</ele></trkpt>
    <trkpt lat="48.502993" lon="-4.745307"><ele>42.2</ele></trkpt>
    <trkpt lat="48.502761" lon="-4.744752"><ele>42.4</ele></trkpt>
    <trkpt lat="48.502250" lon="-4.743778"><ele>44.2</ele></trkpt>
    <trkpt lat="48.501969" lon="-4.743378"><ele>45.0</ele></trkpt>
    <trkpt lat="48.501552" lon="-4.742504"><ele>45.0</ele></trkpt>
    <trkpt lat="48.501493" lon="-4.742351"><ele>44.8</ele></trkpt>
    <trkpt lat="48.501498" lon="-4.742209"><ele>44.6</ele></trkpt>
    <trkpt lat="48.501714" lon="-4.741726"><ele>44.8</ele></trkpt>
    <trkpt lat="48.501886" lon="-4.741190"><ele>44.6</ele></trkpt>
    <trkpt lat="48.502252" lon="-4.740508"><ele>44.8</ele></trkpt>
    <trkpt lat="48.502328" lon="-4.740137"><ele>45.6</ele></trkpt>
    <trkpt lat="48.502316" lon="-4.739870"><ele>46.2</ele></trkpt>
    <trkpt lat="48.502247" lon="-4.739816"><ele>46.2</ele></trkpt>
    <trkpt lat="48.501747" lon="-4.739829"><ele>46.2</ele></trkpt>
    <trkpt lat="48.501213" lon="-4.739784"><ele>45.8</ele></trkpt>
    <trkpt lat="48.500775" lon="-4.739619"><ele>47.4</ele></trkpt>
    <trkpt lat="48.500706" lon="-4.739456"><ele>48.0</ele></trkpt>
    <trkpt lat="48.500609" lon="-4.738883"><ele>48.8</ele></trkpt>
    <trkpt lat="48.500299" lon="-4.738244"><ele>51.4</ele></trkpt>
    <trkpt lat="48.500134" lon="-4.737618"><ele>52.8</ele></trkpt>
    <trkpt lat="48.499983" lon="-4.737230"><ele>53.8</ele></trkpt>
    <trkpt lat="48.499924" lon="-4.737145"><ele>54.4</ele></trkpt>
    <trkpt lat="48.499700" lon="-4.736983"><ele>55.0</ele></trkpt>
    <trkpt lat="48.498919" lon="-4.736067"><ele>56.4</ele></trkpt>
    <trkpt lat="48.498587" lon="-4.735567"><ele>56.0</ele></trkpt>
  </trkseg></trk>
</gpx>
