<?xml version="1.0" encoding="UTF-8"?>
<gpx version="1.1" creator="tcap-parcours" xmlns="http://www.topografix.com/GPX/1/1">
  <metadata><name>Portez – Le Diry – Pen an Dour – 12,4 km</name></metadata>
  <trk><name>Portez – Le Diry – Pen an Dour – 12,4 km</name><trkseg>
    <trkpt lat="48.369976" lon="-4.640361"><ele>60.8</ele></trkpt>
    <trkpt lat="48.369922" lon="-4.640999"><ele>60.4</ele></trkpt>
    <trkpt lat="48.369827" lon="-4.641319"><ele>60.8</ele></trkpt>
    <trkpt lat="48.369644" lon="-4.641583"><ele>62.4</ele></trkpt>
    <trkpt lat="48.369595" lon="-4.641757"><ele>62.6</ele></trkpt>
    <trkpt lat="48.369583" lon="-4.642294"><ele>61.8</ele></trkpt>
    <trkpt lat="48.369677" lon="-4.642689"><ele>60.8</ele></trkpt>
    <trkpt lat="48.369819" lon="-4.642860"><ele>60.6</ele></trkpt>
    <trkpt lat="48.370214" lon="-4.642946"><ele>60.0</ele></trkpt>
    <trkpt lat="48.370795" lon="-4.643166"><ele>59.2</ele></trkpt>
    <trkpt lat="48.370978" lon="-4.643183"><ele>58.8</ele></trkpt>
    <trkpt lat="48.371135" lon="-4.643265"><ele>58.4</ele></trkpt>
    <trkpt lat="48.371293" lon="-4.643433"><ele>58.4</ele></trkpt>
    <trkpt lat="48.371457" lon="-4.643529"><ele>58.4</ele></trkpt>
    <trkpt lat="48.372700" lon="-4.643995"><ele>53.8</ele></trkpt>
    <trkpt lat="48.372807" lon="-4.644099"><ele>53.8</ele></trkpt>
    <trkpt lat="48.373312" lon="-4.644232"><ele>55.2</ele></trkpt>
    <trkpt lat="48.373660" lon="-4.644493"><ele>56.6</ele></trkpt>
    <trkpt lat="48.373726" lon="-4.644584"><ele>57.0</ele></trkpt>
    <trkpt lat="48.373741" lon="-4.644681"><ele>57.6</ele></trkpt>
    <trkpt lat="48.373602" lon="-4.645271"><ele>60.0</ele></trkpt>
    <trkpt lat="48.373158" lon="-4.646357"><ele>60.8</ele></trkpt>
    <trkpt lat="48.372581" lon="-4.647248"><ele>61.4</ele></trkpt>
    <trkpt lat="48.372416" lon="-4.647397"><ele>61.8</ele></trkpt>
    <trkpt lat="48.371970" lon="-4.647494"><ele>61.6</ele></trkpt>
    <trkpt lat="48.371676" lon="-4.647476"><ele>61.4</ele></trkpt>
    <trkpt lat="48.371344" lon="-4.647568"><ele>62.4</ele></trkpt>
    <trkpt lat="48.371266" lon="-4.647682"><ele>62.8</ele></trkpt>
    <trkpt lat="48.370983" lon="-4.648400"><ele>65.2</ele></trkpt>
    <trkpt lat="48.370741" lon="-4.648801"><ele>68.0</ele></trkpt>
    <trkpt lat="48.370598" lon="-4.648870"><ele>68.4</ele></trkpt>
    <trkpt lat="48.370266" lon="-4.648762"><ele>68.6</ele></trkpt>
    <trkpt lat="48.370116" lon="-4.648793"><ele>68.8</ele></trkpt>
    <trkpt lat="48.369771" lon="-4.649557"><ele>70.4</ele></trkpt>
    <trkpt lat="48.369538" lon="-4.649874"><ele>70.0</ele></trkpt>
    <trkpt lat="48.369456" lon="-4.649858"><ele>69.6</ele></trkpt>
    <trkpt lat="48.369043" lon="-4.649444"><ele>67.4</ele></trkpt>
    <trkpt lat="48.368919" lon="-4.649445"><ele>67.4</ele></trkpt>
    <trkpt lat="48.368859" lon="-4.649577"><ele>67.6</ele></trkpt>
    <trkpt lat="48.368818" lon="-4.650096"><ele>69.0</ele></trkpt>
    <trkpt lat="48.368737" lon="-4.650356"><ele>69.8</ele></trkpt>
    <trkpt lat="48.368454" lon="-4.650784"><ele>70.8</ele></trkpt>
    <trkpt lat="48.368107" lon="-4.651144"><ele>71.6</ele></trkpt>
    <trkpt lat="48.367802" lon="-4.651564"><ele>72.2</ele></trkpt>
    <trkpt lat="48.367658" lon="-4.651925"><ele>72.2</ele></trkpt>
    <trkpt lat="48.367413" lon="-4.652753"><ele>72.8</ele></trkpt>
    <trkpt lat="48.367337" lon="-4.652887"><ele>72.8</ele></trkpt>
    <trkpt lat="48.366948" lon="-4.652976"><ele>73.8</ele></trkpt>
    <trkpt lat="48.366555" lon="-4.653396"><ele>74.0</ele></trkpt>
    <trkpt lat="48.366104" lon="-4.653373"><ele>74.6</ele></trkpt>
    <trkpt lat="48.365904" lon="-4.653416"><ele>75.2</ele></trkpt>
    <trkpt lat="48.365812" lon="-4.653489"><ele>75.4</ele></trkpt>
    <trkpt lat="48.365580" lon="-4.653796"><ele>74.0</ele></trkpt>
    <trkpt lat="48.365342" lon="-4.654001"><ele>73.6</ele></trkpt>
    <trkpt lat="48.364827" lon="-4.654342"><ele>76.2</ele></trkpt>
    <trkpt lat="48.364060" lon="-4.654771"><ele>77.6</ele></trkpt>
    <trkpt lat="48.363765" lon="-4.654877"><ele>77.6</ele></trkpt>
    <trkpt lat="48.363278" lon="-4.654969"><ele>77.8</ele></trkpt>
    <trkpt lat="48.362831" lon="-4.655139"><ele>77.0</ele></trkpt>
    <trkpt lat="48.362716" lon="-4.655311"><ele>76.8</ele></trkpt>
    <trkpt lat="48.362541" lon="-4.656108"><ele>77.2</ele></trkpt>
    <trkpt lat="48.362416" lon="-4.656312"><ele>77.2</ele></trkpt>
    <trkpt lat="48.362199" lon="-4.656397"><ele>76.0</ele></trkpt>
    <trkpt lat="48.361884" lon="-4.656333"><ele>74.8</ele></trkpt>
    <trkpt lat="48.361383" lon="-4.656453"><ele>73.4</ele></trkpt>
    <trkpt lat="48.361010" lon="-4.656672"><ele>72.4</ele></trkpt>
    <trkpt lat="48.360576" lon="-4.657057"><ele>72.8</ele></trkpt>
    <trkpt lat="48.360535" lon="-4.657197"><ele>72.8</ele></trkpt>
    <trkpt lat="48.360527" lon="-4.657441"><ele>72.6</ele></trkpt>
    <trkpt lat="48.360607" lon="-4.657908"><ele>72.4</ele></trkpt>
    <trkpt lat="48.361232" lon="-4.659083"><ele>72.8</ele></trkpt>
    <trkpt lat="48.361531" lon="-4.659987"><ele>71.8</ele></trkpt>
    <trkpt lat="48.361536" lon="-4.660146"><ele>71.2</ele></trkpt>
    <trkpt lat="48.361114" lon="-4.660568"><ele>70.8</ele></trkpt>
    <trkpt lat="48.360619" lon="-4.660928"><ele>70.0</ele></trkpt>
    <trkpt lat="48.360361" lon="-4.661253"><ele>68.8</ele></trkpt>
    <trkpt lat="48.360126" lon="-4.661651"><ele>69.0</ele></trkpt>
    <trkpt lat="48.360105" lon="-4.661801"><ele>68.8</ele></trkpt>
    <trkpt lat="48.360144" lon="-4.662115"><ele>67.6</ele></trkpt>
    <trkpt lat="48.360078" lon="-4.662290"><ele>66.8</ele></trkpt>
    <trkpt lat="48.358919" lon="-4.664005"><ele>59.0</ele></trkpt>
    <trkpt lat="48.358048" lon="-4.664380"><ele>58.0</ele></trkpt>
    <trkpt lat="48.357759" lon="-4.664333"><ele>57.6</ele></trkpt>
    <trkpt lat="48.357229" lon="-4.664646"><ele>56.6</ele></trkpt>
    <trkpt lat="48.356984" lon="-4.664731"><ele>55.6</ele></trkpt>
    <trkpt lat="48.356964" lon="-4.665304"><ele>54.6</ele></trkpt>
    <trkpt lat="48.356705" lon="-4.665975"><ele>54.0</ele></trkpt>
    <trkpt lat="48.356509" lon="-4.666622"><ele>52.2</ele></trkpt>
    <trkpt lat="48.356467" lon="-4.667013"><ele>50.8</ele></trkpt>
    <trkpt lat="48.356331" lon="-4.667410"><ele>49.2</ele></trkpt>
    <trkpt lat="48.356303" lon="-4.667633"><ele>48.8</ele></trkpt>
    <trkpt lat="48.356297" lon="-4.667582"><ele>49.0</ele></trkpt>
    <trkpt lat="48.356418" lon="-4.668332"><ele>47.2</ele></trkpt>
    <trkpt lat="48.356392" lon="-4.668691"><ele>45.4</ele></trkpt>
    <trkpt lat="48.356284" lon="-4.669224"><ele>42.8</ele></trkpt>
    <trkpt lat="48.356162" lon="-4.669564"><ele>41.0</ele></trkpt>
    <trkpt lat="48.355772" lon="-4.670088"><ele>38.2</ele></trkpt>
    <trkpt lat="48.355536" lon="-4.671011"><ele>28.6</ele></trkpt>
    <trkpt lat="48.355267" lon="-4.671696"><ele>24.0</ele></trkpt>
    <trkpt lat="48.354826" lon="-4.673125"><ele>13.4</ele></trkpt>
    <trkpt lat="48.354720" lon="-4.673369"><ele>11.6</ele></trkpt>
    <trkpt lat="48.354682" lon="-4.673385"><ele>11.4</ele></trkpt>
    <trkpt lat="48.354614" lon="-4.673332"><ele>10.8</ele></trkpt>
    <trkpt lat="48.354555" lon="-4.673247"><ele>10.6</ele></trkpt>
    <trkpt lat="48.354424" lon="-4.672849"><ele>11.2</ele></trkpt>
    <trkpt lat="48.354200" lon="-4.672336"><ele>13.8</ele></trkpt>
    <trkpt lat="48.353621" lon="-4.671214"><ele>16.6</ele></trkpt>
    <trkpt lat="48.353372" lon="-4.670668"><ele>16.4</ele></trkpt>
    <trkpt lat="48.353241" lon="-4.670281"><ele>15.8</ele></trkpt>
    <trkpt lat="48.353098" lon="-4.669624"><ele>16.4</ele></trkpt>
    <trkpt lat="48.353053" lon="-4.668912"><ele>16.6</ele></trkpt>
    <trkpt lat="48.353134" lon="-4.667634"><ele>15.2</ele></trkpt>
    <trkpt lat="48.353146" lon="-4.666715"><ele>16.0</ele></trkpt>
    <trkpt lat="48.353263" lon="-4.665090"><ele>28.8</ele></trkpt>
    <trkpt lat="48.353412" lon="-4.664362"><ele>32.6</ele></trkpt>
    <trkpt lat="48.353656" lon="-4.663705"><ele>34.8</ele></trkpt>
    <trkpt lat="48.353795" lon="-4.663537"><ele>35.6</ele></trkpt>
    <trkpt lat="48.354224" lon="-4.662253"><ele>41.4</ele></trkpt>
    <trkpt lat="48.354664" lon="-4.661092"><ele>43.4</ele></trkpt>
    <trkpt lat="48.354950" lon="-4.660602"><ele>45.8</ele></trkpt>
    <trkpt lat="48.355134" lon="-4.660354"><ele>46.4</ele></trkpt>
    <trkpt lat="48.355996" lon="-4.659401"><ele>49.4</ele></trkpt>
    <trkpt lat="48.356244" lon="-4.658965"><ele>51.6</ele></trkpt>
    <trkpt lat="48.356413" lon="-4.658587"><ele>53.4</ele></trkpt>
    <trkpt lat="48.356586" lon="-4.657876"><ele>57.0</ele></trkpt>
    <trkpt lat="48.356857" lon="-4.655347"><ele>67.6</ele></trkpt>
    <trkpt lat="48.356997" lon="-4.654734"><ele>69.0</ele></trkpt>
    <trkpt lat="48.357334" lon="-4.653523"><ele>73.4</ele></trkpt>
    <trkpt lat="48.357542" lon="-4.652171"><ele>78.2</ele></trkpt>
    <trkpt lat="48.357540" lon="-4.651435"><ele>81.2</ele></trkpt>
    <trkpt lat="48.357276" lon="-4.649160"><ele>87.0</ele></trkpt>
    <trkpt lat="48.357313" lon="-4.649071"><ele>87.0</ele></trkpt>
    <trkpt lat="48.357273" lon="-4.648871"><ele>87.4</ele></trkpt>
    <trkpt lat="48.357252" lon="-4.648244"><ele>88.0</ele></trkpt>
    <trkpt lat="48.357125" lon="-4.646981"><ele>84.4</ele></trkpt>
    <trkpt lat="48.357123" lon="-4.646711"><ele>83.4</ele></trkpt>
    <trkpt lat="48.357212" lon="-4.646125"><ele>82.4</ele></trkpt>
    <trkpt lat="48.357612" lon="-4.644688"><ele>80.4</ele></trkpt>
    <trkpt lat="48.357568" lon="-4.644615"><ele>80.4</ele></trkpt>
    <trkpt lat="48.357221" lon="-4.644576"><ele>80.8</ele></trkpt>
    <trkpt lat="48.356790" lon="-4.644353"><ele>80.4</ele></trkpt>
    <trkpt lat="48.356585" lon="-4.643816"><ele>80.6</ele></trkpt>
    <trkpt lat="48.356333" lon="-4.643303"><ele>80.8</ele></trkpt>
    <trkpt lat="48.356250" lon="-4.643020"><ele>80.8</ele></trkpt>
    <trkpt lat="48.356200" lon="-4.642685"><ele>80.6</ele></trkpt>
    <trkpt lat="48.356203" lon="-4.642468"><ele>80.6</ele></trkpt>
    <trkpt lat="48.356247" lon="-4.642272"><ele>80.8</ele></trkpt>
    <trkpt lat="48.356441" lon="-4.641813"><ele>80.6</ele></trkpt>
    <trkpt lat="48.356551" lon="-4.641375"><ele>80.0</ele></trkpt>
    <trkpt lat="48.356581" lon="-4.641054"><ele>79.2</ele></trkpt>
    <trkpt lat="48.356573" lon="-4.640733"><ele>78.6</ele></trkpt>
    <trkpt lat="48.356763" lon="-4.639861"><ele>77.2</ele></trkpt>
    <trkpt lat="48.356787" lon="-4.639619"><ele>76.4</ele></trkpt>
    <trkpt lat="48.356738" lon="-4.639503"><ele>76.0</ele></trkpt>
    <trkpt lat="48.356545" lon="-4.639332"><ele>75.6</ele></trkpt>
    <trkpt lat="48.356170" lon="-4.639100"><ele>76.2</ele></trkpt>
    <trkpt lat="48.355994" lon="-4.638939"><ele>76.2</ele></trkpt>
    <trkpt lat="48.355995" lon="-4.638830"><ele>75.8</ele></trkpt>
    <trkpt lat="48.356092" lon="-4.638486"><ele>75.2</ele></trkpt>
    <trkpt lat="48.356021" lon="-4.638176"><ele>75.0</ele></trkpt>
    <trkpt lat="48.355927" lon="-4.637154"><ele>72.2</ele></trkpt>
    <trkpt lat="48.355804" lon="-4.636527"><ele>70.8</ele></trkpt>
    <trkpt lat="48.355851" lon="-4.636216"><ele>70.8</ele></trkpt>
    <trkpt lat="48.355795" lon="-4.635528"><ele>70.8</ele></trkpt>
    <trkpt lat="48.355826" lon="-4.635115"><ele>69.8</ele></trkpt>
    <trkpt lat="48.355901" lon="-4.634753"><ele>69.0</ele></trkpt>
    <trkpt lat="48.356124" lon="-4.634088"><ele>70.2</ele></trkpt>
    <trkpt lat="48.356330" lon="-4.633219"><ele>72.2</ele></trkpt>
    <trkpt lat="48.356289" lon="-4.633130"><ele>72.4</ele></trkpt>
    <trkpt lat="48.356196" lon="-4.633088"><ele>72.0</ele></trkpt>
    <trkpt lat="48.355434" lon="-4.633137"><ele>68.6</ele></trkpt>
    <trkpt lat="48.354905" lon="-4.633030"><ele>64.6</ele></trkpt>
    <trkpt lat="48.354273" lon="-4.632676"><ele>61.6</ele></trkpt>
    <trkpt lat="48.353938" lon="-4.632387"><ele>60.2</ele></trkpt>
    <trkpt lat="48.353675" lon="-4.632069"><ele>58.2</ele></trkpt>
    <trkpt lat="48.353392" lon="-4.631596"><ele>56.6</ele></trkpt>
    <trkpt lat="48.353123" lon="-4.631008"><ele>58.6</ele></trkpt>
    <trkpt lat="48.352409" lon="-4.629625"><ele>65.2</ele></trkpt>
    <trkpt lat="48.352175" lon="-4.628953"><ele>67.6</ele></trkpt>
    <trkpt lat="48.351912" lon="-4.629173"><ele>67.8</ele></trkpt>
    <trkpt lat="48.351656" lon="-4.629844"><ele>67.0</ele></trkpt>
    <trkpt lat="48.351547" lon="-4.630299"><ele>66.4</ele></trkpt>
    <trkpt lat="48.351522" lon="-4.631084"><ele>64.4</ele></trkpt>
    <trkpt lat="48.351623" lon="-4.632943"><ele>63.0</ele></trkpt>
    <trkpt lat="48.351559" lon="-4.633427"><ele>62.6</ele></trkpt>
    <trkpt lat="48.351441" lon="-4.633744"><ele>62.2</ele></trkpt>
    <trkpt lat="48.351205" lon="-4.634106"><ele>61.2</ele></trkpt>
    <trkpt lat="48.350905" lon="-4.634315"><ele>60.2</ele></trkpt>
    <trkpt lat="48.350588" lon="-4.634378"><ele>59.2</ele></trkpt>
    <trkpt lat="48.349520" lon="-4.634340"><ele>56.0</ele></trkpt>
    <trkpt lat="48.349425" lon="-4.634369"><ele>55.8</ele></trkpt>
    <trkpt lat="48.349367" lon="-4.634442"><ele>55.6</ele></trkpt>
    <trkpt lat="48.349337" lon="-4.634580"><ele>55.6</ele></trkpt>
    <trkpt lat="48.349335" lon="-4.635260"><ele>54.4</ele></trkpt>
    <trkpt lat="48.349456" lon="-4.635793"><ele>52.4</ele></trkpt>
    <trkpt lat="48.349720" lon="-4.637543"><ele>42.2</ele></trkpt>
    <trkpt lat="48.349850" lon="-4.637876"><ele>38.6</ele></trkpt>
    <trkpt lat="48.349963" lon="-4.638050"><ele>36.2</ele></trkpt>
    <trkpt lat="48.350293" lon="-4.638163"><ele>32.2</ele></trkpt>
    <trkpt lat="48.350584" lon="-4.638411"><ele>29.6</ele></trkpt>
    <trkpt lat="48.350701" lon="-4.638647"><ele>30.4</ele></trkpt>
    <trkpt lat="48.350727" lon="-4.638822"><ele>32.2</ele></trkpt>
    <trkpt lat="48.350674" lon="-4.638954"><ele>34.0</ele></trkpt>
    <trkpt lat="48.350400" lon="-4.639200"><ele>38.2</ele></trkpt>
    <trkpt lat="48.350242" lon="-4.639534"><ele>41.0</ele></trkpt>
    <trkpt lat="48.349886" lon="-4.639824"><ele>44.2</ele></trkpt>
    <trkpt lat="48.349289" lon="-4.640566"><ele>52.0</ele></trkpt>
    <trkpt lat="48.349209" lon="-4.640865"><ele>54.8</ele></trkpt>
    <trkpt lat="48.349284" lon="-4.641445"><ele>59.0</ele></trkpt>
    <trkpt lat="48.349846" lon="-4.643619"><ele>69.8</ele></trkpt>
    <trkpt lat="48.350077" lon="-4.644644"><ele>72.4</ele></trkpt>
    <trkpt lat="48.350157" lon="-4.644861"><ele>72.4</ele></trkpt>
    <trkpt lat="48.350317" lon="-4.645101"><ele>72.2</ele></trkpt>
    <trkpt lat="48.350535" lon="-4.645297"><ele>72.6</ele></trkpt>
    <trkpt lat="48.351372" lon="-4.645801"><ele>74.4</ele></trkpt>
    <trkpt lat="48.351529" lon="-4.645815"><ele>74.0</ele></trkpt>
    <trkpt lat="48.351922" lon="-4.645474"><ele>74.6</ele></trkpt>
    <trkpt lat="48.352246" lon="-4.645315"><ele>75.6</ele></trkpt>
    <trkpt lat="48.353273" lon="-4.645441"><ele>74.0</ele></trkpt>
    <trkpt lat="48.353637" lon="-4.645624"><ele>73.8</ele></trkpt>
    <trkpt lat="48.354004" lon="-4.645882"><ele>74.2</ele></trkpt>
    <trkpt lat="48.354207" lon="-4.645964"><ele>74.4</ele></trkpt>
    <trkpt lat="48.354421" lon="-4.646011"><ele>74.4</ele></trkpt>
    <trkpt lat="48.354651" lon="-4.645968"><ele>74.6</ele></trkpt>
    <trkpt lat="48.354859" lon="-4.645817"><ele>75.4</ele></trkpt>
    <trkpt lat="48.355960" lon="-4.645248"><ele>80.8</ele></trkpt>
    <trkpt lat="48.356509" lon="-4.644615"><ele>81.2</ele></trkpt>
    <trkpt lat="48.356666" lon="-4.644499"><ele>80.8</ele></trkpt>
    <trkpt lat="48.356841" lon="-4.644485"><ele>80.0</ele></trkpt>
    <trkpt lat="48.357369" lon="-4.644696"><ele>80.0</ele></trkpt>
    <trkpt lat="48.357540" lon="-4.644720"><ele>79.6</ele></trkpt>
    <trkpt lat="48.357636" lon="-4.644684"><ele>79.4</ele></trkpt>
    <trkpt lat="48.358109" lon="-4.643787"><ele>77.2</ele></trkpt>
    <trkpt lat="48.358498" lon="-4.643344"><ele>74.8</ele></trkpt>
    <trkpt lat="48.358643" lon="-4.643299"><ele>74.0</ele></trkpt>
    <trkpt lat="48.358925" lon="-4.643429"><ele>73.0</ele></trkpt>
    <trkpt lat="48.359192" lon="-4.643107"><ele>72.8</ele></trkpt>
    <trkpt lat="48.359617" lon="-4.642932"><ele>72.6</ele></trkpt>
    <trkpt lat="48.359757" lon="-4.642916"><ele>72.2</ele></trkpt>
    <trkpt lat="48.360049" lon="-4.642724"><ele>72.4</ele></trkpt>
    <trkpt lat="48.360341" lon="-4.642462"><ele>73.4</ele></trkpt>
    <trkpt lat="48.360709" lon="-4.641883"><ele>74.0</ele></trkpt>
    <trkpt lat="48.361014" lon="-4.641626"><ele>74.0</ele></trkpt>
    <trkpt lat="48.361360" lon="-4.641490"><ele>74.2</ele></trkpt>
    <trkpt lat="48.362530" lon="-4.641255"><ele>71.6</ele></trkpt>
    <trkpt lat="48.363686" lon="-4.641299"><ele>68.6</ele></trkpt>
    <trkpt lat="48.364391" lon="-4.641446"><ele>66.6</ele></trkpt>
    <trkpt lat="48.363735" lon="-4.641279"><ele>68.2</ele></trkpt>
    <trkpt lat="48.363684" lon="-4.641295"><ele>68.2</ele></trkpt>
    <trkpt lat="48.364038" lon="-4.641412"><ele>68.0</ele></trkpt>
    <trkpt lat="48.364891" lon="-4.641546"><ele>66.8</ele></trkpt>
    <trkpt lat="48.365570" lon="-4.642033"><ele>67.6</ele></trkpt>
    <trkpt lat="48.365953" lon="-4.642155"><ele>68.4</ele></trkpt>
    <trkpt lat="48.366173" lon="-4.642373"><ele>68.6</ele></trkpt>
    <trkpt lat="48.366383" lon="-4.642315"><ele>68.8</ele></trkpt>
    <trkpt lat="48.366558" lon="-4.642353"><ele>68.6</ele></trkpt>
    <trkpt lat="48.367740" lon="-4.642750"><ele>69.8</ele></trkpt>
    <trkpt lat="48.368121" lon="-4.642933"><ele>68.4</ele></trkpt>
    <trkpt lat="48.368421" lon="-4.642974"><ele>66.6</ele></trkpt>
    <trkpt lat="48.369514" lon="-4.642993"><ele>61.6</ele></trkpt>
    <trkpt lat="48.369567" lon="-4.642953"><ele>61.4</ele></trkpt>
    <trkpt lat="48.369629" lon="-4.642749"><ele>61.0</ele></trkpt>
    <trkpt lat="48.369734" lon="-4.642241"><ele>60.4</ele></trkpt>
    <trkpt lat="48.369984" lon="-4.641354"><ele>60.2</ele></trkpt>
    <trkpt lat="48.370165" lon="-4.640735"><ele>61.4</ele></trkpt>
    <trkpt lat="48.370259" lon="-4.640480"><ele>61.8</ele></trkpt>
    <trkpt lat="48.370271" lon="-4.640510"><ele>61.8</ele></trkpt>
  </trkseg></trk>
</gpx>
