<?xml version="1.0" encoding="UTF-8"?>
<gpx version="1.1" creator="tcap-parcours" xmlns="http://www.topografix.com/GPX/1/1">
  <metadata><name>Quéléren – Portez – 12,7 km</name></metadata>
  <trk><name>Quéléren – Portez – 12,7 km</name><trkseg>
    <trkpt lat="48.370164" lon="-4.640734"><ele>60.6</ele></trkpt>
    <trkpt lat="48.369740" lon="-4.642218"><ele>60.8</ele></trkpt>
    <trkpt lat="48.369697" lon="-4.642632"><ele>60.6</ele></trkpt>
    <trkpt lat="48.369484" lon="-4.643003"><ele>60.2</ele></trkpt>
    <trkpt lat="48.368043" lon="-4.642864"><ele>68.0</ele></trkpt>
    <trkpt lat="48.367863" lon="-4.642758"><ele>68.4</ele></trkpt>
    <trkpt lat="48.367348" lon="-4.642563"><ele>69.4</ele></trkpt>
    <trkpt lat="48.366612" lon="-4.642328"><ele>69.0</ele></trkpt>
    <trkpt lat="48.366350" lon="-4.642267"><ele>68.2</ele></trkpt>
    <trkpt lat="48.366142" lon="-4.642318"><ele>67.8</ele></trkpt>
    <trkpt lat="48.365989" lon="-4.642150"><ele>67.6</ele></trkpt>
    <trkpt lat="48.365877" lon="-4.642100"><ele>67.8</ele></trkpt>
    <trkpt lat="48.365786" lon="-4.642102"><ele>68.0</ele></trkpt>
    <trkpt lat="48.365729" lon="-4.642161"><ele>68.2</ele></trkpt>
    <trkpt lat="48.365559" lon="-4.643272"><ele>68.6</ele></trkpt>
    <trkpt lat="48.365412" lon="-4.643651"><ele>68.6</ele></trkpt>
    <trkpt lat="48.365055" lon="-4.644267"><ele>68.8</ele></trkpt>
    <trkpt lat="48.364639" lon="-4.645603"><ele>70.8</ele></trkpt>
    <trkpt lat="48.363892" lon="-4.647550"><ele>72.0</ele></trkpt>
    <trkpt lat="48.363698" lon="-4.648257"><ele>72.2</ele></trkpt>
    <trkpt lat="48.363260" lon="-4.649219"><ele>73.2</ele></trkpt>
    <trkpt lat="48.363087" lon="-4.649894"><ele>74.6</ele></trkpt>
    <trkpt lat="48.362755" lon="-4.650849"><ele>75.6</ele></trkpt>
    <trkpt lat="48.362438" lon="-4.652176"><ele>75.2</ele></trkpt>
    <trkpt lat="48.362257" lon="-4.652476"><ele>75.8</ele></trkpt>
    <trkpt lat="48.362135" lon="-4.652761"><ele>75.8</ele></trkpt>
    <trkpt lat="48.361870" lon="-4.653065"><ele>75.6</ele></trkpt>
    <trkpt lat="48.361760" lon="-4.653443"><ele>75.2</ele></trkpt>
    <trkpt lat="48.361404" lon="-4.654147"><ele>73.6</ele></trkpt>
    <trkpt lat="48.361183" lon="-4.654876"><ele>72.4</ele></trkpt>
    <trkpt lat="48.361034" lon="-4.655232"><ele>72.0</ele></trkpt>
    <trkpt lat="48.360796" lon="-4.655704"><ele>71.0</ele></trkpt>
    <trkpt lat="48.360541" lon="-4.656043"><ele>70.2</ele></trkpt>
    <trkpt lat="48.360497" lon="-4.656176"><ele>69.8</ele></trkpt>
    <trkpt lat="48.360482" lon="-4.656405"><ele>69.6</ele></trkpt>
    <trkpt lat="48.360525" lon="-4.657409"><ele>71.6</ele></trkpt>
    <trkpt lat="48.360605" lon="-4.657884"><ele>72.4</ele></trkpt>
    <trkpt lat="48.360927" lon="-4.658463"><ele>72.0</ele></trkpt>
    <trkpt lat="48.361194" lon="-4.659024"><ele>72.2</ele></trkpt>
    <trkpt lat="48.361514" lon="-4.659966"><ele>71.0</ele></trkpt>
    <trkpt lat="48.361520" lon="-4.660133"><ele>70.8</ele></trkpt>
    <trkpt lat="48.361146" lon="-4.660506"><ele>70.8</ele></trkpt>
    <trkpt lat="48.360721" lon="-4.660810"><ele>70.0</ele></trkpt>
    <trkpt lat="48.360494" lon="-4.661039"><ele>70.0</ele></trkpt>
    <trkpt lat="48.360110" lon="-4.661707"><ele>68.4</ele></trkpt>
    <trkpt lat="48.360155" lon="-4.662037"><ele>67.0</ele></trkpt>
    <trkpt lat="48.360112" lon="-4.662228"><ele>66.0</ele></trkpt>
    <trkpt lat="48.358921" lon="-4.663976"><ele>59.0</ele></trkpt>
    <trkpt lat="48.358087" lon="-4.664427"><ele>57.2</ele></trkpt>
    <trkpt lat="48.357831" lon="-4.664348"><ele>57.0</ele></trkpt>
    <trkpt lat="48.357617" lon="-4.664387"><ele>57.2</ele></trkpt>
    <trkpt lat="48.357094" lon="-4.664677"><ele>55.0</ele></trkpt>
    <trkpt lat="48.356984" lon="-4.664780"><ele>54.2</ele></trkpt>
    <trkpt lat="48.356962" lon="-4.665162"><ele>53.8</ele></trkpt>
    <trkpt lat="48.356515" lon="-4.666492"><ele>51.2</ele></trkpt>
    <trkpt lat="48.356462" lon="-4.666983"><ele>50.2</ele></trkpt>
    <trkpt lat="48.356305" lon="-4.667492"><ele>48.6</ele></trkpt>
    <trkpt lat="48.356297" lon="-4.667697"><ele>48.0</ele></trkpt>
    <trkpt lat="48.356341" lon="-4.668074"><ele>47.6</ele></trkpt>
    <trkpt lat="48.356452" lon="-4.668308"><ele>47.4</ele></trkpt>
    <trkpt lat="48.356755" lon="-4.668331"><ele>46.2</ele></trkpt>
    <trkpt lat="48.357216" lon="-4.668505"><ele>44.2</ele></trkpt>
    <trkpt lat="48.357456" lon="-4.668399"><ele>42.8</ele></trkpt>
    <trkpt lat="48.357890" lon="-4.668400"><ele>40.8</ele></trkpt>
    <trkpt lat="48.357943" lon="-4.668473"><ele>39.6</ele></trkpt>
    <trkpt lat="48.357901" lon="-4.668704"><ele>37.2</ele></trkpt>
    <trkpt lat="48.357825" lon="-4.668873"><ele>35.6</ele></trkpt>
    <trkpt lat="48.357561" lon="-4.669122"><ele>32.2</ele></trkpt>
    <trkpt lat="48.357549" lon="-4.669391"><ele>30.2</ele></trkpt>
    <trkpt lat="48.357513" lon="-4.669484"><ele>29.6</ele></trkpt>
    <trkpt lat="48.356878" lon="-4.670267"><ele>28.4</ele></trkpt>
    <trkpt lat="48.356796" lon="-4.670484"><ele>27.0</ele></trkpt>
    <trkpt lat="48.356865" lon="-4.670803"><ele>23.6</ele></trkpt>
    <trkpt lat="48.356836" lon="-4.670981"><ele>22.4</ele></trkpt>
    <trkpt lat="48.356443" lon="-4.671511"><ele>21.4</ele></trkpt>
    <trkpt lat="48.356070" lon="-4.672091"><ele>19.2</ele></trkpt>
    <trkpt lat="48.356002" lon="-4.672277"><ele>18.2</ele></trkpt>
    <trkpt lat="48.355982" lon="-4.672623"><ele>16.0</ele></trkpt>
    <trkpt lat="48.355907" lon="-4.672868"><ele>14.6</ele></trkpt>
    <trkpt lat="48.355596" lon="-4.673125"><ele>13.2</ele></trkpt>
    <trkpt lat="48.355064" lon="-4.673450"><ele>11.4</ele></trkpt>
    <trkpt lat="48.354837" lon="-4.673711"><ele>10.2</ele></trkpt>
    <trkpt lat="48.354755" lon="-4.673754"><ele>9.6</ele></trkpt>
    <trkpt lat="48.354730" lon="-4.673609"><ele>9.2</ele></trkpt>
    <trkpt lat="48.355221" lon="-4.672005"><ele>19.4</ele></trkpt>
    <trkpt lat="48.355504" lon="-4.671188"><ele>27.2</ele></trkpt>
    <trkpt lat="48.355811" lon="-4.670051"><ele>38.0</ele></trkpt>
    <trkpt lat="48.355880" lon="-4.669928"><ele>38.6</ele></trkpt>
    <trkpt lat="48.356202" lon="-4.669562"><ele>40.2</ele></trkpt>
    <trkpt lat="48.356273" lon="-4.669418"><ele>41.0</ele></trkpt>
    <trkpt lat="48.356467" lon="-4.668311"><ele>45.8</ele></trkpt>
    <trkpt lat="48.356529" lon="-4.668264"><ele>45.8</ele></trkpt>
    <trkpt lat="48.356631" lon="-4.668273"><ele>45.8</ele></trkpt>
    <trkpt lat="48.357214" lon="-4.668496"><ele>43.8</ele></trkpt>
    <trkpt lat="48.357463" lon="-4.668383"><ele>42.4</ele></trkpt>
    <trkpt lat="48.357799" lon="-4.668401"><ele>41.4</ele></trkpt>
    <trkpt lat="48.357925" lon="-4.668464"><ele>40.0</ele></trkpt>
    <trkpt lat="48.357953" lon="-4.668592"><ele>38.8</ele></trkpt>
    <trkpt lat="48.357867" lon="-4.668862"><ele>36.2</ele></trkpt>
    <trkpt lat="48.357594" lon="-4.669117"><ele>32.8</ele></trkpt>
    <trkpt lat="48.357547" lon="-4.669454"><ele>29.8</ele></trkpt>
    <trkpt lat="48.357395" lon="-4.669700"><ele>27.6</ele></trkpt>
    <trkpt lat="48.357091" lon="-4.669989"><ele>27.4</ele></trkpt>
    <trkpt lat="48.356856" lon="-4.670316"><ele>28.2</ele></trkpt>
    <trkpt lat="48.356811" lon="-4.670467"><ele>27.4</ele></trkpt>
    <trkpt lat="48.356883" lon="-4.670810"><ele>24.4</ele></trkpt>
    <trkpt lat="48.356858" lon="-4.670967"><ele>23.2</ele></trkpt>
    <trkpt lat="48.356452" lon="-4.671486"><ele>21.6</ele></trkpt>
    <trkpt lat="48.356037" lon="-4.672138"><ele>19.2</ele></trkpt>
    <trkpt lat="48.355992" lon="-4.672296"><ele>18.2</ele></trkpt>
    <trkpt lat="48.355972" lon="-4.672715"><ele>16.0</ele></trkpt>
    <trkpt lat="48.355918" lon="-4.672866"><ele>15.0</ele></trkpt>
    <trkpt lat="48.355825" lon="-4.672965"><ele>14.4</ele></trkpt>
    <trkpt lat="48.355201" lon="-4.673379"><ele>11.8</ele></trkpt>
    <trkpt lat="48.354880" lon="-4.673663"><ele>10.2</ele></trkpt>
    <trkpt lat="48.354747" lon="-4.673716"><ele>10.0</ele></trkpt>
    <trkpt lat="48.354748" lon="-4.673494"><ele>10.4</ele></trkpt>
    <trkpt lat="48.355014" lon="-4.672727"><ele>14.2</ele></trkpt>
    <trkpt lat="48.355385" lon="-4.672825"><ele>15.6</ele></trkpt>
    <trkpt lat="48.355843" lon="-4.672616"><ele>16.8</ele></trkpt>
    <trkpt lat="48.356017" lon="-4.672384"><ele>17.6</ele></trkpt>
    <trkpt lat="48.356092" lon="-4.672149"><ele>18.4</ele></trkpt>
    <trkpt lat="48.356185" lon="-4.672000"><ele>18.6</ele></trkpt>
    <trkpt lat="48.356910" lon="-4.671097"><ele>19.6</ele></trkpt>
    <trkpt lat="48.357023" lon="-4.670807"><ele>21.6</ele></trkpt>
    <trkpt lat="48.356906" lon="-4.670445"><ele>26.0</ele></trkpt>
    <trkpt lat="48.356930" lon="-4.670328"><ele>26.4</ele></trkpt>
    <trkpt lat="48.357031" lon="-4.670182"><ele>26.2</ele></trkpt>
    <trkpt lat="48.357635" lon="-4.669584"><ele>28.2</ele></trkpt>
    <trkpt lat="48.357686" lon="-4.669466"><ele>29.6</ele></trkpt>
    <trkpt lat="48.357704" lon="-4.669168"><ele>33.2</ele></trkpt>
    <trkpt lat="48.357936" lon="-4.668961"><ele>36.0</ele></trkpt>
    <trkpt lat="48.357997" lon="-4.668830"><ele>36.8</ele></trkpt>
    <trkpt lat="48.358024" lon="-4.668467"><ele>39.0</ele></trkpt>
    <trkpt lat="48.357966" lon="-4.668346"><ele>40.0</ele></trkpt>
    <trkpt lat="48.357870" lon="-4.668287"><ele>40.8</ele></trkpt>
    <trkpt lat="48.357470" lon="-4.668287"><ele>43.4</ele></trkpt>
    <trkpt lat="48.357195" lon="-4.668420"><ele>44.2</ele></trkpt>
    <trkpt lat="48.356644" lon="-4.668235"><ele>45.8</ele></trkpt>
    <trkpt lat="48.356519" lon="-4.668254"><ele>46.0</ele></trkpt>
    <trkpt lat="48.356427" lon="-4.668328"><ele>45.8</ele></trkpt>
    <trkpt lat="48.356308" lon="-4.669061"><ele>42.6</ele></trkpt>
    <trkpt lat="48.356221" lon="-4.669376"><ele>41.4</ele></trkpt>
    <trkpt lat="48.356068" lon="-4.669690"><ele>39.6</ele></trkpt>
    <trkpt lat="48.355773" lon="-4.670086"><ele>36.2</ele></trkpt>
    <trkpt lat="48.355631" lon="-4.670711"><ele>31.8</ele></trkpt>
    <trkpt lat="48.355352" lon="-4.671419"><ele>24.8</ele></trkpt>
    <trkpt lat="48.354991" lon="-4.672690"><ele>15.8</ele></trkpt>
    <trkpt lat="48.355544" lon="-4.671042"><ele>27.8</ele></trkpt>
    <trkpt lat="48.355820" lon="-4.670040"><ele>37.6</ele></trkpt>
    <trkpt lat="48.356163" lon="-4.669623"><ele>39.4</ele></trkpt>
    <trkpt lat="48.356263" lon="-4.669424"><ele>40.4</ele></trkpt>
    <trkpt lat="48.356464" lon="-4.668298"><ele>45.4</ele></trkpt>
    <trkpt lat="48.356525" lon="-4.668267"><ele>45.6</ele></trkpt>
    <trkpt lat="48.356644" lon="-4.668288"><ele>45.8</ele></trkpt>
    <trkpt lat="48.357218" lon="-4.668499"><ele>43.4</ele></trkpt>
    <trkpt lat="48.357487" lon="-4.668387"><ele>41.8</ele></trkpt>
    <trkpt lat="48.357821" lon="-4.668397"><ele>40.6</ele></trkpt>
    <trkpt lat="48.357922" lon="-4.668476"><ele>39.4</ele></trkpt>
    <trkpt lat="48.357936" lon="-4.668607"><ele>38.2</ele></trkpt>
    <trkpt lat="48.357876" lon="-4.668853"><ele>35.8</ele></trkpt>
    <trkpt lat="48.357591" lon="-4.669159"><ele>31.8</ele></trkpt>
    <trkpt lat="48.357526" lon="-4.669494"><ele>29.2</ele></trkpt>
    <trkpt lat="48.357375" lon="-4.669725"><ele>27.6</ele></trkpt>
    <trkpt lat="48.357150" lon="-4.669913"><ele>27.6</ele></trkpt>
    <trkpt lat="48.356839" lon="-4.670299"><ele>28.4</ele></trkpt>
    <trkpt lat="48.356794" lon="-4.670480"><ele>27.4</ele></trkpt>
    <trkpt lat="48.356881" lon="-4.670787"><ele>24.2</ele></trkpt>
    <trkpt lat="48.356853" lon="-4.670961"><ele>22.8</ele></trkpt>
    <trkpt lat="48.356776" lon="-4.671109"><ele>21.8</ele></trkpt>
    <trkpt lat="48.356426" lon="-4.671542"><ele>21.0</ele></trkpt>
    <trkpt lat="48.356030" lon="-4.672172"><ele>19.0</ele></trkpt>
    <trkpt lat="48.355987" lon="-4.672337"><ele>18.0</ele></trkpt>
    <trkpt lat="48.355960" lon="-4.672745"><ele>15.8</ele></trkpt>
    <trkpt lat="48.355921" lon="-4.672857"><ele>15.0</ele></trkpt>
    <trkpt lat="48.355810" lon="-4.672984"><ele>14.0</ele></trkpt>
    <trkpt lat="48.355274" lon="-4.673303"><ele>11.2</ele></trkpt>
    <trkpt lat="48.354827" lon="-4.673713"><ele>8.8</ele></trkpt>
    <trkpt lat="48.354741" lon="-4.673732"><ele>8.6</ele></trkpt>
    <trkpt lat="48.354721" lon="-4.673633"><ele>8.6</ele></trkpt>
    <trkpt lat="48.354741" lon="-4.673486"><ele>9.2</ele></trkpt>
    <trkpt lat="48.355014" lon="-4.672732"><ele>13.6</ele></trkpt>
    <trkpt lat="48.355072" lon="-4.672710"><ele>14.0</ele></trkpt>
    <trkpt lat="48.355235" lon="-4.672818"><ele>14.6</ele></trkpt>
    <trkpt lat="48.355366" lon="-4.672844"><ele>15.0</ele></trkpt>
    <trkpt lat="48.355801" lon="-4.672674"><ele>15.6</ele></trkpt>
    <trkpt lat="48.356011" lon="-4.672387"><ele>16.8</ele></trkpt>
    <trkpt lat="48.356073" lon="-4.672157"><ele>18.0</ele></trkpt>
    <trkpt lat="48.356153" lon="-4.672011"><ele>18.4</ele></trkpt>
    <trkpt lat="48.356448" lon="-4.671696"><ele>19.2</ele></trkpt>
    <trkpt lat="48.356747" lon="-4.671290"><ele>19.6</ele></trkpt>
    <trkpt lat="48.356899" lon="-4.671025"><ele>20.2</ele></trkpt>
    <trkpt lat="48.356981" lon="-4.670790"><ele>21.8</ele></trkpt>
    <trkpt lat="48.356978" lon="-4.670700"><ele>22.8</ele></trkpt>
    <trkpt lat="48.356873" lon="-4.670455"><ele>26.0</ele></trkpt>
    <trkpt lat="48.356890" lon="-4.670338"><ele>26.6</ele></trkpt>
    <trkpt lat="48.356986" lon="-4.670206"><ele>26.8</ele></trkpt>
    <trkpt lat="48.357400" lon="-4.669836"><ele>26.2</ele></trkpt>
    <trkpt lat="48.357622" lon="-4.669570"><ele>28.6</ele></trkpt>
    <trkpt lat="48.357674" lon="-4.669444"><ele>30.2</ele></trkpt>
    <trkpt lat="48.357704" lon="-4.669174"><ele>33.8</ele></trkpt>
    <trkpt lat="48.357913" lon="-4.668958"><ele>36.4</ele></trkpt>
    <trkpt lat="48.357990" lon="-4.668794"><ele>37.8</ele></trkpt>
    <trkpt lat="48.358006" lon="-4.668611"><ele>39.0</ele></trkpt>
    <trkpt lat="48.357985" lon="-4.668438"><ele>40.2</ele></trkpt>
    <trkpt lat="48.357940" lon="-4.668351"><ele>40.8</ele></trkpt>
    <trkpt lat="48.357840" lon="-4.668291"><ele>41.4</ele></trkpt>
    <trkpt lat="48.357458" lon="-4.668271"><ele>43.6</ele></trkpt>
    <trkpt lat="48.357187" lon="-4.668399"><ele>43.8</ele></trkpt>
    <trkpt lat="48.356644" lon="-4.668264"><ele>45.8</ele></trkpt>
    <trkpt lat="48.356501" lon="-4.668262"><ele>46.2</ele></trkpt>
    <trkpt lat="48.356434" lon="-4.668306"><ele>46.0</ele></trkpt>
    <trkpt lat="48.356392" lon="-4.668407"><ele>45.6</ele></trkpt>
    <trkpt lat="48.356315" lon="-4.669018"><ele>42.8</ele></trkpt>
    <trkpt lat="48.356231" lon="-4.669346"><ele>41.4</ele></trkpt>
    <trkpt lat="48.356088" lon="-4.669652"><ele>40.4</ele></trkpt>
    <trkpt lat="48.355755" lon="-4.670098"><ele>36.6</ele></trkpt>
    <trkpt lat="48.355613" lon="-4.670665"><ele>31.8</ele></trkpt>
    <trkpt lat="48.355331" lon="-4.671502"><ele>23.6</ele></trkpt>
    <trkpt lat="48.354952" lon="-4.672802"><ele>14.2</ele></trkpt>
    <trkpt lat="48.355308" lon="-4.671819"><ele>21.2</ele></trkpt>
    <trkpt lat="48.355807" lon="-4.670033"><ele>37.4</ele></trkpt>
    <trkpt lat="48.356134" lon="-4.669631"><ele>39.4</ele></trkpt>
    <trkpt lat="48.356264" lon="-4.669382"><ele>39.6</ele></trkpt>
    <trkpt lat="48.356380" lon="-4.668929"><ele>41.6</ele></trkpt>
    <trkpt lat="48.356457" lon="-4.668309"><ele>44.4</ele></trkpt>
    <trkpt lat="48.356513" lon="-4.668271"><ele>44.8</ele></trkpt>
    <trkpt lat="48.356686" lon="-4.668292"><ele>45.2</ele></trkpt>
    <trkpt lat="48.357252" lon="-4.668494"><ele>42.6</ele></trkpt>
    <trkpt lat="48.357468" lon="-4.668377"><ele>41.2</ele></trkpt>
    <trkpt lat="48.357808" lon="-4.668402"><ele>40.6</ele></trkpt>
    <trkpt lat="48.357890" lon="-4.668466"><ele>39.8</ele></trkpt>
    <trkpt lat="48.357902" lon="-4.668641"><ele>38.4</ele></trkpt>
    <trkpt lat="48.357846" lon="-4.668859"><ele>36.4</ele></trkpt>
    <trkpt lat="48.357596" lon="-4.669122"><ele>32.8</ele></trkpt>
    <trkpt lat="48.357524" lon="-4.669484"><ele>29.8</ele></trkpt>
    <trkpt lat="48.357375" lon="-4.669698"><ele>28.2</ele></trkpt>
    <trkpt lat="48.356836" lon="-4.670289"><ele>29.0</ele></trkpt>
    <trkpt lat="48.356792" lon="-4.670433"><ele>28.2</ele></trkpt>
    <trkpt lat="48.356865" lon="-4.670779"><ele>24.6</ele></trkpt>
    <trkpt lat="48.356844" lon="-4.670931"><ele>23.4</ele></trkpt>
    <trkpt lat="48.356449" lon="-4.671458"><ele>22.2</ele></trkpt>
    <trkpt lat="48.356032" lon="-4.672127"><ele>19.4</ele></trkpt>
    <trkpt lat="48.355989" lon="-4.672273"><ele>18.2</ele></trkpt>
    <trkpt lat="48.355980" lon="-4.672675"><ele>15.8</ele></trkpt>
    <trkpt lat="48.355919" lon="-4.672871"><ele>14.8</ele></trkpt>
    <trkpt lat="48.355752" lon="-4.673031"><ele>13.8</ele></trkpt>
    <trkpt lat="48.355363" lon="-4.673239"><ele>12.6</ele></trkpt>
    <trkpt lat="48.354813" lon="-4.673728"><ele>9.0</ele></trkpt>
    <trkpt lat="48.354753" lon="-4.673740"><ele>8.4</ele></trkpt>
    <trkpt lat="48.354726" lon="-4.673661"><ele>8.0</ele></trkpt>
    <trkpt lat="48.355633" lon="-4.670678"><ele>31.4</ele></trkpt>
    <trkpt lat="48.355767" lon="-4.670082"><ele>36.4</ele></trkpt>
    <trkpt lat="48.356184" lon="-4.669552"><ele>39.6</ele></trkpt>
    <trkpt lat="48.356295" lon="-4.669236"><ele>41.0</ele></trkpt>
    <trkpt lat="48.356397" lon="-4.668669"><ele>44.0</ele></trkpt>
    <trkpt lat="48.356424" lon="-4.668357"><ele>45.0</ele></trkpt>
    <trkpt lat="48.356414" lon="-4.668178"><ele>45.8</ele></trkpt>
    <trkpt lat="48.356314" lon="-4.667790"><ele>47.4</ele></trkpt>
    <trkpt lat="48.356305" lon="-4.667424"><ele>48.6</ele></trkpt>
    <trkpt lat="48.356496" lon="-4.666925"><ele>50.0</ele></trkpt>
    <trkpt lat="48.356529" lon="-4.666543"><ele>50.6</ele></trkpt>
    <trkpt lat="48.356665" lon="-4.666076"><ele>51.6</ele></trkpt>
    <trkpt lat="48.356975" lon="-4.665260"><ele>54.0</ele></trkpt>
    <trkpt lat="48.357025" lon="-4.664753"><ele>54.8</ele></trkpt>
    <trkpt lat="48.357694" lon="-4.664363"><ele>56.2</ele></trkpt>
    <trkpt lat="48.357828" lon="-4.664339"><ele>56.4</ele></trkpt>
    <trkpt lat="48.358059" lon="-4.664413"><ele>56.4</ele></trkpt>
    <trkpt lat="48.358974" lon="-4.663954"><ele>58.4</ele></trkpt>
    <trkpt lat="48.359672" lon="-4.662911"><ele>62.0</ele></trkpt>
    <trkpt lat="48.360152" lon="-4.662088"><ele>65.8</ele></trkpt>
    <trkpt lat="48.360132" lon="-4.661597"><ele>67.6</ele></trkpt>
    <trkpt lat="48.360161" lon="-4.661544"><ele>67.8</ele></trkpt>
    <trkpt lat="48.360636" lon="-4.660899"><ele>69.2</ele></trkpt>
    <trkpt lat="48.361236" lon="-4.660411"><ele>69.4</ele></trkpt>
    <trkpt lat="48.361541" lon="-4.660072"><ele>70.4</ele></trkpt>
    <trkpt lat="48.361536" lon="-4.659879"><ele>71.2</ele></trkpt>
    <trkpt lat="48.361198" lon="-4.658981"><ele>72.2</ele></trkpt>
    <trkpt lat="48.360671" lon="-4.657975"><ele>71.4</ele></trkpt>
    <trkpt lat="48.360596" lon="-4.657774"><ele>71.0</ele></trkpt>
    <trkpt lat="48.360522" lon="-4.657285"><ele>70.6</ele></trkpt>
    <trkpt lat="48.360505" lon="-4.656351"><ele>69.6</ele></trkpt>
    <trkpt lat="48.360529" lon="-4.656121"><ele>69.8</ele></trkpt>
    <trkpt lat="48.360599" lon="-4.655971"><ele>70.2</ele></trkpt>
    <trkpt lat="48.360810" lon="-4.655745"><ele>71.2</ele></trkpt>
    <trkpt lat="48.360954" lon="-4.655505"><ele>71.8</ele></trkpt>
    <trkpt lat="48.361227" lon="-4.654918"><ele>72.8</ele></trkpt>
    <trkpt lat="48.361369" lon="-4.654347"><ele>73.4</ele></trkpt>
    <trkpt lat="48.361532" lon="-4.653945"><ele>73.8</ele></trkpt>
    <trkpt lat="48.361829" lon="-4.653412"><ele>74.8</ele></trkpt>
    <trkpt lat="48.361947" lon="-4.653046"><ele>75.2</ele></trkpt>
    <trkpt lat="48.362230" lon="-4.652678"><ele>75.4</ele></trkpt>
    <trkpt lat="48.362537" lon="-4.651932"><ele>75.6</ele></trkpt>
    <trkpt lat="48.362755" lon="-4.650877"><ele>75.0</ele></trkpt>
    <trkpt lat="48.363101" lon="-4.649916"><ele>74.0</ele></trkpt>
    <trkpt lat="48.363240" lon="-4.649426"><ele>73.4</ele></trkpt>
    <trkpt lat="48.363672" lon="-4.648456"><ele>71.8</ele></trkpt>
    <trkpt lat="48.363967" lon="-4.647363"><ele>71.0</ele></trkpt>
    <trkpt lat="48.364621" lon="-4.645710"><ele>70.0</ele></trkpt>
    <trkpt lat="48.364951" lon="-4.644558"><ele>68.6</ele></trkpt>
    <trkpt lat="48.365128" lon="-4.644176"><ele>68.8</ele></trkpt>
    <trkpt lat="48.365436" lon="-4.643658"><ele>68.2</ele></trkpt>
    <trkpt lat="48.365595" lon="-4.643223"><ele>67.2</ele></trkpt>
    <trkpt lat="48.365778" lon="-4.642131"><ele>67.8</ele></trkpt>
    <trkpt lat="48.365833" lon="-4.642079"><ele>68.0</ele></trkpt>
    <trkpt lat="48.365935" lon="-4.642098"><ele>68.2</ele></trkpt>
    <trkpt lat="48.366185" lon="-4.642350"><ele>68.4</ele></trkpt>
    <trkpt lat="48.366400" lon="-4.642289"><ele>68.2</ele></trkpt>
    <trkpt lat="48.366655" lon="-4.642354"><ele>68.4</ele></trkpt>
    <trkpt lat="48.367812" lon="-4.642746"><ele>68.4</ele></trkpt>
    <trkpt lat="48.368102" lon="-4.642918"><ele>67.8</ele></trkpt>
    <trkpt lat="48.369523" lon="-4.642980"><ele>61.0</ele></trkpt>
    <trkpt lat="48.369565" lon="-4.642950"><ele>60.6</ele></trkpt>
    <trkpt lat="48.369666" lon="-4.642683"><ele>60.2</ele></trkpt>
    <trkpt lat="48.369750" lon="-4.642265"><ele>60.2</ele></trkpt>
    <trkpt lat="48.369974" lon="-4.641496"><ele>60.0</ele></trkpt>
    <trkpt lat="48.370164" lon="-4.640704"><ele>60.0</ele></trkpt>
  </trkseg></trk>
</gpx>
