<?xml version="1.0" encoding="UTF-8"?>
<gpx version="1.1" creator="tcap-parcours" xmlns="http://www.topografix.com/GPX/1/1">
  <metadata><name>Quéléren – Portez – 11,8 km</name></metadata>
  <trk><name>Quéléren – Portez – 11,8 km</name><trkseg>
    <trkpt lat="48.370064" lon="-4.640636"><ele>60.2</ele></trkpt>
    <trkpt lat="48.369797" lon="-4.641418"><ele>60.6</ele></trkpt>
    <trkpt lat="48.369694" lon="-4.641605"><ele>60.8</ele></trkpt>
    <trkpt lat="48.369640" lon="-4.641884"><ele>61.0</ele></trkpt>
    <trkpt lat="48.369610" lon="-4.642230"><ele>60.8</ele></trkpt>
    <trkpt lat="48.369661" lon="-4.642620"><ele>60.6</ele></trkpt>
    <trkpt lat="48.369564" lon="-4.642970"><ele>60.2</ele></trkpt>
    <trkpt lat="48.369629" lon="-4.643123"><ele>60.2</ele></trkpt>
    <trkpt lat="48.369619" lon="-4.643644"><ele>59.8</ele></trkpt>
    <trkpt lat="48.369494" lon="-4.644281"><ele>59.4</ele></trkpt>
    <trkpt lat="48.369267" lon="-4.645093"><ele>58.4</ele></trkpt>
    <trkpt lat="48.369286" lon="-4.645560"><ele>58.0</ele></trkpt>
    <trkpt lat="48.369216" lon="-4.646134"><ele>58.6</ele></trkpt>
    <trkpt lat="48.369085" lon="-4.646650"><ele>59.8</ele></trkpt>
    <trkpt lat="48.369078" lon="-4.647062"><ele>61.4</ele></trkpt>
    <trkpt lat="48.368999" lon="-4.647269"><ele>62.2</ele></trkpt>
    <trkpt lat="48.368650" lon="-4.647625"><ele>64.2</ele></trkpt>
    <trkpt lat="48.368606" lon="-4.647749"><ele>64.6</ele></trkpt>
    <trkpt lat="48.368615" lon="-4.647862"><ele>64.6</ele></trkpt>
    <trkpt lat="48.368831" lon="-4.648541"><ele>65.2</ele></trkpt>
    <trkpt lat="48.368906" lon="-4.649044"><ele>66.0</ele></trkpt>
    <trkpt lat="48.368909" lon="-4.649448"><ele>66.8</ele></trkpt>
    <trkpt lat="48.368853" lon="-4.649991"><ele>68.0</ele></trkpt>
    <trkpt lat="48.368722" lon="-4.650408"><ele>69.4</ele></trkpt>
    <trkpt lat="48.368523" lon="-4.650770"><ele>70.4</ele></trkpt>
    <trkpt lat="48.368012" lon="-4.651301"><ele>71.2</ele></trkpt>
    <trkpt lat="48.367801" lon="-4.651588"><ele>71.4</ele></trkpt>
    <trkpt lat="48.367648" lon="-4.652023"><ele>72.0</ele></trkpt>
    <trkpt lat="48.367444" lon="-4.652751"><ele>73.2</ele></trkpt>
    <trkpt lat="48.367354" lon="-4.652920"><ele>73.6</ele></trkpt>
    <trkpt lat="48.367254" lon="-4.652965"><ele>73.8</ele></trkpt>
    <trkpt lat="48.366959" lon="-4.652990"><ele>74.2</ele></trkpt>
    <trkpt lat="48.366585" lon="-4.653430"><ele>74.4</ele></trkpt>
    <trkpt lat="48.366069" lon="-4.653394"><ele>74.8</ele></trkpt>
    <trkpt lat="48.365894" lon="-4.653434"><ele>75.0</ele></trkpt>
    <trkpt lat="48.365465" lon="-4.653909"><ele>75.6</ele></trkpt>
    <trkpt lat="48.364165" lon="-4.654737"><ele>77.2</ele></trkpt>
    <trkpt lat="48.363705" lon="-4.654907"><ele>77.2</ele></trkpt>
    <trkpt lat="48.363359" lon="-4.654964"><ele>77.8</ele></trkpt>
    <trkpt lat="48.363253" lon="-4.655056"><ele>76.6</ele></trkpt>
    <trkpt lat="48.362774" lon="-4.655199"><ele>76.6</ele></trkpt>
    <trkpt lat="48.362674" lon="-4.655320"><ele>76.4</ele></trkpt>
    <trkpt lat="48.362555" lon="-4.656064"><ele>76.2</ele></trkpt>
    <trkpt lat="48.362491" lon="-4.656229"><ele>76.2</ele></trkpt>
    <trkpt lat="48.362412" lon="-4.656326"><ele>76.2</ele></trkpt>
    <trkpt lat="48.362285" lon="-4.656374"><ele>76.2</ele></trkpt>
    <trkpt lat="48.361623" lon="-4.656374"><ele>74.8</ele></trkpt>
    <trkpt lat="48.361466" lon="-4.656412"><ele>74.4</ele></trkpt>
    <trkpt lat="48.361024" lon="-4.656651"><ele>73.4</ele></trkpt>
    <trkpt lat="48.360559" lon="-4.657043"><ele>71.8</ele></trkpt>
    <trkpt lat="48.360521" lon="-4.657158"><ele>71.6</ele></trkpt>
    <trkpt lat="48.360508" lon="-4.657365"><ele>71.8</ele></trkpt>
    <trkpt lat="48.360607" lon="-4.657920"><ele>73.0</ele></trkpt>
    <trkpt lat="48.361225" lon="-4.659062"><ele>72.6</ele></trkpt>
    <trkpt lat="48.361395" lon="-4.659531"><ele>72.2</ele></trkpt>
    <trkpt lat="48.361531" lon="-4.659990"><ele>72.0</ele></trkpt>
    <trkpt lat="48.361543" lon="-4.660119"><ele>72.0</ele></trkpt>
    <trkpt lat="48.361429" lon="-4.660259"><ele>71.8</ele></trkpt>
    <trkpt lat="48.360671" lon="-4.660849"><ele>70.6</ele></trkpt>
    <trkpt lat="48.360448" lon="-4.661083"><ele>69.8</ele></trkpt>
    <trkpt lat="48.360135" lon="-4.661625"><ele>68.8</ele></trkpt>
    <trkpt lat="48.360110" lon="-4.661774"><ele>68.4</ele></trkpt>
    <trkpt lat="48.360159" lon="-4.662094"><ele>67.2</ele></trkpt>
    <trkpt lat="48.359965" lon="-4.662536"><ele>64.6</ele></trkpt>
    <trkpt lat="48.358922" lon="-4.664021"><ele>58.4</ele></trkpt>
    <trkpt lat="48.358608" lon="-4.664213"><ele>57.6</ele></trkpt>
    <trkpt lat="48.358063" lon="-4.664432"><ele>57.4</ele></trkpt>
    <trkpt lat="48.357803" lon="-4.664400"><ele>57.0</ele></trkpt>
    <trkpt lat="48.357389" lon="-4.664522"><ele>56.8</ele></trkpt>
    <trkpt lat="48.357086" lon="-4.664670"><ele>55.6</ele></trkpt>
    <trkpt lat="48.356999" lon="-4.664755"><ele>55.0</ele></trkpt>
    <trkpt lat="48.356980" lon="-4.664830"><ele>54.8</ele></trkpt>
    <trkpt lat="48.356996" lon="-4.665068"><ele>54.4</ele></trkpt>
    <trkpt lat="48.356942" lon="-4.665322"><ele>54.4</ele></trkpt>
    <trkpt lat="48.356760" lon="-4.665797"><ele>53.4</ele></trkpt>
    <trkpt lat="48.356540" lon="-4.666516"><ele>51.6</ele></trkpt>
    <trkpt lat="48.356482" lon="-4.666975"><ele>50.4</ele></trkpt>
    <trkpt lat="48.356313" lon="-4.667502"><ele>49.0</ele></trkpt>
    <trkpt lat="48.356308" lon="-4.667666"><ele>48.6</ele></trkpt>
    <trkpt lat="48.356423" lon="-4.668348"><ele>46.4</ele></trkpt>
    <trkpt lat="48.356310" lon="-4.669160"><ele>43.6</ele></trkpt>
    <trkpt lat="48.356227" lon="-4.669453"><ele>42.2</ele></trkpt>
    <trkpt lat="48.356082" lon="-4.669750"><ele>40.2</ele></trkpt>
    <trkpt lat="48.355854" lon="-4.670023"><ele>37.8</ele></trkpt>
    <trkpt lat="48.355771" lon="-4.670172"><ele>36.8</ele></trkpt>
    <trkpt lat="48.355624" lon="-4.670746"><ele>32.0</ele></trkpt>
    <trkpt lat="48.355406" lon="-4.671363"><ele>26.8</ele></trkpt>
    <trkpt lat="48.355059" lon="-4.672597"><ele>17.0</ele></trkpt>
    <trkpt lat="48.355341" lon="-4.672550"><ele>17.2</ele></trkpt>
    <trkpt lat="48.355868" lon="-4.672256"><ele>19.2</ele></trkpt>
    <trkpt lat="48.355989" lon="-4.672409"><ele>19.0</ele></trkpt>
    <trkpt lat="48.356036" lon="-4.672392"><ele>19.0</ele></trkpt>
    <trkpt lat="48.356142" lon="-4.672042"><ele>19.6</ele></trkpt>
    <trkpt lat="48.356917" lon="-4.671056"><ele>22.0</ele></trkpt>
    <trkpt lat="48.356964" lon="-4.670780"><ele>23.8</ele></trkpt>
    <trkpt lat="48.356900" lon="-4.670465"><ele>26.6</ele></trkpt>
    <trkpt lat="48.356915" lon="-4.670325"><ele>27.0</ele></trkpt>
    <trkpt lat="48.357014" lon="-4.670188"><ele>27.0</ele></trkpt>
    <trkpt lat="48.357345" lon="-4.669912"><ele>27.0</ele></trkpt>
    <trkpt lat="48.357590" lon="-4.669590"><ele>29.4</ele></trkpt>
    <trkpt lat="48.357648" lon="-4.669457"><ele>30.6</ele></trkpt>
    <trkpt lat="48.357677" lon="-4.669175"><ele>33.6</ele></trkpt>
    <trkpt lat="48.357930" lon="-4.668899"><ele>37.4</ele></trkpt>
    <trkpt lat="48.358008" lon="-4.668642"><ele>39.6</ele></trkpt>
    <trkpt lat="48.357991" lon="-4.668404"><ele>41.4</ele></trkpt>
    <trkpt lat="48.357884" lon="-4.668306"><ele>42.4</ele></trkpt>
    <trkpt lat="48.357431" lon="-4.668335"><ele>43.6</ele></trkpt>
    <trkpt lat="48.357188" lon="-4.668440"><ele>43.8</ele></trkpt>
    <trkpt lat="48.356620" lon="-4.668234"><ele>46.4</ele></trkpt>
    <trkpt lat="48.356507" lon="-4.668246"><ele>46.2</ele></trkpt>
    <trkpt lat="48.356433" lon="-4.668304"><ele>46.0</ele></trkpt>
    <trkpt lat="48.356392" lon="-4.668427"><ele>45.6</ele></trkpt>
    <trkpt lat="48.356345" lon="-4.668988"><ele>43.4</ele></trkpt>
    <trkpt lat="48.356217" lon="-4.669470"><ele>40.8</ele></trkpt>
    <trkpt lat="48.355808" lon="-4.670141"><ele>36.2</ele></trkpt>
    <trkpt lat="48.355733" lon="-4.670462"><ele>34.0</ele></trkpt>
    <trkpt lat="48.355389" lon="-4.671424"><ele>24.8</ele></trkpt>
    <trkpt lat="48.355100" lon="-4.672469"><ele>17.8</ele></trkpt>
    <trkpt lat="48.355114" lon="-4.672603"><ele>17.6</ele></trkpt>
    <trkpt lat="48.355337" lon="-4.672618"><ele>18.6</ele></trkpt>
    <trkpt lat="48.355800" lon="-4.672355"><ele>20.4</ele></trkpt>
    <trkpt lat="48.355870" lon="-4.672363"><ele>20.0</ele></trkpt>
    <trkpt lat="48.355972" lon="-4.672453"><ele>19.4</ele></trkpt>
    <trkpt lat="48.356017" lon="-4.672436"><ele>19.2</ele></trkpt>
    <trkpt lat="48.356158" lon="-4.672024"><ele>20.0</ele></trkpt>
    <trkpt lat="48.356877" lon="-4.671117"><ele>21.4</ele></trkpt>
    <trkpt lat="48.356973" lon="-4.670757"><ele>24.0</ele></trkpt>
    <trkpt lat="48.356886" lon="-4.670461"><ele>27.0</ele></trkpt>
    <trkpt lat="48.356931" lon="-4.670310"><ele>27.4</ele></trkpt>
    <trkpt lat="48.357592" lon="-4.669614"><ele>28.6</ele></trkpt>
    <trkpt lat="48.357664" lon="-4.669450"><ele>30.2</ele></trkpt>
    <trkpt lat="48.357679" lon="-4.669179"><ele>33.4</ele></trkpt>
    <trkpt lat="48.357902" lon="-4.669024"><ele>36.8</ele></trkpt>
    <trkpt lat="48.358002" lon="-4.668805"><ele>38.0</ele></trkpt>
    <trkpt lat="48.358030" lon="-4.668600"><ele>38.8</ele></trkpt>
    <trkpt lat="48.358009" lon="-4.668420"><ele>39.8</ele></trkpt>
    <trkpt lat="48.357966" lon="-4.668346"><ele>40.4</ele></trkpt>
    <trkpt lat="48.357885" lon="-4.668302"><ele>40.8</ele></trkpt>
    <trkpt lat="48.357483" lon="-4.668324"><ele>43.0</ele></trkpt>
    <trkpt lat="48.357204" lon="-4.668443"><ele>43.8</ele></trkpt>
    <trkpt lat="48.356637" lon="-4.668244"><ele>45.8</ele></trkpt>
    <trkpt lat="48.356510" lon="-4.668256"><ele>45.8</ele></trkpt>
    <trkpt lat="48.356443" lon="-4.668312"><ele>45.6</ele></trkpt>
    <trkpt lat="48.356355" lon="-4.668896"><ele>43.8</ele></trkpt>
    <trkpt lat="48.356238" lon="-4.669411"><ele>41.6</ele></trkpt>
    <trkpt lat="48.356103" lon="-4.669684"><ele>39.8</ele></trkpt>
    <trkpt lat="48.355786" lon="-4.670131"><ele>36.0</ele></trkpt>
    <trkpt lat="48.355639" lon="-4.670748"><ele>31.0</ele></trkpt>
    <trkpt lat="48.355264" lon="-4.671835"><ele>21.2</ele></trkpt>
    <trkpt lat="48.355133" lon="-4.672320"><ele>18.2</ele></trkpt>
    <trkpt lat="48.355095" lon="-4.672515"><ele>17.8</ele></trkpt>
    <trkpt lat="48.355128" lon="-4.672607"><ele>18.0</ele></trkpt>
    <trkpt lat="48.355341" lon="-4.672633"><ele>18.8</ele></trkpt>
    <trkpt lat="48.355812" lon="-4.672345"><ele>19.6</ele></trkpt>
    <trkpt lat="48.355885" lon="-4.672363"><ele>19.4</ele></trkpt>
    <trkpt lat="48.355966" lon="-4.672448"><ele>19.2</ele></trkpt>
    <trkpt lat="48.356034" lon="-4.672419"><ele>19.2</ele></trkpt>
    <trkpt lat="48.356104" lon="-4.672154"><ele>20.0</ele></trkpt>
    <trkpt lat="48.356169" lon="-4.672023"><ele>20.4</ele></trkpt>
    <trkpt lat="48.356940" lon="-4.671030"><ele>22.2</ele></trkpt>
    <trkpt lat="48.356964" lon="-4.670789"><ele>24.0</ele></trkpt>
    <trkpt lat="48.356882" lon="-4.670427"><ele>27.4</ele></trkpt>
    <trkpt lat="48.356929" lon="-4.670229"><ele>28.0</ele></trkpt>
    <trkpt lat="48.357390" lon="-4.669809"><ele>27.6</ele></trkpt>
    <trkpt lat="48.357599" lon="-4.669557"><ele>29.2</ele></trkpt>
    <trkpt lat="48.357653" lon="-4.669439"><ele>30.4</ele></trkpt>
    <trkpt lat="48.357681" lon="-4.669180"><ele>33.2</ele></trkpt>
    <trkpt lat="48.357931" lon="-4.668930"><ele>36.4</ele></trkpt>
    <trkpt lat="48.358004" lon="-4.668665"><ele>38.2</ele></trkpt>
    <trkpt lat="48.358002" lon="-4.668484"><ele>39.4</ele></trkpt>
    <trkpt lat="48.357970" lon="-4.668385"><ele>40.0</ele></trkpt>
    <trkpt lat="48.357811" lon="-4.668283"><ele>41.2</ele></trkpt>
    <trkpt lat="48.357461" lon="-4.668325"><ele>43.0</ele></trkpt>
    <trkpt lat="48.357163" lon="-4.668445"><ele>43.0</ele></trkpt>
    <trkpt lat="48.356693" lon="-4.668266"><ele>45.0</ele></trkpt>
    <trkpt lat="48.356528" lon="-4.668254"><ele>45.4</ele></trkpt>
    <trkpt lat="48.356433" lon="-4.668302"><ele>45.4</ele></trkpt>
    <trkpt lat="48.356284" lon="-4.669261"><ele>42.2</ele></trkpt>
    <trkpt lat="48.356113" lon="-4.669686"><ele>39.8</ele></trkpt>
    <trkpt lat="48.355780" lon="-4.670160"><ele>36.2</ele></trkpt>
    <trkpt lat="48.355509" lon="-4.671145"><ele>28.4</ele></trkpt>
    <trkpt lat="48.355205" lon="-4.672016"><ele>20.2</ele></trkpt>
    <trkpt lat="48.355031" lon="-4.672678"><ele>16.0</ele></trkpt>
    <trkpt lat="48.355032" lon="-4.672770"><ele>15.6</ele></trkpt>
    <trkpt lat="48.355253" lon="-4.672837"><ele>15.2</ele></trkpt>
    <trkpt lat="48.355482" lon="-4.672826"><ele>15.6</ele></trkpt>
    <trkpt lat="48.355811" lon="-4.672650"><ele>17.6</ele></trkpt>
    <trkpt lat="48.355911" lon="-4.672557"><ele>18.2</ele></trkpt>
    <trkpt lat="48.356039" lon="-4.672368"><ele>19.0</ele></trkpt>
    <trkpt lat="48.356102" lon="-4.672112"><ele>20.0</ele></trkpt>
    <trkpt lat="48.356658" lon="-4.671395"><ele>20.6</ele></trkpt>
    <trkpt lat="48.356905" lon="-4.671024"><ele>21.4</ele></trkpt>
    <trkpt lat="48.356960" lon="-4.670788"><ele>23.2</ele></trkpt>
    <trkpt lat="48.356870" lon="-4.670528"><ele>26.8</ele></trkpt>
    <trkpt lat="48.356872" lon="-4.670410"><ele>27.6</ele></trkpt>
    <trkpt lat="48.356977" lon="-4.670249"><ele>27.8</ele></trkpt>
    <trkpt lat="48.357452" lon="-4.669740"><ele>27.6</ele></trkpt>
    <trkpt lat="48.357613" lon="-4.669444"><ele>30.0</ele></trkpt>
    <trkpt lat="48.357643" lon="-4.669159"><ele>33.4</ele></trkpt>
    <trkpt lat="48.357892" lon="-4.668928"><ele>35.8</ele></trkpt>
    <trkpt lat="48.357967" lon="-4.668683"><ele>37.6</ele></trkpt>
    <trkpt lat="48.357960" lon="-4.668397"><ele>40.6</ele></trkpt>
    <trkpt lat="48.357852" lon="-4.668286"><ele>41.8</ele></trkpt>
    <trkpt lat="48.357426" lon="-4.668301"><ele>42.4</ele></trkpt>
    <trkpt lat="48.357128" lon="-4.668421"><ele>43.0</ele></trkpt>
    <trkpt lat="48.356681" lon="-4.668262"><ele>45.6</ele></trkpt>
    <trkpt lat="48.356506" lon="-4.668259"><ele>45.6</ele></trkpt>
    <trkpt lat="48.356438" lon="-4.668301"><ele>45.6</ele></trkpt>
    <trkpt lat="48.356294" lon="-4.669221"><ele>42.6</ele></trkpt>
    <trkpt lat="48.356135" lon="-4.669663"><ele>40.0</ele></trkpt>
    <trkpt lat="48.355796" lon="-4.670161"><ele>36.6</ele></trkpt>
    <trkpt lat="48.355183" lon="-4.672139"><ele>20.0</ele></trkpt>
    <trkpt lat="48.355078" lon="-4.672522"><ele>18.0</ele></trkpt>
    <trkpt lat="48.355087" lon="-4.672594"><ele>18.0</ele></trkpt>
    <trkpt lat="48.355168" lon="-4.672550"><ele>18.2</ele></trkpt>
    <trkpt lat="48.355370" lon="-4.672548"><ele>19.2</ele></trkpt>
    <trkpt lat="48.355823" lon="-4.672328"><ele>19.8</ele></trkpt>
    <trkpt lat="48.355981" lon="-4.672468"><ele>18.4</ele></trkpt>
    <trkpt lat="48.356027" lon="-4.672441"><ele>18.4</ele></trkpt>
    <trkpt lat="48.356090" lon="-4.672154"><ele>19.2</ele></trkpt>
    <trkpt lat="48.356205" lon="-4.671958"><ele>20.0</ele></trkpt>
    <trkpt lat="48.356513" lon="-4.671641"><ele>21.0</ele></trkpt>
    <trkpt lat="48.356955" lon="-4.671007"><ele>22.2</ele></trkpt>
    <trkpt lat="48.356980" lon="-4.670778"><ele>24.0</ele></trkpt>
    <trkpt lat="48.356897" lon="-4.670615"><ele>26.0</ele></trkpt>
    <trkpt lat="48.356871" lon="-4.670491"><ele>27.0</ele></trkpt>
    <trkpt lat="48.356954" lon="-4.670256"><ele>27.6</ele></trkpt>
    <trkpt lat="48.357456" lon="-4.669775"><ele>28.4</ele></trkpt>
    <trkpt lat="48.357614" lon="-4.669505"><ele>30.0</ele></trkpt>
    <trkpt lat="48.357668" lon="-4.669201"><ele>33.2</ele></trkpt>
    <trkpt lat="48.357875" lon="-4.669021"><ele>36.2</ele></trkpt>
    <trkpt lat="48.357963" lon="-4.668815"><ele>37.6</ele></trkpt>
    <trkpt lat="48.357958" lon="-4.668438"><ele>40.6</ele></trkpt>
    <trkpt lat="48.357916" lon="-4.668358"><ele>41.2</ele></trkpt>
    <trkpt lat="48.357820" lon="-4.668302"><ele>41.6</ele></trkpt>
    <trkpt lat="48.357423" lon="-4.668319"><ele>42.6</ele></trkpt>
    <trkpt lat="48.357190" lon="-4.668469"><ele>42.8</ele></trkpt>
    <trkpt lat="48.356992" lon="-4.668431"><ele>43.2</ele></trkpt>
    <trkpt lat="48.356813" lon="-4.668340"><ele>43.6</ele></trkpt>
    <trkpt lat="48.356552" lon="-4.668316"><ele>45.8</ele></trkpt>
    <trkpt lat="48.356462" lon="-4.668353"><ele>45.8</ele></trkpt>
    <trkpt lat="48.356421" lon="-4.668447"><ele>45.8</ele></trkpt>
    <trkpt lat="48.356318" lon="-4.669081"><ele>43.6</ele></trkpt>
    <trkpt lat="48.356223" lon="-4.669441"><ele>42.0</ele></trkpt>
    <trkpt lat="48.356138" lon="-4.669624"><ele>41.0</ele></trkpt>
    <trkpt lat="48.355801" lon="-4.670096"><ele>37.8</ele></trkpt>
    <trkpt lat="48.355546" lon="-4.671015"><ele>29.8</ele></trkpt>
    <trkpt lat="48.355381" lon="-4.671432"><ele>25.8</ele></trkpt>
    <trkpt lat="48.355620" lon="-4.670783"><ele>30.2</ele></trkpt>
    <trkpt lat="48.355808" lon="-4.670039"><ele>38.2</ele></trkpt>
    <trkpt lat="48.356198" lon="-4.669493"><ele>40.8</ele></trkpt>
    <trkpt lat="48.356265" lon="-4.669349"><ele>41.8</ele></trkpt>
    <trkpt lat="48.356342" lon="-4.669047"><ele>43.4</ele></trkpt>
    <trkpt lat="48.356424" lon="-4.668600"><ele>44.8</ele></trkpt>
    <trkpt lat="48.356432" lon="-4.668285"><ele>46.4</ele></trkpt>
    <trkpt lat="48.356334" lon="-4.667801"><ele>48.2</ele></trkpt>
    <trkpt lat="48.356308" lon="-4.667464"><ele>49.0</ele></trkpt>
    <trkpt lat="48.356477" lon="-4.666941"><ele>50.2</ele></trkpt>
    <trkpt lat="48.356531" lon="-4.666505"><ele>51.2</ele></trkpt>
    <trkpt lat="48.356766" lon="-4.665744"><ele>53.4</ele></trkpt>
    <trkpt lat="48.356974" lon="-4.665230"><ele>54.0</ele></trkpt>
    <trkpt lat="48.357011" lon="-4.665011"><ele>54.6</ele></trkpt>
    <trkpt lat="48.357015" lon="-4.664751"><ele>55.2</ele></trkpt>
    <trkpt lat="48.357051" lon="-4.664705"><ele>55.4</ele></trkpt>
    <trkpt lat="48.357251" lon="-4.664641"><ele>55.8</ele></trkpt>
    <trkpt lat="48.357677" lon="-4.664360"><ele>57.0</ele></trkpt>
    <trkpt lat="48.357811" lon="-4.664334"><ele>57.2</ele></trkpt>
    <trkpt lat="48.358054" lon="-4.664415"><ele>57.4</ele></trkpt>
    <trkpt lat="48.358965" lon="-4.663981"><ele>58.8</ele></trkpt>
    <trkpt lat="48.359204" lon="-4.663565"><ele>60.2</ele></trkpt>
    <trkpt lat="48.359320" lon="-4.663447"><ele>60.8</ele></trkpt>
    <trkpt lat="48.359924" lon="-4.662545"><ele>65.4</ele></trkpt>
    <trkpt lat="48.360144" lon="-4.662152"><ele>67.4</ele></trkpt>
    <trkpt lat="48.360187" lon="-4.662003"><ele>67.8</ele></trkpt>
    <trkpt lat="48.360201" lon="-4.661479"><ele>68.0</ele></trkpt>
    <trkpt lat="48.360602" lon="-4.660929"><ele>69.6</ele></trkpt>
    <trkpt lat="48.361178" lon="-4.660464"><ele>71.6</ele></trkpt>
    <trkpt lat="48.361501" lon="-4.660170"><ele>72.4</ele></trkpt>
    <trkpt lat="48.361564" lon="-4.660067"><ele>72.4</ele></trkpt>
    <trkpt lat="48.361511" lon="-4.659822"><ele>72.2</ele></trkpt>
    <trkpt lat="48.361188" lon="-4.659031"><ele>72.6</ele></trkpt>
    <trkpt lat="48.360595" lon="-4.657824"><ele>71.6</ele></trkpt>
    <trkpt lat="48.360507" lon="-4.657297"><ele>70.8</ele></trkpt>
    <trkpt lat="48.360519" lon="-4.656133"><ele>70.8</ele></trkpt>
    <trkpt lat="48.360589" lon="-4.655975"><ele>71.4</ele></trkpt>
    <trkpt lat="48.360823" lon="-4.655701"><ele>72.6</ele></trkpt>
    <trkpt lat="48.361212" lon="-4.654881"><ele>74.0</ele></trkpt>
    <trkpt lat="48.361452" lon="-4.654110"><ele>75.2</ele></trkpt>
    <trkpt lat="48.361835" lon="-4.653393"><ele>76.2</ele></trkpt>
    <trkpt lat="48.361932" lon="-4.653060"><ele>76.4</ele></trkpt>
    <trkpt lat="48.362475" lon="-4.652225"><ele>75.8</ele></trkpt>
    <trkpt lat="48.362662" lon="-4.651292"><ele>75.6</ele></trkpt>
    <trkpt lat="48.362934" lon="-4.650382"><ele>75.4</ele></trkpt>
    <trkpt lat="48.363371" lon="-4.649142"><ele>73.8</ele></trkpt>
    <trkpt lat="48.363755" lon="-4.648281"><ele>73.2</ele></trkpt>
    <trkpt lat="48.363972" lon="-4.647417"><ele>73.2</ele></trkpt>
    <trkpt lat="48.364734" lon="-4.645440"><ele>71.2</ele></trkpt>
    <trkpt lat="48.364984" lon="-4.644532"><ele>70.8</ele></trkpt>
    <trkpt lat="48.365559" lon="-4.643297"><ele>68.2</ele></trkpt>
    <trkpt lat="48.365698" lon="-4.642803"><ele>68.4</ele></trkpt>
    <trkpt lat="48.365776" lon="-4.642114"><ele>67.6</ele></trkpt>
    <trkpt lat="48.365839" lon="-4.642072"><ele>67.6</ele></trkpt>
    <trkpt lat="48.365927" lon="-4.642081"><ele>67.4</ele></trkpt>
    <trkpt lat="48.366070" lon="-4.642151"><ele>67.4</ele></trkpt>
    <trkpt lat="48.366245" lon="-4.642308"><ele>67.6</ele></trkpt>
    <trkpt lat="48.366468" lon="-4.642285"><ele>68.6</ele></trkpt>
    <trkpt lat="48.367149" lon="-4.642582"><ele>70.8</ele></trkpt>
    <trkpt lat="48.367828" lon="-4.642797"><ele>70.2</ele></trkpt>
    <trkpt lat="48.368091" lon="-4.642935"><ele>69.2</ele></trkpt>
    <trkpt lat="48.369514" lon="-4.642969"><ele>62.6</ele></trkpt>
    <trkpt lat="48.369598" lon="-4.642915"><ele>62.2</ele></trkpt>
    <trkpt lat="48.369724" lon="-4.642629"><ele>61.8</ele></trkpt>
    <trkpt lat="48.369813" lon="-4.642084"><ele>61.0</ele></trkpt>
    <trkpt lat="48.370212" lon="-4.640654"><ele>61.0</ele></trkpt>
  </trkseg></trk>
</gpx>
