<?xml version="1.0" encoding="UTF-8"?>
<gpx version="1.1" creator="tcap-parcours" xmlns="http://www.topografix.com/GPX/1/1">
  <metadata><name>Quéléren – Portez – 11 km</name></metadata>
  <trk><name>Quéléren – Portez – 11 km</name><trkseg>
    <trkpt lat="48.370199" lon="-4.640451"><ele>63.0</ele></trkpt>
    <trkpt lat="48.369798" lon="-4.641844"><ele>61.0</ele></trkpt>
    <trkpt lat="48.369658" lon="-4.642456"><ele>61.6</ele></trkpt>
    <trkpt lat="48.369599" lon="-4.642845"><ele>61.6</ele></trkpt>
    <trkpt lat="48.369626" lon="-4.643298"><ele>60.8</ele></trkpt>
    <trkpt lat="48.369603" lon="-4.643610"><ele>60.2</ele></trkpt>
    <trkpt lat="48.369487" lon="-4.644163"><ele>59.4</ele></trkpt>
    <trkpt lat="48.369245" lon="-4.645037"><ele>59.2</ele></trkpt>
    <trkpt lat="48.369231" lon="-4.645200"><ele>59.2</ele></trkpt>
    <trkpt lat="48.369271" lon="-4.645509"><ele>59.2</ele></trkpt>
    <trkpt lat="48.369253" lon="-4.645779"><ele>59.4</ele></trkpt>
    <trkpt lat="48.369211" lon="-4.646045"><ele>59.6</ele></trkpt>
    <trkpt lat="48.369066" lon="-4.646588"><ele>60.2</ele></trkpt>
    <trkpt lat="48.369043" lon="-4.647064"><ele>61.4</ele></trkpt>
    <trkpt lat="48.368948" lon="-4.647280"><ele>62.2</ele></trkpt>
    <trkpt lat="48.368827" lon="-4.647440"><ele>63.2</ele></trkpt>
    <trkpt lat="48.368646" lon="-4.647590"><ele>64.4</ele></trkpt>
    <trkpt lat="48.368577" lon="-4.647754"><ele>65.0</ele></trkpt>
    <trkpt lat="48.368588" lon="-4.647882"><ele>65.4</ele></trkpt>
    <trkpt lat="48.368852" lon="-4.648675"><ele>65.8</ele></trkpt>
    <trkpt lat="48.368885" lon="-4.648973"><ele>66.0</ele></trkpt>
    <trkpt lat="48.368881" lon="-4.649441"><ele>66.2</ele></trkpt>
    <trkpt lat="48.368825" lon="-4.649915"><ele>67.0</ele></trkpt>
    <trkpt lat="48.368769" lon="-4.650226"><ele>67.8</ele></trkpt>
    <trkpt lat="48.368694" lon="-4.650424"><ele>68.2</ele></trkpt>
    <trkpt lat="48.368477" lon="-4.650750"><ele>69.2</ele></trkpt>
    <trkpt lat="48.368102" lon="-4.651103"><ele>69.8</ele></trkpt>
    <trkpt lat="48.367757" lon="-4.651585"><ele>71.2</ele></trkpt>
    <trkpt lat="48.367625" lon="-4.651945"><ele>71.2</ele></trkpt>
    <trkpt lat="48.367413" lon="-4.652751"><ele>71.8</ele></trkpt>
    <trkpt lat="48.367332" lon="-4.652898"><ele>71.8</ele></trkpt>
    <trkpt lat="48.366945" lon="-4.652953"><ele>72.8</ele></trkpt>
    <trkpt lat="48.366548" lon="-4.653412"><ele>73.2</ele></trkpt>
    <trkpt lat="48.366032" lon="-4.653398"><ele>73.8</ele></trkpt>
    <trkpt lat="48.365881" lon="-4.653436"><ele>74.2</ele></trkpt>
    <trkpt lat="48.365567" lon="-4.653799"><ele>74.6</ele></trkpt>
    <trkpt lat="48.365333" lon="-4.653991"><ele>74.8</ele></trkpt>
    <trkpt lat="48.364132" lon="-4.654733"><ele>76.8</ele></trkpt>
    <trkpt lat="48.363319" lon="-4.654965"><ele>79.2</ele></trkpt>
    <trkpt lat="48.362854" lon="-4.655169"><ele>76.8</ele></trkpt>
    <trkpt lat="48.362727" lon="-4.655315"><ele>76.2</ele></trkpt>
    <trkpt lat="48.362543" lon="-4.656095"><ele>75.6</ele></trkpt>
    <trkpt lat="48.362434" lon="-4.656292"><ele>75.6</ele></trkpt>
    <trkpt lat="48.362236" lon="-4.656367"><ele>75.4</ele></trkpt>
    <trkpt lat="48.361884" lon="-4.656326"><ele>75.0</ele></trkpt>
    <trkpt lat="48.361696" lon="-4.656349"><ele>74.6</ele></trkpt>
    <trkpt lat="48.361298" lon="-4.656465"><ele>73.6</ele></trkpt>
    <trkpt lat="48.361014" lon="-4.656632"><ele>72.8</ele></trkpt>
    <trkpt lat="48.360557" lon="-4.657035"><ele>71.2</ele></trkpt>
    <trkpt lat="48.360515" lon="-4.657149"><ele>71.0</ele></trkpt>
    <trkpt lat="48.360503" lon="-4.657328"><ele>70.8</ele></trkpt>
    <trkpt lat="48.360612" lon="-4.657925"><ele>71.4</ele></trkpt>
    <trkpt lat="48.361082" lon="-4.658814"><ele>72.0</ele></trkpt>
    <trkpt lat="48.361280" lon="-4.659261"><ele>72.0</ele></trkpt>
    <trkpt lat="48.361499" lon="-4.659949"><ele>73.0</ele></trkpt>
    <trkpt lat="48.361523" lon="-4.660083"><ele>71.0</ele></trkpt>
    <trkpt lat="48.361503" lon="-4.660187"><ele>70.6</ele></trkpt>
    <trkpt lat="48.361407" lon="-4.660335"><ele>70.4</ele></trkpt>
    <trkpt lat="48.361212" lon="-4.660525"><ele>70.2</ele></trkpt>
    <trkpt lat="48.360742" lon="-4.660807"><ele>69.8</ele></trkpt>
    <trkpt lat="48.360465" lon="-4.661074"><ele>69.0</ele></trkpt>
    <trkpt lat="48.360123" lon="-4.661622"><ele>67.6</ele></trkpt>
    <trkpt lat="48.360095" lon="-4.661797"><ele>67.0</ele></trkpt>
    <trkpt lat="48.360146" lon="-4.662086"><ele>66.2</ele></trkpt>
    <trkpt lat="48.360041" lon="-4.662352"><ele>65.2</ele></trkpt>
    <trkpt lat="48.359853" lon="-4.662664"><ele>63.8</ele></trkpt>
    <trkpt lat="48.359517" lon="-4.663085"><ele>61.8</ele></trkpt>
    <trkpt lat="48.358903" lon="-4.664001"><ele>58.2</ele></trkpt>
    <trkpt lat="48.358749" lon="-4.664095"><ele>57.8</ele></trkpt>
    <trkpt lat="48.358263" lon="-4.664262"><ele>57.2</ele></trkpt>
    <trkpt lat="48.358049" lon="-4.664391"><ele>57.0</ele></trkpt>
    <trkpt lat="48.357815" lon="-4.664308"><ele>57.0</ele></trkpt>
    <trkpt lat="48.357664" lon="-4.664341"><ele>56.8</ele></trkpt>
    <trkpt lat="48.356993" lon="-4.664771"><ele>55.0</ele></trkpt>
    <trkpt lat="48.356970" lon="-4.664848"><ele>54.8</ele></trkpt>
    <trkpt lat="48.356965" lon="-4.665205"><ele>53.8</ele></trkpt>
    <trkpt lat="48.356811" lon="-4.665597"><ele>53.2</ele></trkpt>
    <trkpt lat="48.356534" lon="-4.666503"><ele>50.8</ele></trkpt>
    <trkpt lat="48.356478" lon="-4.666996"><ele>49.8</ele></trkpt>
    <trkpt lat="48.356323" lon="-4.667434"><ele>48.8</ele></trkpt>
    <trkpt lat="48.356330" lon="-4.667734"><ele>47.6</ele></trkpt>
    <trkpt lat="48.356424" lon="-4.668355"><ele>45.6</ele></trkpt>
    <trkpt lat="48.356402" lon="-4.668646"><ele>44.8</ele></trkpt>
    <trkpt lat="48.356306" lon="-4.669126"><ele>43.0</ele></trkpt>
    <trkpt lat="48.356160" lon="-4.669554"><ele>41.6</ele></trkpt>
    <trkpt lat="48.355914" lon="-4.669862"><ele>39.6</ele></trkpt>
    <trkpt lat="48.355747" lon="-4.670139"><ele>37.8</ele></trkpt>
    <trkpt lat="48.355507" lon="-4.671036"><ele>29.4</ele></trkpt>
    <trkpt lat="48.355010" lon="-4.672608"><ele>13.8</ele></trkpt>
    <trkpt lat="48.355094" lon="-4.672754"><ele>17.8</ele></trkpt>
    <trkpt lat="48.355330" lon="-4.672792"><ele>16.4</ele></trkpt>
    <trkpt lat="48.355622" lon="-4.672726"><ele>17.6</ele></trkpt>
    <trkpt lat="48.355838" lon="-4.672611"><ele>18.2</ele></trkpt>
    <trkpt lat="48.356021" lon="-4.672392"><ele>18.4</ele></trkpt>
    <trkpt lat="48.356109" lon="-4.672099"><ele>19.4</ele></trkpt>
    <trkpt lat="48.356790" lon="-4.671282"><ele>20.2</ele></trkpt>
    <trkpt lat="48.356912" lon="-4.671086"><ele>20.2</ele></trkpt>
    <trkpt lat="48.356966" lon="-4.670738"><ele>21.8</ele></trkpt>
    <trkpt lat="48.356868" lon="-4.670500"><ele>25.0</ele></trkpt>
    <trkpt lat="48.356888" lon="-4.670372"><ele>26.6</ele></trkpt>
    <trkpt lat="48.356991" lon="-4.670239"><ele>27.4</ele></trkpt>
    <trkpt lat="48.357188" lon="-4.670102"><ele>26.8</ele></trkpt>
    <trkpt lat="48.357618" lon="-4.669598"><ele>27.4</ele></trkpt>
    <trkpt lat="48.357659" lon="-4.669472"><ele>28.2</ele></trkpt>
    <trkpt lat="48.357628" lon="-4.669183"><ele>31.2</ele></trkpt>
    <trkpt lat="48.357881" lon="-4.668991"><ele>34.8</ele></trkpt>
    <trkpt lat="48.357973" lon="-4.668801"><ele>36.2</ele></trkpt>
    <trkpt lat="48.357997" lon="-4.668495"><ele>38.4</ele></trkpt>
    <trkpt lat="48.357962" lon="-4.668377"><ele>39.6</ele></trkpt>
    <trkpt lat="48.357886" lon="-4.668298"><ele>40.8</ele></trkpt>
    <trkpt lat="48.357431" lon="-4.668342"><ele>42.4</ele></trkpt>
    <trkpt lat="48.357200" lon="-4.668464"><ele>43.2</ele></trkpt>
    <trkpt lat="48.356646" lon="-4.668258"><ele>45.6</ele></trkpt>
    <trkpt lat="48.356517" lon="-4.668242"><ele>45.8</ele></trkpt>
    <trkpt lat="48.356427" lon="-4.668297"><ele>46.0</ele></trkpt>
    <trkpt lat="48.356396" lon="-4.668402"><ele>45.8</ele></trkpt>
    <trkpt lat="48.356358" lon="-4.668856"><ele>44.4</ele></trkpt>
    <trkpt lat="48.356233" lon="-4.669375"><ele>42.4</ele></trkpt>
    <trkpt lat="48.356114" lon="-4.669628"><ele>41.4</ele></trkpt>
    <trkpt lat="48.355783" lon="-4.670059"><ele>38.8</ele></trkpt>
    <trkpt lat="48.355528" lon="-4.671017"><ele>30.0</ele></trkpt>
    <trkpt lat="48.355061" lon="-4.672456"><ele>18.4</ele></trkpt>
    <trkpt lat="48.355011" lon="-4.672658"><ele>16.8</ele></trkpt>
    <trkpt lat="48.355035" lon="-4.672755"><ele>16.2</ele></trkpt>
    <trkpt lat="48.355229" lon="-4.672862"><ele>15.8</ele></trkpt>
    <trkpt lat="48.355409" lon="-4.672885"><ele>16.4</ele></trkpt>
    <trkpt lat="48.355757" lon="-4.672739"><ele>17.6</ele></trkpt>
    <trkpt lat="48.355907" lon="-4.672614"><ele>18.0</ele></trkpt>
    <trkpt lat="48.356038" lon="-4.672389"><ele>18.4</ele></trkpt>
    <trkpt lat="48.356114" lon="-4.672106"><ele>19.2</ele></trkpt>
    <trkpt lat="48.356422" lon="-4.671747"><ele>20.2</ele></trkpt>
    <trkpt lat="48.356965" lon="-4.670981"><ele>20.4</ele></trkpt>
    <trkpt lat="48.357012" lon="-4.670759"><ele>21.6</ele></trkpt>
    <trkpt lat="48.356894" lon="-4.670455"><ele>25.6</ele></trkpt>
    <trkpt lat="48.356966" lon="-4.670238"><ele>27.2</ele></trkpt>
    <trkpt lat="48.357430" lon="-4.669834"><ele>26.6</ele></trkpt>
    <trkpt lat="48.357625" lon="-4.669578"><ele>27.4</ele></trkpt>
    <trkpt lat="48.357662" lon="-4.669476"><ele>28.2</ele></trkpt>
    <trkpt lat="48.357656" lon="-4.669170"><ele>31.2</ele></trkpt>
    <trkpt lat="48.357885" lon="-4.669014"><ele>35.0</ele></trkpt>
    <trkpt lat="48.357980" lon="-4.668787"><ele>36.8</ele></trkpt>
    <trkpt lat="48.357967" lon="-4.668430"><ele>39.4</ele></trkpt>
    <trkpt lat="48.357917" lon="-4.668335"><ele>40.2</ele></trkpt>
    <trkpt lat="48.357829" lon="-4.668281"><ele>41.2</ele></trkpt>
    <trkpt lat="48.357459" lon="-4.668302"><ele>42.2</ele></trkpt>
    <trkpt lat="48.357161" lon="-4.668409"><ele>43.2</ele></trkpt>
    <trkpt lat="48.356772" lon="-4.668246"><ele>45.0</ele></trkpt>
    <trkpt lat="48.356523" lon="-4.668245"><ele>46.0</ele></trkpt>
    <trkpt lat="48.356436" lon="-4.668297"><ele>46.2</ele></trkpt>
    <trkpt lat="48.356400" lon="-4.668404"><ele>46.0</ele></trkpt>
    <trkpt lat="48.356366" lon="-4.668871"><ele>44.4</ele></trkpt>
    <trkpt lat="48.356216" lon="-4.669452"><ele>42.2</ele></trkpt>
    <trkpt lat="48.355874" lon="-4.669902"><ele>39.8</ele></trkpt>
    <trkpt lat="48.355759" lon="-4.670123"><ele>38.4</ele></trkpt>
    <trkpt lat="48.355616" lon="-4.670745"><ele>32.8</ele></trkpt>
    <trkpt lat="48.355363" lon="-4.671455"><ele>26.4</ele></trkpt>
    <trkpt lat="48.355023" lon="-4.672608"><ele>17.4</ele></trkpt>
    <trkpt lat="48.355021" lon="-4.672715"><ele>16.8</ele></trkpt>
    <trkpt lat="48.355085" lon="-4.672796"><ele>16.2</ele></trkpt>
    <trkpt lat="48.355311" lon="-4.672878"><ele>16.4</ele></trkpt>
    <trkpt lat="48.355457" lon="-4.672875"><ele>16.8</ele></trkpt>
    <trkpt lat="48.355745" lon="-4.672742"><ele>18.0</ele></trkpt>
    <trkpt lat="48.355906" lon="-4.672599"><ele>18.4</ele></trkpt>
    <trkpt lat="48.356030" lon="-4.672354"><ele>18.8</ele></trkpt>
    <trkpt lat="48.356105" lon="-4.672112"><ele>19.4</ele></trkpt>
    <trkpt lat="48.356741" lon="-4.671356"><ele>20.4</ele></trkpt>
    <trkpt lat="48.356944" lon="-4.671018"><ele>20.6</ele></trkpt>
    <trkpt lat="48.356993" lon="-4.670796"><ele>21.6</ele></trkpt>
    <trkpt lat="48.356887" lon="-4.670458"><ele>25.6</ele></trkpt>
    <trkpt lat="48.356932" lon="-4.670305"><ele>27.2</ele></trkpt>
    <trkpt lat="48.357030" lon="-4.670170"><ele>27.6</ele></trkpt>
    <trkpt lat="48.357449" lon="-4.669794"><ele>26.8</ele></trkpt>
    <trkpt lat="48.357616" lon="-4.669582"><ele>27.6</ele></trkpt>
    <trkpt lat="48.357653" lon="-4.669458"><ele>28.2</ele></trkpt>
    <trkpt lat="48.357656" lon="-4.669160"><ele>31.2</ele></trkpt>
    <trkpt lat="48.357903" lon="-4.668958"><ele>35.2</ele></trkpt>
    <trkpt lat="48.358008" lon="-4.668682"><ele>37.2</ele></trkpt>
    <trkpt lat="48.357988" lon="-4.668404"><ele>39.4</ele></trkpt>
    <trkpt lat="48.357858" lon="-4.668290"><ele>41.0</ele></trkpt>
    <trkpt lat="48.357473" lon="-4.668276"><ele>42.4</ele></trkpt>
    <trkpt lat="48.357214" lon="-4.668428"><ele>43.2</ele></trkpt>
    <trkpt lat="48.356624" lon="-4.668230"><ele>45.8</ele></trkpt>
    <trkpt lat="48.356489" lon="-4.668220"><ele>46.2</ele></trkpt>
    <trkpt lat="48.356423" lon="-4.668265"><ele>46.2</ele></trkpt>
    <trkpt lat="48.356391" lon="-4.668376"><ele>46.0</ele></trkpt>
    <trkpt lat="48.356396" lon="-4.668639"><ele>45.4</ele></trkpt>
    <trkpt lat="48.356356" lon="-4.668913"><ele>44.2</ele></trkpt>
    <trkpt lat="48.356227" lon="-4.669394"><ele>42.6</ele></trkpt>
    <trkpt lat="48.356127" lon="-4.669627"><ele>41.8</ele></trkpt>
    <trkpt lat="48.355774" lon="-4.670080"><ele>38.8</ele></trkpt>
    <trkpt lat="48.355523" lon="-4.671070"><ele>29.8</ele></trkpt>
    <trkpt lat="48.355388" lon="-4.671401"><ele>26.8</ele></trkpt>
    <trkpt lat="48.355028" lon="-4.672598"><ele>17.4</ele></trkpt>
    <trkpt lat="48.355024" lon="-4.672700"><ele>16.8</ele></trkpt>
    <trkpt lat="48.355084" lon="-4.672780"><ele>16.2</ele></trkpt>
    <trkpt lat="48.355306" lon="-4.672864"><ele>16.0</ele></trkpt>
    <trkpt lat="48.355463" lon="-4.672861"><ele>16.6</ele></trkpt>
    <trkpt lat="48.355753" lon="-4.672741"><ele>17.8</ele></trkpt>
    <trkpt lat="48.355899" lon="-4.672618"><ele>18.0</ele></trkpt>
    <trkpt lat="48.356039" lon="-4.672352"><ele>18.4</ele></trkpt>
    <trkpt lat="48.356109" lon="-4.672113"><ele>19.2</ele></trkpt>
    <trkpt lat="48.356939" lon="-4.671037"><ele>20.2</ele></trkpt>
    <trkpt lat="48.356975" lon="-4.670924"><ele>20.6</ele></trkpt>
    <trkpt lat="48.356979" lon="-4.670774"><ele>21.4</ele></trkpt>
    <trkpt lat="48.356886" lon="-4.670467"><ele>25.6</ele></trkpt>
    <trkpt lat="48.356950" lon="-4.670290"><ele>27.2</ele></trkpt>
    <trkpt lat="48.357134" lon="-4.670084"><ele>26.8</ele></trkpt>
    <trkpt lat="48.357466" lon="-4.669824"><ele>26.6</ele></trkpt>
    <trkpt lat="48.357627" lon="-4.669613"><ele>27.4</ele></trkpt>
    <trkpt lat="48.357679" lon="-4.669471"><ele>28.0</ele></trkpt>
    <trkpt lat="48.357695" lon="-4.669161"><ele>30.8</ele></trkpt>
    <trkpt lat="48.357914" lon="-4.668972"><ele>35.0</ele></trkpt>
    <trkpt lat="48.357974" lon="-4.668846"><ele>36.2</ele></trkpt>
    <trkpt lat="48.357973" lon="-4.668465"><ele>38.8</ele></trkpt>
    <trkpt lat="48.357939" lon="-4.668368"><ele>39.6</ele></trkpt>
    <trkpt lat="48.357879" lon="-4.668321"><ele>40.4</ele></trkpt>
    <trkpt lat="48.357461" lon="-4.668291"><ele>42.0</ele></trkpt>
    <trkpt lat="48.357155" lon="-4.668419"><ele>43.2</ele></trkpt>
    <trkpt lat="48.356636" lon="-4.668235"><ele>45.6</ele></trkpt>
    <trkpt lat="48.356503" lon="-4.668225"><ele>46.0</ele></trkpt>
    <trkpt lat="48.356436" lon="-4.668262"><ele>46.0</ele></trkpt>
    <trkpt lat="48.356397" lon="-4.668365"><ele>46.0</ele></trkpt>
    <trkpt lat="48.356399" lon="-4.668642"><ele>45.2</ele></trkpt>
    <trkpt lat="48.356354" lon="-4.668977"><ele>44.0</ele></trkpt>
    <trkpt lat="48.356260" lon="-4.669325"><ele>42.6</ele></trkpt>
    <trkpt lat="48.356132" lon="-4.669590"><ele>41.6</ele></trkpt>
    <trkpt lat="48.355758" lon="-4.670088"><ele>38.4</ele></trkpt>
    <trkpt lat="48.355536" lon="-4.671023"><ele>28.2</ele></trkpt>
    <trkpt lat="48.355016" lon="-4.672637"><ele>17.8</ele></trkpt>
    <trkpt lat="48.355070" lon="-4.672337"><ele>17.2</ele></trkpt>
    <trkpt lat="48.355344" lon="-4.671622"><ele>24.0</ele></trkpt>
    <trkpt lat="48.355797" lon="-4.670000"><ele>40.2</ele></trkpt>
    <trkpt lat="48.356176" lon="-4.669505"><ele>41.6</ele></trkpt>
    <trkpt lat="48.356353" lon="-4.668952"><ele>43.2</ele></trkpt>
    <trkpt lat="48.356426" lon="-4.668391"><ele>45.4</ele></trkpt>
    <trkpt lat="48.356412" lon="-4.668153"><ele>46.2</ele></trkpt>
    <trkpt lat="48.356332" lon="-4.667697"><ele>47.2</ele></trkpt>
    <trkpt lat="48.356337" lon="-4.667425"><ele>48.2</ele></trkpt>
    <trkpt lat="48.356389" lon="-4.667174"><ele>49.4</ele></trkpt>
    <trkpt lat="48.356492" lon="-4.666945"><ele>49.8</ele></trkpt>
    <trkpt lat="48.356526" lon="-4.666557"><ele>50.4</ele></trkpt>
    <trkpt lat="48.356753" lon="-4.665793"><ele>53.2</ele></trkpt>
    <trkpt lat="48.357004" lon="-4.665223"><ele>54.6</ele></trkpt>
    <trkpt lat="48.357027" lon="-4.665067"><ele>54.6</ele></trkpt>
    <trkpt lat="48.357007" lon="-4.664763"><ele>52.6</ele></trkpt>
    <trkpt lat="48.357732" lon="-4.664371"><ele>57.0</ele></trkpt>
    <trkpt lat="48.357836" lon="-4.664345"><ele>57.2</ele></trkpt>
    <trkpt lat="48.358097" lon="-4.664380"><ele>57.2</ele></trkpt>
    <trkpt lat="48.358562" lon="-4.664203"><ele>57.6</ele></trkpt>
    <trkpt lat="48.358981" lon="-4.663986"><ele>58.2</ele></trkpt>
    <trkpt lat="48.360168" lon="-4.662135"><ele>64.8</ele></trkpt>
    <trkpt lat="48.360199" lon="-4.662059"><ele>64.2</ele></trkpt>
    <trkpt lat="48.360147" lon="-4.661637"><ele>68.6</ele></trkpt>
    <trkpt lat="48.360223" lon="-4.661469"><ele>68.2</ele></trkpt>
    <trkpt lat="48.360695" lon="-4.660843"><ele>70.0</ele></trkpt>
    <trkpt lat="48.361251" lon="-4.660433"><ele>70.6</ele></trkpt>
    <trkpt lat="48.361547" lon="-4.660109"><ele>71.2</ele></trkpt>
    <trkpt lat="48.361565" lon="-4.660034"><ele>71.2</ele></trkpt>
    <trkpt lat="48.361544" lon="-4.659907"><ele>71.4</ele></trkpt>
    <trkpt lat="48.361226" lon="-4.659062"><ele>72.2</ele></trkpt>
    <trkpt lat="48.360664" lon="-4.657968"><ele>72.0</ele></trkpt>
    <trkpt lat="48.360588" lon="-4.657763"><ele>71.8</ele></trkpt>
    <trkpt lat="48.360519" lon="-4.657307"><ele>71.2</ele></trkpt>
    <trkpt lat="48.360520" lon="-4.656136"><ele>70.2</ele></trkpt>
    <trkpt lat="48.360588" lon="-4.655980"><ele>70.6</ele></trkpt>
    <trkpt lat="48.360723" lon="-4.655862"><ele>71.0</ele></trkpt>
    <trkpt lat="48.360849" lon="-4.655675"><ele>71.8</ele></trkpt>
    <trkpt lat="48.361218" lon="-4.654912"><ele>73.2</ele></trkpt>
    <trkpt lat="48.361340" lon="-4.654386"><ele>73.8</ele></trkpt>
    <trkpt lat="48.361544" lon="-4.653890"><ele>74.4</ele></trkpt>
    <trkpt lat="48.361843" lon="-4.653360"><ele>75.2</ele></trkpt>
    <trkpt lat="48.361921" lon="-4.653042"><ele>75.0</ele></trkpt>
    <trkpt lat="48.362193" lon="-4.652711"><ele>74.4</ele></trkpt>
    <trkpt lat="48.362476" lon="-4.652144"><ele>75.4</ele></trkpt>
    <trkpt lat="48.362791" lon="-4.650733"><ele>74.8</ele></trkpt>
    <trkpt lat="48.363106" lon="-4.649856"><ele>74.2</ele></trkpt>
    <trkpt lat="48.363225" lon="-4.649419"><ele>74.0</ele></trkpt>
    <trkpt lat="48.363698" lon="-4.648388"><ele>72.2</ele></trkpt>
    <trkpt lat="48.363908" lon="-4.647535"><ele>72.0</ele></trkpt>
    <trkpt lat="48.364607" lon="-4.645708"><ele>70.0</ele></trkpt>
    <trkpt lat="48.364950" lon="-4.644583"><ele>69.2</ele></trkpt>
    <trkpt lat="48.365126" lon="-4.644195"><ele>68.8</ele></trkpt>
    <trkpt lat="48.365477" lon="-4.643558"><ele>68.2</ele></trkpt>
    <trkpt lat="48.365617" lon="-4.643196"><ele>68.2</ele></trkpt>
    <trkpt lat="48.365689" lon="-4.642841"><ele>67.8</ele></trkpt>
    <trkpt lat="48.365759" lon="-4.642144"><ele>67.6</ele></trkpt>
    <trkpt lat="48.365794" lon="-4.642092"><ele>67.6</ele></trkpt>
    <trkpt lat="48.365882" lon="-4.642090"><ele>67.6</ele></trkpt>
    <trkpt lat="48.366207" lon="-4.642355"><ele>68.4</ele></trkpt>
    <trkpt lat="48.366413" lon="-4.642310"><ele>68.6</ele></trkpt>
    <trkpt lat="48.366659" lon="-4.642377"><ele>68.8</ele></trkpt>
    <trkpt lat="48.368148" lon="-4.642922"><ele>68.6</ele></trkpt>
    <trkpt lat="48.369482" lon="-4.642972"><ele>62.0</ele></trkpt>
    <trkpt lat="48.369536" lon="-4.642937"><ele>61.8</ele></trkpt>
    <trkpt lat="48.369730" lon="-4.642643"><ele>61.4</ele></trkpt>
    <trkpt lat="48.369804" lon="-4.642070"><ele>60.2</ele></trkpt>
    <trkpt lat="48.369994" lon="-4.641448"><ele>60.0</ele></trkpt>
    <trkpt lat="48.370192" lon="-4.640624"><ele>57.8</ele></trkpt>
  </trkseg></trk>
</gpx>
