<?xml version="1.0" encoding="UTF-8"?>
<gpx version="1.1" creator="tcap-parcours" xmlns="http://www.topografix.com/GPX/1/1">
  <metadata><name>Saint-Renan – Lanrivoaré (défi Mathieu Craff) – Boucle 11,6 km</name></metadata>
  <trk><name>Saint-Renan – Lanrivoaré (défi Mathieu Craff) – Boucle 11,6 km</name><trkseg>
    <trkpt lat="48.439477" lon="-4.631998"><ele>29.8</ele></trkpt>
    <trkpt lat="48.439300" lon="-4.631798"><ele>30.0</ele></trkpt>
    <trkpt lat="48.439164" lon="-4.631740"><ele>30.2</ele></trkpt>
    <trkpt lat="48.439050" lon="-4.631755"><ele>30.0</ele></trkpt>
    <trkpt lat="48.438838" lon="-4.631873"><ele>29.8</ele></trkpt>
    <trkpt lat="48.438719" lon="-4.631865"><ele>30.0</ele></trkpt>
    <trkpt lat="48.438453" lon="-4.631090"><ele>30.4</ele></trkpt>
    <trkpt lat="48.438583" lon="-4.630780"><ele>30.0</ele></trkpt>
    <trkpt lat="48.438594" lon="-4.630611"><ele>29.8</ele></trkpt>
    <trkpt lat="48.438297" lon="-4.629874"><ele>29.2</ele></trkpt>
    <trkpt lat="48.438220" lon="-4.629577"><ele>29.2</ele></trkpt>
    <trkpt lat="48.438205" lon="-4.629391"><ele>29.2</ele></trkpt>
    <trkpt lat="48.438250" lon="-4.629236"><ele>29.4</ele></trkpt>
    <trkpt lat="48.438480" lon="-4.629079"><ele>29.6</ele></trkpt>
    <trkpt lat="48.438902" lon="-4.628681"><ele>30.0</ele></trkpt>
    <trkpt lat="48.439278" lon="-4.628059"><ele>30.0</ele></trkpt>
    <trkpt lat="48.439478" lon="-4.627930"><ele>30.2</ele></trkpt>
    <trkpt lat="48.439565" lon="-4.627760"><ele>30.8</ele></trkpt>
    <trkpt lat="48.439636" lon="-4.627701"><ele>31.2</ele></trkpt>
    <trkpt lat="48.440534" lon="-4.627650"><ele>33.6</ele></trkpt>
    <trkpt lat="48.440648" lon="-4.627587"><ele>33.6</ele></trkpt>
    <trkpt lat="48.440720" lon="-4.627622"><ele>33.8</ele></trkpt>
    <trkpt lat="48.440851" lon="-4.627870"><ele>34.4</ele></trkpt>
    <trkpt lat="48.441099" lon="-4.627873"><ele>34.4</ele></trkpt>
    <trkpt lat="48.441508" lon="-4.627759"><ele>33.8</ele></trkpt>
    <trkpt lat="48.441732" lon="-4.627564"><ele>34.8</ele></trkpt>
    <trkpt lat="48.441940" lon="-4.627964"><ele>36.0</ele></trkpt>
    <trkpt lat="48.442048" lon="-4.628106"><ele>36.6</ele></trkpt>
    <trkpt lat="48.442456" lon="-4.628339"><ele>37.4</ele></trkpt>
    <trkpt lat="48.442472" lon="-4.628718"><ele>37.0</ele></trkpt>
    <trkpt lat="48.442520" lon="-4.628824"><ele>37.4</ele></trkpt>
    <trkpt lat="48.442579" lon="-4.628820"><ele>37.8</ele></trkpt>
    <trkpt lat="48.443014" lon="-4.628515"><ele>42.2</ele></trkpt>
    <trkpt lat="48.443106" lon="-4.628525"><ele>43.4</ele></trkpt>
    <trkpt lat="48.443318" lon="-4.628653"><ele>45.4</ele></trkpt>
    <trkpt lat="48.443626" lon="-4.629355"><ele>45.2</ele></trkpt>
    <trkpt lat="48.443735" lon="-4.629524"><ele>45.0</ele></trkpt>
    <trkpt lat="48.444810" lon="-4.630568"><ele>52.4</ele></trkpt>
    <trkpt lat="48.445413" lon="-4.631325"><ele>61.8</ele></trkpt>
    <trkpt lat="48.446080" lon="-4.632024"><ele>67.4</ele></trkpt>
    <trkpt lat="48.446140" lon="-4.631975"><ele>67.8</ele></trkpt>
    <trkpt lat="48.446156" lon="-4.631843"><ele>68.2</ele></trkpt>
    <trkpt lat="48.446041" lon="-4.631262"><ele>67.2</ele></trkpt>
    <trkpt lat="48.445966" lon="-4.630694"><ele>65.4</ele></trkpt>
    <trkpt lat="48.445960" lon="-4.630199"><ele>63.6</ele></trkpt>
    <trkpt lat="48.445875" lon="-4.629482"><ele>60.4</ele></trkpt>
    <trkpt lat="48.445876" lon="-4.629050"><ele>60.4</ele></trkpt>
    <trkpt lat="48.445805" lon="-4.628955"><ele>60.8</ele></trkpt>
    <trkpt lat="48.445322" lon="-4.628743"><ele>61.0</ele></trkpt>
    <trkpt lat="48.445296" lon="-4.628688"><ele>61.2</ele></trkpt>
    <trkpt lat="48.445324" lon="-4.628656"><ele>61.6</ele></trkpt>
    <trkpt lat="48.446045" lon="-4.628902"><ele>64.8</ele></trkpt>
    <trkpt lat="48.446695" lon="-4.628839"><ele>66.4</ele></trkpt>
    <trkpt lat="48.447319" lon="-4.628834"><ele>67.6</ele></trkpt>
    <trkpt lat="48.448341" lon="-4.629103"><ele>70.4</ele></trkpt>
    <trkpt lat="48.448934" lon="-4.629308"><ele>71.2</ele></trkpt>
    <trkpt lat="48.449960" lon="-4.629406"><ele>75.0</ele></trkpt>
    <trkpt lat="48.450345" lon="-4.629521"><ele>76.6</ele></trkpt>
    <trkpt lat="48.451241" lon="-4.629990"><ele>78.6</ele></trkpt>
    <trkpt lat="48.451840" lon="-4.630110"><ele>80.2</ele></trkpt>
    <trkpt lat="48.452145" lon="-4.629979"><ele>81.0</ele></trkpt>
    <trkpt lat="48.452601" lon="-4.629682"><ele>82.4</ele></trkpt>
    <trkpt lat="48.453252" lon="-4.628979"><ele>84.6</ele></trkpt>
    <trkpt lat="48.453745" lon="-4.628546"><ele>86.8</ele></trkpt>
    <trkpt lat="48.454083" lon="-4.628089"><ele>88.2</ele></trkpt>
    <trkpt lat="48.454795" lon="-4.626851"><ele>90.8</ele></trkpt>
    <trkpt lat="48.455066" lon="-4.626577"><ele>91.6</ele></trkpt>
    <trkpt lat="48.455325" lon="-4.626428"><ele>91.6</ele></trkpt>
    <trkpt lat="48.455354" lon="-4.626465"><ele>91.4</ele></trkpt>
    <trkpt lat="48.455346" lon="-4.626597"><ele>91.2</ele></trkpt>
    <trkpt lat="48.455158" lon="-4.627151"><ele>90.2</ele></trkpt>
    <trkpt lat="48.455050" lon="-4.627590"><ele>90.2</ele></trkpt>
    <trkpt lat="48.454752" lon="-4.629161"><ele>92.6</ele></trkpt>
    <trkpt lat="48.454565" lon="-4.629862"><ele>93.8</ele></trkpt>
    <trkpt lat="48.454044" lon="-4.631216"><ele>94.0</ele></trkpt>
    <trkpt lat="48.453598" lon="-4.632234"><ele>94.4</ele></trkpt>
    <trkpt lat="48.453416" lon="-4.632821"><ele>94.2</ele></trkpt>
    <trkpt lat="48.453255" lon="-4.632999"><ele>93.4</ele></trkpt>
    <trkpt lat="48.452899" lon="-4.633282"><ele>91.6</ele></trkpt>
    <trkpt lat="48.452740" lon="-4.633494"><ele>92.2</ele></trkpt>
    <trkpt lat="48.453012" lon="-4.634655"><ele>95.4</ele></trkpt>
    <trkpt lat="48.453202" lon="-4.635269"><ele>95.8</ele></trkpt>
    <trkpt lat="48.453247" lon="-4.635361"><ele>96.0</ele></trkpt>
    <trkpt lat="48.453318" lon="-4.635407"><ele>96.2</ele></trkpt>
    <trkpt lat="48.453921" lon="-4.635508"><ele>97.6</ele></trkpt>
    <trkpt lat="48.454428" lon="-4.635678"><ele>99.8</ele></trkpt>
    <trkpt lat="48.455404" lon="-4.635835"><ele>99.8</ele></trkpt>
    <trkpt lat="48.455939" lon="-4.636061"><ele>98.2</ele></trkpt>
    <trkpt lat="48.456148" lon="-4.636242"><ele>98.4</ele></trkpt>
    <trkpt lat="48.456522" lon="-4.636823"><ele>100.0</ele></trkpt>
    <trkpt lat="48.456927" lon="-4.637115"><ele>100.6</ele></trkpt>
    <trkpt lat="48.457722" lon="-4.637828"><ele>101.8</ele></trkpt>
    <trkpt lat="48.458001" lon="-4.637983"><ele>101.4</ele></trkpt>
    <trkpt lat="48.458225" lon="-4.638877"><ele>100.8</ele></trkpt>
    <trkpt lat="48.458449" lon="-4.639248"><ele>99.6</ele></trkpt>
    <trkpt lat="48.458806" lon="-4.639615"><ele>97.4</ele></trkpt>
    <trkpt lat="48.459247" lon="-4.640406"><ele>95.2</ele></trkpt>
    <trkpt lat="48.459532" lon="-4.640965"><ele>94.4</ele></trkpt>
    <trkpt lat="48.459815" lon="-4.641809"><ele>94.2</ele></trkpt>
    <trkpt lat="48.460062" lon="-4.642294"><ele>94.0</ele></trkpt>
    <trkpt lat="48.460227" lon="-4.642543"><ele>93.6</ele></trkpt>
    <trkpt lat="48.460968" lon="-4.643098"><ele>87.0</ele></trkpt>
    <trkpt lat="48.461381" lon="-4.643579"><ele>82.2</ele></trkpt>
    <trkpt lat="48.461936" lon="-4.644419"><ele>77.2</ele></trkpt>
    <trkpt lat="48.462022" lon="-4.644708"><ele>76.0</ele></trkpt>
    <trkpt lat="48.462010" lon="-4.645029"><ele>75.6</ele></trkpt>
    <trkpt lat="48.461937" lon="-4.645155"><ele>75.6</ele></trkpt>
    <trkpt lat="48.461607" lon="-4.645329"><ele>76.4</ele></trkpt>
    <trkpt lat="48.461360" lon="-4.645680"><ele>76.2</ele></trkpt>
    <trkpt lat="48.461226" lon="-4.645788"><ele>76.8</ele></trkpt>
    <trkpt lat="48.460478" lon="-4.646096"><ele>78.0</ele></trkpt>
    <trkpt lat="48.460188" lon="-4.646296"><ele>77.6</ele></trkpt>
    <trkpt lat="48.459553" lon="-4.647518"><ele>75.2</ele></trkpt>
    <trkpt lat="48.459491" lon="-4.647783"><ele>74.6</ele></trkpt>
    <trkpt lat="48.459293" lon="-4.648327"><ele>74.2</ele></trkpt>
    <trkpt lat="48.459113" lon="-4.648611"><ele>73.4</ele></trkpt>
    <trkpt lat="48.458725" lon="-4.649103"><ele>74.2</ele></trkpt>
    <trkpt lat="48.458473" lon="-4.649525"><ele>76.4</ele></trkpt>
    <trkpt lat="48.458157" lon="-4.650292"><ele>76.8</ele></trkpt>
    <trkpt lat="48.457965" lon="-4.650646"><ele>77.0</ele></trkpt>
    <trkpt lat="48.457698" lon="-4.651033"><ele>77.4</ele></trkpt>
    <trkpt lat="48.457344" lon="-4.651452"><ele>77.8</ele></trkpt>
    <trkpt lat="48.456743" lon="-4.651990"><ele>80.2</ele></trkpt>
    <trkpt lat="48.456191" lon="-4.652067"><ele>81.0</ele></trkpt>
    <trkpt lat="48.455850" lon="-4.651943"><ele>81.2</ele></trkpt>
    <trkpt lat="48.455709" lon="-4.651940"><ele>80.8</ele></trkpt>
    <trkpt lat="48.455405" lon="-4.652076"><ele>79.0</ele></trkpt>
    <trkpt lat="48.455208" lon="-4.652260"><ele>77.4</ele></trkpt>
    <trkpt lat="48.455129" lon="-4.652464"><ele>76.6</ele></trkpt>
    <trkpt lat="48.455119" lon="-4.652699"><ele>75.8</ele></trkpt>
    <trkpt lat="48.455076" lon="-4.652868"><ele>75.2</ele></trkpt>
    <trkpt lat="48.454578" lon="-4.653714"><ele>72.8</ele></trkpt>
    <trkpt lat="48.454548" lon="-4.653813"><ele>72.4</ele></trkpt>
    <trkpt lat="48.454642" lon="-4.653937"><ele>71.4</ele></trkpt>
    <trkpt lat="48.454754" lon="-4.654339"><ele>68.0</ele></trkpt>
    <trkpt lat="48.454828" lon="-4.654445"><ele>66.0</ele></trkpt>
    <trkpt lat="48.454861" lon="-4.654731"><ele>61.0</ele></trkpt>
    <trkpt lat="48.454938" lon="-4.654966"><ele>55.2</ele></trkpt>
    <trkpt lat="48.455069" lon="-4.655137"><ele>50.0</ele></trkpt>
    <trkpt lat="48.455099" lon="-4.655330"><ele>45.2</ele></trkpt>
    <trkpt lat="48.455067" lon="-4.655482"><ele>41.6</ele></trkpt>
    <trkpt lat="48.455137" lon="-4.655877"><ele>35.6</ele></trkpt>
    <trkpt lat="48.454804" lon="-4.655814"><ele>35.8</ele></trkpt>
    <trkpt lat="48.454745" lon="-4.655750"><ele>36.6</ele></trkpt>
    <trkpt lat="48.454849" lon="-4.655388"><ele>45.0</ele></trkpt>
    <trkpt lat="48.454844" lon="-4.655071"><ele>54.0</ele></trkpt>
    <trkpt lat="48.454632" lon="-4.654657"><ele>64.6</ele></trkpt>
    <trkpt lat="48.454705" lon="-4.654491"><ele>67.0</ele></trkpt>
    <trkpt lat="48.454687" lon="-4.654359"><ele>68.6</ele></trkpt>
    <trkpt lat="48.454609" lon="-4.654206"><ele>69.0</ele></trkpt>
    <trkpt lat="48.454490" lon="-4.654188"><ele>68.4</ele></trkpt>
    <trkpt lat="48.454225" lon="-4.654508"><ele>66.8</ele></trkpt>
    <trkpt lat="48.453825" lon="-4.654742"><ele>63.8</ele></trkpt>
    <trkpt lat="48.453688" lon="-4.654892"><ele>62.6</ele></trkpt>
    <trkpt lat="48.453700" lon="-4.654985"><ele>62.4</ele></trkpt>
    <trkpt lat="48.453787" lon="-4.655022"><ele>62.2</ele></trkpt>
    <trkpt lat="48.454218" lon="-4.654770"><ele>64.4</ele></trkpt>
    <trkpt lat="48.454368" lon="-4.654741"><ele>63.6</ele></trkpt>
    <trkpt lat="48.454479" lon="-4.654795"><ele>61.6</ele></trkpt>
    <trkpt lat="48.454450" lon="-4.654926"><ele>60.0</ele></trkpt>
    <trkpt lat="48.454179" lon="-4.655185"><ele>55.0</ele></trkpt>
    <trkpt lat="48.453960" lon="-4.655629"><ele>48.2</ele></trkpt>
    <trkpt lat="48.453854" lon="-4.655640"><ele>48.8</ele></trkpt>
    <trkpt lat="48.453572" lon="-4.655223"><ele>60.2</ele></trkpt>
    <trkpt lat="48.453480" lon="-4.655150"><ele>60.2</ele></trkpt>
    <trkpt lat="48.453447" lon="-4.655182"><ele>59.8</ele></trkpt>
    <trkpt lat="48.453491" lon="-4.655417"><ele>58.6</ele></trkpt>
    <trkpt lat="48.453650" lon="-4.655694"><ele>51.2</ele></trkpt>
    <trkpt lat="48.453776" lon="-4.655853"><ele>46.4</ele></trkpt>
    <trkpt lat="48.453970" lon="-4.655909"><ele>43.4</ele></trkpt>
    <trkpt lat="48.454058" lon="-4.655884"><ele>42.8</ele></trkpt>
    <trkpt lat="48.454162" lon="-4.655790"><ele>42.4</ele></trkpt>
    <trkpt lat="48.454420" lon="-4.655167"><ele>54.2</ele></trkpt>
    <trkpt lat="48.454509" lon="-4.655134"><ele>53.0</ele></trkpt>
    <trkpt lat="48.454599" lon="-4.655207"><ele>50.0</ele></trkpt>
    <trkpt lat="48.454673" lon="-4.655401"><ele>44.6</ele></trkpt>
    <trkpt lat="48.454612" lon="-4.655591"><ele>41.6</ele></trkpt>
    <trkpt lat="48.454004" lon="-4.656109"><ele>37.6</ele></trkpt>
    <trkpt lat="48.453888" lon="-4.656168"><ele>38.0</ele></trkpt>
    <trkpt lat="48.453742" lon="-4.656155"><ele>40.0</ele></trkpt>
    <trkpt lat="48.453383" lon="-4.655814"><ele>54.0</ele></trkpt>
    <trkpt lat="48.453210" lon="-4.655527"><ele>57.2</ele></trkpt>
    <trkpt lat="48.453164" lon="-4.655049"><ele>61.8</ele></trkpt>
    <trkpt lat="48.453132" lon="-4.654978"><ele>62.0</ele></trkpt>
    <trkpt lat="48.453091" lon="-4.655017"><ele>61.8</ele></trkpt>
    <trkpt lat="48.452912" lon="-4.656240"><ele>53.2</ele></trkpt>
    <trkpt lat="48.452760" lon="-4.656906"><ele>47.8</ele></trkpt>
    <trkpt lat="48.452742" lon="-4.657155"><ele>44.6</ele></trkpt>
    <trkpt lat="48.452767" lon="-4.657268"><ele>42.4</ele></trkpt>
    <trkpt lat="48.452886" lon="-4.657329"><ele>39.6</ele></trkpt>
    <trkpt lat="48.452988" lon="-4.657263"><ele>38.6</ele></trkpt>
    <trkpt lat="48.453150" lon="-4.657045"><ele>37.8</ele></trkpt>
    <trkpt lat="48.453241" lon="-4.656778"><ele>38.2</ele></trkpt>
    <trkpt lat="48.453228" lon="-4.656576"><ele>40.4</ele></trkpt>
    <trkpt lat="48.453114" lon="-4.656343"><ele>49.0</ele></trkpt>
    <trkpt lat="48.453075" lon="-4.656169"><ele>52.4</ele></trkpt>
    <trkpt lat="48.453078" lon="-4.655905"><ele>54.8</ele></trkpt>
    <trkpt lat="48.453124" lon="-4.655788"><ele>55.6</ele></trkpt>
    <trkpt lat="48.453200" lon="-4.655780"><ele>55.2</ele></trkpt>
    <trkpt lat="48.453249" lon="-4.655902"><ele>53.4</ele></trkpt>
    <trkpt lat="48.453299" lon="-4.656332"><ele>43.2</ele></trkpt>
    <trkpt lat="48.453340" lon="-4.656455"><ele>41.2</ele></trkpt>
    <trkpt lat="48.453384" lon="-4.656468"><ele>40.8</ele></trkpt>
    <trkpt lat="48.453420" lon="-4.656381"><ele>41.2</ele></trkpt>
    <trkpt lat="48.453384" lon="-4.656092"><ele>47.6</ele></trkpt>
    <trkpt lat="48.453473" lon="-4.656118"><ele>45.4</ele></trkpt>
    <trkpt lat="48.453565" lon="-4.656248"><ele>41.6</ele></trkpt>
    <trkpt lat="48.453579" lon="-4.656333"><ele>40.4</ele></trkpt>
    <trkpt lat="48.453477" lon="-4.656581"><ele>37.8</ele></trkpt>
    <trkpt lat="48.453120" lon="-4.657169"><ele>36.4</ele></trkpt>
    <trkpt lat="48.452738" lon="-4.657616"><ele>39.2</ele></trkpt>
    <trkpt lat="48.452551" lon="-4.657924"><ele>41.4</ele></trkpt>
    <trkpt lat="48.452523" lon="-4.657850"><ele>42.4</ele></trkpt>
    <trkpt lat="48.452666" lon="-4.657369"><ele>46.4</ele></trkpt>
    <trkpt lat="48.452804" lon="-4.656059"><ele>55.8</ele></trkpt>
    <trkpt lat="48.452694" lon="-4.655941"><ele>57.0</ele></trkpt>
    <trkpt lat="48.452523" lon="-4.655897"><ele>57.4</ele></trkpt>
    <trkpt lat="48.452226" lon="-4.655894"><ele>56.8</ele></trkpt>
    <trkpt lat="48.452073" lon="-4.655941"><ele>56.0</ele></trkpt>
    <trkpt lat="48.451951" lon="-4.656036"><ele>55.2</ele></trkpt>
    <trkpt lat="48.451819" lon="-4.656292"><ele>53.4</ele></trkpt>
    <trkpt lat="48.451503" lon="-4.656378"><ele>51.6</ele></trkpt>
    <trkpt lat="48.451418" lon="-4.656458"><ele>51.4</ele></trkpt>
    <trkpt lat="48.451397" lon="-4.656571"><ele>51.2</ele></trkpt>
    <trkpt lat="48.451427" lon="-4.656843"><ele>51.0</ele></trkpt>
    <trkpt lat="48.451408" lon="-4.656994"><ele>50.8</ele></trkpt>
    <trkpt lat="48.451270" lon="-4.657279"><ele>50.2</ele></trkpt>
    <trkpt lat="48.451143" lon="-4.657709"><ele>48.8</ele></trkpt>
    <trkpt lat="48.451035" lon="-4.657901"><ele>48.2</ele></trkpt>
    <trkpt lat="48.450806" lon="-4.658125"><ele>46.6</ele></trkpt>
    <trkpt lat="48.450502" lon="-4.658312"><ele>44.6</ele></trkpt>
    <trkpt lat="48.450280" lon="-4.658417"><ele>43.0</ele></trkpt>
    <trkpt lat="48.449878" lon="-4.658522"><ele>41.0</ele></trkpt>
    <trkpt lat="48.449468" lon="-4.658765"><ele>38.4</ele></trkpt>
    <trkpt lat="48.448769" lon="-4.659528"><ele>33.6</ele></trkpt>
    <trkpt lat="48.448694" lon="-4.659718"><ele>32.6</ele></trkpt>
    <trkpt lat="48.448657" lon="-4.660071"><ele>30.8</ele></trkpt>
    <trkpt lat="48.448551" lon="-4.660218"><ele>29.6</ele></trkpt>
    <trkpt lat="48.448058" lon="-4.660397"><ele>26.0</ele></trkpt>
    <trkpt lat="48.447760" lon="-4.660247"><ele>25.6</ele></trkpt>
    <trkpt lat="48.447570" lon="-4.660223"><ele>25.4</ele></trkpt>
    <trkpt lat="48.447015" lon="-4.660458"><ele>24.6</ele></trkpt>
    <trkpt lat="48.446841" lon="-4.660470"><ele>24.8</ele></trkpt>
    <trkpt lat="48.446604" lon="-4.660103"><ele>25.6</ele></trkpt>
    <trkpt lat="48.446330" lon="-4.659514"><ele>24.8</ele></trkpt>
    <trkpt lat="48.446206" lon="-4.659061"><ele>24.4</ele></trkpt>
    <trkpt lat="48.445012" lon="-4.655682"><ele>25.6</ele></trkpt>
    <trkpt lat="48.444783" lon="-4.654839"><ele>25.4</ele></trkpt>
    <trkpt lat="48.444730" lon="-4.654331"><ele>25.0</ele></trkpt>
    <trkpt lat="48.444641" lon="-4.654059"><ele>24.6</ele></trkpt>
    <trkpt lat="48.444264" lon="-4.653327"><ele>24.4</ele></trkpt>
    <trkpt lat="48.444125" lon="-4.653118"><ele>24.6</ele></trkpt>
    <trkpt lat="48.443270" lon="-4.652512"><ele>24.6</ele></trkpt>
    <trkpt lat="48.442937" lon="-4.652149"><ele>25.0</ele></trkpt>
    <trkpt lat="48.442750" lon="-4.651822"><ele>25.8</ele></trkpt>
    <trkpt lat="48.442128" lon="-4.650441"><ele>26.4</ele></trkpt>
    <trkpt lat="48.441543" lon="-4.649316"><ele>27.4</ele></trkpt>
    <trkpt lat="48.440566" lon="-4.647223"><ele>27.0</ele></trkpt>
    <trkpt lat="48.440543" lon="-4.647059"><ele>27.0</ele></trkpt>
    <trkpt lat="48.440558" lon="-4.646929"><ele>27.0</ele></trkpt>
    <trkpt lat="48.440808" lon="-4.646270"><ele>27.0</ele></trkpt>
    <trkpt lat="48.440864" lon="-4.645965"><ele>27.2</ele></trkpt>
    <trkpt lat="48.440844" lon="-4.645468"><ele>27.6</ele></trkpt>
    <trkpt lat="48.440751" lon="-4.645003"><ele>28.4</ele></trkpt>
    <trkpt lat="48.440706" lon="-4.644600"><ele>28.2</ele></trkpt>
    <trkpt lat="48.440623" lon="-4.642664"><ele>28.2</ele></trkpt>
    <trkpt lat="48.440662" lon="-4.642497"><ele>28.2</ele></trkpt>
    <trkpt lat="48.440910" lon="-4.642323"><ele>27.8</ele></trkpt>
    <trkpt lat="48.440974" lon="-4.642128"><ele>27.6</ele></trkpt>
    <trkpt lat="48.440982" lon="-4.641413"><ele>28.0</ele></trkpt>
    <trkpt lat="48.440924" lon="-4.641275"><ele>28.0</ele></trkpt>
    <trkpt lat="48.440735" lon="-4.641083"><ele>28.2</ele></trkpt>
    <trkpt lat="48.440690" lon="-4.640950"><ele>28.4</ele></trkpt>
    <trkpt lat="48.440739" lon="-4.640770"><ele>28.4</ele></trkpt>
    <trkpt lat="48.440945" lon="-4.640435"><ele>28.6</ele></trkpt>
    <trkpt lat="48.440995" lon="-4.640288"><ele>28.6</ele></trkpt>
    <trkpt lat="48.440965" lon="-4.639781"><ele>28.4</ele></trkpt>
    <trkpt lat="48.441005" lon="-4.639176"><ele>28.4</ele></trkpt>
    <trkpt lat="48.440992" lon="-4.638959"><ele>28.6</ele></trkpt>
    <trkpt lat="48.440911" lon="-4.638733"><ele>28.6</ele></trkpt>
    <trkpt lat="48.440655" lon="-4.638426"><ele>28.6</ele></trkpt>
    <trkpt lat="48.440513" lon="-4.638000"><ele>28.2</ele></trkpt>
    <trkpt lat="48.440389" lon="-4.637897"><ele>28.2</ele></trkpt>
    <trkpt lat="48.440030" lon="-4.637785"><ele>28.2</ele></trkpt>
    <trkpt lat="48.439558" lon="-4.637069"><ele>29.0</ele></trkpt>
    <trkpt lat="48.439371" lon="-4.636634"><ele>28.2</ele></trkpt>
    <trkpt lat="48.439422" lon="-4.636096"><ele>28.0</ele></trkpt>
    <trkpt lat="48.439386" lon="-4.635849"><ele>28.2</ele></trkpt>
    <trkpt lat="48.439299" lon="-4.635726"><ele>28.4</ele></trkpt>
    <trkpt lat="48.438909" lon="-4.635421"><ele>28.4</ele></trkpt>
    <trkpt lat="48.438704" lon="-4.634905"><ele>28.2</ele></trkpt>
    <trkpt lat="48.438610" lon="-4.634549"><ele>28.2</ele></trkpt>
    <trkpt lat="48.438641" lon="-4.634396"><ele>28.2</ele></trkpt>
    <trkpt lat="48.438757" lon="-4.634233"><ele>28.4</ele></trkpt>
    <trkpt lat="48.439208" lon="-4.633780"><ele>29.0</ele></trkpt>
    <trkpt lat="48.439454" lon="-4.633588"><ele>28.8</ele></trkpt>
    <trkpt lat="48.439882" lon="-4.632700"><ele>29.2</ele></trkpt>
    <trkpt lat="48.439985" lon="-4.632418"><ele>29.8</ele></trkpt>
    <trkpt lat="48.439959" lon="-4.632323"><ele>30.4</ele></trkpt>
    <trkpt lat="48.439905" lon="-4.632345"><ele>31.0</ele></trkpt>
    <trkpt lat="48.439685" lon="-4.632847"><ele>31.4</ele></trkpt>
    <trkpt lat="48.439421" lon="-4.633261"><ele>30.0</ele></trkpt>
    <trkpt lat="48.439368" lon="-4.632757"><ele>29.0</ele></trkpt>
    <trkpt lat="48.439424" lon="-4.632601"><ele>29.0</ele></trkpt>
    <trkpt lat="48.439596" lon="-4.632311"><ele>28.6</ele></trkpt>
  </trkseg></trk>
</gpx>
