<?xml version="1.0" encoding="UTF-8"?>
<gpx version="1.1" creator="tcap-parcours" xmlns="http://www.topografix.com/GPX/1/1">
  <metadata><name>Saint-Mathieu → Locmaria par le GR34 – 19,4 km en ligne</name></metadata>
  <trk><name>Saint-Mathieu → Locmaria par le GR34 – 19,4 km en ligne</name><trkseg>
    <trkpt lat="48.329500" lon="-4.770618"><ele>15.6</ele></trkpt>
    <trkpt lat="48.329668" lon="-4.770109"><ele>19.8</ele></trkpt>
    <trkpt lat="48.329774" lon="-4.769620"><ele>23.2</ele></trkpt>
    <trkpt lat="48.329794" lon="-4.769312"><ele>25.0</ele></trkpt>
    <trkpt lat="48.329751" lon="-4.769202"><ele>25.6</ele></trkpt>
    <trkpt lat="48.329295" lon="-4.768814"><ele>25.8</ele></trkpt>
    <trkpt lat="48.329095" lon="-4.768578"><ele>24.6</ele></trkpt>
    <trkpt lat="48.328959" lon="-4.768370"><ele>23.6</ele></trkpt>
    <trkpt lat="48.328878" lon="-4.768150"><ele>22.6</ele></trkpt>
    <trkpt lat="48.328896" lon="-4.767831"><ele>21.4</ele></trkpt>
    <trkpt lat="48.328974" lon="-4.767548"><ele>20.2</ele></trkpt>
    <trkpt lat="48.329035" lon="-4.767410"><ele>19.8</ele></trkpt>
    <trkpt lat="48.329307" lon="-4.767022"><ele>21.0</ele></trkpt>
    <trkpt lat="48.329348" lon="-4.766875"><ele>21.8</ele></trkpt>
    <trkpt lat="48.329345" lon="-4.766673"><ele>23.0</ele></trkpt>
    <trkpt lat="48.329310" lon="-4.766518"><ele>24.0</ele></trkpt>
    <trkpt lat="48.329182" lon="-4.766445"><ele>24.8</ele></trkpt>
    <trkpt lat="48.328658" lon="-4.766806"><ele>20.0</ele></trkpt>
    <trkpt lat="48.328615" lon="-4.766800"><ele>19.4</ele></trkpt>
    <trkpt lat="48.328569" lon="-4.766698"><ele>19.0</ele></trkpt>
    <trkpt lat="48.328552" lon="-4.766267"><ele>20.2</ele></trkpt>
    <trkpt lat="48.328495" lon="-4.765922"><ele>20.4</ele></trkpt>
    <trkpt lat="48.328501" lon="-4.765407"><ele>18.6</ele></trkpt>
    <trkpt lat="48.328458" lon="-4.764927"><ele>14.8</ele></trkpt>
    <trkpt lat="48.328558" lon="-4.764641"><ele>15.6</ele></trkpt>
    <trkpt lat="48.328382" lon="-4.764451"><ele>17.0</ele></trkpt>
    <trkpt lat="48.328337" lon="-4.764317"><ele>17.4</ele></trkpt>
    <trkpt lat="48.328390" lon="-4.763299"><ele>20.8</ele></trkpt>
    <trkpt lat="48.328343" lon="-4.762966"><ele>20.6</ele></trkpt>
    <trkpt lat="48.328353" lon="-4.762588"><ele>21.0</ele></trkpt>
    <trkpt lat="48.328249" lon="-4.762233"><ele>22.2</ele></trkpt>
    <trkpt lat="48.328225" lon="-4.762018"><ele>23.2</ele></trkpt>
    <trkpt lat="48.328335" lon="-4.761559"><ele>24.6</ele></trkpt>
    <trkpt lat="48.328413" lon="-4.761046"><ele>22.0</ele></trkpt>
    <trkpt lat="48.328574" lon="-4.760734"><ele>21.2</ele></trkpt>
    <trkpt lat="48.328653" lon="-4.760447"><ele>22.2</ele></trkpt>
    <trkpt lat="48.328781" lon="-4.759661"><ele>23.4</ele></trkpt>
    <trkpt lat="48.328817" lon="-4.759231"><ele>24.8</ele></trkpt>
    <trkpt lat="48.328815" lon="-4.758559"><ele>27.4</ele></trkpt>
    <trkpt lat="48.328936" lon="-4.757788"><ele>30.0</ele></trkpt>
    <trkpt lat="48.328993" lon="-4.756816"><ele>28.8</ele></trkpt>
    <trkpt lat="48.328946" lon="-4.755916"><ele>27.0</ele></trkpt>
    <trkpt lat="48.329067" lon="-4.755127"><ele>26.0</ele></trkpt>
    <trkpt lat="48.329143" lon="-4.754963"><ele>25.6</ele></trkpt>
    <trkpt lat="48.329333" lon="-4.754753"><ele>24.8</ele></trkpt>
    <trkpt lat="48.329448" lon="-4.754551"><ele>24.6</ele></trkpt>
    <trkpt lat="48.329547" lon="-4.754272"><ele>24.0</ele></trkpt>
    <trkpt lat="48.329676" lon="-4.753719"><ele>20.2</ele></trkpt>
    <trkpt lat="48.329884" lon="-4.753686"><ele>18.6</ele></trkpt>
    <trkpt lat="48.330194" lon="-4.753801"><ele>19.2</ele></trkpt>
    <trkpt lat="48.330357" lon="-4.753720"><ele>18.2</ele></trkpt>
    <trkpt lat="48.330387" lon="-4.753519"><ele>15.0</ele></trkpt>
    <trkpt lat="48.330303" lon="-4.753307"><ele>13.2</ele></trkpt>
    <trkpt lat="48.330306" lon="-4.753072"><ele>13.8</ele></trkpt>
    <trkpt lat="48.330341" lon="-4.752979"><ele>15.0</ele></trkpt>
    <trkpt lat="48.330495" lon="-4.752825"><ele>20.2</ele></trkpt>
    <trkpt lat="48.330521" lon="-4.752754"><ele>21.4</ele></trkpt>
    <trkpt lat="48.330474" lon="-4.752647"><ele>22.6</ele></trkpt>
    <trkpt lat="48.330100" lon="-4.752379"><ele>20.8</ele></trkpt>
    <trkpt lat="48.330042" lon="-4.752293"><ele>20.4</ele></trkpt>
    <trkpt lat="48.330020" lon="-4.752187"><ele>20.0</ele></trkpt>
    <trkpt lat="48.330085" lon="-4.751408"><ele>19.2</ele></trkpt>
    <trkpt lat="48.329978" lon="-4.751070"><ele>20.8</ele></trkpt>
    <trkpt lat="48.330069" lon="-4.750731"><ele>22.6</ele></trkpt>
    <trkpt lat="48.330043" lon="-4.749894"><ele>28.6</ele></trkpt>
    <trkpt lat="48.329905" lon="-4.749025"><ele>34.4</ele></trkpt>
    <trkpt lat="48.329772" lon="-4.748545"><ele>34.4</ele></trkpt>
    <trkpt lat="48.329951" lon="-4.747344"><ele>35.8</ele></trkpt>
    <trkpt lat="48.329967" lon="-4.746970"><ele>35.8</ele></trkpt>
    <trkpt lat="48.330035" lon="-4.746570"><ele>37.8</ele></trkpt>
    <trkpt lat="48.330244" lon="-4.746052"><ele>38.4</ele></trkpt>
    <trkpt lat="48.330414" lon="-4.745736"><ele>35.0</ele></trkpt>
    <trkpt lat="48.330445" lon="-4.745312"><ele>29.6</ele></trkpt>
    <trkpt lat="48.330576" lon="-4.744977"><ele>27.0</ele></trkpt>
    <trkpt lat="48.330734" lon="-4.744325"><ele>17.4</ele></trkpt>
    <trkpt lat="48.330826" lon="-4.744313"><ele>16.2</ele></trkpt>
    <trkpt lat="48.331133" lon="-4.744595"><ele>15.0</ele></trkpt>
    <trkpt lat="48.331305" lon="-4.744679"><ele>16.2</ele></trkpt>
    <trkpt lat="48.331640" lon="-4.744569"><ele>19.2</ele></trkpt>
    <trkpt lat="48.331689" lon="-4.744511"><ele>19.8</ele></trkpt>
    <trkpt lat="48.331676" lon="-4.744436"><ele>20.2</ele></trkpt>
    <trkpt lat="48.331555" lon="-4.744272"><ele>21.8</ele></trkpt>
    <trkpt lat="48.331509" lon="-4.743790"><ele>27.6</ele></trkpt>
    <trkpt lat="48.331653" lon="-4.742954"><ele>34.4</ele></trkpt>
    <trkpt lat="48.331857" lon="-4.742494"><ele>37.6</ele></trkpt>
    <trkpt lat="48.332100" lon="-4.742151"><ele>38.8</ele></trkpt>
    <trkpt lat="48.332130" lon="-4.742062"><ele>39.2</ele></trkpt>
    <trkpt lat="48.332052" lon="-4.741387"><ele>39.6</ele></trkpt>
    <trkpt lat="48.332273" lon="-4.740496"><ele>39.6</ele></trkpt>
    <trkpt lat="48.332302" lon="-4.740212"><ele>39.2</ele></trkpt>
    <trkpt lat="48.332294" lon="-4.739882"><ele>37.6</ele></trkpt>
    <trkpt lat="48.332424" lon="-4.739377"><ele>36.0</ele></trkpt>
    <trkpt lat="48.332558" lon="-4.739196"><ele>36.8</ele></trkpt>
    <trkpt lat="48.333299" lon="-4.738854"><ele>37.8</ele></trkpt>
    <trkpt lat="48.333347" lon="-4.738780"><ele>36.8</ele></trkpt>
    <trkpt lat="48.333380" lon="-4.738561"><ele>34.2</ele></trkpt>
    <trkpt lat="48.333643" lon="-4.738601"><ele>32.2</ele></trkpt>
    <trkpt lat="48.333691" lon="-4.738568"><ele>31.8</ele></trkpt>
    <trkpt lat="48.333706" lon="-4.738501"><ele>31.4</ele></trkpt>
    <trkpt lat="48.333679" lon="-4.738409"><ele>31.0</ele></trkpt>
    <trkpt lat="48.333711" lon="-4.738231"><ele>32.8</ele></trkpt>
    <trkpt lat="48.333661" lon="-4.738098"><ele>33.2</ele></trkpt>
    <trkpt lat="48.333524" lon="-4.737952"><ele>33.4</ele></trkpt>
    <trkpt lat="48.333256" lon="-4.737842"><ele>30.6</ele></trkpt>
    <trkpt lat="48.333107" lon="-4.737638"><ele>25.4</ele></trkpt>
    <trkpt lat="48.333118" lon="-4.737535"><ele>24.0</ele></trkpt>
    <trkpt lat="48.333319" lon="-4.737153"><ele>15.8</ele></trkpt>
    <trkpt lat="48.333297" lon="-4.736985"><ele>14.4</ele></trkpt>
    <trkpt lat="48.333370" lon="-4.736598"><ele>13.2</ele></trkpt>
    <trkpt lat="48.333683" lon="-4.736043"><ele>16.2</ele></trkpt>
    <trkpt lat="48.333704" lon="-4.735810"><ele>17.0</ele></trkpt>
    <trkpt lat="48.333648" lon="-4.735504"><ele>19.4</ele></trkpt>
    <trkpt lat="48.333593" lon="-4.735473"><ele>20.0</ele></trkpt>
    <trkpt lat="48.333165" lon="-4.735863"><ele>19.6</ele></trkpt>
    <trkpt lat="48.333123" lon="-4.735864"><ele>19.6</ele></trkpt>
    <trkpt lat="48.333143" lon="-4.735797"><ele>19.8</ele></trkpt>
    <trkpt lat="48.333240" lon="-4.735701"><ele>21.2</ele></trkpt>
    <trkpt lat="48.333301" lon="-4.735548"><ele>24.2</ele></trkpt>
    <trkpt lat="48.333430" lon="-4.734992"><ele>32.2</ele></trkpt>
    <trkpt lat="48.333353" lon="-4.734913"><ele>33.0</ele></trkpt>
    <trkpt lat="48.332961" lon="-4.734873"><ele>30.2</ele></trkpt>
    <trkpt lat="48.332916" lon="-4.734794"><ele>29.8</ele></trkpt>
    <trkpt lat="48.332928" lon="-4.734548"><ele>29.6</ele></trkpt>
    <trkpt lat="48.333212" lon="-4.733310"><ele>32.0</ele></trkpt>
    <trkpt lat="48.333144" lon="-4.733099"><ele>32.2</ele></trkpt>
    <trkpt lat="48.332951" lon="-4.732858"><ele>31.6</ele></trkpt>
    <trkpt lat="48.332900" lon="-4.732521"><ele>30.2</ele></trkpt>
    <trkpt lat="48.332883" lon="-4.732160"><ele>31.6</ele></trkpt>
    <trkpt lat="48.332840" lon="-4.731999"><ele>33.8</ele></trkpt>
    <trkpt lat="48.332731" lon="-4.731744"><ele>37.8</ele></trkpt>
    <trkpt lat="48.332664" lon="-4.731681"><ele>38.6</ele></trkpt>
    <trkpt lat="48.332402" lon="-4.731650"><ele>38.8</ele></trkpt>
    <trkpt lat="48.332011" lon="-4.731442"><ele>38.4</ele></trkpt>
    <trkpt lat="48.331734" lon="-4.731465"><ele>34.4</ele></trkpt>
    <trkpt lat="48.331650" lon="-4.731389"><ele>33.4</ele></trkpt>
    <trkpt lat="48.331532" lon="-4.730997"><ele>32.2</ele></trkpt>
    <trkpt lat="48.331449" lon="-4.730169"><ele>38.8</ele></trkpt>
    <trkpt lat="48.331284" lon="-4.729819"><ele>41.0</ele></trkpt>
    <trkpt lat="48.331127" lon="-4.729625"><ele>40.0</ele></trkpt>
    <trkpt lat="48.330616" lon="-4.728754"><ele>35.0</ele></trkpt>
    <trkpt lat="48.330547" lon="-4.728458"><ele>33.2</ele></trkpt>
    <trkpt lat="48.330532" lon="-4.727717"><ele>32.2</ele></trkpt>
    <trkpt lat="48.330711" lon="-4.727242"><ele>30.6</ele></trkpt>
    <trkpt lat="48.330752" lon="-4.726902"><ele>30.2</ele></trkpt>
    <trkpt lat="48.330676" lon="-4.726153"><ele>25.0</ele></trkpt>
    <trkpt lat="48.330500" lon="-4.725930"><ele>24.4</ele></trkpt>
    <trkpt lat="48.330469" lon="-4.725821"><ele>24.6</ele></trkpt>
    <trkpt lat="48.330493" lon="-4.725741"><ele>25.2</ele></trkpt>
    <trkpt lat="48.330645" lon="-4.725595"><ele>28.2</ele></trkpt>
    <trkpt lat="48.330734" lon="-4.724966"><ele>33.0</ele></trkpt>
    <trkpt lat="48.330683" lon="-4.724653"><ele>31.2</ele></trkpt>
    <trkpt lat="48.330638" lon="-4.724590"><ele>29.6</ele></trkpt>
    <trkpt lat="48.330499" lon="-4.724137"><ele>23.8</ele></trkpt>
    <trkpt lat="48.330521" lon="-4.723994"><ele>23.6</ele></trkpt>
    <trkpt lat="48.330631" lon="-4.723841"><ele>25.2</ele></trkpt>
    <trkpt lat="48.330642" lon="-4.723774"><ele>26.0</ele></trkpt>
    <trkpt lat="48.330466" lon="-4.723615"><ele>28.0</ele></trkpt>
    <trkpt lat="48.330332" lon="-4.723427"><ele>28.6</ele></trkpt>
    <trkpt lat="48.330295" lon="-4.723275"><ele>29.0</ele></trkpt>
    <trkpt lat="48.330299" lon="-4.723031"><ele>29.8</ele></trkpt>
    <trkpt lat="48.330615" lon="-4.721755"><ele>30.4</ele></trkpt>
    <trkpt lat="48.330596" lon="-4.721600"><ele>30.2</ele></trkpt>
    <trkpt lat="48.330486" lon="-4.721368"><ele>29.0</ele></trkpt>
    <trkpt lat="48.330489" lon="-4.721096"><ele>28.4</ele></trkpt>
    <trkpt lat="48.330822" lon="-4.720429"><ele>28.4</ele></trkpt>
    <trkpt lat="48.330931" lon="-4.720042"><ele>27.0</ele></trkpt>
    <trkpt lat="48.330903" lon="-4.719904"><ele>25.8</ele></trkpt>
    <trkpt lat="48.330764" lon="-4.719780"><ele>23.8</ele></trkpt>
    <trkpt lat="48.330733" lon="-4.719654"><ele>22.6</ele></trkpt>
    <trkpt lat="48.330849" lon="-4.719110"><ele>22.0</ele></trkpt>
    <trkpt lat="48.330945" lon="-4.718881"><ele>22.0</ele></trkpt>
    <trkpt lat="48.330965" lon="-4.718445"><ele>17.6</ele></trkpt>
    <trkpt lat="48.331163" lon="-4.718206"><ele>22.2</ele></trkpt>
    <trkpt lat="48.331249" lon="-4.718038"><ele>25.0</ele></trkpt>
    <trkpt lat="48.331262" lon="-4.717934"><ele>25.6</ele></trkpt>
    <trkpt lat="48.331230" lon="-4.717774"><ele>25.8</ele></trkpt>
    <trkpt lat="48.331313" lon="-4.717585"><ele>26.4</ele></trkpt>
    <trkpt lat="48.331366" lon="-4.717337"><ele>28.8</ele></trkpt>
    <trkpt lat="48.331317" lon="-4.717164"><ele>32.2</ele></trkpt>
    <trkpt lat="48.331321" lon="-4.716986"><ele>36.6</ele></trkpt>
    <trkpt lat="48.331121" lon="-4.716932"><ele>41.0</ele></trkpt>
    <trkpt lat="48.330988" lon="-4.717038"><ele>40.8</ele></trkpt>
    <trkpt lat="48.330772" lon="-4.717365"><ele>36.8</ele></trkpt>
    <trkpt lat="48.330590" lon="-4.717507"><ele>33.8</ele></trkpt>
    <trkpt lat="48.330515" lon="-4.717490"><ele>33.2</ele></trkpt>
    <trkpt lat="48.330065" lon="-4.716487"><ele>30.4</ele></trkpt>
    <trkpt lat="48.330100" lon="-4.716392"><ele>29.6</ele></trkpt>
    <trkpt lat="48.330604" lon="-4.715700"><ele>33.8</ele></trkpt>
    <trkpt lat="48.330799" lon="-4.715217"><ele>36.4</ele></trkpt>
    <trkpt lat="48.330800" lon="-4.714989"><ele>35.8</ele></trkpt>
    <trkpt lat="48.330612" lon="-4.714361"><ele>28.4</ele></trkpt>
    <trkpt lat="48.330619" lon="-4.714224"><ele>27.0</ele></trkpt>
    <trkpt lat="48.330661" lon="-4.714140"><ele>26.4</ele></trkpt>
    <trkpt lat="48.330749" lon="-4.714065"><ele>25.8</ele></trkpt>
    <trkpt lat="48.331120" lon="-4.713929"><ele>29.8</ele></trkpt>
    <trkpt lat="48.331994" lon="-4.713752"><ele>42.0</ele></trkpt>
    <trkpt lat="48.332130" lon="-4.713651"><ele>43.6</ele></trkpt>
    <trkpt lat="48.332223" lon="-4.713467"><ele>45.0</ele></trkpt>
    <trkpt lat="48.332196" lon="-4.713202"><ele>45.0</ele></trkpt>
    <trkpt lat="48.332103" lon="-4.712912"><ele>44.2</ele></trkpt>
    <trkpt lat="48.332024" lon="-4.712828"><ele>43.4</ele></trkpt>
    <trkpt lat="48.331785" lon="-4.712769"><ele>41.2</ele></trkpt>
    <trkpt lat="48.331702" lon="-4.712577"><ele>40.6</ele></trkpt>
    <trkpt lat="48.331718" lon="-4.712042"><ele>43.8</ele></trkpt>
    <trkpt lat="48.331680" lon="-4.711811"><ele>45.0</ele></trkpt>
    <trkpt lat="48.331699" lon="-4.711611"><ele>45.4</ele></trkpt>
    <trkpt lat="48.331625" lon="-4.711364"><ele>45.0</ele></trkpt>
    <trkpt lat="48.331571" lon="-4.710976"><ele>43.8</ele></trkpt>
    <trkpt lat="48.331452" lon="-4.710597"><ele>42.2</ele></trkpt>
    <trkpt lat="48.331502" lon="-4.709825"><ele>36.4</ele></trkpt>
    <trkpt lat="48.331618" lon="-4.709595"><ele>36.6</ele></trkpt>
    <trkpt lat="48.331915" lon="-4.709396"><ele>37.2</ele></trkpt>
    <trkpt lat="48.331985" lon="-4.709306"><ele>36.8</ele></trkpt>
    <trkpt lat="48.332089" lon="-4.708948"><ele>34.6</ele></trkpt>
    <trkpt lat="48.332135" lon="-4.708432"><ele>30.6</ele></trkpt>
    <trkpt lat="48.332304" lon="-4.708183"><ele>24.8</ele></trkpt>
    <trkpt lat="48.332531" lon="-4.708104"><ele>21.8</ele></trkpt>
    <trkpt lat="48.332739" lon="-4.708147"><ele>22.0</ele></trkpt>
    <trkpt lat="48.333304" lon="-4.708124"><ele>21.2</ele></trkpt>
    <trkpt lat="48.333851" lon="-4.707737"><ele>21.2</ele></trkpt>
    <trkpt lat="48.333900" lon="-4.707746"><ele>22.0</ele></trkpt>
    <trkpt lat="48.333996" lon="-4.707857"><ele>24.0</ele></trkpt>
    <trkpt lat="48.334068" lon="-4.707855"><ele>24.4</ele></trkpt>
    <trkpt lat="48.334135" lon="-4.707739"><ele>23.4</ele></trkpt>
    <trkpt lat="48.334231" lon="-4.707254"><ele>18.4</ele></trkpt>
    <trkpt lat="48.334331" lon="-4.707098"><ele>18.2</ele></trkpt>
    <trkpt lat="48.334619" lon="-4.707668"><ele>27.8</ele></trkpt>
    <trkpt lat="48.334653" lon="-4.707948"><ele>31.0</ele></trkpt>
    <trkpt lat="48.334659" lon="-4.708195"><ele>33.6</ele></trkpt>
    <trkpt lat="48.334550" lon="-4.708440"><ele>36.2</ele></trkpt>
    <trkpt lat="48.334460" lon="-4.708997"><ele>40.6</ele></trkpt>
    <trkpt lat="48.334434" lon="-4.709262"><ele>41.2</ele></trkpt>
    <trkpt lat="48.334459" lon="-4.709357"><ele>41.2</ele></trkpt>
    <trkpt lat="48.334915" lon="-4.709530"><ele>41.4</ele></trkpt>
    <trkpt lat="48.335801" lon="-4.709693"><ele>48.4</ele></trkpt>
    <trkpt lat="48.335913" lon="-4.709699"><ele>48.6</ele></trkpt>
    <trkpt lat="48.335980" lon="-4.709658"><ele>48.4</ele></trkpt>
    <trkpt lat="48.336116" lon="-4.709077"><ele>47.8</ele></trkpt>
    <trkpt lat="48.336259" lon="-4.707972"><ele>43.6</ele></trkpt>
    <trkpt lat="48.336433" lon="-4.707137"><ele>40.4</ele></trkpt>
    <trkpt lat="48.336588" lon="-4.706053"><ele>38.0</ele></trkpt>
    <trkpt lat="48.336623" lon="-4.705495"><ele>36.2</ele></trkpt>
    <trkpt lat="48.336537" lon="-4.704428"><ele>31.2</ele></trkpt>
    <trkpt lat="48.336522" lon="-4.703434"><ele>28.6</ele></trkpt>
    <trkpt lat="48.336608" lon="-4.702701"><ele>22.0</ele></trkpt>
    <trkpt lat="48.336711" lon="-4.702324"><ele>19.8</ele></trkpt>
    <trkpt lat="48.337035" lon="-4.701901"><ele>22.2</ele></trkpt>
    <trkpt lat="48.337150" lon="-4.701657"><ele>23.6</ele></trkpt>
    <trkpt lat="48.337155" lon="-4.701127"><ele>23.8</ele></trkpt>
    <trkpt lat="48.337068" lon="-4.700542"><ele>22.6</ele></trkpt>
    <trkpt lat="48.337270" lon="-4.699729"><ele>22.0</ele></trkpt>
    <trkpt lat="48.337362" lon="-4.699610"><ele>20.6</ele></trkpt>
    <trkpt lat="48.337517" lon="-4.699602"><ele>19.6</ele></trkpt>
    <trkpt lat="48.337601" lon="-4.699529"><ele>20.0</ele></trkpt>
    <trkpt lat="48.337727" lon="-4.699299"><ele>20.2</ele></trkpt>
    <trkpt lat="48.337801" lon="-4.698884"><ele>17.2</ele></trkpt>
    <trkpt lat="48.337957" lon="-4.698674"><ele>15.0</ele></trkpt>
    <trkpt lat="48.338219" lon="-4.698417"><ele>13.0</ele></trkpt>
    <trkpt lat="48.338318" lon="-4.698436"><ele>12.4</ele></trkpt>
    <trkpt lat="48.338474" lon="-4.698669"><ele>12.0</ele></trkpt>
    <trkpt lat="48.338667" lon="-4.698840"><ele>11.8</ele></trkpt>
    <trkpt lat="48.338902" lon="-4.699307"><ele>13.0</ele></trkpt>
    <trkpt lat="48.338948" lon="-4.699485"><ele>13.8</ele></trkpt>
    <trkpt lat="48.338936" lon="-4.699717"><ele>15.2</ele></trkpt>
    <trkpt lat="48.338860" lon="-4.699881"><ele>16.6</ele></trkpt>
    <trkpt lat="48.338688" lon="-4.700104"><ele>19.0</ele></trkpt>
    <trkpt lat="48.338674" lon="-4.700278"><ele>19.2</ele></trkpt>
    <trkpt lat="48.338746" lon="-4.700408"><ele>18.4</ele></trkpt>
    <trkpt lat="48.338878" lon="-4.700462"><ele>16.6</ele></trkpt>
    <trkpt lat="48.338960" lon="-4.700550"><ele>14.8</ele></trkpt>
    <trkpt lat="48.339168" lon="-4.701078"><ele>9.0</ele></trkpt>
    <trkpt lat="48.339315" lon="-4.701286"><ele>7.4</ele></trkpt>
    <trkpt lat="48.339630" lon="-4.701369"><ele>5.2</ele></trkpt>
    <trkpt lat="48.339839" lon="-4.701506"><ele>8.6</ele></trkpt>
    <trkpt lat="48.340079" lon="-4.701114"><ele>10.4</ele></trkpt>
    <trkpt lat="48.340362" lon="-4.700974"><ele>13.8</ele></trkpt>
    <trkpt lat="48.340680" lon="-4.700666"><ele>17.4</ele></trkpt>
    <trkpt lat="48.340932" lon="-4.700581"><ele>17.6</ele></trkpt>
    <trkpt lat="48.341352" lon="-4.700591"><ele>27.6</ele></trkpt>
    <trkpt lat="48.342525" lon="-4.701148"><ele>14.4</ele></trkpt>
    <trkpt lat="48.342480" lon="-4.701113"><ele>14.4</ele></trkpt>
    <trkpt lat="48.342778" lon="-4.701525"><ele>13.6</ele></trkpt>
    <trkpt lat="48.342909" lon="-4.701604"><ele>13.4</ele></trkpt>
    <trkpt lat="48.343018" lon="-4.701581"><ele>13.2</ele></trkpt>
    <trkpt lat="48.343376" lon="-4.701330"><ele>13.0</ele></trkpt>
    <trkpt lat="48.343723" lon="-4.701358"><ele>13.2</ele></trkpt>
    <trkpt lat="48.344034" lon="-4.701290"><ele>13.0</ele></trkpt>
    <trkpt lat="48.344136" lon="-4.701305"><ele>12.8</ele></trkpt>
    <trkpt lat="48.344331" lon="-4.701408"><ele>12.2</ele></trkpt>
    <trkpt lat="48.344859" lon="-4.701896"><ele>11.6</ele></trkpt>
    <trkpt lat="48.344929" lon="-4.702126"><ele>11.0</ele></trkpt>
    <trkpt lat="48.344952" lon="-4.702825"><ele>9.2</ele></trkpt>
    <trkpt lat="48.345021" lon="-4.702835"><ele>8.4</ele></trkpt>
    <trkpt lat="48.345247" lon="-4.702592"><ele>5.4</ele></trkpt>
    <trkpt lat="48.345336" lon="-4.703189"><ele>5.0</ele></trkpt>
    <trkpt lat="48.345410" lon="-4.703287"><ele>5.2</ele></trkpt>
    <trkpt lat="48.345522" lon="-4.703311"><ele>5.2</ele></trkpt>
    <trkpt lat="48.346947" lon="-4.703044"><ele>3.2</ele></trkpt>
    <trkpt lat="48.348285" lon="-4.702332"><ele>2.8</ele></trkpt>
    <trkpt lat="48.348416" lon="-4.702329"><ele>3.0</ele></trkpt>
    <trkpt lat="48.348709" lon="-4.701977"><ele>2.2</ele></trkpt>
    <trkpt lat="48.349336" lon="-4.701427"><ele>2.4</ele></trkpt>
    <trkpt lat="48.349557" lon="-4.701411"><ele>4.4</ele></trkpt>
    <trkpt lat="48.349610" lon="-4.701559"><ele>7.2</ele></trkpt>
    <trkpt lat="48.349673" lon="-4.701555"><ele>7.8</ele></trkpt>
    <trkpt lat="48.350161" lon="-4.701095"><ele>8.0</ele></trkpt>
    <trkpt lat="48.350386" lon="-4.700764"><ele>7.2</ele></trkpt>
    <trkpt lat="48.350832" lon="-4.699907"><ele>6.8</ele></trkpt>
    <trkpt lat="48.351013" lon="-4.699714"><ele>8.0</ele></trkpt>
    <trkpt lat="48.351647" lon="-4.699735"><ele>14.6</ele></trkpt>
    <trkpt lat="48.351999" lon="-4.699670"><ele>18.6</ele></trkpt>
    <trkpt lat="48.352400" lon="-4.699718"><ele>23.8</ele></trkpt>
    <trkpt lat="48.352476" lon="-4.699672"><ele>24.6</ele></trkpt>
    <trkpt lat="48.352563" lon="-4.699475"><ele>25.0</ele></trkpt>
    <trkpt lat="48.352593" lon="-4.699147"><ele>24.6</ele></trkpt>
    <trkpt lat="48.352557" lon="-4.698806"><ele>23.2</ele></trkpt>
    <trkpt lat="48.352438" lon="-4.698331"><ele>20.6</ele></trkpt>
    <trkpt lat="48.352432" lon="-4.698155"><ele>20.2</ele></trkpt>
    <trkpt lat="48.352468" lon="-4.698034"><ele>20.2</ele></trkpt>
    <trkpt lat="48.352752" lon="-4.697494"><ele>22.0</ele></trkpt>
    <trkpt lat="48.352799" lon="-4.697338"><ele>21.8</ele></trkpt>
    <trkpt lat="48.352748" lon="-4.697219"><ele>21.4</ele></trkpt>
    <trkpt lat="48.352479" lon="-4.696883"><ele>17.2</ele></trkpt>
    <trkpt lat="48.352454" lon="-4.696784"><ele>16.4</ele></trkpt>
    <trkpt lat="48.352474" lon="-4.696639"><ele>15.8</ele></trkpt>
    <trkpt lat="48.352529" lon="-4.696525"><ele>15.6</ele></trkpt>
    <trkpt lat="48.352759" lon="-4.696322"><ele>15.4</ele></trkpt>
    <trkpt lat="48.352891" lon="-4.696011"><ele>15.0</ele></trkpt>
    <trkpt lat="48.353047" lon="-4.695784"><ele>16.4</ele></trkpt>
    <trkpt lat="48.353209" lon="-4.695673"><ele>18.4</ele></trkpt>
    <trkpt lat="48.353382" lon="-4.695419"><ele>19.6</ele></trkpt>
    <trkpt lat="48.353453" lon="-4.695105"><ele>18.4</ele></trkpt>
    <trkpt lat="48.353583" lon="-4.694807"><ele>16.6</ele></trkpt>
    <trkpt lat="48.353635" lon="-4.694568"><ele>16.6</ele></trkpt>
    <trkpt lat="48.353672" lon="-4.694070"><ele>17.6</ele></trkpt>
    <trkpt lat="48.353644" lon="-4.693126"><ele>19.8</ele></trkpt>
    <trkpt lat="48.353701" lon="-4.692806"><ele>18.8</ele></trkpt>
    <trkpt lat="48.353793" lon="-4.692533"><ele>17.8</ele></trkpt>
    <trkpt lat="48.353963" lon="-4.692221"><ele>16.8</ele></trkpt>
    <trkpt lat="48.354461" lon="-4.691982"><ele>19.2</ele></trkpt>
    <trkpt lat="48.354627" lon="-4.691611"><ele>16.4</ele></trkpt>
    <trkpt lat="48.354849" lon="-4.691385"><ele>14.0</ele></trkpt>
    <trkpt lat="48.354944" lon="-4.691159"><ele>12.0</ele></trkpt>
    <trkpt lat="48.354915" lon="-4.691124"><ele>11.0</ele></trkpt>
    <trkpt lat="48.354926" lon="-4.690916"><ele>9.4</ele></trkpt>
    <trkpt lat="48.354876" lon="-4.690401"><ele>8.0</ele></trkpt>
    <trkpt lat="48.354677" lon="-4.689976"><ele>10.6</ele></trkpt>
    <trkpt lat="48.354644" lon="-4.689778"><ele>12.0</ele></trkpt>
    <trkpt lat="48.354670" lon="-4.689567"><ele>13.0</ele></trkpt>
    <trkpt lat="48.354836" lon="-4.689353"><ele>14.4</ele></trkpt>
    <trkpt lat="48.354870" lon="-4.689233"><ele>15.2</ele></trkpt>
    <trkpt lat="48.354762" lon="-4.688850"><ele>17.2</ele></trkpt>
    <trkpt lat="48.354810" lon="-4.688205"><ele>19.8</ele></trkpt>
    <trkpt lat="48.354576" lon="-4.687212"><ele>25.0</ele></trkpt>
    <trkpt lat="48.354633" lon="-4.685318"><ele>31.4</ele></trkpt>
    <trkpt lat="48.354605" lon="-4.685226"><ele>31.0</ele></trkpt>
    <trkpt lat="48.354543" lon="-4.685178"><ele>30.6</ele></trkpt>
    <trkpt lat="48.353988" lon="-4.685208"><ele>26.2</ele></trkpt>
    <trkpt lat="48.353791" lon="-4.685134"><ele>23.2</ele></trkpt>
    <trkpt lat="48.353682" lon="-4.684981"><ele>20.8</ele></trkpt>
    <trkpt lat="48.353626" lon="-4.684715"><ele>19.2</ele></trkpt>
    <trkpt lat="48.353632" lon="-4.684601"><ele>18.8</ele></trkpt>
    <trkpt lat="48.353776" lon="-4.684294"><ele>18.6</ele></trkpt>
    <trkpt lat="48.353904" lon="-4.684197"><ele>18.8</ele></trkpt>
    <trkpt lat="48.353940" lon="-4.684115"><ele>18.8</ele></trkpt>
    <trkpt lat="48.353959" lon="-4.683955"><ele>18.4</ele></trkpt>
    <trkpt lat="48.353941" lon="-4.683570"><ele>17.4</ele></trkpt>
    <trkpt lat="48.354029" lon="-4.683124"><ele>16.6</ele></trkpt>
    <trkpt lat="48.354121" lon="-4.682974"><ele>17.0</ele></trkpt>
    <trkpt lat="48.354322" lon="-4.682894"><ele>20.0</ele></trkpt>
    <trkpt lat="48.354396" lon="-4.682821"><ele>21.2</ele></trkpt>
    <trkpt lat="48.354437" lon="-4.682698"><ele>21.6</ele></trkpt>
    <trkpt lat="48.354434" lon="-4.682453"><ele>21.6</ele></trkpt>
    <trkpt lat="48.354552" lon="-4.682356"><ele>20.8</ele></trkpt>
    <trkpt lat="48.354697" lon="-4.682154"><ele>19.6</ele></trkpt>
    <trkpt lat="48.354787" lon="-4.682174"><ele>19.6</ele></trkpt>
    <trkpt lat="48.355007" lon="-4.682327"><ele>21.0</ele></trkpt>
    <trkpt lat="48.355107" lon="-4.682296"><ele>21.6</ele></trkpt>
    <trkpt lat="48.355326" lon="-4.682016"><ele>21.6</ele></trkpt>
    <trkpt lat="48.355351" lon="-4.681764"><ele>20.2</ele></trkpt>
    <trkpt lat="48.355411" lon="-4.681598"><ele>19.0</ele></trkpt>
    <trkpt lat="48.355603" lon="-4.681409"><ele>17.0</ele></trkpt>
    <trkpt lat="48.355693" lon="-4.681254"><ele>16.2</ele></trkpt>
    <trkpt lat="48.355834" lon="-4.681143"><ele>15.0</ele></trkpt>
    <trkpt lat="48.356080" lon="-4.680728"><ele>12.0</ele></trkpt>
    <trkpt lat="48.356112" lon="-4.680275"><ele>8.4</ele></trkpt>
    <trkpt lat="48.356269" lon="-4.679923"><ele>8.8</ele></trkpt>
    <trkpt lat="48.356325" lon="-4.679433"><ele>7.8</ele></trkpt>
    <trkpt lat="48.356314" lon="-4.679180"><ele>6.8</ele></trkpt>
    <trkpt lat="48.356235" lon="-4.678935"><ele>7.2</ele></trkpt>
    <trkpt lat="48.356144" lon="-4.678857"><ele>7.8</ele></trkpt>
    <trkpt lat="48.355954" lon="-4.678818"><ele>8.4</ele></trkpt>
    <trkpt lat="48.355735" lon="-4.678383"><ele>11.2</ele></trkpt>
    <trkpt lat="48.355527" lon="-4.678214"><ele>14.4</ele></trkpt>
    <trkpt lat="48.355361" lon="-4.677956"><ele>17.0</ele></trkpt>
    <trkpt lat="48.355181" lon="-4.677356"><ele>17.8</ele></trkpt>
    <trkpt lat="48.355155" lon="-4.676919"><ele>16.4</ele></trkpt>
    <trkpt lat="48.354892" lon="-4.676135"><ele>13.6</ele></trkpt>
    <trkpt lat="48.354677" lon="-4.674516"><ele>9.4</ele></trkpt>
    <trkpt lat="48.354660" lon="-4.673823"><ele>10.4</ele></trkpt>
    <trkpt lat="48.354599" lon="-4.673366"><ele>9.8</ele></trkpt>
    <trkpt lat="48.354419" lon="-4.672815"><ele>11.0</ele></trkpt>
    <trkpt lat="48.354256" lon="-4.672482"><ele>11.6</ele></trkpt>
    <trkpt lat="48.353914" lon="-4.672255"><ele>10.6</ele></trkpt>
    <trkpt lat="48.353790" lon="-4.672125"><ele>10.4</ele></trkpt>
    <trkpt lat="48.353696" lon="-4.671954"><ele>10.8</ele></trkpt>
    <trkpt lat="48.353514" lon="-4.671394"><ele>12.8</ele></trkpt>
    <trkpt lat="48.353484" lon="-4.671003"><ele>14.0</ele></trkpt>
    <trkpt lat="48.353338" lon="-4.670749"><ele>13.8</ele></trkpt>
    <trkpt lat="48.353203" lon="-4.670395"><ele>12.6</ele></trkpt>
    <trkpt lat="48.352947" lon="-4.669876"><ele>11.0</ele></trkpt>
    <trkpt lat="48.352762" lon="-4.669130"><ele>13.0</ele></trkpt>
    <trkpt lat="48.352761" lon="-4.668554"><ele>13.2</ele></trkpt>
    <trkpt lat="48.352806" lon="-4.668145"><ele>12.8</ele></trkpt>
    <trkpt lat="48.352842" lon="-4.668054"><ele>12.8</ele></trkpt>
    <trkpt lat="48.353080" lon="-4.667800"><ele>13.2</ele></trkpt>
    <trkpt lat="48.353135" lon="-4.667643"><ele>13.8</ele></trkpt>
    <trkpt lat="48.353312" lon="-4.664783"><ele>31.4</ele></trkpt>
    <trkpt lat="48.353480" lon="-4.664160"><ele>33.0</ele></trkpt>
    <trkpt lat="48.353857" lon="-4.663056"><ele>36.4</ele></trkpt>
    <trkpt lat="48.353911" lon="-4.662736"><ele>37.4</ele></trkpt>
    <trkpt lat="48.353855" lon="-4.662683"><ele>37.6</ele></trkpt>
    <trkpt lat="48.353661" lon="-4.662673"><ele>37.8</ele></trkpt>
    <trkpt lat="48.352620" lon="-4.662812"><ele>31.2</ele></trkpt>
    <trkpt lat="48.351907" lon="-4.662702"><ele>28.2</ele></trkpt>
    <trkpt lat="48.351657" lon="-4.662554"><ele>28.2</ele></trkpt>
    <trkpt lat="48.351491" lon="-4.662266"><ele>28.2</ele></trkpt>
    <trkpt lat="48.351283" lon="-4.662006"><ele>28.0</ele></trkpt>
    <trkpt lat="48.351204" lon="-4.661855"><ele>27.6</ele></trkpt>
    <trkpt lat="48.351084" lon="-4.661476"><ele>26.4</ele></trkpt>
    <trkpt lat="48.350992" lon="-4.661512"><ele>24.6</ele></trkpt>
    <trkpt lat="48.350932" lon="-4.661431"><ele>23.4</ele></trkpt>
    <trkpt lat="48.351009" lon="-4.660754"><ele>22.0</ele></trkpt>
    <trkpt lat="48.350786" lon="-4.660357"><ele>21.4</ele></trkpt>
    <trkpt lat="48.350779" lon="-4.660101"><ele>21.0</ele></trkpt>
    <trkpt lat="48.350750" lon="-4.660016"><ele>20.6</ele></trkpt>
    <trkpt lat="48.350442" lon="-4.659510"><ele>18.8</ele></trkpt>
    <trkpt lat="48.350480" lon="-4.659132"><ele>20.2</ele></trkpt>
    <trkpt lat="48.350372" lon="-4.658749"><ele>22.2</ele></trkpt>
    <trkpt lat="48.350143" lon="-4.658330"><ele>23.8</ele></trkpt>
    <trkpt lat="48.349999" lon="-4.658145"><ele>25.8</ele></trkpt>
    <trkpt lat="48.349808" lon="-4.658003"><ele>25.8</ele></trkpt>
    <trkpt lat="48.349649" lon="-4.657744"><ele>26.2</ele></trkpt>
    <trkpt lat="48.349503" lon="-4.657598"><ele>27.2</ele></trkpt>
    <trkpt lat="48.349402" lon="-4.656896"><ele>35.2</ele></trkpt>
    <trkpt lat="48.349289" lon="-4.656589"><ele>36.4</ele></trkpt>
    <trkpt lat="48.349173" lon="-4.656435"><ele>36.8</ele></trkpt>
    <trkpt lat="48.348997" lon="-4.656389"><ele>36.0</ele></trkpt>
    <trkpt lat="48.348902" lon="-4.656274"><ele>34.6</ele></trkpt>
    <trkpt lat="48.348868" lon="-4.656088"><ele>33.8</ele></trkpt>
    <trkpt lat="48.348870" lon="-4.655892"><ele>33.4</ele></trkpt>
    <trkpt lat="48.348981" lon="-4.655452"><ele>32.2</ele></trkpt>
    <trkpt lat="48.348989" lon="-4.655280"><ele>31.2</ele></trkpt>
    <trkpt lat="48.348822" lon="-4.654818"><ele>31.6</ele></trkpt>
    <trkpt lat="48.348594" lon="-4.654497"><ele>35.2</ele></trkpt>
    <trkpt lat="48.348456" lon="-4.654013"><ele>34.8</ele></trkpt>
    <trkpt lat="48.348197" lon="-4.653646"><ele>39.6</ele></trkpt>
    <trkpt lat="48.348127" lon="-4.653630"><ele>40.4</ele></trkpt>
    <trkpt lat="48.347918" lon="-4.653767"><ele>40.8</ele></trkpt>
    <trkpt lat="48.347716" lon="-4.653753"><ele>42.4</ele></trkpt>
    <trkpt lat="48.347503" lon="-4.653648"><ele>44.4</ele></trkpt>
    <trkpt lat="48.347392" lon="-4.653518"><ele>45.2</ele></trkpt>
    <trkpt lat="48.347225" lon="-4.653401"><ele>45.0</ele></trkpt>
    <trkpt lat="48.347116" lon="-4.653228"><ele>45.4</ele></trkpt>
    <trkpt lat="48.347122" lon="-4.653170"><ele>46.2</ele></trkpt>
    <trkpt lat="48.347262" lon="-4.653080"><ele>49.4</ele></trkpt>
    <trkpt lat="48.347311" lon="-4.653000"><ele>50.8</ele></trkpt>
    <trkpt lat="48.347268" lon="-4.652550"><ele>53.2</ele></trkpt>
    <trkpt lat="48.347363" lon="-4.652049"><ele>55.2</ele></trkpt>
    <trkpt lat="48.347427" lon="-4.651990"><ele>56.0</ele></trkpt>
    <trkpt lat="48.347561" lon="-4.652019"><ele>57.8</ele></trkpt>
    <trkpt lat="48.347648" lon="-4.651984"><ele>58.6</ele></trkpt>
    <trkpt lat="48.347749" lon="-4.651840"><ele>58.8</ele></trkpt>
    <trkpt lat="48.347775" lon="-4.651721"><ele>58.6</ele></trkpt>
    <trkpt lat="48.347642" lon="-4.651252"><ele>56.6</ele></trkpt>
    <trkpt lat="48.347646" lon="-4.650809"><ele>54.8</ele></trkpt>
    <trkpt lat="48.347068" lon="-4.649244"><ele>51.6</ele></trkpt>
    <trkpt lat="48.346960" lon="-4.649225"><ele>50.8</ele></trkpt>
    <trkpt lat="48.346842" lon="-4.649303"><ele>50.2</ele></trkpt>
    <trkpt lat="48.346386" lon="-4.649868"><ele>44.0</ele></trkpt>
    <trkpt lat="48.346084" lon="-4.650047"><ele>39.2</ele></trkpt>
    <trkpt lat="48.345888" lon="-4.650410"><ele>35.0</ele></trkpt>
    <trkpt lat="48.345815" lon="-4.650394"><ele>34.6</ele></trkpt>
    <trkpt lat="48.345819" lon="-4.650292"><ele>34.6</ele></trkpt>
    <trkpt lat="48.345983" lon="-4.649987"><ele>37.8</ele></trkpt>
    <trkpt lat="48.346150" lon="-4.649563"><ele>44.2</ele></trkpt>
    <trkpt lat="48.346172" lon="-4.649390"><ele>45.2</ele></trkpt>
    <trkpt lat="48.345971" lon="-4.648721"><ele>41.4</ele></trkpt>
    <trkpt lat="48.345838" lon="-4.648458"><ele>39.6</ele></trkpt>
    <trkpt lat="48.345712" lon="-4.648297"><ele>37.8</ele></trkpt>
    <trkpt lat="48.345640" lon="-4.647821"><ele>36.0</ele></trkpt>
    <trkpt lat="48.345649" lon="-4.647557"><ele>36.6</ele></trkpt>
    <trkpt lat="48.345861" lon="-4.647142"><ele>42.6</ele></trkpt>
    <trkpt lat="48.345911" lon="-4.646933"><ele>45.0</ele></trkpt>
    <trkpt lat="48.345887" lon="-4.646773"><ele>45.8</ele></trkpt>
    <trkpt lat="48.345679" lon="-4.646097"><ele>46.0</ele></trkpt>
    <trkpt lat="48.345738" lon="-4.645703"><ele>48.6</ele></trkpt>
    <trkpt lat="48.345609" lon="-4.645423"><ele>47.6</ele></trkpt>
    <trkpt lat="48.345721" lon="-4.645012"><ele>44.6</ele></trkpt>
    <trkpt lat="48.345678" lon="-4.644270"><ele>43.8</ele></trkpt>
    <trkpt lat="48.345709" lon="-4.644175"><ele>44.0</ele></trkpt>
    <trkpt lat="48.345804" lon="-4.644069"><ele>44.6</ele></trkpt>
    <trkpt lat="48.346239" lon="-4.643891"><ele>48.0</ele></trkpt>
    <trkpt lat="48.346287" lon="-4.643795"><ele>48.0</ele></trkpt>
    <trkpt lat="48.346295" lon="-4.643686"><ele>48.0</ele></trkpt>
    <trkpt lat="48.346251" lon="-4.643218"><ele>45.4</ele></trkpt>
    <trkpt lat="48.346109" lon="-4.643090"><ele>42.6</ele></trkpt>
    <trkpt lat="48.345941" lon="-4.642867"><ele>38.4</ele></trkpt>
    <trkpt lat="48.345798" lon="-4.642755"><ele>35.2</ele></trkpt>
    <trkpt lat="48.345708" lon="-4.642722"><ele>33.0</ele></trkpt>
    <trkpt lat="48.345574" lon="-4.642778"><ele>29.8</ele></trkpt>
    <trkpt lat="48.345522" lon="-4.642734"><ele>28.4</ele></trkpt>
    <trkpt lat="48.345571" lon="-4.642163"><ele>23.6</ele></trkpt>
    <trkpt lat="48.345699" lon="-4.641827"><ele>20.2</ele></trkpt>
    <trkpt lat="48.346223" lon="-4.641084"><ele>16.2</ele></trkpt>
    <trkpt lat="48.346879" lon="-4.640534"><ele>12.4</ele></trkpt>
    <trkpt lat="48.347005" lon="-4.640514"><ele>12.8</ele></trkpt>
    <trkpt lat="48.347318" lon="-4.640296"><ele>13.2</ele></trkpt>
    <trkpt lat="48.347553" lon="-4.639889"><ele>12.0</ele></trkpt>
    <trkpt lat="48.347688" lon="-4.639735"><ele>12.4</ele></trkpt>
    <trkpt lat="48.347695" lon="-4.639678"><ele>12.6</ele></trkpt>
    <trkpt lat="48.347657" lon="-4.639590"><ele>12.8</ele></trkpt>
    <trkpt lat="48.347585" lon="-4.639566"><ele>12.8</ele></trkpt>
    <trkpt lat="48.347248" lon="-4.639748"><ele>11.4</ele></trkpt>
    <trkpt lat="48.346847" lon="-4.639731"><ele>12.4</ele></trkpt>
    <trkpt lat="48.346324" lon="-4.639877"><ele>17.0</ele></trkpt>
    <trkpt lat="48.346053" lon="-4.639856"><ele>19.2</ele></trkpt>
    <trkpt lat="48.345864" lon="-4.639777"><ele>20.2</ele></trkpt>
    <trkpt lat="48.345750" lon="-4.639516"><ele>20.4</ele></trkpt>
    <trkpt lat="48.345740" lon="-4.638899"><ele>26.0</ele></trkpt>
    <trkpt lat="48.345714" lon="-4.638762"><ele>28.8</ele></trkpt>
    <trkpt lat="48.345468" lon="-4.638626"><ele>31.2</ele></trkpt>
    <trkpt lat="48.345264" lon="-4.638616"><ele>32.0</ele></trkpt>
    <trkpt lat="48.345142" lon="-4.638545"><ele>32.2</ele></trkpt>
    <trkpt lat="48.344946" lon="-4.638239"><ele>32.2</ele></trkpt>
    <trkpt lat="48.344926" lon="-4.637700"><ele>33.0</ele></trkpt>
    <trkpt lat="48.344781" lon="-4.637332"><ele>33.8</ele></trkpt>
    <trkpt lat="48.344711" lon="-4.636708"><ele>33.6</ele></trkpt>
    <trkpt lat="48.344649" lon="-4.636526"><ele>33.8</ele></trkpt>
    <trkpt lat="48.344552" lon="-4.636381"><ele>34.0</ele></trkpt>
    <trkpt lat="48.344477" lon="-4.636346"><ele>33.8</ele></trkpt>
    <trkpt lat="48.344166" lon="-4.636523"><ele>31.2</ele></trkpt>
    <trkpt lat="48.344127" lon="-4.636429"><ele>31.2</ele></trkpt>
    <trkpt lat="48.344170" lon="-4.636099"><ele>32.4</ele></trkpt>
    <trkpt lat="48.344134" lon="-4.635929"><ele>33.2</ele></trkpt>
    <trkpt lat="48.343995" lon="-4.635807"><ele>34.0</ele></trkpt>
    <trkpt lat="48.343845" lon="-4.635783"><ele>34.4</ele></trkpt>
    <trkpt lat="48.343583" lon="-4.635433"><ele>34.6</ele></trkpt>
    <trkpt lat="48.343493" lon="-4.635421"><ele>34.2</ele></trkpt>
    <trkpt lat="48.343362" lon="-4.635486"><ele>33.6</ele></trkpt>
    <trkpt lat="48.343323" lon="-4.635462"><ele>33.4</ele></trkpt>
    <trkpt lat="48.343225" lon="-4.635162"><ele>34.4</ele></trkpt>
    <trkpt lat="48.343050" lon="-4.634896"><ele>36.4</ele></trkpt>
    <trkpt lat="48.342992" lon="-4.634544"><ele>33.8</ele></trkpt>
    <trkpt lat="48.342896" lon="-4.634272"><ele>30.2</ele></trkpt>
    <trkpt lat="48.342894" lon="-4.634104"><ele>28.2</ele></trkpt>
    <trkpt lat="48.342961" lon="-4.633864"><ele>25.6</ele></trkpt>
    <trkpt lat="48.343401" lon="-4.633576"><ele>24.6</ele></trkpt>
    <trkpt lat="48.343556" lon="-4.633417"><ele>24.0</ele></trkpt>
    <trkpt lat="48.343849" lon="-4.632886"><ele>17.0</ele></trkpt>
    <trkpt lat="48.344137" lon="-4.632587"><ele>12.6</ele></trkpt>
    <trkpt lat="48.344114" lon="-4.632404"><ele>13.2</ele></trkpt>
    <trkpt lat="48.344040" lon="-4.632333"><ele>14.2</ele></trkpt>
    <trkpt lat="48.343927" lon="-4.632304"><ele>15.4</ele></trkpt>
    <trkpt lat="48.343667" lon="-4.632308"><ele>16.4</ele></trkpt>
    <trkpt lat="48.343497" lon="-4.632007"><ele>23.0</ele></trkpt>
    <trkpt lat="48.342973" lon="-4.631893"><ele>27.4</ele></trkpt>
    <trkpt lat="48.342724" lon="-4.631655"><ele>28.6</ele></trkpt>
    <trkpt lat="48.342504" lon="-4.631553"><ele>35.4</ele></trkpt>
    <trkpt lat="48.342251" lon="-4.631220"><ele>44.2</ele></trkpt>
    <trkpt lat="48.342211" lon="-4.631094"><ele>45.0</ele></trkpt>
    <trkpt lat="48.342214" lon="-4.630888"><ele>46.0</ele></trkpt>
    <trkpt lat="48.342154" lon="-4.630794"><ele>46.6</ele></trkpt>
    <trkpt lat="48.341789" lon="-4.630763"><ele>48.0</ele></trkpt>
    <trkpt lat="48.341579" lon="-4.630812"><ele>49.2</ele></trkpt>
    <trkpt lat="48.341376" lon="-4.630936"><ele>50.0</ele></trkpt>
    <trkpt lat="48.341126" lon="-4.630766"><ele>50.8</ele></trkpt>
    <trkpt lat="48.341137" lon="-4.630670"><ele>50.6</ele></trkpt>
    <trkpt lat="48.341212" lon="-4.630567"><ele>50.8</ele></trkpt>
    <trkpt lat="48.341377" lon="-4.630623"><ele>51.2</ele></trkpt>
    <trkpt lat="48.341441" lon="-4.630601"><ele>51.4</ele></trkpt>
    <trkpt lat="48.341486" lon="-4.630513"><ele>51.8</ele></trkpt>
    <trkpt lat="48.341493" lon="-4.630401"><ele>52.4</ele></trkpt>
    <trkpt lat="48.341328" lon="-4.630082"><ele>53.8</ele></trkpt>
    <trkpt lat="48.340831" lon="-4.629311"><ele>54.0</ele></trkpt>
    <trkpt lat="48.340746" lon="-4.629004"><ele>55.8</ele></trkpt>
    <trkpt lat="48.340749" lon="-4.628879"><ele>56.4</ele></trkpt>
    <trkpt lat="48.340892" lon="-4.628710"><ele>57.4</ele></trkpt>
    <trkpt lat="48.340993" lon="-4.628767"><ele>58.6</ele></trkpt>
    <trkpt lat="48.341071" lon="-4.628571"><ele>59.6</ele></trkpt>
    <trkpt lat="48.341160" lon="-4.628535"><ele>60.0</ele></trkpt>
    <trkpt lat="48.341215" lon="-4.627726"><ele>58.4</ele></trkpt>
    <trkpt lat="48.341262" lon="-4.627624"><ele>58.0</ele></trkpt>
    <trkpt lat="48.341539" lon="-4.627808"><ele>58.0</ele></trkpt>
    <trkpt lat="48.342033" lon="-4.627654"><ele>56.2</ele></trkpt>
    <trkpt lat="48.342151" lon="-4.627571"><ele>55.8</ele></trkpt>
    <trkpt lat="48.342193" lon="-4.627420"><ele>55.6</ele></trkpt>
    <trkpt lat="48.342160" lon="-4.626966"><ele>54.6</ele></trkpt>
    <trkpt lat="48.342121" lon="-4.626862"><ele>54.4</ele></trkpt>
    <trkpt lat="48.342053" lon="-4.626793"><ele>54.2</ele></trkpt>
    <trkpt lat="48.341489" lon="-4.626565"><ele>52.4</ele></trkpt>
    <trkpt lat="48.341307" lon="-4.626455"><ele>51.2</ele></trkpt>
    <trkpt lat="48.341200" lon="-4.626323"><ele>50.0</ele></trkpt>
    <trkpt lat="48.341008" lon="-4.625690"><ele>46.2</ele></trkpt>
    <trkpt lat="48.340963" lon="-4.625029"><ele>42.2</ele></trkpt>
    <trkpt lat="48.340841" lon="-4.624671"><ele>40.6</ele></trkpt>
    <trkpt lat="48.340826" lon="-4.624403"><ele>39.8</ele></trkpt>
    <trkpt lat="48.340786" lon="-4.624311"><ele>39.4</ele></trkpt>
    <trkpt lat="48.340377" lon="-4.624069"><ele>37.2</ele></trkpt>
    <trkpt lat="48.339657" lon="-4.624026"><ele>32.2</ele></trkpt>
    <trkpt lat="48.339318" lon="-4.623886"><ele>30.4</ele></trkpt>
    <trkpt lat="48.339303" lon="-4.623816"><ele>30.0</ele></trkpt>
    <trkpt lat="48.339500" lon="-4.623504"><ele>32.6</ele></trkpt>
    <trkpt lat="48.339479" lon="-4.623150"><ele>35.6</ele></trkpt>
    <trkpt lat="48.339508" lon="-4.622957"><ele>36.6</ele></trkpt>
    <trkpt lat="48.339422" lon="-4.622258"><ele>36.4</ele></trkpt>
    <trkpt lat="48.339321" lon="-4.622017"><ele>33.0</ele></trkpt>
    <trkpt lat="48.339235" lon="-4.621412"><ele>32.2</ele></trkpt>
    <trkpt lat="48.339344" lon="-4.620657"><ele>30.2</ele></trkpt>
    <trkpt lat="48.339367" lon="-4.620099"><ele>25.6</ele></trkpt>
    <trkpt lat="48.339459" lon="-4.619595"><ele>23.8</ele></trkpt>
    <trkpt lat="48.339454" lon="-4.619183"><ele>25.6</ele></trkpt>
    <trkpt lat="48.339493" lon="-4.619017"><ele>28.8</ele></trkpt>
    <trkpt lat="48.339411" lon="-4.618669"><ele>28.0</ele></trkpt>
    <trkpt lat="48.339356" lon="-4.618221"><ele>26.6</ele></trkpt>
    <trkpt lat="48.339365" lon="-4.618007"><ele>26.6</ele></trkpt>
    <trkpt lat="48.339444" lon="-4.617548"><ele>29.6</ele></trkpt>
    <trkpt lat="48.339643" lon="-4.616844"><ele>35.2</ele></trkpt>
    <trkpt lat="48.339894" lon="-4.616557"><ele>38.4</ele></trkpt>
    <trkpt lat="48.340309" lon="-4.615859"><ele>34.0</ele></trkpt>
    <trkpt lat="48.340466" lon="-4.615730"><ele>31.6</ele></trkpt>
    <trkpt lat="48.340633" lon="-4.615686"><ele>29.8</ele></trkpt>
    <trkpt lat="48.340834" lon="-4.615549"><ele>28.0</ele></trkpt>
    <trkpt lat="48.340869" lon="-4.615412"><ele>25.4</ele></trkpt>
    <trkpt lat="48.340867" lon="-4.615251"><ele>21.4</ele></trkpt>
    <trkpt lat="48.340841" lon="-4.615189"><ele>20.4</ele></trkpt>
    <trkpt lat="48.340777" lon="-4.615162"><ele>19.2</ele></trkpt>
    <trkpt lat="48.340142" lon="-4.615302"><ele>11.4</ele></trkpt>
    <trkpt lat="48.339945" lon="-4.615250"><ele>9.8</ele></trkpt>
    <trkpt lat="48.339521" lon="-4.615299"><ele>11.0</ele></trkpt>
    <trkpt lat="48.339320" lon="-4.615229"><ele>13.4</ele></trkpt>
    <trkpt lat="48.339176" lon="-4.615252"><ele>14.4</ele></trkpt>
    <trkpt lat="48.339103" lon="-4.615223"><ele>14.8</ele></trkpt>
    <trkpt lat="48.338693" lon="-4.614757"><ele>23.0</ele></trkpt>
    <trkpt lat="48.338702" lon="-4.614620"><ele>24.6</ele></trkpt>
    <trkpt lat="48.338837" lon="-4.614478"><ele>29.4</ele></trkpt>
    <trkpt lat="48.338921" lon="-4.614251"><ele>33.2</ele></trkpt>
    <trkpt lat="48.338823" lon="-4.613795"><ele>32.2</ele></trkpt>
    <trkpt lat="48.338720" lon="-4.613700"><ele>30.6</ele></trkpt>
  </trkseg></trk>
</gpx>
