<?xml version="1.0" encoding="UTF-8"?>
<gpx version="1.1" creator="tcap-parcours" xmlns="http://www.topografix.com/GPX/1/1">
  <metadata><name>Saint-Mathieu – Le Conquet – Kermorvan – Boucle 19 km</name></metadata>
  <trk><name>Saint-Mathieu – Le Conquet – Kermorvan – Boucle 19 km</name><trkseg>
    <trkpt lat="48.330816" lon="-4.770569"><ele>24.4</ele></trkpt>
    <trkpt lat="48.330954" lon="-4.770458"><ele>24.8</ele></trkpt>
    <trkpt lat="48.331204" lon="-4.769963"><ele>26.6</ele></trkpt>
    <trkpt lat="48.331314" lon="-4.769896"><ele>27.4</ele></trkpt>
    <trkpt lat="48.331427" lon="-4.769912"><ele>28.2</ele></trkpt>
    <trkpt lat="48.331499" lon="-4.769872"><ele>28.8</ele></trkpt>
    <trkpt lat="48.331742" lon="-4.769591"><ele>30.0</ele></trkpt>
    <trkpt lat="48.332177" lon="-4.769232"><ele>31.2</ele></trkpt>
    <trkpt lat="48.332530" lon="-4.769178"><ele>31.8</ele></trkpt>
    <trkpt lat="48.333115" lon="-4.769208"><ele>33.0</ele></trkpt>
    <trkpt lat="48.333666" lon="-4.769127"><ele>34.0</ele></trkpt>
    <trkpt lat="48.333836" lon="-4.769030"><ele>34.4</ele></trkpt>
    <trkpt lat="48.334554" lon="-4.766182"><ele>35.0</ele></trkpt>
    <trkpt lat="48.335076" lon="-4.764751"><ele>37.4</ele></trkpt>
    <trkpt lat="48.335267" lon="-4.763992"><ele>40.0</ele></trkpt>
    <trkpt lat="48.335528" lon="-4.763538"><ele>40.8</ele></trkpt>
    <trkpt lat="48.335794" lon="-4.762874"><ele>40.2</ele></trkpt>
    <trkpt lat="48.336045" lon="-4.760562"><ele>38.0</ele></trkpt>
    <trkpt lat="48.336131" lon="-4.760094"><ele>38.2</ele></trkpt>
    <trkpt lat="48.336170" lon="-4.760024"><ele>38.0</ele></trkpt>
    <trkpt lat="48.337465" lon="-4.760680"><ele>29.2</ele></trkpt>
    <trkpt lat="48.337634" lon="-4.760694"><ele>28.0</ele></trkpt>
    <trkpt lat="48.338395" lon="-4.760530"><ele>24.2</ele></trkpt>
    <trkpt lat="48.338626" lon="-4.760552"><ele>24.4</ele></trkpt>
    <trkpt lat="48.339126" lon="-4.760829"><ele>27.6</ele></trkpt>
    <trkpt lat="48.340005" lon="-4.761208"><ele>32.2</ele></trkpt>
    <trkpt lat="48.340245" lon="-4.761365"><ele>34.4</ele></trkpt>
    <trkpt lat="48.340970" lon="-4.761978"><ele>38.2</ele></trkpt>
    <trkpt lat="48.341120" lon="-4.762027"><ele>38.6</ele></trkpt>
    <trkpt lat="48.341249" lon="-4.761888"><ele>39.2</ele></trkpt>
    <trkpt lat="48.341418" lon="-4.761357"><ele>40.0</ele></trkpt>
    <trkpt lat="48.341546" lon="-4.760788"><ele>40.2</ele></trkpt>
    <trkpt lat="48.341616" lon="-4.760206"><ele>40.6</ele></trkpt>
    <trkpt lat="48.341765" lon="-4.759629"><ele>40.2</ele></trkpt>
    <trkpt lat="48.341832" lon="-4.759615"><ele>40.0</ele></trkpt>
    <trkpt lat="48.342170" lon="-4.759730"><ele>40.6</ele></trkpt>
    <trkpt lat="48.342946" lon="-4.759687"><ele>42.4</ele></trkpt>
    <trkpt lat="48.343327" lon="-4.759612"><ele>42.6</ele></trkpt>
    <trkpt lat="48.343570" lon="-4.759633"><ele>43.4</ele></trkpt>
    <trkpt lat="48.343814" lon="-4.759564"><ele>44.4</ele></trkpt>
    <trkpt lat="48.344229" lon="-4.759543"><ele>44.4</ele></trkpt>
    <trkpt lat="48.344256" lon="-4.759444"><ele>44.6</ele></trkpt>
    <trkpt lat="48.344212" lon="-4.758594"><ele>44.8</ele></trkpt>
    <trkpt lat="48.344236" lon="-4.758215"><ele>44.8</ele></trkpt>
    <trkpt lat="48.344184" lon="-4.757518"><ele>44.6</ele></trkpt>
    <trkpt lat="48.344255" lon="-4.757474"><ele>44.6</ele></trkpt>
    <trkpt lat="48.345082" lon="-4.757422"><ele>45.8</ele></trkpt>
    <trkpt lat="48.345134" lon="-4.757350"><ele>45.8</ele></trkpt>
    <trkpt lat="48.345173" lon="-4.757126"><ele>45.8</ele></trkpt>
    <trkpt lat="48.345254" lon="-4.757056"><ele>46.0</ele></trkpt>
    <trkpt lat="48.346043" lon="-4.757131"><ele>45.2</ele></trkpt>
    <trkpt lat="48.346751" lon="-4.757317"><ele>43.0</ele></trkpt>
    <trkpt lat="48.347259" lon="-4.757403"><ele>40.2</ele></trkpt>
    <trkpt lat="48.348370" lon="-4.757403"><ele>37.8</ele></trkpt>
    <trkpt lat="48.348409" lon="-4.757502"><ele>37.6</ele></trkpt>
    <trkpt lat="48.348349" lon="-4.757954"><ele>37.2</ele></trkpt>
    <trkpt lat="48.348359" lon="-4.758366"><ele>37.2</ele></trkpt>
    <trkpt lat="48.348477" lon="-4.758974"><ele>36.6</ele></trkpt>
    <trkpt lat="48.348590" lon="-4.759218"><ele>36.2</ele></trkpt>
    <trkpt lat="48.348710" lon="-4.759291"><ele>36.2</ele></trkpt>
    <trkpt lat="48.349118" lon="-4.759329"><ele>36.6</ele></trkpt>
    <trkpt lat="48.349661" lon="-4.759529"><ele>38.4</ele></trkpt>
    <trkpt lat="48.350424" lon="-4.760302"><ele>39.8</ele></trkpt>
    <trkpt lat="48.350583" lon="-4.760652"><ele>40.4</ele></trkpt>
    <trkpt lat="48.351262" lon="-4.760995"><ele>43.6</ele></trkpt>
    <trkpt lat="48.351710" lon="-4.761312"><ele>46.6</ele></trkpt>
    <trkpt lat="48.352268" lon="-4.761885"><ele>49.4</ele></trkpt>
    <trkpt lat="48.352396" lon="-4.761891"><ele>49.4</ele></trkpt>
    <trkpt lat="48.352876" lon="-4.762078"><ele>50.0</ele></trkpt>
    <trkpt lat="48.353189" lon="-4.762002"><ele>50.4</ele></trkpt>
    <trkpt lat="48.354525" lon="-4.761878"><ele>48.4</ele></trkpt>
    <trkpt lat="48.355329" lon="-4.761570"><ele>46.2</ele></trkpt>
    <trkpt lat="48.355697" lon="-4.761533"><ele>44.4</ele></trkpt>
    <trkpt lat="48.356327" lon="-4.761355"><ele>39.4</ele></trkpt>
    <trkpt lat="48.356747" lon="-4.761372"><ele>33.6</ele></trkpt>
    <trkpt lat="48.356845" lon="-4.761432"><ele>32.6</ele></trkpt>
    <trkpt lat="48.356875" lon="-4.761554"><ele>32.0</ele></trkpt>
    <trkpt lat="48.356836" lon="-4.762242"><ele>33.4</ele></trkpt>
    <trkpt lat="48.356844" lon="-4.762493"><ele>33.4</ele></trkpt>
    <trkpt lat="48.356873" lon="-4.762596"><ele>33.2</ele></trkpt>
    <trkpt lat="48.356962" lon="-4.762664"><ele>32.6</ele></trkpt>
    <trkpt lat="48.357313" lon="-4.762699"><ele>28.2</ele></trkpt>
    <trkpt lat="48.357780" lon="-4.762538"><ele>22.4</ele></trkpt>
    <trkpt lat="48.357815" lon="-4.762434"><ele>22.0</ele></trkpt>
    <trkpt lat="48.357874" lon="-4.761806"><ele>20.6</ele></trkpt>
    <trkpt lat="48.357928" lon="-4.761661"><ele>20.0</ele></trkpt>
    <trkpt lat="48.357999" lon="-4.761642"><ele>19.2</ele></trkpt>
    <trkpt lat="48.358762" lon="-4.762226"><ele>12.4</ele></trkpt>
    <trkpt lat="48.359063" lon="-4.762316"><ele>10.0</ele></trkpt>
    <trkpt lat="48.359386" lon="-4.762514"><ele>8.6</ele></trkpt>
    <trkpt lat="48.359478" lon="-4.763368"><ele>6.0</ele></trkpt>
    <trkpt lat="48.359672" lon="-4.763748"><ele>6.4</ele></trkpt>
    <trkpt lat="48.360023" lon="-4.765569"><ele>15.0</ele></trkpt>
    <trkpt lat="48.360056" lon="-4.765595"><ele>15.2</ele></trkpt>
    <trkpt lat="48.360151" lon="-4.765533"><ele>14.8</ele></trkpt>
    <trkpt lat="48.360272" lon="-4.765525"><ele>14.2</ele></trkpt>
    <trkpt lat="48.360654" lon="-4.765631"><ele>12.8</ele></trkpt>
    <trkpt lat="48.360730" lon="-4.765685"><ele>12.4</ele></trkpt>
    <trkpt lat="48.360797" lon="-4.765848"><ele>12.0</ele></trkpt>
    <trkpt lat="48.361322" lon="-4.766037"><ele>6.2</ele></trkpt>
    <trkpt lat="48.361375" lon="-4.766315"><ele>5.6</ele></trkpt>
    <trkpt lat="48.361450" lon="-4.766417"><ele>5.4</ele></trkpt>
    <trkpt lat="48.361727" lon="-4.767083"><ele>6.0</ele></trkpt>
    <trkpt lat="48.361794" lon="-4.767136"><ele>5.8</ele></trkpt>
    <trkpt lat="48.363662" lon="-4.765990"><ele>5.2</ele></trkpt>
    <trkpt lat="48.363532" lon="-4.765100"><ele>5.2</ele></trkpt>
    <trkpt lat="48.363575" lon="-4.764615"><ele>5.2</ele></trkpt>
    <trkpt lat="48.363517" lon="-4.764017"><ele>5.2</ele></trkpt>
    <trkpt lat="48.363530" lon="-4.763194"><ele>5.2</ele></trkpt>
    <trkpt lat="48.363604" lon="-4.762421"><ele>4.6</ele></trkpt>
    <trkpt lat="48.363640" lon="-4.759998"><ele>4.6</ele></trkpt>
    <trkpt lat="48.363739" lon="-4.759108"><ele>4.6</ele></trkpt>
    <trkpt lat="48.363872" lon="-4.758339"><ele>4.8</ele></trkpt>
    <trkpt lat="48.363935" lon="-4.758216"><ele>4.6</ele></trkpt>
    <trkpt lat="48.364193" lon="-4.757964"><ele>6.0</ele></trkpt>
    <trkpt lat="48.364230" lon="-4.757650"><ele>7.0</ele></trkpt>
    <trkpt lat="48.364221" lon="-4.757403"><ele>7.4</ele></trkpt>
    <trkpt lat="48.364044" lon="-4.756829"><ele>6.2</ele></trkpt>
    <trkpt lat="48.364048" lon="-4.756317"><ele>5.6</ele></trkpt>
    <trkpt lat="48.364016" lon="-4.756237"><ele>5.6</ele></trkpt>
    <trkpt lat="48.363921" lon="-4.756155"><ele>5.6</ele></trkpt>
    <trkpt lat="48.363937" lon="-4.755942"><ele>5.8</ele></trkpt>
    <trkpt lat="48.363901" lon="-4.755474"><ele>6.0</ele></trkpt>
    <trkpt lat="48.363989" lon="-4.755362"><ele>5.8</ele></trkpt>
    <trkpt lat="48.364053" lon="-4.755057"><ele>5.8</ele></trkpt>
    <trkpt lat="48.364355" lon="-4.754298"><ele>6.2</ele></trkpt>
    <trkpt lat="48.364406" lon="-4.754232"><ele>6.6</ele></trkpt>
    <trkpt lat="48.364569" lon="-4.754186"><ele>7.4</ele></trkpt>
    <trkpt lat="48.364682" lon="-4.753990"><ele>8.0</ele></trkpt>
    <trkpt lat="48.364855" lon="-4.753079"><ele>6.2</ele></trkpt>
    <trkpt lat="48.365102" lon="-4.752438"><ele>6.6</ele></trkpt>
    <trkpt lat="48.365661" lon="-4.752579"><ele>15.2</ele></trkpt>
    <trkpt lat="48.366120" lon="-4.752614"><ele>22.0</ele></trkpt>
    <trkpt lat="48.366230" lon="-4.752575"><ele>23.4</ele></trkpt>
    <trkpt lat="48.366409" lon="-4.752435"><ele>26.0</ele></trkpt>
    <trkpt lat="48.366619" lon="-4.752234"><ele>28.0</ele></trkpt>
    <trkpt lat="48.366901" lon="-4.751813"><ele>30.4</ele></trkpt>
    <trkpt lat="48.367040" lon="-4.751538"><ele>30.6</ele></trkpt>
    <trkpt lat="48.367196" lon="-4.751095"><ele>29.6</ele></trkpt>
    <trkpt lat="48.367283" lon="-4.750965"><ele>29.4</ele></trkpt>
    <trkpt lat="48.367597" lon="-4.750691"><ele>30.0</ele></trkpt>
    <trkpt lat="48.368210" lon="-4.750277"><ele>32.2</ele></trkpt>
    <trkpt lat="48.368532" lon="-4.749986"><ele>35.0</ele></trkpt>
    <trkpt lat="48.368567" lon="-4.749879"><ele>35.2</ele></trkpt>
    <trkpt lat="48.368544" lon="-4.749386"><ele>34.2</ele></trkpt>
    <trkpt lat="48.368616" lon="-4.749197"><ele>34.0</ele></trkpt>
    <trkpt lat="48.369717" lon="-4.748604"><ele>38.0</ele></trkpt>
    <trkpt lat="48.369800" lon="-4.748637"><ele>38.6</ele></trkpt>
    <trkpt lat="48.369998" lon="-4.749150"><ele>39.8</ele></trkpt>
    <trkpt lat="48.370348" lon="-4.749838"><ele>41.6</ele></trkpt>
    <trkpt lat="48.370509" lon="-4.750068"><ele>42.0</ele></trkpt>
    <trkpt lat="48.371249" lon="-4.750670"><ele>41.4</ele></trkpt>
    <trkpt lat="48.371714" lon="-4.750874"><ele>40.2</ele></trkpt>
    <trkpt lat="48.371815" lon="-4.750855"><ele>40.0</ele></trkpt>
    <trkpt lat="48.371928" lon="-4.750772"><ele>39.4</ele></trkpt>
    <trkpt lat="48.371988" lon="-4.750839"><ele>39.0</ele></trkpt>
    <trkpt lat="48.372007" lon="-4.751251"><ele>37.6</ele></trkpt>
    <trkpt lat="48.372054" lon="-4.751527"><ele>36.6</ele></trkpt>
    <trkpt lat="48.372061" lon="-4.752085"><ele>34.8</ele></trkpt>
    <trkpt lat="48.372154" lon="-4.753056"><ele>33.4</ele></trkpt>
    <trkpt lat="48.372093" lon="-4.753217"><ele>33.2</ele></trkpt>
    <trkpt lat="48.371701" lon="-4.753735"><ele>32.8</ele></trkpt>
    <trkpt lat="48.371656" lon="-4.753925"><ele>32.8</ele></trkpt>
    <trkpt lat="48.371671" lon="-4.754054"><ele>33.0</ele></trkpt>
    <trkpt lat="48.371891" lon="-4.754705"><ele>31.2</ele></trkpt>
    <trkpt lat="48.371806" lon="-4.754940"><ele>31.0</ele></trkpt>
    <trkpt lat="48.371801" lon="-4.755207"><ele>30.8</ele></trkpt>
    <trkpt lat="48.371827" lon="-4.755413"><ele>30.0</ele></trkpt>
    <trkpt lat="48.371912" lon="-4.755669"><ele>29.0</ele></trkpt>
    <trkpt lat="48.371973" lon="-4.756313"><ele>28.6</ele></trkpt>
    <trkpt lat="48.371860" lon="-4.756841"><ele>27.0</ele></trkpt>
    <trkpt lat="48.371857" lon="-4.757566"><ele>24.6</ele></trkpt>
    <trkpt lat="48.371903" lon="-4.757759"><ele>23.8</ele></trkpt>
    <trkpt lat="48.372064" lon="-4.758094"><ele>22.2</ele></trkpt>
    <trkpt lat="48.372056" lon="-4.758389"><ele>21.0</ele></trkpt>
    <trkpt lat="48.372119" lon="-4.758639"><ele>20.0</ele></trkpt>
    <trkpt lat="48.372065" lon="-4.758876"><ele>19.2</ele></trkpt>
    <trkpt lat="48.372072" lon="-4.759172"><ele>17.6</ele></trkpt>
    <trkpt lat="48.372199" lon="-4.759488"><ele>14.8</ele></trkpt>
    <trkpt lat="48.372074" lon="-4.759833"><ele>12.4</ele></trkpt>
    <trkpt lat="48.372078" lon="-4.760178"><ele>11.0</ele></trkpt>
    <trkpt lat="48.372022" lon="-4.760239"><ele>11.0</ele></trkpt>
    <trkpt lat="48.371782" lon="-4.760298"><ele>12.8</ele></trkpt>
    <trkpt lat="48.371591" lon="-4.760430"><ele>16.0</ele></trkpt>
    <trkpt lat="48.371316" lon="-4.760536"><ele>19.2</ele></trkpt>
    <trkpt lat="48.371028" lon="-4.760817"><ele>21.6</ele></trkpt>
    <trkpt lat="48.370891" lon="-4.761123"><ele>22.0</ele></trkpt>
    <trkpt lat="48.370615" lon="-4.761334"><ele>22.0</ele></trkpt>
    <trkpt lat="48.370479" lon="-4.761359"><ele>22.4</ele></trkpt>
    <trkpt lat="48.370324" lon="-4.761235"><ele>23.2</ele></trkpt>
    <trkpt lat="48.369942" lon="-4.761306"><ele>26.2</ele></trkpt>
    <trkpt lat="48.369812" lon="-4.761390"><ele>27.6</ele></trkpt>
    <trkpt lat="48.369578" lon="-4.761652"><ele>28.2</ele></trkpt>
    <trkpt lat="48.369359" lon="-4.761825"><ele>27.0</ele></trkpt>
    <trkpt lat="48.369205" lon="-4.762073"><ele>26.0</ele></trkpt>
    <trkpt lat="48.369176" lon="-4.762184"><ele>25.6</ele></trkpt>
    <trkpt lat="48.369164" lon="-4.762617"><ele>23.6</ele></trkpt>
    <trkpt lat="48.369067" lon="-4.762835"><ele>22.6</ele></trkpt>
    <trkpt lat="48.368994" lon="-4.762879"><ele>22.4</ele></trkpt>
    <trkpt lat="48.368920" lon="-4.762865"><ele>22.6</ele></trkpt>
    <trkpt lat="48.368794" lon="-4.762636"><ele>23.4</ele></trkpt>
    <trkpt lat="48.368681" lon="-4.762599"><ele>23.8</ele></trkpt>
    <trkpt lat="48.368644" lon="-4.762659"><ele>23.8</ele></trkpt>
    <trkpt lat="48.368589" lon="-4.762932"><ele>23.4</ele></trkpt>
    <trkpt lat="48.368509" lon="-4.763068"><ele>23.0</ele></trkpt>
    <trkpt lat="48.368118" lon="-4.763296"><ele>19.6</ele></trkpt>
    <trkpt lat="48.367855" lon="-4.763606"><ele>20.8</ele></trkpt>
    <trkpt lat="48.367789" lon="-4.763736"><ele>21.4</ele></trkpt>
    <trkpt lat="48.367693" lon="-4.764201"><ele>21.2</ele></trkpt>
    <trkpt lat="48.367565" lon="-4.764529"><ele>20.8</ele></trkpt>
    <trkpt lat="48.367576" lon="-4.764781"><ele>20.2</ele></trkpt>
    <trkpt lat="48.367547" lon="-4.765042"><ele>18.2</ele></trkpt>
    <trkpt lat="48.367568" lon="-4.765352"><ele>16.4</ele></trkpt>
    <trkpt lat="48.367363" lon="-4.766228"><ele>13.2</ele></trkpt>
    <trkpt lat="48.367284" lon="-4.766262"><ele>13.0</ele></trkpt>
    <trkpt lat="48.367141" lon="-4.766237"><ele>13.0</ele></trkpt>
    <trkpt lat="48.367036" lon="-4.766168"><ele>13.2</ele></trkpt>
    <trkpt lat="48.366977" lon="-4.766186"><ele>13.4</ele></trkpt>
    <trkpt lat="48.366451" lon="-4.766864"><ele>12.4</ele></trkpt>
    <trkpt lat="48.366230" lon="-4.767076"><ele>15.0</ele></trkpt>
    <trkpt lat="48.365947" lon="-4.767236"><ele>18.4</ele></trkpt>
    <trkpt lat="48.365914" lon="-4.767474"><ele>17.8</ele></trkpt>
    <trkpt lat="48.365846" lon="-4.767689"><ele>17.6</ele></trkpt>
    <trkpt lat="48.365629" lon="-4.767987"><ele>17.2</ele></trkpt>
    <trkpt lat="48.365544" lon="-4.768405"><ele>14.8</ele></trkpt>
    <trkpt lat="48.365389" lon="-4.768699"><ele>13.8</ele></trkpt>
    <trkpt lat="48.365128" lon="-4.768973"><ele>13.8</ele></trkpt>
    <trkpt lat="48.365009" lon="-4.769164"><ele>13.6</ele></trkpt>
    <trkpt lat="48.364924" lon="-4.769417"><ele>13.8</ele></trkpt>
    <trkpt lat="48.364918" lon="-4.769593"><ele>14.8</ele></trkpt>
    <trkpt lat="48.364806" lon="-4.769698"><ele>16.4</ele></trkpt>
    <trkpt lat="48.364547" lon="-4.769818"><ele>18.6</ele></trkpt>
    <trkpt lat="48.364478" lon="-4.769941"><ele>18.6</ele></trkpt>
    <trkpt lat="48.364528" lon="-4.770427"><ele>19.2</ele></trkpt>
    <trkpt lat="48.364629" lon="-4.770751"><ele>20.4</ele></trkpt>
    <trkpt lat="48.364580" lon="-4.771069"><ele>21.4</ele></trkpt>
    <trkpt lat="48.364597" lon="-4.771200"><ele>21.6</ele></trkpt>
    <trkpt lat="48.364743" lon="-4.771496"><ele>21.2</ele></trkpt>
    <trkpt lat="48.364903" lon="-4.771346"><ele>19.4</ele></trkpt>
    <trkpt lat="48.364957" lon="-4.771375"><ele>18.4</ele></trkpt>
    <trkpt lat="48.365005" lon="-4.771540"><ele>17.8</ele></trkpt>
    <trkpt lat="48.365034" lon="-4.771877"><ele>17.0</ele></trkpt>
    <trkpt lat="48.364901" lon="-4.772248"><ele>16.8</ele></trkpt>
    <trkpt lat="48.364858" lon="-4.772464"><ele>16.2</ele></trkpt>
    <trkpt lat="48.364680" lon="-4.772929"><ele>16.2</ele></trkpt>
    <trkpt lat="48.364576" lon="-4.773782"><ele>14.4</ele></trkpt>
    <trkpt lat="48.364371" lon="-4.774260"><ele>12.6</ele></trkpt>
    <trkpt lat="48.364125" lon="-4.774560"><ele>12.2</ele></trkpt>
    <trkpt lat="48.364037" lon="-4.775150"><ele>11.4</ele></trkpt>
    <trkpt lat="48.364055" lon="-4.776177"><ele>11.8</ele></trkpt>
    <trkpt lat="48.364193" lon="-4.776662"><ele>13.4</ele></trkpt>
    <trkpt lat="48.364224" lon="-4.777023"><ele>15.0</ele></trkpt>
    <trkpt lat="48.364190" lon="-4.777511"><ele>16.6</ele></trkpt>
    <trkpt lat="48.364067" lon="-4.777900"><ele>16.8</ele></trkpt>
    <trkpt lat="48.364112" lon="-4.778336"><ele>18.2</ele></trkpt>
    <trkpt lat="48.364048" lon="-4.779176"><ele>19.8</ele></trkpt>
    <trkpt lat="48.364354" lon="-4.779635"><ele>18.6</ele></trkpt>
    <trkpt lat="48.364492" lon="-4.779750"><ele>18.2</ele></trkpt>
    <trkpt lat="48.364638" lon="-4.780100"><ele>17.2</ele></trkpt>
    <trkpt lat="48.365063" lon="-4.780321"><ele>16.2</ele></trkpt>
    <trkpt lat="48.365706" lon="-4.781011"><ele>17.8</ele></trkpt>
    <trkpt lat="48.365906" lon="-4.781314"><ele>17.8</ele></trkpt>
    <trkpt lat="48.366007" lon="-4.781748"><ele>21.0</ele></trkpt>
    <trkpt lat="48.366019" lon="-4.782399"><ele>26.6</ele></trkpt>
    <trkpt lat="48.366185" lon="-4.782775"><ele>20.4</ele></trkpt>
    <trkpt lat="48.366323" lon="-4.782932"><ele>16.4</ele></trkpt>
    <trkpt lat="48.366286" lon="-4.783183"><ele>16.6</ele></trkpt>
    <trkpt lat="48.366225" lon="-4.783316"><ele>18.6</ele></trkpt>
    <trkpt lat="48.366235" lon="-4.783509"><ele>20.0</ele></trkpt>
    <trkpt lat="48.366391" lon="-4.784023"><ele>19.0</ele></trkpt>
    <trkpt lat="48.366530" lon="-4.784345"><ele>17.8</ele></trkpt>
    <trkpt lat="48.366802" lon="-4.784566"><ele>18.0</ele></trkpt>
    <trkpt lat="48.367209" lon="-4.784627"><ele>23.2</ele></trkpt>
    <trkpt lat="48.367276" lon="-4.784597"><ele>23.6</ele></trkpt>
    <trkpt lat="48.367454" lon="-4.784326"><ele>22.0</ele></trkpt>
    <trkpt lat="48.367688" lon="-4.784219"><ele>18.6</ele></trkpt>
    <trkpt lat="48.367808" lon="-4.784260"><ele>17.6</ele></trkpt>
    <trkpt lat="48.367861" lon="-4.784419"><ele>17.8</ele></trkpt>
    <trkpt lat="48.367898" lon="-4.784745"><ele>18.6</ele></trkpt>
    <trkpt lat="48.367963" lon="-4.784912"><ele>18.0</ele></trkpt>
    <trkpt lat="48.367950" lon="-4.785185"><ele>18.8</ele></trkpt>
    <trkpt lat="48.368063" lon="-4.785365"><ele>17.2</ele></trkpt>
    <trkpt lat="48.368181" lon="-4.785679"><ele>18.0</ele></trkpt>
    <trkpt lat="48.368125" lon="-4.785809"><ele>19.4</ele></trkpt>
    <trkpt lat="48.368146" lon="-4.786169"><ele>18.6</ele></trkpt>
    <trkpt lat="48.368024" lon="-4.786315"><ele>21.0</ele></trkpt>
    <trkpt lat="48.367836" lon="-4.786330"><ele>25.2</ele></trkpt>
    <trkpt lat="48.367527" lon="-4.786651"><ele>23.8</ele></trkpt>
    <trkpt lat="48.367204" lon="-4.786700"><ele>21.4</ele></trkpt>
    <trkpt lat="48.367071" lon="-4.786502"><ele>17.2</ele></trkpt>
    <trkpt lat="48.366887" lon="-4.785637"><ele>17.4</ele></trkpt>
    <trkpt lat="48.366796" lon="-4.784579"><ele>18.2</ele></trkpt>
    <trkpt lat="48.366674" lon="-4.784366"><ele>18.2</ele></trkpt>
    <trkpt lat="48.366551" lon="-4.784289"><ele>18.4</ele></trkpt>
    <trkpt lat="48.366477" lon="-4.784305"><ele>18.6</ele></trkpt>
    <trkpt lat="48.366400" lon="-4.784399"><ele>18.4</ele></trkpt>
    <trkpt lat="48.366380" lon="-4.784481"><ele>18.4</ele></trkpt>
    <trkpt lat="48.366401" lon="-4.784647"><ele>18.0</ele></trkpt>
    <trkpt lat="48.366374" lon="-4.784700"><ele>17.8</ele></trkpt>
    <trkpt lat="48.365796" lon="-4.785011"><ele>16.0</ele></trkpt>
    <trkpt lat="48.365565" lon="-4.785354"><ele>14.4</ele></trkpt>
    <trkpt lat="48.365225" lon="-4.785704"><ele>16.2</ele></trkpt>
    <trkpt lat="48.365143" lon="-4.785703"><ele>18.0</ele></trkpt>
    <trkpt lat="48.365000" lon="-4.785790"><ele>20.2</ele></trkpt>
    <trkpt lat="48.364844" lon="-4.785784"><ele>22.0</ele></trkpt>
    <trkpt lat="48.364606" lon="-4.785921"><ele>23.6</ele></trkpt>
    <trkpt lat="48.364397" lon="-4.785949"><ele>23.4</ele></trkpt>
    <trkpt lat="48.364128" lon="-4.786061"><ele>22.8</ele></trkpt>
    <trkpt lat="48.363927" lon="-4.786070"><ele>22.8</ele></trkpt>
    <trkpt lat="48.363600" lon="-4.786160"><ele>22.6</ele></trkpt>
    <trkpt lat="48.363443" lon="-4.786252"><ele>22.4</ele></trkpt>
    <trkpt lat="48.363035" lon="-4.786610"><ele>22.2</ele></trkpt>
    <trkpt lat="48.362981" lon="-4.786624"><ele>22.2</ele></trkpt>
    <trkpt lat="48.362761" lon="-4.786520"><ele>24.4</ele></trkpt>
    <trkpt lat="48.362510" lon="-4.786255"><ele>24.8</ele></trkpt>
    <trkpt lat="48.362378" lon="-4.786173"><ele>25.4</ele></trkpt>
    <trkpt lat="48.362184" lon="-4.786128"><ele>27.2</ele></trkpt>
    <trkpt lat="48.362017" lon="-4.786199"><ele>28.4</ele></trkpt>
    <trkpt lat="48.361946" lon="-4.786187"><ele>28.0</ele></trkpt>
    <trkpt lat="48.361878" lon="-4.786100"><ele>27.4</ele></trkpt>
    <trkpt lat="48.361825" lon="-4.785937"><ele>26.8</ele></trkpt>
    <trkpt lat="48.361756" lon="-4.785387"><ele>25.4</ele></trkpt>
    <trkpt lat="48.362001" lon="-4.784822"><ele>25.0</ele></trkpt>
    <trkpt lat="48.362051" lon="-4.784496"><ele>26.0</ele></trkpt>
    <trkpt lat="48.361953" lon="-4.783917"><ele>27.0</ele></trkpt>
    <trkpt lat="48.361902" lon="-4.783020"><ele>25.0</ele></trkpt>
    <trkpt lat="48.361978" lon="-4.782633"><ele>23.4</ele></trkpt>
    <trkpt lat="48.362082" lon="-4.782364"><ele>22.0</ele></trkpt>
    <trkpt lat="48.362167" lon="-4.781734"><ele>20.6</ele></trkpt>
    <trkpt lat="48.362340" lon="-4.781011"><ele>20.2</ele></trkpt>
    <trkpt lat="48.362433" lon="-4.780703"><ele>19.8</ele></trkpt>
    <trkpt lat="48.362534" lon="-4.780493"><ele>19.6</ele></trkpt>
    <trkpt lat="48.362617" lon="-4.780069"><ele>19.4</ele></trkpt>
    <trkpt lat="48.362683" lon="-4.779919"><ele>20.0</ele></trkpt>
    <trkpt lat="48.362839" lon="-4.779799"><ele>22.4</ele></trkpt>
    <trkpt lat="48.362904" lon="-4.779603"><ele>22.8</ele></trkpt>
    <trkpt lat="48.362915" lon="-4.779006"><ele>23.4</ele></trkpt>
    <trkpt lat="48.363002" lon="-4.778606"><ele>22.8</ele></trkpt>
    <trkpt lat="48.363051" lon="-4.778537"><ele>22.8</ele></trkpt>
    <trkpt lat="48.363182" lon="-4.778470"><ele>23.2</ele></trkpt>
    <trkpt lat="48.363353" lon="-4.778252"><ele>23.8</ele></trkpt>
    <trkpt lat="48.363609" lon="-4.778126"><ele>24.2</ele></trkpt>
    <trkpt lat="48.363654" lon="-4.778063"><ele>24.0</ele></trkpt>
    <trkpt lat="48.363685" lon="-4.777823"><ele>22.6</ele></trkpt>
    <trkpt lat="48.363796" lon="-4.777547"><ele>21.4</ele></trkpt>
    <trkpt lat="48.364031" lon="-4.776178"><ele>11.4</ele></trkpt>
    <trkpt lat="48.363952" lon="-4.775925"><ele>9.0</ele></trkpt>
    <trkpt lat="48.363939" lon="-4.775431"><ele>9.0</ele></trkpt>
    <trkpt lat="48.363900" lon="-4.775094"><ele>9.2</ele></trkpt>
    <trkpt lat="48.363939" lon="-4.774529"><ele>11.2</ele></trkpt>
    <trkpt lat="48.363909" lon="-4.774448"><ele>11.4</ele></trkpt>
    <trkpt lat="48.363806" lon="-4.774391"><ele>11.6</ele></trkpt>
    <trkpt lat="48.363776" lon="-4.774329"><ele>11.4</ele></trkpt>
    <trkpt lat="48.363491" lon="-4.773137"><ele>11.2</ele></trkpt>
    <trkpt lat="48.363460" lon="-4.772812"><ele>10.6</ele></trkpt>
    <trkpt lat="48.363487" lon="-4.772646"><ele>11.2</ele></trkpt>
    <trkpt lat="48.363528" lon="-4.772590"><ele>12.0</ele></trkpt>
    <trkpt lat="48.363959" lon="-4.772446"><ele>20.2</ele></trkpt>
    <trkpt lat="48.364027" lon="-4.772358"><ele>20.4</ele></trkpt>
    <trkpt lat="48.364120" lon="-4.771449"><ele>19.4</ele></trkpt>
    <trkpt lat="48.364322" lon="-4.770135"><ele>18.0</ele></trkpt>
    <trkpt lat="48.364409" lon="-4.769283"><ele>17.4</ele></trkpt>
    <trkpt lat="48.364336" lon="-4.768910"><ele>16.2</ele></trkpt>
    <trkpt lat="48.364461" lon="-4.768393"><ele>15.6</ele></trkpt>
    <trkpt lat="48.364531" lon="-4.767702"><ele>16.0</ele></trkpt>
    <trkpt lat="48.364497" lon="-4.767294"><ele>15.2</ele></trkpt>
    <trkpt lat="48.364442" lon="-4.767170"><ele>14.6</ele></trkpt>
    <trkpt lat="48.364367" lon="-4.767155"><ele>13.8</ele></trkpt>
    <trkpt lat="48.364123" lon="-4.767251"><ele>11.6</ele></trkpt>
    <trkpt lat="48.364057" lon="-4.767172"><ele>11.2</ele></trkpt>
    <trkpt lat="48.364301" lon="-4.765777"><ele>14.6</ele></trkpt>
    <trkpt lat="48.364315" lon="-4.765455"><ele>13.8</ele></trkpt>
    <trkpt lat="48.364249" lon="-4.765361"><ele>13.2</ele></trkpt>
    <trkpt lat="48.363794" lon="-4.765340"><ele>9.0</ele></trkpt>
    <trkpt lat="48.363674" lon="-4.765511"><ele>8.0</ele></trkpt>
    <trkpt lat="48.363647" lon="-4.765916"><ele>6.8</ele></trkpt>
    <trkpt lat="48.363605" lon="-4.766024"><ele>6.2</ele></trkpt>
    <trkpt lat="48.363154" lon="-4.766269"><ele>3.4</ele></trkpt>
    <trkpt lat="48.362933" lon="-4.766435"><ele>3.4</ele></trkpt>
    <trkpt lat="48.362140" lon="-4.766856"><ele>2.6</ele></trkpt>
    <trkpt lat="48.361743" lon="-4.767132"><ele>3.4</ele></trkpt>
    <trkpt lat="48.361851" lon="-4.767743"><ele>6.6</ele></trkpt>
    <trkpt lat="48.362003" lon="-4.768208"><ele>6.0</ele></trkpt>
    <trkpt lat="48.362030" lon="-4.768404"><ele>6.0</ele></trkpt>
    <trkpt lat="48.361691" lon="-4.769972"><ele>8.2</ele></trkpt>
    <trkpt lat="48.361673" lon="-4.770291"><ele>8.2</ele></trkpt>
    <trkpt lat="48.361713" lon="-4.771214"><ele>7.0</ele></trkpt>
    <trkpt lat="48.361569" lon="-4.772533"><ele>7.2</ele></trkpt>
    <trkpt lat="48.361441" lon="-4.773071"><ele>8.2</ele></trkpt>
    <trkpt lat="48.361225" lon="-4.773513"><ele>8.2</ele></trkpt>
    <trkpt lat="48.361189" lon="-4.773663"><ele>8.4</ele></trkpt>
    <trkpt lat="48.361182" lon="-4.774214"><ele>9.2</ele></trkpt>
    <trkpt lat="48.361272" lon="-4.774806"><ele>10.2</ele></trkpt>
    <trkpt lat="48.361242" lon="-4.775129"><ele>10.8</ele></trkpt>
    <trkpt lat="48.361109" lon="-4.775595"><ele>11.6</ele></trkpt>
    <trkpt lat="48.361086" lon="-4.776018"><ele>10.4</ele></trkpt>
    <trkpt lat="48.360978" lon="-4.776337"><ele>9.0</ele></trkpt>
    <trkpt lat="48.360952" lon="-4.776803"><ele>7.6</ele></trkpt>
    <trkpt lat="48.360761" lon="-4.777242"><ele>6.2</ele></trkpt>
    <trkpt lat="48.360536" lon="-4.777416"><ele>7.4</ele></trkpt>
    <trkpt lat="48.360319" lon="-4.777653"><ele>8.4</ele></trkpt>
    <trkpt lat="48.360077" lon="-4.778088"><ele>7.8</ele></trkpt>
    <trkpt lat="48.359644" lon="-4.779049"><ele>7.6</ele></trkpt>
    <trkpt lat="48.359306" lon="-4.779439"><ele>8.6</ele></trkpt>
    <trkpt lat="48.359191" lon="-4.779672"><ele>9.4</ele></trkpt>
    <trkpt lat="48.359063" lon="-4.780209"><ele>9.4</ele></trkpt>
    <trkpt lat="48.359025" lon="-4.780144"><ele>9.8</ele></trkpt>
    <trkpt lat="48.359011" lon="-4.780001"><ele>10.8</ele></trkpt>
    <trkpt lat="48.359082" lon="-4.779535"><ele>15.0</ele></trkpt>
    <trkpt lat="48.359058" lon="-4.779211"><ele>17.0</ele></trkpt>
    <trkpt lat="48.358910" lon="-4.779646"><ele>15.8</ele></trkpt>
    <trkpt lat="48.358798" lon="-4.779793"><ele>16.4</ele></trkpt>
    <trkpt lat="48.358727" lon="-4.779823"><ele>16.8</ele></trkpt>
    <trkpt lat="48.358399" lon="-4.779663"><ele>18.8</ele></trkpt>
    <trkpt lat="48.358162" lon="-4.779436"><ele>18.6</ele></trkpt>
    <trkpt lat="48.357820" lon="-4.779242"><ele>16.0</ele></trkpt>
    <trkpt lat="48.357692" lon="-4.779109"><ele>14.8</ele></trkpt>
    <trkpt lat="48.357255" lon="-4.778430"><ele>12.2</ele></trkpt>
    <trkpt lat="48.356914" lon="-4.777990"><ele>11.8</ele></trkpt>
    <trkpt lat="48.356869" lon="-4.777863"><ele>11.8</ele></trkpt>
    <trkpt lat="48.356831" lon="-4.777423"><ele>13.2</ele></trkpt>
    <trkpt lat="48.356703" lon="-4.777475"><ele>14.4</ele></trkpt>
    <trkpt lat="48.356599" lon="-4.777772"><ele>13.6</ele></trkpt>
    <trkpt lat="48.356493" lon="-4.777939"><ele>12.4</ele></trkpt>
    <trkpt lat="48.356046" lon="-4.778146"><ele>13.4</ele></trkpt>
    <trkpt lat="48.355349" lon="-4.778629"><ele>21.6</ele></trkpt>
    <trkpt lat="48.355173" lon="-4.778796"><ele>23.8</ele></trkpt>
    <trkpt lat="48.354916" lon="-4.779131"><ele>27.0</ele></trkpt>
    <trkpt lat="48.354216" lon="-4.779781"><ele>33.0</ele></trkpt>
    <trkpt lat="48.353774" lon="-4.779623"><ele>30.8</ele></trkpt>
    <trkpt lat="48.353563" lon="-4.779306"><ele>29.0</ele></trkpt>
    <trkpt lat="48.353417" lon="-4.778659"><ele>29.8</ele></trkpt>
    <trkpt lat="48.353319" lon="-4.778440"><ele>31.0</ele></trkpt>
    <trkpt lat="48.352849" lon="-4.777820"><ele>33.6</ele></trkpt>
    <trkpt lat="48.352297" lon="-4.777427"><ele>33.0</ele></trkpt>
    <trkpt lat="48.352201" lon="-4.777269"><ele>31.6</ele></trkpt>
    <trkpt lat="48.352188" lon="-4.776887"><ele>29.6</ele></trkpt>
    <trkpt lat="48.352230" lon="-4.776587"><ele>27.2</ele></trkpt>
    <trkpt lat="48.352020" lon="-4.776294"><ele>23.2</ele></trkpt>
    <trkpt lat="48.351971" lon="-4.776106"><ele>21.6</ele></trkpt>
    <trkpt lat="48.351987" lon="-4.775926"><ele>20.4</ele></trkpt>
    <trkpt lat="48.352122" lon="-4.775614"><ele>18.6</ele></trkpt>
    <trkpt lat="48.352066" lon="-4.775152"><ele>16.0</ele></trkpt>
    <trkpt lat="48.352113" lon="-4.774911"><ele>14.6</ele></trkpt>
    <trkpt lat="48.352060" lon="-4.774810"><ele>13.4</ele></trkpt>
    <trkpt lat="48.351980" lon="-4.774743"><ele>13.4</ele></trkpt>
    <trkpt lat="48.351838" lon="-4.774789"><ele>13.6</ele></trkpt>
    <trkpt lat="48.351689" lon="-4.774704"><ele>13.2</ele></trkpt>
    <trkpt lat="48.351537" lon="-4.774717"><ele>12.8</ele></trkpt>
    <trkpt lat="48.351427" lon="-4.774614"><ele>13.4</ele></trkpt>
    <trkpt lat="48.351325" lon="-4.774585"><ele>14.8</ele></trkpt>
    <trkpt lat="48.351323" lon="-4.774460"><ele>16.8</ele></trkpt>
    <trkpt lat="48.351274" lon="-4.774375"><ele>18.0</ele></trkpt>
    <trkpt lat="48.350964" lon="-4.774155"><ele>20.2</ele></trkpt>
    <trkpt lat="48.350841" lon="-4.774165"><ele>20.0</ele></trkpt>
    <trkpt lat="48.350641" lon="-4.774332"><ele>18.2</ele></trkpt>
    <trkpt lat="48.350494" lon="-4.774262"><ele>17.2</ele></trkpt>
    <trkpt lat="48.350437" lon="-4.774150"><ele>17.2</ele></trkpt>
    <trkpt lat="48.350394" lon="-4.773869"><ele>18.4</ele></trkpt>
    <trkpt lat="48.350303" lon="-4.773624"><ele>19.8</ele></trkpt>
    <trkpt lat="48.349605" lon="-4.772908"><ele>20.2</ele></trkpt>
    <trkpt lat="48.349490" lon="-4.772690"><ele>20.2</ele></trkpt>
    <trkpt lat="48.349181" lon="-4.772274"><ele>20.2</ele></trkpt>
    <trkpt lat="48.349097" lon="-4.771960"><ele>18.8</ele></trkpt>
    <trkpt lat="48.348828" lon="-4.771288"><ele>14.6</ele></trkpt>
    <trkpt lat="48.348794" lon="-4.771095"><ele>14.8</ele></trkpt>
    <trkpt lat="48.348628" lon="-4.771052"><ele>16.2</ele></trkpt>
    <trkpt lat="48.348471" lon="-4.770897"><ele>18.0</ele></trkpt>
    <trkpt lat="48.348311" lon="-4.770843"><ele>18.0</ele></trkpt>
    <trkpt lat="48.347985" lon="-4.770278"><ele>13.6</ele></trkpt>
    <trkpt lat="48.347860" lon="-4.769965"><ele>11.8</ele></trkpt>
    <trkpt lat="48.347715" lon="-4.769795"><ele>10.6</ele></trkpt>
    <trkpt lat="48.346840" lon="-4.769894"><ele>13.2</ele></trkpt>
    <trkpt lat="48.346671" lon="-4.769862"><ele>14.2</ele></trkpt>
    <trkpt lat="48.346353" lon="-4.770037"><ele>16.6</ele></trkpt>
    <trkpt lat="48.346226" lon="-4.770129"><ele>16.4</ele></trkpt>
    <trkpt lat="48.345907" lon="-4.770523"><ele>14.4</ele></trkpt>
    <trkpt lat="48.344840" lon="-4.771156"><ele>15.0</ele></trkpt>
    <trkpt lat="48.344717" lon="-4.771308"><ele>14.8</ele></trkpt>
    <trkpt lat="48.344482" lon="-4.771460"><ele>14.2</ele></trkpt>
    <trkpt lat="48.344215" lon="-4.771753"><ele>12.8</ele></trkpt>
    <trkpt lat="48.344051" lon="-4.771867"><ele>12.4</ele></trkpt>
    <trkpt lat="48.343936" lon="-4.771880"><ele>12.6</ele></trkpt>
    <trkpt lat="48.343593" lon="-4.771748"><ele>13.2</ele></trkpt>
    <trkpt lat="48.343464" lon="-4.771584"><ele>13.6</ele></trkpt>
    <trkpt lat="48.343372" lon="-4.771368"><ele>14.0</ele></trkpt>
    <trkpt lat="48.343201" lon="-4.771164"><ele>13.0</ele></trkpt>
    <trkpt lat="48.343160" lon="-4.771053"><ele>13.2</ele></trkpt>
    <trkpt lat="48.342964" lon="-4.770985"><ele>13.6</ele></trkpt>
    <trkpt lat="48.342765" lon="-4.771074"><ele>14.0</ele></trkpt>
    <trkpt lat="48.342515" lon="-4.771560"><ele>15.2</ele></trkpt>
    <trkpt lat="48.342442" lon="-4.771638"><ele>15.2</ele></trkpt>
    <trkpt lat="48.342103" lon="-4.771644"><ele>15.4</ele></trkpt>
    <trkpt lat="48.341931" lon="-4.771752"><ele>16.0</ele></trkpt>
    <trkpt lat="48.341750" lon="-4.771772"><ele>17.0</ele></trkpt>
    <trkpt lat="48.340914" lon="-4.772050"><ele>18.2</ele></trkpt>
    <trkpt lat="48.340813" lon="-4.772161"><ele>17.2</ele></trkpt>
    <trkpt lat="48.340621" lon="-4.772573"><ele>14.8</ele></trkpt>
    <trkpt lat="48.340505" lon="-4.772723"><ele>14.2</ele></trkpt>
    <trkpt lat="48.340161" lon="-4.772589"><ele>14.6</ele></trkpt>
    <trkpt lat="48.339908" lon="-4.772601"><ele>15.2</ele></trkpt>
    <trkpt lat="48.339754" lon="-4.772405"><ele>16.6</ele></trkpt>
    <trkpt lat="48.339684" lon="-4.772395"><ele>17.0</ele></trkpt>
    <trkpt lat="48.339614" lon="-4.772513"><ele>17.4</ele></trkpt>
    <trkpt lat="48.339598" lon="-4.772801"><ele>17.4</ele></trkpt>
    <trkpt lat="48.339494" lon="-4.773021"><ele>17.8</ele></trkpt>
    <trkpt lat="48.339431" lon="-4.773042"><ele>18.0</ele></trkpt>
    <trkpt lat="48.339307" lon="-4.772979"><ele>18.8</ele></trkpt>
    <trkpt lat="48.339092" lon="-4.773321"><ele>18.2</ele></trkpt>
    <trkpt lat="48.338766" lon="-4.773536"><ele>17.0</ele></trkpt>
    <trkpt lat="48.338657" lon="-4.773852"><ele>16.0</ele></trkpt>
    <trkpt lat="48.338517" lon="-4.774008"><ele>15.6</ele></trkpt>
    <trkpt lat="48.338280" lon="-4.774107"><ele>15.8</ele></trkpt>
    <trkpt lat="48.338065" lon="-4.774291"><ele>16.2</ele></trkpt>
    <trkpt lat="48.337802" lon="-4.774376"><ele>16.0</ele></trkpt>
    <trkpt lat="48.337708" lon="-4.774345"><ele>16.6</ele></trkpt>
    <trkpt lat="48.337583" lon="-4.774137"><ele>19.4</ele></trkpt>
    <trkpt lat="48.337365" lon="-4.774160"><ele>21.4</ele></trkpt>
    <trkpt lat="48.337173" lon="-4.774286"><ele>21.0</ele></trkpt>
    <trkpt lat="48.336932" lon="-4.774618"><ele>19.0</ele></trkpt>
    <trkpt lat="48.336524" lon="-4.774938"><ele>14.4</ele></trkpt>
    <trkpt lat="48.336416" lon="-4.774924"><ele>14.2</ele></trkpt>
    <trkpt lat="48.336333" lon="-4.774838"><ele>14.4</ele></trkpt>
    <trkpt lat="48.336310" lon="-4.774359"><ele>16.0</ele></trkpt>
    <trkpt lat="48.336259" lon="-4.774218"><ele>16.2</ele></trkpt>
    <trkpt lat="48.336192" lon="-4.774177"><ele>16.2</ele></trkpt>
    <trkpt lat="48.336011" lon="-4.774219"><ele>15.0</ele></trkpt>
    <trkpt lat="48.335974" lon="-4.774179"><ele>14.6</ele></trkpt>
    <trkpt lat="48.335989" lon="-4.773729"><ele>15.0</ele></trkpt>
    <trkpt lat="48.335812" lon="-4.773422"><ele>16.2</ele></trkpt>
    <trkpt lat="48.335683" lon="-4.773285"><ele>16.2</ele></trkpt>
    <trkpt lat="48.335662" lon="-4.772828"><ele>15.8</ele></trkpt>
    <trkpt lat="48.335684" lon="-4.772562"><ele>15.0</ele></trkpt>
    <trkpt lat="48.335585" lon="-4.772170"><ele>12.6</ele></trkpt>
    <trkpt lat="48.335567" lon="-4.771639"><ele>9.2</ele></trkpt>
    <trkpt lat="48.335507" lon="-4.771432"><ele>8.2</ele></trkpt>
    <trkpt lat="48.335384" lon="-4.771250"><ele>7.8</ele></trkpt>
    <trkpt lat="48.335138" lon="-4.771178"><ele>11.8</ele></trkpt>
    <trkpt lat="48.334985" lon="-4.771323"><ele>14.2</ele></trkpt>
    <trkpt lat="48.334781" lon="-4.771397"><ele>15.4</ele></trkpt>
    <trkpt lat="48.334602" lon="-4.771627"><ele>15.8</ele></trkpt>
    <trkpt lat="48.334514" lon="-4.771655"><ele>16.0</ele></trkpt>
    <trkpt lat="48.334355" lon="-4.771613"><ele>17.4</ele></trkpt>
    <trkpt lat="48.334115" lon="-4.771406"><ele>20.0</ele></trkpt>
    <trkpt lat="48.333772" lon="-4.771491"><ele>20.8</ele></trkpt>
    <trkpt lat="48.333506" lon="-4.771458"><ele>20.2</ele></trkpt>
    <trkpt lat="48.333259" lon="-4.771579"><ele>19.8</ele></trkpt>
    <trkpt lat="48.333049" lon="-4.771755"><ele>19.0</ele></trkpt>
    <trkpt lat="48.332699" lon="-4.771903"><ele>18.2</ele></trkpt>
    <trkpt lat="48.332599" lon="-4.772004"><ele>18.0</ele></trkpt>
    <trkpt lat="48.332424" lon="-4.772350"><ele>16.4</ele></trkpt>
    <trkpt lat="48.331942" lon="-4.772920"><ele>14.8</ele></trkpt>
    <trkpt lat="48.331848" lon="-4.773086"><ele>14.2</ele></trkpt>
    <trkpt lat="48.331831" lon="-4.773304"><ele>13.4</ele></trkpt>
    <trkpt lat="48.331792" lon="-4.773422"><ele>12.8</ele></trkpt>
    <trkpt lat="48.331730" lon="-4.773506"><ele>12.6</ele></trkpt>
    <trkpt lat="48.331648" lon="-4.773530"><ele>12.6</ele></trkpt>
    <trkpt lat="48.331351" lon="-4.773462"><ele>14.6</ele></trkpt>
    <trkpt lat="48.331106" lon="-4.773458"><ele>16.0</ele></trkpt>
    <trkpt lat="48.330915" lon="-4.773191"><ele>18.6</ele></trkpt>
    <trkpt lat="48.330875" lon="-4.773071"><ele>19.8</ele></trkpt>
    <trkpt lat="48.330870" lon="-4.773299"><ele>19.6</ele></trkpt>
    <trkpt lat="48.330814" lon="-4.773407"><ele>19.2</ele></trkpt>
    <trkpt lat="48.330736" lon="-4.773392"><ele>19.0</ele></trkpt>
    <trkpt lat="48.330577" lon="-4.773247"><ele>18.8</ele></trkpt>
    <trkpt lat="48.330337" lon="-4.772856"><ele>16.0</ele></trkpt>
    <trkpt lat="48.330285" lon="-4.772711"><ele>14.6</ele></trkpt>
    <trkpt lat="48.330422" lon="-4.772180"><ele>16.0</ele></trkpt>
    <trkpt lat="48.330387" lon="-4.772028"><ele>17.8</ele></trkpt>
    <trkpt lat="48.330237" lon="-4.771947"><ele>21.2</ele></trkpt>
    <trkpt lat="48.329980" lon="-4.772005"><ele>21.4</ele></trkpt>
    <trkpt lat="48.329844" lon="-4.771992"><ele>20.8</ele></trkpt>
    <trkpt lat="48.329620" lon="-4.771653"><ele>21.6</ele></trkpt>
    <trkpt lat="48.329607" lon="-4.771596"><ele>22.0</ele></trkpt>
    <trkpt lat="48.329655" lon="-4.771400"><ele>23.0</ele></trkpt>
    <trkpt lat="48.329682" lon="-4.771057"><ele>24.8</ele></trkpt>
    <trkpt lat="48.329668" lon="-4.770891"><ele>25.0</ele></trkpt>
    <trkpt lat="48.329595" lon="-4.770672"><ele>24.8</ele></trkpt>
    <trkpt lat="48.329614" lon="-4.770542"><ele>24.8</ele></trkpt>
    <trkpt lat="48.330075" lon="-4.770425"><ele>26.8</ele></trkpt>
    <trkpt lat="48.330132" lon="-4.770344"><ele>27.4</ele></trkpt>
    <trkpt lat="48.330057" lon="-4.770450"><ele>27.4</ele></trkpt>
    <trkpt lat="48.330066" lon="-4.770547"><ele>27.2</ele></trkpt>
    <trkpt lat="48.330380" lon="-4.770681"><ele>26.2</ele></trkpt>
  </trkseg></trk>
</gpx>
