<?xml version="1.0" encoding="UTF-8"?>
<gpx version="1.1" creator="tcap-parcours" xmlns="http://www.topografix.com/GPX/1/1">
  <metadata><name>Seuil à Déolen – Créac'h – 1 bloc de ~9'</name></metadata>
  <trk><name>Seuil à Déolen – Créac'h – 1 bloc de ~9'</name><trkseg>
    <trkpt lat="48.370084" lon="-4.640313"><ele>60.6</ele></trkpt>
    <trkpt lat="48.370058" lon="-4.640181"><ele>60.8</ele></trkpt>
    <trkpt lat="48.370089" lon="-4.640127"><ele>60.8</ele></trkpt>
    <trkpt lat="48.370363" lon="-4.640145"><ele>60.2</ele></trkpt>
    <trkpt lat="48.370678" lon="-4.640090"><ele>59.4</ele></trkpt>
    <trkpt lat="48.371545" lon="-4.640619"><ele>56.8</ele></trkpt>
    <trkpt lat="48.372554" lon="-4.640626"><ele>54.4</ele></trkpt>
    <trkpt lat="48.372630" lon="-4.640557"><ele>54.4</ele></trkpt>
    <trkpt lat="48.372797" lon="-4.640170"><ele>53.8</ele></trkpt>
    <trkpt lat="48.372927" lon="-4.639962"><ele>53.2</ele></trkpt>
    <trkpt lat="48.372989" lon="-4.639900"><ele>52.8</ele></trkpt>
    <trkpt lat="48.373153" lon="-4.639866"><ele>51.8</ele></trkpt>
    <trkpt lat="48.373187" lon="-4.639651"><ele>51.0</ele></trkpt>
    <trkpt lat="48.373282" lon="-4.639525"><ele>50.4</ele></trkpt>
    <trkpt lat="48.373469" lon="-4.639585"><ele>50.0</ele></trkpt>
    <trkpt lat="48.374384" lon="-4.640075"><ele>50.0</ele></trkpt>
    <trkpt lat="48.374489" lon="-4.640092"><ele>49.8</ele></trkpt>
    <trkpt lat="48.374568" lon="-4.640033"><ele>49.6</ele></trkpt>
    <trkpt lat="48.374839" lon="-4.639603"><ele>48.8</ele></trkpt>
    <trkpt lat="48.375272" lon="-4.639097"><ele>49.0</ele></trkpt>
    <trkpt lat="48.375692" lon="-4.638377"><ele>49.0</ele></trkpt>
    <trkpt lat="48.375691" lon="-4.638253"><ele>49.6</ele></trkpt>
    <trkpt lat="48.375615" lon="-4.638137"><ele>49.8</ele></trkpt>
    <trkpt lat="48.375213" lon="-4.638016"><ele>49.4</ele></trkpt>
    <trkpt lat="48.375165" lon="-4.637919"><ele>49.0</ele></trkpt>
    <trkpt lat="48.375426" lon="-4.635902"><ele>48.8</ele></trkpt>
    <trkpt lat="48.375632" lon="-4.635055"><ele>49.6</ele></trkpt>
    <trkpt lat="48.375579" lon="-4.634785"><ele>49.8</ele></trkpt>
    <trkpt lat="48.376101" lon="-4.633592"><ele>50.4</ele></trkpt>
    <trkpt lat="48.376152" lon="-4.633355"><ele>50.2</ele></trkpt>
    <trkpt lat="48.376078" lon="-4.633318"><ele>50.2</ele></trkpt>
    <trkpt lat="48.375313" lon="-4.633321"><ele>51.0</ele></trkpt>
    <trkpt lat="48.374071" lon="-4.633470"><ele>53.2</ele></trkpt>
    <trkpt lat="48.373769" lon="-4.633551"><ele>52.8</ele></trkpt>
    <trkpt lat="48.372886" lon="-4.633962"><ele>52.8</ele></trkpt>
    <trkpt lat="48.371816" lon="-4.633984"><ele>54.2</ele></trkpt>
    <trkpt lat="48.371663" lon="-4.633916"><ele>54.6</ele></trkpt>
    <trkpt lat="48.371618" lon="-4.633812"><ele>54.6</ele></trkpt>
    <trkpt lat="48.371777" lon="-4.632940"><ele>56.2</ele></trkpt>
    <trkpt lat="48.371753" lon="-4.632780"><ele>56.8</ele></trkpt>
    <trkpt lat="48.371063" lon="-4.632542"><ele>56.0</ele></trkpt>
    <trkpt lat="48.370271" lon="-4.632154"><ele>58.2</ele></trkpt>
    <trkpt lat="48.370086" lon="-4.632122"><ele>58.8</ele></trkpt>
    <trkpt lat="48.369898" lon="-4.631933"><ele>59.2</ele></trkpt>
    <trkpt lat="48.369729" lon="-4.631678"><ele>59.0</ele></trkpt>
    <trkpt lat="48.369280" lon="-4.632433"><ele>60.8</ele></trkpt>
    <trkpt lat="48.369251" lon="-4.632539"><ele>60.8</ele></trkpt>
    <trkpt lat="48.368838" lon="-4.634678"><ele>62.8</ele></trkpt>
    <trkpt lat="48.368774" lon="-4.635297"><ele>63.0</ele></trkpt>
    <trkpt lat="48.368552" lon="-4.636492"><ele>65.2</ele></trkpt>
    <trkpt lat="48.368320" lon="-4.637529"><ele>66.8</ele></trkpt>
    <trkpt lat="48.368137" lon="-4.638167"><ele>68.6</ele></trkpt>
    <trkpt lat="48.367966" lon="-4.638644"><ele>69.4</ele></trkpt>
    <trkpt lat="48.367681" lon="-4.639121"><ele>70.4</ele></trkpt>
    <trkpt lat="48.367322" lon="-4.639844"><ele>70.2</ele></trkpt>
    <trkpt lat="48.357859" lon="-4.644204"><ele>77.8</ele></trkpt>
    <trkpt lat="48.357563" lon="-4.644709"><ele>79.4</ele></trkpt>
    <trkpt lat="48.356801" lon="-4.644369"><ele>79.6</ele></trkpt>
    <trkpt lat="48.356666" lon="-4.644013"><ele>79.6</ele></trkpt>
    <trkpt lat="48.356327" lon="-4.643293"><ele>79.4</ele></trkpt>
    <trkpt lat="48.356224" lon="-4.642817"><ele>79.6</ele></trkpt>
    <trkpt lat="48.356231" lon="-4.642320"><ele>79.4</ele></trkpt>
    <trkpt lat="48.356503" lon="-4.641486"><ele>79.8</ele></trkpt>
    <trkpt lat="48.356548" lon="-4.641194"><ele>79.4</ele></trkpt>
    <trkpt lat="48.356564" lon="-4.640755"><ele>78.0</ele></trkpt>
    <trkpt lat="48.356788" lon="-4.639657"><ele>76.2</ele></trkpt>
    <trkpt lat="48.356777" lon="-4.639539"><ele>76.0</ele></trkpt>
    <trkpt lat="48.356743" lon="-4.639479"><ele>76.0</ele></trkpt>
    <trkpt lat="48.356155" lon="-4.639072"><ele>76.2</ele></trkpt>
    <trkpt lat="48.356014" lon="-4.638913"><ele>76.2</ele></trkpt>
    <trkpt lat="48.356005" lon="-4.638805"><ele>76.0</ele></trkpt>
    <trkpt lat="48.356084" lon="-4.638491"><ele>75.2</ele></trkpt>
    <trkpt lat="48.356016" lon="-4.638175"><ele>74.2</ele></trkpt>
    <trkpt lat="48.356013" lon="-4.637663"><ele>72.8</ele></trkpt>
    <trkpt lat="48.355788" lon="-4.636527"><ele>70.0</ele></trkpt>
    <trkpt lat="48.355833" lon="-4.636267"><ele>70.0</ele></trkpt>
    <trkpt lat="48.355797" lon="-4.635414"><ele>70.0</ele></trkpt>
    <trkpt lat="48.355818" lon="-4.635157"><ele>69.2</ele></trkpt>
    <trkpt lat="48.356133" lon="-4.634065"><ele>70.6</ele></trkpt>
    <trkpt lat="48.356327" lon="-4.633206"><ele>72.8</ele></trkpt>
    <trkpt lat="48.356279" lon="-4.633127"><ele>72.6</ele></trkpt>
    <trkpt lat="48.356163" lon="-4.633106"><ele>72.0</ele></trkpt>
    <trkpt lat="48.355332" lon="-4.633141"><ele>67.4</ele></trkpt>
    <trkpt lat="48.355204" lon="-4.633244"><ele>66.4</ele></trkpt>
    <trkpt lat="48.355125" lon="-4.633378"><ele>65.6</ele></trkpt>
    <trkpt lat="48.354960" lon="-4.634157"><ele>61.0</ele></trkpt>
    <trkpt lat="48.354813" lon="-4.634464"><ele>59.0</ele></trkpt>
    <trkpt lat="48.354073" lon="-4.635192"><ele>56.4</ele></trkpt>
    <trkpt lat="48.353221" lon="-4.635918"><ele>53.4</ele></trkpt>
    <trkpt lat="48.353041" lon="-4.636185"><ele>51.4</ele></trkpt>
    <trkpt lat="48.352603" lon="-4.637062"><ele>49.2</ele></trkpt>
    <trkpt lat="48.351873" lon="-4.638372"><ele>48.8</ele></trkpt>
    <trkpt lat="48.351600" lon="-4.638749"><ele>48.2</ele></trkpt>
    <trkpt lat="48.351126" lon="-4.639080"><ele>45.8</ele></trkpt>
    <trkpt lat="48.350389" lon="-4.639446"><ele>40.0</ele></trkpt>
    <trkpt lat="48.350352" lon="-4.639406"><ele>39.0</ele></trkpt>
    <trkpt lat="48.350380" lon="-4.639302"><ele>38.0</ele></trkpt>
    <trkpt lat="48.350729" lon="-4.638920"><ele>33.0</ele></trkpt>
    <trkpt lat="48.350775" lon="-4.638826"><ele>32.2</ele></trkpt>
    <trkpt lat="48.350791" lon="-4.638686"><ele>31.4</ele></trkpt>
    <trkpt lat="48.350751" lon="-4.638521"><ele>30.8</ele></trkpt>
    <trkpt lat="48.350633" lon="-4.638324"><ele>30.6</ele></trkpt>
    <trkpt lat="48.350281" lon="-4.638048"><ele>33.8</ele></trkpt>
    <trkpt lat="48.349839" lon="-4.638027"><ele>37.0</ele></trkpt>
    <trkpt lat="48.349519" lon="-4.638255"><ele>35.8</ele></trkpt>
    <trkpt lat="48.348877" lon="-4.638500"><ele>33.4</ele></trkpt>
    <trkpt lat="48.348471" lon="-4.638581"><ele>31.4</ele></trkpt>
    <trkpt lat="48.348289" lon="-4.638665"><ele>30.6</ele></trkpt>
    <trkpt lat="48.347983" lon="-4.638874"><ele>28.2</ele></trkpt>
    <trkpt lat="48.347471" lon="-4.639600"><ele>17.0</ele></trkpt>
    <trkpt lat="48.347463" lon="-4.639652"><ele>16.2</ele></trkpt>
    <trkpt lat="48.347496" lon="-4.639676"><ele>15.6</ele></trkpt>
    <trkpt lat="48.347647" lon="-4.639666"><ele>13.6</ele></trkpt>
    <trkpt lat="48.347666" lon="-4.639790"><ele>12.4</ele></trkpt>
    <trkpt lat="48.347452" lon="-4.639966"><ele>11.8</ele></trkpt>
    <trkpt lat="48.347311" lon="-4.640246"><ele>12.6</ele></trkpt>
    <trkpt lat="48.347125" lon="-4.640389"><ele>14.0</ele></trkpt>
    <trkpt lat="48.346833" lon="-4.640484"><ele>12.2</ele></trkpt>
    <trkpt lat="48.346411" lon="-4.640847"><ele>14.6</ele></trkpt>
    <trkpt lat="48.346063" lon="-4.641231"><ele>17.4</ele></trkpt>
    <trkpt lat="48.345634" lon="-4.641913"><ele>21.6</ele></trkpt>
    <trkpt lat="48.345535" lon="-4.642293"><ele>25.2</ele></trkpt>
    <trkpt lat="48.345529" lon="-4.642691"><ele>29.6</ele></trkpt>
    <trkpt lat="48.345544" lon="-4.642753"><ele>30.6</ele></trkpt>
    <trkpt lat="48.345599" lon="-4.642783"><ele>32.0</ele></trkpt>
    <trkpt lat="48.345798" lon="-4.642703"><ele>36.6</ele></trkpt>
    <trkpt lat="48.345849" lon="-4.642721"><ele>37.8</ele></trkpt>
    <trkpt lat="48.346207" lon="-4.643221"><ele>46.2</ele></trkpt>
    <trkpt lat="48.346267" lon="-4.643098"><ele>45.8</ele></trkpt>
    <trkpt lat="48.346353" lon="-4.642491"><ele>45.4</ele></trkpt>
    <trkpt lat="48.346467" lon="-4.642002"><ele>42.6</ele></trkpt>
    <trkpt lat="48.346627" lon="-4.641774"><ele>41.6</ele></trkpt>
    <trkpt lat="48.346918" lon="-4.641585"><ele>43.4</ele></trkpt>
    <trkpt lat="48.347614" lon="-4.641302"><ele>48.0</ele></trkpt>
    <trkpt lat="48.348134" lon="-4.640925"><ele>48.8</ele></trkpt>
    <trkpt lat="48.348681" lon="-4.640976"><ele>50.0</ele></trkpt>
    <trkpt lat="48.348752" lon="-4.640922"><ele>50.2</ele></trkpt>
    <trkpt lat="48.348933" lon="-4.640654"><ele>50.4</ele></trkpt>
    <trkpt lat="48.349195" lon="-4.640617"><ele>50.4</ele></trkpt>
    <trkpt lat="48.349314" lon="-4.640547"><ele>49.8</ele></trkpt>
    <trkpt lat="48.349799" lon="-4.639981"><ele>44.6</ele></trkpt>
    <trkpt lat="48.350331" lon="-4.639469"><ele>41.6</ele></trkpt>
    <trkpt lat="48.350459" lon="-4.639215"><ele>38.4</ele></trkpt>
    <trkpt lat="48.350716" lon="-4.638872"><ele>31.6</ele></trkpt>
    <trkpt lat="48.350735" lon="-4.638715"><ele>30.2</ele></trkpt>
    <trkpt lat="48.350713" lon="-4.638553"><ele>29.6</ele></trkpt>
    <trkpt lat="48.350605" lon="-4.638308"><ele>30.2</ele></trkpt>
    <trkpt lat="48.350336" lon="-4.638060"><ele>34.6</ele></trkpt>
    <trkpt lat="48.350084" lon="-4.637983"><ele>36.4</ele></trkpt>
    <trkpt lat="48.349860" lon="-4.638010"><ele>37.0</ele></trkpt>
    <trkpt lat="48.349628" lon="-4.638203"><ele>35.6</ele></trkpt>
    <trkpt lat="48.348975" lon="-4.638483"><ele>34.6</ele></trkpt>
    <trkpt lat="48.348493" lon="-4.638600"><ele>31.2</ele></trkpt>
    <trkpt lat="48.347999" lon="-4.638927"><ele>28.0</ele></trkpt>
    <trkpt lat="48.347470" lon="-4.639616"><ele>15.6</ele></trkpt>
    <trkpt lat="48.347485" lon="-4.639654"><ele>15.0</ele></trkpt>
    <trkpt lat="48.347647" lon="-4.639631"><ele>14.0</ele></trkpt>
    <trkpt lat="48.347672" lon="-4.639768"><ele>13.2</ele></trkpt>
    <trkpt lat="48.347510" lon="-4.639945"><ele>11.4</ele></trkpt>
    <trkpt lat="48.347325" lon="-4.640242"><ele>11.8</ele></trkpt>
    <trkpt lat="48.347150" lon="-4.640418"><ele>12.4</ele></trkpt>
    <trkpt lat="48.346846" lon="-4.640492"><ele>11.4</ele></trkpt>
    <trkpt lat="48.346463" lon="-4.640795"><ele>14.0</ele></trkpt>
    <trkpt lat="48.346123" lon="-4.641157"><ele>16.8</ele></trkpt>
    <trkpt lat="48.345905" lon="-4.641467"><ele>18.8</ele></trkpt>
    <trkpt lat="48.345684" lon="-4.641827"><ele>21.2</ele></trkpt>
    <trkpt lat="48.345566" lon="-4.642129"><ele>23.4</ele></trkpt>
    <trkpt lat="48.345530" lon="-4.642474"><ele>26.6</ele></trkpt>
    <trkpt lat="48.345543" lon="-4.642736"><ele>30.8</ele></trkpt>
    <trkpt lat="48.345622" lon="-4.642789"><ele>33.0</ele></trkpt>
    <trkpt lat="48.345834" lon="-4.642738"><ele>37.4</ele></trkpt>
    <trkpt lat="48.346224" lon="-4.643243"><ele>44.8</ele></trkpt>
    <trkpt lat="48.346283" lon="-4.643087"><ele>46.2</ele></trkpt>
    <trkpt lat="48.346393" lon="-4.642363"><ele>45.0</ele></trkpt>
    <trkpt lat="48.346481" lon="-4.642012"><ele>43.2</ele></trkpt>
    <trkpt lat="48.346539" lon="-4.641868"><ele>42.8</ele></trkpt>
    <trkpt lat="48.346643" lon="-4.641747"><ele>42.4</ele></trkpt>
    <trkpt lat="48.346814" lon="-4.641636"><ele>42.4</ele></trkpt>
    <trkpt lat="48.347240" lon="-4.641486"><ele>45.0</ele></trkpt>
    <trkpt lat="48.347789" lon="-4.641198"><ele>47.6</ele></trkpt>
    <trkpt lat="48.348183" lon="-4.640907"><ele>47.8</ele></trkpt>
    <trkpt lat="48.348697" lon="-4.640906"><ele>49.0</ele></trkpt>
    <trkpt lat="48.348975" lon="-4.640632"><ele>49.6</ele></trkpt>
    <trkpt lat="48.349134" lon="-4.640626"><ele>49.8</ele></trkpt>
    <trkpt lat="48.349219" lon="-4.640680"><ele>50.2</ele></trkpt>
    <trkpt lat="48.349273" lon="-4.640658"><ele>50.2</ele></trkpt>
    <trkpt lat="48.349467" lon="-4.640347"><ele>48.4</ele></trkpt>
    <trkpt lat="48.349947" lon="-4.639826"><ele>43.4</ele></trkpt>
    <trkpt lat="48.350325" lon="-4.639503"><ele>41.0</ele></trkpt>
    <trkpt lat="48.350445" lon="-4.639247"><ele>38.2</ele></trkpt>
    <trkpt lat="48.350702" lon="-4.638956"><ele>34.0</ele></trkpt>
    <trkpt lat="48.350751" lon="-4.638807"><ele>32.6</ele></trkpt>
    <trkpt lat="48.350734" lon="-4.638600"><ele>31.4</ele></trkpt>
    <trkpt lat="48.350675" lon="-4.638428"><ele>31.0</ele></trkpt>
    <trkpt lat="48.350546" lon="-4.638228"><ele>31.4</ele></trkpt>
    <trkpt lat="48.350375" lon="-4.638086"><ele>33.8</ele></trkpt>
    <trkpt lat="48.350216" lon="-4.638029"><ele>35.6</ele></trkpt>
    <trkpt lat="48.349860" lon="-4.638013"><ele>37.0</ele></trkpt>
    <trkpt lat="48.349563" lon="-4.638246"><ele>35.6</ele></trkpt>
    <trkpt lat="48.348467" lon="-4.638647"><ele>30.4</ele></trkpt>
    <trkpt lat="48.347995" lon="-4.638929"><ele>27.6</ele></trkpt>
    <trkpt lat="48.347450" lon="-4.639601"><ele>15.2</ele></trkpt>
    <trkpt lat="48.347488" lon="-4.639662"><ele>14.6</ele></trkpt>
    <trkpt lat="48.347632" lon="-4.639623"><ele>14.0</ele></trkpt>
    <trkpt lat="48.347663" lon="-4.639760"><ele>13.0</ele></trkpt>
    <trkpt lat="48.347469" lon="-4.639957"><ele>11.0</ele></trkpt>
    <trkpt lat="48.347304" lon="-4.640268"><ele>12.6</ele></trkpt>
    <trkpt lat="48.347141" lon="-4.640408"><ele>12.6</ele></trkpt>
    <trkpt lat="48.346831" lon="-4.640521"><ele>11.4</ele></trkpt>
    <trkpt lat="48.346371" lon="-4.640907"><ele>15.4</ele></trkpt>
    <trkpt lat="48.346082" lon="-4.641236"><ele>17.6</ele></trkpt>
    <trkpt lat="48.345647" lon="-4.641892"><ele>21.2</ele></trkpt>
    <trkpt lat="48.345556" lon="-4.642221"><ele>24.2</ele></trkpt>
    <trkpt lat="48.345547" lon="-4.642766"><ele>30.6</ele></trkpt>
    <trkpt lat="48.345636" lon="-4.642806"><ele>32.6</ele></trkpt>
    <trkpt lat="48.345832" lon="-4.642746"><ele>36.6</ele></trkpt>
    <trkpt lat="48.345976" lon="-4.642885"><ele>40.4</ele></trkpt>
    <trkpt lat="48.346263" lon="-4.643289"><ele>46.6</ele></trkpt>
    <trkpt lat="48.346267" lon="-4.644135"><ele>50.4</ele></trkpt>
    <trkpt lat="48.346336" lon="-4.644768"><ele>54.8</ele></trkpt>
    <trkpt lat="48.346376" lon="-4.645572"><ele>56.8</ele></trkpt>
    <trkpt lat="48.346425" lon="-4.645693"><ele>57.4</ele></trkpt>
    <trkpt lat="48.346505" lon="-4.645701"><ele>58.0</ele></trkpt>
    <trkpt lat="48.346840" lon="-4.645519"><ele>60.0</ele></trkpt>
    <trkpt lat="48.347470" lon="-4.645307"><ele>62.0</ele></trkpt>
    <trkpt lat="48.347652" lon="-4.645208"><ele>62.4</ele></trkpt>
    <trkpt lat="48.348402" lon="-4.644609"><ele>64.6</ele></trkpt>
    <trkpt lat="48.349711" lon="-4.643346"><ele>66.6</ele></trkpt>
    <trkpt lat="48.349786" lon="-4.643367"><ele>66.8</ele></trkpt>
    <trkpt lat="48.349842" lon="-4.643470"><ele>67.2</ele></trkpt>
    <trkpt lat="48.350086" lon="-4.644541"><ele>71.8</ele></trkpt>
    <trkpt lat="48.350311" lon="-4.645024"><ele>73.4</ele></trkpt>
    <trkpt lat="48.350588" lon="-4.645285"><ele>74.4</ele></trkpt>
    <trkpt lat="48.351298" lon="-4.645688"><ele>74.2</ele></trkpt>
    <trkpt lat="48.351443" lon="-4.645751"><ele>74.6</ele></trkpt>
    <trkpt lat="48.351531" lon="-4.645742"><ele>75.0</ele></trkpt>
    <trkpt lat="48.352242" lon="-4.645287"><ele>76.2</ele></trkpt>
    <trkpt lat="48.352438" lon="-4.645253"><ele>75.8</ele></trkpt>
    <trkpt lat="48.352753" lon="-4.645270"><ele>74.8</ele></trkpt>
    <trkpt lat="48.353230" lon="-4.645338"><ele>74.4</ele></trkpt>
    <trkpt lat="48.354206" lon="-4.645872"><ele>74.4</ele></trkpt>
    <trkpt lat="48.354518" lon="-4.645947"><ele>74.8</ele></trkpt>
    <trkpt lat="48.354676" lon="-4.645901"><ele>75.2</ele></trkpt>
    <trkpt lat="48.355923" lon="-4.645240"><ele>81.2</ele></trkpt>
    <trkpt lat="48.356505" lon="-4.644615"><ele>81.4</ele></trkpt>
    <trkpt lat="48.356671" lon="-4.644492"><ele>81.0</ele></trkpt>
    <trkpt lat="48.356947" lon="-4.644467"><ele>80.2</ele></trkpt>
    <trkpt lat="48.357421" lon="-4.644603"><ele>79.8</ele></trkpt>
    <trkpt lat="48.357695" lon="-4.644570"><ele>79.2</ele></trkpt>
    <trkpt lat="48.358107" lon="-4.643786"><ele>77.0</ele></trkpt>
    <trkpt lat="48.358491" lon="-4.643368"><ele>75.2</ele></trkpt>
    <trkpt lat="48.358667" lon="-4.643295"><ele>74.0</ele></trkpt>
    <trkpt lat="48.358944" lon="-4.643340"><ele>73.4</ele></trkpt>
    <trkpt lat="48.359152" lon="-4.643092"><ele>73.8</ele></trkpt>
    <trkpt lat="48.359274" lon="-4.643012"><ele>74.0</ele></trkpt>
    <trkpt lat="48.359473" lon="-4.642936"><ele>73.8</ele></trkpt>
    <trkpt lat="48.359816" lon="-4.642892"><ele>72.8</ele></trkpt>
    <trkpt lat="48.360286" lon="-4.642547"><ele>72.6</ele></trkpt>
    <trkpt lat="48.360867" lon="-4.641750"><ele>73.4</ele></trkpt>
    <trkpt lat="48.361164" lon="-4.641556"><ele>74.0</ele></trkpt>
    <trkpt lat="48.361419" lon="-4.641470"><ele>73.6</ele></trkpt>
    <trkpt lat="48.362481" lon="-4.641265"><ele>69.8</ele></trkpt>
    <trkpt lat="48.362889" lon="-4.641231"><ele>68.4</ele></trkpt>
    <trkpt lat="48.364805" lon="-4.641503"><ele>66.0</ele></trkpt>
    <trkpt lat="48.365039" lon="-4.641617"><ele>65.8</ele></trkpt>
    <trkpt lat="48.365636" lon="-4.642046"><ele>68.4</ele></trkpt>
    <trkpt lat="48.365990" lon="-4.642128"><ele>68.0</ele></trkpt>
    <trkpt lat="48.366210" lon="-4.642325"><ele>67.4</ele></trkpt>
    <trkpt lat="48.366398" lon="-4.642300"><ele>67.8</ele></trkpt>
    <trkpt lat="48.366630" lon="-4.642341"><ele>68.2</ele></trkpt>
    <trkpt lat="48.368109" lon="-4.642902"><ele>67.6</ele></trkpt>
    <trkpt lat="48.368533" lon="-4.642937"><ele>65.6</ele></trkpt>
    <trkpt lat="48.369073" lon="-4.642935"><ele>62.8</ele></trkpt>
    <trkpt lat="48.369341" lon="-4.642822"><ele>61.8</ele></trkpt>
    <trkpt lat="48.369625" lon="-4.642774"><ele>61.4</ele></trkpt>
    <trkpt lat="48.369674" lon="-4.642708"><ele>61.4</ele></trkpt>
    <trkpt lat="48.369717" lon="-4.642552"><ele>61.6</ele></trkpt>
    <trkpt lat="48.369687" lon="-4.642094"><ele>62.2</ele></trkpt>
    <trkpt lat="48.369713" lon="-4.641889"><ele>62.4</ele></trkpt>
  </trkseg></trk>
</gpx>
