<?xml version="1.0" encoding="UTF-8"?>
<gpx version="1.1" creator="tcap-parcours" xmlns="http://www.topografix.com/GPX/1/1">
  <metadata><name>TBM57 – Le tracé officiel du Trail du Bout du Monde – 57 km en ligne</name></metadata>
  <trk><name>TBM57 – Le tracé officiel du Trail du Bout du Monde – 57 km en ligne</name><trkseg>
    <trkpt lat="48.386104" lon="-4.595173"><ele>85.6</ele></trkpt>
    <trkpt lat="48.386021" lon="-4.595278"><ele>86.2</ele></trkpt>
    <trkpt lat="48.385511" lon="-4.594728"><ele>85.2</ele></trkpt>
    <trkpt lat="48.385544" lon="-4.594635"><ele>85.2</ele></trkpt>
    <trkpt lat="48.386276" lon="-4.594946"><ele>84.2</ele></trkpt>
    <trkpt lat="48.386269" lon="-4.595080"><ele>84.2</ele></trkpt>
    <trkpt lat="48.385332" lon="-4.595654"><ele>89.6</ele></trkpt>
    <trkpt lat="48.385190" lon="-4.595548"><ele>89.8</ele></trkpt>
    <trkpt lat="48.386174" lon="-4.595762"><ele>88.2</ele></trkpt>
    <trkpt lat="48.387187" lon="-4.594564"><ele>76.4</ele></trkpt>
    <trkpt lat="48.387365" lon="-4.594295"><ele>76.2</ele></trkpt>
    <trkpt lat="48.386890" lon="-4.593192"><ele>73.2</ele></trkpt>
    <trkpt lat="48.385513" lon="-4.592077"><ele>75.0</ele></trkpt>
    <trkpt lat="48.384013" lon="-4.591821"><ele>74.2</ele></trkpt>
    <trkpt lat="48.383886" lon="-4.591881"><ele>74.0</ele></trkpt>
    <trkpt lat="48.383303" lon="-4.593343"><ele>80.2</ele></trkpt>
    <trkpt lat="48.383498" lon="-4.593384"><ele>80.4</ele></trkpt>
    <trkpt lat="48.384465" lon="-4.594918"><ele>89.4</ele></trkpt>
    <trkpt lat="48.384612" lon="-4.595260"><ele>89.8</ele></trkpt>
    <trkpt lat="48.384334" lon="-4.596011"><ele>93.2</ele></trkpt>
    <trkpt lat="48.384273" lon="-4.595995"><ele>93.0</ele></trkpt>
    <trkpt lat="48.383419" lon="-4.597095"><ele>91.4</ele></trkpt>
    <trkpt lat="48.383384" lon="-4.597278"><ele>91.4</ele></trkpt>
    <trkpt lat="48.381847" lon="-4.596882"><ele>83.6</ele></trkpt>
    <trkpt lat="48.380371" lon="-4.596971"><ele>80.0</ele></trkpt>
    <trkpt lat="48.378871" lon="-4.596342"><ele>80.8</ele></trkpt>
    <trkpt lat="48.377417" lon="-4.594875"><ele>80.8</ele></trkpt>
    <trkpt lat="48.376666" lon="-4.593420"><ele>88.2</ele></trkpt>
    <trkpt lat="48.375761" lon="-4.591515"><ele>91.8</ele></trkpt>
    <trkpt lat="48.375568" lon="-4.591212"><ele>91.6</ele></trkpt>
    <trkpt lat="48.375174" lon="-4.590035"><ele>93.2</ele></trkpt>
    <trkpt lat="48.375105" lon="-4.589932"><ele>93.2</ele></trkpt>
    <trkpt lat="48.374862" lon="-4.589727"><ele>93.2</ele></trkpt>
    <trkpt lat="48.373782" lon="-4.589082"><ele>93.0</ele></trkpt>
    <trkpt lat="48.373423" lon="-4.588805"><ele>93.2</ele></trkpt>
    <trkpt lat="48.372708" lon="-4.589662"><ele>92.2</ele></trkpt>
    <trkpt lat="48.372558" lon="-4.589541"><ele>92.0</ele></trkpt>
    <trkpt lat="48.371578" lon="-4.588310"><ele>90.8</ele></trkpt>
    <trkpt lat="48.371549" lon="-4.588167"><ele>90.8</ele></trkpt>
    <trkpt lat="48.371618" lon="-4.587909"><ele>90.8</ele></trkpt>
    <trkpt lat="48.371241" lon="-4.586439"><ele>85.0</ele></trkpt>
    <trkpt lat="48.371046" lon="-4.585980"><ele>85.0</ele></trkpt>
    <trkpt lat="48.370073" lon="-4.585655"><ele>76.6</ele></trkpt>
    <trkpt lat="48.369920" lon="-4.585430"><ele>76.0</ele></trkpt>
    <trkpt lat="48.369354" lon="-4.583777"><ele>65.4</ele></trkpt>
    <trkpt lat="48.369165" lon="-4.583656"><ele>65.2</ele></trkpt>
    <trkpt lat="48.368116" lon="-4.582395"><ele>60.0</ele></trkpt>
    <trkpt lat="48.367985" lon="-4.582315"><ele>59.6</ele></trkpt>
    <trkpt lat="48.367275" lon="-4.580272"><ele>57.8</ele></trkpt>
    <trkpt lat="48.367278" lon="-4.580087"><ele>57.8</ele></trkpt>
    <trkpt lat="48.366807" lon="-4.578160"><ele>49.8</ele></trkpt>
    <trkpt lat="48.367095" lon="-4.575619"><ele>43.2</ele></trkpt>
    <trkpt lat="48.367181" lon="-4.575400"><ele>43.0</ele></trkpt>
    <trkpt lat="48.367172" lon="-4.573748"><ele>42.8</ele></trkpt>
    <trkpt lat="48.367524" lon="-4.571990"><ele>54.4</ele></trkpt>
    <trkpt lat="48.368123" lon="-4.571026"><ele>64.0</ele></trkpt>
    <trkpt lat="48.368147" lon="-4.570828"><ele>63.0</ele></trkpt>
    <trkpt lat="48.368004" lon="-4.568533"><ele>59.8</ele></trkpt>
    <trkpt lat="48.368594" lon="-4.567090"><ele>50.0</ele></trkpt>
    <trkpt lat="48.368575" lon="-4.566989"><ele>50.0</ele></trkpt>
    <trkpt lat="48.368609" lon="-4.566918"><ele>50.6</ele></trkpt>
    <trkpt lat="48.368509" lon="-4.566580"><ele>55.8</ele></trkpt>
    <trkpt lat="48.368549" lon="-4.566548"><ele>55.8</ele></trkpt>
    <trkpt lat="48.367613" lon="-4.565808"><ele>57.4</ele></trkpt>
    <trkpt lat="48.366307" lon="-4.566041"><ele>39.2</ele></trkpt>
    <trkpt lat="48.366234" lon="-4.566008"><ele>39.2</ele></trkpt>
    <trkpt lat="48.365281" lon="-4.567292"><ele>21.4</ele></trkpt>
    <trkpt lat="48.365884" lon="-4.569113"><ele>27.2</ele></trkpt>
    <trkpt lat="48.365996" lon="-4.571143"><ele>40.4</ele></trkpt>
    <trkpt lat="48.366092" lon="-4.571287"><ele>40.4</ele></trkpt>
    <trkpt lat="48.366314" lon="-4.573417"><ele>42.8</ele></trkpt>
    <trkpt lat="48.366259" lon="-4.573523"><ele>47.6</ele></trkpt>
    <trkpt lat="48.365953" lon="-4.573313"><ele>53.2</ele></trkpt>
    <trkpt lat="48.365725" lon="-4.571577"><ele>52.8</ele></trkpt>
    <trkpt lat="48.365546" lon="-4.571514"><ele>53.2</ele></trkpt>
    <trkpt lat="48.365376" lon="-4.569942"><ele>38.8</ele></trkpt>
    <trkpt lat="48.365460" lon="-4.569884"><ele>39.0</ele></trkpt>
    <trkpt lat="48.364812" lon="-4.568908"><ele>44.6</ele></trkpt>
    <trkpt lat="48.364142" lon="-4.568290"><ele>43.2</ele></trkpt>
    <trkpt lat="48.364120" lon="-4.566254"><ele>39.4</ele></trkpt>
    <trkpt lat="48.362923" lon="-4.564948"><ele>44.6</ele></trkpt>
    <trkpt lat="48.362951" lon="-4.564910"><ele>44.6</ele></trkpt>
    <trkpt lat="48.362696" lon="-4.562730"><ele>40.6</ele></trkpt>
    <trkpt lat="48.362650" lon="-4.561787"><ele>31.2</ele></trkpt>
    <trkpt lat="48.362650" lon="-4.561842"><ele>31.2</ele></trkpt>
    <trkpt lat="48.364052" lon="-4.563705"><ele>11.8</ele></trkpt>
    <trkpt lat="48.364523" lon="-4.565398"><ele>16.6</ele></trkpt>
    <trkpt lat="48.364718" lon="-4.567384"><ele>20.4</ele></trkpt>
    <trkpt lat="48.364815" lon="-4.567491"><ele>20.6</ele></trkpt>
    <trkpt lat="48.364959" lon="-4.565299"><ele>17.6</ele></trkpt>
    <trkpt lat="48.364738" lon="-4.563966"><ele>21.4</ele></trkpt>
    <trkpt lat="48.365278" lon="-4.563555"><ele>36.8</ele></trkpt>
    <trkpt lat="48.365985" lon="-4.563123"><ele>54.2</ele></trkpt>
    <trkpt lat="48.366055" lon="-4.563015"><ele>54.0</ele></trkpt>
    <trkpt lat="48.365734" lon="-4.562057"><ele>55.2</ele></trkpt>
    <trkpt lat="48.365586" lon="-4.560277"><ele>59.2</ele></trkpt>
    <trkpt lat="48.365743" lon="-4.560166"><ele>59.8</ele></trkpt>
    <trkpt lat="48.365945" lon="-4.558969"><ele>52.0</ele></trkpt>
    <trkpt lat="48.366037" lon="-4.558774"><ele>52.4</ele></trkpt>
    <trkpt lat="48.365813" lon="-4.558834"><ele>47.2</ele></trkpt>
    <trkpt lat="48.365721" lon="-4.558914"><ele>47.6</ele></trkpt>
    <trkpt lat="48.364860" lon="-4.559901"><ele>31.4</ele></trkpt>
    <trkpt lat="48.363610" lon="-4.559846"><ele>10.2</ele></trkpt>
    <trkpt lat="48.363618" lon="-4.559729"><ele>10.4</ele></trkpt>
    <trkpt lat="48.363352" lon="-4.557693"><ele>17.8</ele></trkpt>
    <trkpt lat="48.362613" lon="-4.555617"><ele>12.8</ele></trkpt>
    <trkpt lat="48.362218" lon="-4.555540"><ele>11.8</ele></trkpt>
    <trkpt lat="48.361484" lon="-4.554546"><ele>6.2</ele></trkpt>
    <trkpt lat="48.361189" lon="-4.554810"><ele>6.6</ele></trkpt>
    <trkpt lat="48.360733" lon="-4.554949"><ele>16.4</ele></trkpt>
    <trkpt lat="48.360544" lon="-4.555420"><ele>30.4</ele></trkpt>
    <trkpt lat="48.359348" lon="-4.555741"><ele>34.6</ele></trkpt>
    <trkpt lat="48.359245" lon="-4.555829"><ele>34.6</ele></trkpt>
    <trkpt lat="48.358679" lon="-4.555966"><ele>32.4</ele></trkpt>
    <trkpt lat="48.358015" lon="-4.556569"><ele>36.4</ele></trkpt>
    <trkpt lat="48.357828" lon="-4.556607"><ele>36.6</ele></trkpt>
    <trkpt lat="48.356724" lon="-4.557941"><ele>31.8</ele></trkpt>
    <trkpt lat="48.356431" lon="-4.558097"><ele>31.4</ele></trkpt>
    <trkpt lat="48.355413" lon="-4.558893"><ele>30.0</ele></trkpt>
    <trkpt lat="48.355479" lon="-4.559112"><ele>29.6</ele></trkpt>
    <trkpt lat="48.356551" lon="-4.559812"><ele>36.2</ele></trkpt>
    <trkpt lat="48.356796" lon="-4.562055"><ele>36.4</ele></trkpt>
    <trkpt lat="48.356757" lon="-4.563369"><ele>30.2</ele></trkpt>
    <trkpt lat="48.356645" lon="-4.563556"><ele>29.8</ele></trkpt>
    <trkpt lat="48.356208" lon="-4.565053"><ele>19.4</ele></trkpt>
    <trkpt lat="48.355973" lon="-4.565217"><ele>19.4</ele></trkpt>
    <trkpt lat="48.355226" lon="-4.566760"><ele>17.2</ele></trkpt>
    <trkpt lat="48.354724" lon="-4.567397"><ele>15.0</ele></trkpt>
    <trkpt lat="48.354654" lon="-4.567351"><ele>15.0</ele></trkpt>
    <trkpt lat="48.353340" lon="-4.567319"><ele>10.2</ele></trkpt>
    <trkpt lat="48.353046" lon="-4.568080"><ele>20.4</ele></trkpt>
    <trkpt lat="48.353094" lon="-4.568125"><ele>20.4</ele></trkpt>
    <trkpt lat="48.352657" lon="-4.568952"><ele>25.0</ele></trkpt>
    <trkpt lat="48.352449" lon="-4.569245"><ele>25.0</ele></trkpt>
    <trkpt lat="48.351740" lon="-4.570010"><ele>8.6</ele></trkpt>
    <trkpt lat="48.351616" lon="-4.570060"><ele>8.2</ele></trkpt>
    <trkpt lat="48.351709" lon="-4.571612"><ele>22.6</ele></trkpt>
    <trkpt lat="48.351358" lon="-4.571832"><ele>24.8</ele></trkpt>
    <trkpt lat="48.350585" lon="-4.571861"><ele>29.8</ele></trkpt>
    <trkpt lat="48.350549" lon="-4.571820"><ele>29.8</ele></trkpt>
    <trkpt lat="48.350051" lon="-4.572583"><ele>39.4</ele></trkpt>
    <trkpt lat="48.349919" lon="-4.574154"><ele>38.2</ele></trkpt>
    <trkpt lat="48.349797" lon="-4.574736"><ele>38.4</ele></trkpt>
    <trkpt lat="48.349697" lon="-4.576529"><ele>36.2</ele></trkpt>
    <trkpt lat="48.349427" lon="-4.578434"><ele>34.0</ele></trkpt>
    <trkpt lat="48.349338" lon="-4.578611"><ele>33.0</ele></trkpt>
    <trkpt lat="48.349022" lon="-4.580411"><ele>34.0</ele></trkpt>
    <trkpt lat="48.348945" lon="-4.580509"><ele>34.0</ele></trkpt>
    <trkpt lat="48.348536" lon="-4.582421"><ele>31.2</ele></trkpt>
    <trkpt lat="48.348096" lon="-4.584263"><ele>15.0</ele></trkpt>
    <trkpt lat="48.348022" lon="-4.584439"><ele>13.6</ele></trkpt>
    <trkpt lat="48.348452" lon="-4.585513"><ele>25.6</ele></trkpt>
    <trkpt lat="48.348870" lon="-4.586674"><ele>8.4</ele></trkpt>
    <trkpt lat="48.348854" lon="-4.586703"><ele>8.2</ele></trkpt>
    <trkpt lat="48.348926" lon="-4.587547"><ele>17.6</ele></trkpt>
    <trkpt lat="48.349407" lon="-4.587657"><ele>24.8</ele></trkpt>
    <trkpt lat="48.349787" lon="-4.588458"><ele>41.2</ele></trkpt>
    <trkpt lat="48.349630" lon="-4.589212"><ele>49.8</ele></trkpt>
    <trkpt lat="48.349042" lon="-4.589448"><ele>54.6</ele></trkpt>
    <trkpt lat="48.348891" lon="-4.589341"><ele>54.6</ele></trkpt>
    <trkpt lat="48.347860" lon="-4.589310"><ele>57.8</ele></trkpt>
    <trkpt lat="48.347620" lon="-4.589200"><ele>58.2</ele></trkpt>
    <trkpt lat="48.346829" lon="-4.589246"><ele>47.0</ele></trkpt>
    <trkpt lat="48.345866" lon="-4.590938"><ele>49.4</ele></trkpt>
    <trkpt lat="48.345715" lon="-4.591044"><ele>49.0</ele></trkpt>
    <trkpt lat="48.345028" lon="-4.593074"><ele>50.0</ele></trkpt>
    <trkpt lat="48.345024" lon="-4.593927"><ele>55.0</ele></trkpt>
    <trkpt lat="48.344842" lon="-4.594978"><ele>51.2</ele></trkpt>
    <trkpt lat="48.344710" lon="-4.595299"><ele>50.4</ele></trkpt>
    <trkpt lat="48.344453" lon="-4.596393"><ele>39.6</ele></trkpt>
    <trkpt lat="48.344098" lon="-4.597405"><ele>18.8</ele></trkpt>
    <trkpt lat="48.344112" lon="-4.597483"><ele>18.8</ele></trkpt>
    <trkpt lat="48.344039" lon="-4.598041"><ele>31.4</ele></trkpt>
    <trkpt lat="48.343401" lon="-4.598083"><ele>31.4</ele></trkpt>
    <trkpt lat="48.343293" lon="-4.598170"><ele>31.4</ele></trkpt>
    <trkpt lat="48.342488" lon="-4.599193"><ele>35.2</ele></trkpt>
    <trkpt lat="48.342398" lon="-4.599404"><ele>35.2</ele></trkpt>
    <trkpt lat="48.341851" lon="-4.600241"><ele>39.0</ele></trkpt>
    <trkpt lat="48.341545" lon="-4.602199"><ele>39.2</ele></trkpt>
    <trkpt lat="48.341462" lon="-4.602471"><ele>39.0</ele></trkpt>
    <trkpt lat="48.340799" lon="-4.603936"><ele>39.0</ele></trkpt>
    <trkpt lat="48.340046" lon="-4.605308"><ele>30.2</ele></trkpt>
    <trkpt lat="48.339960" lon="-4.605364"><ele>30.2</ele></trkpt>
    <trkpt lat="48.339228" lon="-4.606407"><ele>26.2</ele></trkpt>
    <trkpt lat="48.339250" lon="-4.606642"><ele>26.4</ele></trkpt>
    <trkpt lat="48.339111" lon="-4.607032"><ele>34.6</ele></trkpt>
    <trkpt lat="48.339225" lon="-4.607144"><ele>35.4</ele></trkpt>
    <trkpt lat="48.338856" lon="-4.608304"><ele>39.2</ele></trkpt>
    <trkpt lat="48.338743" lon="-4.608751"><ele>37.6</ele></trkpt>
    <trkpt lat="48.339026" lon="-4.610271"><ele>32.2</ele></trkpt>
    <trkpt lat="48.339133" lon="-4.610455"><ele>32.4</ele></trkpt>
    <trkpt lat="48.339130" lon="-4.611846"><ele>29.8</ele></trkpt>
    <trkpt lat="48.338932" lon="-4.612244"><ele>29.2</ele></trkpt>
    <trkpt lat="48.338560" lon="-4.614112"><ele>28.4</ele></trkpt>
    <trkpt lat="48.338497" lon="-4.613937"><ele>24.2</ele></trkpt>
    <trkpt lat="48.338541" lon="-4.613826"><ele>24.2</ele></trkpt>
    <trkpt lat="48.338896" lon="-4.614410"><ele>31.6</ele></trkpt>
    <trkpt lat="48.338766" lon="-4.614620"><ele>30.6</ele></trkpt>
    <trkpt lat="48.339391" lon="-4.615296"><ele>10.8</ele></trkpt>
    <trkpt lat="48.339545" lon="-4.615356"><ele>10.6</ele></trkpt>
    <trkpt lat="48.340088" lon="-4.615168"><ele>12.0</ele></trkpt>
    <trkpt lat="48.339999" lon="-4.615118"><ele>12.8</ele></trkpt>
    <trkpt lat="48.340375" lon="-4.615330"><ele>17.6</ele></trkpt>
    <trkpt lat="48.340826" lon="-4.615468"><ele>27.0</ele></trkpt>
    <trkpt lat="48.340289" lon="-4.615887"><ele>33.2</ele></trkpt>
    <trkpt lat="48.339756" lon="-4.616738"><ele>37.0</ele></trkpt>
    <trkpt lat="48.339635" lon="-4.616841"><ele>36.4</ele></trkpt>
    <trkpt lat="48.339360" lon="-4.618627"><ele>27.4</ele></trkpt>
    <trkpt lat="48.339394" lon="-4.618808"><ele>27.2</ele></trkpt>
    <trkpt lat="48.339409" lon="-4.620092"><ele>27.4</ele></trkpt>
    <trkpt lat="48.339355" lon="-4.620239"><ele>27.6</ele></trkpt>
    <trkpt lat="48.339188" lon="-4.621390"><ele>29.4</ele></trkpt>
    <trkpt lat="48.339502" lon="-4.622612"><ele>38.6</ele></trkpt>
    <trkpt lat="48.339516" lon="-4.623039"><ele>38.0</ele></trkpt>
    <trkpt lat="48.339422" lon="-4.624061"><ele>33.2</ele></trkpt>
    <trkpt lat="48.339471" lon="-4.624088"><ele>33.0</ele></trkpt>
    <trkpt lat="48.340193" lon="-4.624037"><ele>37.8</ele></trkpt>
    <trkpt lat="48.340344" lon="-4.623933"><ele>37.8</ele></trkpt>
    <trkpt lat="48.340877" lon="-4.624854"><ele>41.2</ele></trkpt>
    <trkpt lat="48.340950" lon="-4.625029"><ele>41.2</ele></trkpt>
    <trkpt lat="48.341038" lon="-4.626024"><ele>47.6</ele></trkpt>
    <trkpt lat="48.341100" lon="-4.626201"><ele>47.8</ele></trkpt>
    <trkpt lat="48.341781" lon="-4.626747"><ele>53.8</ele></trkpt>
    <trkpt lat="48.341996" lon="-4.626836"><ele>54.6</ele></trkpt>
    <trkpt lat="48.341960" lon="-4.627672"><ele>56.8</ele></trkpt>
    <trkpt lat="48.341186" lon="-4.628395"><ele>60.6</ele></trkpt>
    <trkpt lat="48.341180" lon="-4.628594"><ele>60.6</ele></trkpt>
    <trkpt lat="48.341036" lon="-4.629593"><ele>54.8</ele></trkpt>
    <trkpt lat="48.341138" lon="-4.629746"><ele>54.4</ele></trkpt>
    <trkpt lat="48.341261" lon="-4.630874"><ele>41.6</ele></trkpt>
    <trkpt lat="48.341389" lon="-4.630910"><ele>41.4</ele></trkpt>
    <trkpt lat="48.341518" lon="-4.630860"><ele>41.0</ele></trkpt>
    <trkpt lat="48.342443" lon="-4.631687"><ele>22.8</ele></trkpt>
    <trkpt lat="48.343622" lon="-4.632250"><ele>18.0</ele></trkpt>
    <trkpt lat="48.343651" lon="-4.632323"><ele>17.8</ele></trkpt>
    <trkpt lat="48.343715" lon="-4.632366"><ele>17.6</ele></trkpt>
    <trkpt lat="48.343912" lon="-4.632823"><ele>16.8</ele></trkpt>
    <trkpt lat="48.343440" lon="-4.633459"><ele>25.6</ele></trkpt>
    <trkpt lat="48.343365" lon="-4.633686"><ele>25.8</ele></trkpt>
    <trkpt lat="48.342926" lon="-4.634319"><ele>31.2</ele></trkpt>
    <trkpt lat="48.343008" lon="-4.634397"><ele>31.8</ele></trkpt>
    <trkpt lat="48.343504" lon="-4.635469"><ele>34.2</ele></trkpt>
    <trkpt lat="48.343668" lon="-4.635448"><ele>34.4</ele></trkpt>
    <trkpt lat="48.344438" lon="-4.636326"><ele>34.4</ele></trkpt>
    <trkpt lat="48.344588" lon="-4.636293"><ele>34.8</ele></trkpt>
    <trkpt lat="48.344962" lon="-4.638314"><ele>32.0</ele></trkpt>
    <trkpt lat="48.345024" lon="-4.638438"><ele>31.8</ele></trkpt>
    <trkpt lat="48.345826" lon="-4.639635"><ele>21.2</ele></trkpt>
    <trkpt lat="48.345910" lon="-4.639838"><ele>21.2</ele></trkpt>
    <trkpt lat="48.347286" lon="-4.639802"><ele>10.0</ele></trkpt>
    <trkpt lat="48.347543" lon="-4.639709"><ele>11.0</ele></trkpt>
    <trkpt lat="48.347233" lon="-4.640353"><ele>14.0</ele></trkpt>
    <trkpt lat="48.346314" lon="-4.640869"><ele>14.6</ele></trkpt>
    <trkpt lat="48.346212" lon="-4.641074"><ele>14.8</ele></trkpt>
    <trkpt lat="48.345667" lon="-4.641891"><ele>21.0</ele></trkpt>
    <trkpt lat="48.345637" lon="-4.642004"><ele>21.4</ele></trkpt>
    <trkpt lat="48.345665" lon="-4.642751"><ele>31.8</ele></trkpt>
    <trkpt lat="48.345739" lon="-4.642707"><ele>32.2</ele></trkpt>
    <trkpt lat="48.346214" lon="-4.643343"><ele>43.8</ele></trkpt>
    <trkpt lat="48.345821" lon="-4.644026"><ele>44.6</ele></trkpt>
    <trkpt lat="48.345699" lon="-4.644123"><ele>44.0</ele></trkpt>
    <trkpt lat="48.345742" lon="-4.645705"><ele>49.2</ele></trkpt>
    <trkpt lat="48.345673" lon="-4.647687"><ele>34.4</ele></trkpt>
    <trkpt lat="48.345644" lon="-4.647913"><ele>34.4</ele></trkpt>
    <trkpt lat="48.346158" lon="-4.649456"><ele>45.8</ele></trkpt>
    <trkpt lat="48.345917" lon="-4.650834"><ele>32.4</ele></trkpt>
    <trkpt lat="48.346458" lon="-4.652194"><ele>38.0</ele></trkpt>
    <trkpt lat="48.346675" lon="-4.652500"><ele>37.4</ele></trkpt>
    <trkpt lat="48.347082" lon="-4.653224"><ele>43.2</ele></trkpt>
    <trkpt lat="48.347183" lon="-4.653315"><ele>43.4</ele></trkpt>
    <trkpt lat="48.348222" lon="-4.653677"><ele>38.8</ele></trkpt>
    <trkpt lat="48.348334" lon="-4.653797"><ele>38.4</ele></trkpt>
    <trkpt lat="48.348934" lon="-4.655170"><ele>30.8</ele></trkpt>
    <trkpt lat="48.349076" lon="-4.656470"><ele>34.2</ele></trkpt>
    <trkpt lat="48.349252" lon="-4.656565"><ele>34.4</ele></trkpt>
    <trkpt lat="48.349816" lon="-4.657977"><ele>26.2</ele></trkpt>
    <trkpt lat="48.350437" lon="-4.659193"><ele>16.2</ele></trkpt>
    <trkpt lat="48.350407" lon="-4.659431"><ele>16.2</ele></trkpt>
    <trkpt lat="48.350981" lon="-4.660777"><ele>22.0</ele></trkpt>
    <trkpt lat="48.351077" lon="-4.661514"><ele>27.8</ele></trkpt>
    <trkpt lat="48.351669" lon="-4.662591"><ele>29.2</ele></trkpt>
    <trkpt lat="48.351901" lon="-4.662798"><ele>28.8</ele></trkpt>
    <trkpt lat="48.352905" lon="-4.662834"><ele>33.2</ele></trkpt>
    <trkpt lat="48.353839" lon="-4.662769"><ele>37.6</ele></trkpt>
    <trkpt lat="48.353934" lon="-4.662827"><ele>37.6</ele></trkpt>
    <trkpt lat="48.353921" lon="-4.663040"><ele>38.0</ele></trkpt>
    <trkpt lat="48.353259" lon="-4.664896"><ele>30.0</ele></trkpt>
    <trkpt lat="48.353135" lon="-4.667041"><ele>14.6</ele></trkpt>
    <trkpt lat="48.353130" lon="-4.667605"><ele>14.2</ele></trkpt>
    <trkpt lat="48.352699" lon="-4.669091"><ele>11.8</ele></trkpt>
    <trkpt lat="48.352875" lon="-4.669659"><ele>12.4</ele></trkpt>
    <trkpt lat="48.353461" lon="-4.670974"><ele>12.8</ele></trkpt>
    <trkpt lat="48.353503" lon="-4.671231"><ele>12.8</ele></trkpt>
    <trkpt lat="48.354323" lon="-4.672646"><ele>10.6</ele></trkpt>
    <trkpt lat="48.354411" lon="-4.672850"><ele>10.6</ele></trkpt>
    <trkpt lat="48.354889" lon="-4.676223"><ele>12.6</ele></trkpt>
    <trkpt lat="48.355159" lon="-4.677228"><ele>15.4</ele></trkpt>
    <trkpt lat="48.355168" lon="-4.677439"><ele>15.4</ele></trkpt>
    <trkpt lat="48.355862" lon="-4.678591"><ele>9.8</ele></trkpt>
    <trkpt lat="48.355934" lon="-4.678771"><ele>7.2</ele></trkpt>
    <trkpt lat="48.355950" lon="-4.678639"><ele>9.0</ele></trkpt>
    <trkpt lat="48.356041" lon="-4.678788"><ele>5.2</ele></trkpt>
    <trkpt lat="48.356175" lon="-4.678845"><ele>7.6</ele></trkpt>
    <trkpt lat="48.356262" lon="-4.678959"><ele>7.6</ele></trkpt>
    <trkpt lat="48.356224" lon="-4.679984"><ele>7.6</ele></trkpt>
    <trkpt lat="48.356120" lon="-4.680290"><ele>8.2</ele></trkpt>
    <trkpt lat="48.355969" lon="-4.680958"><ele>13.8</ele></trkpt>
    <trkpt lat="48.355345" lon="-4.681689"><ele>17.0</ele></trkpt>
    <trkpt lat="48.355324" lon="-4.681915"><ele>17.6</ele></trkpt>
    <trkpt lat="48.354662" lon="-4.682213"><ele>13.6</ele></trkpt>
    <trkpt lat="48.354582" lon="-4.682170"><ele>13.6</ele></trkpt>
    <trkpt lat="48.354505" lon="-4.682208"><ele>13.6</ele></trkpt>
    <trkpt lat="48.353923" lon="-4.683557"><ele>15.8</ele></trkpt>
    <trkpt lat="48.353903" lon="-4.683709"><ele>16.0</ele></trkpt>
    <trkpt lat="48.353920" lon="-4.684003"><ele>16.0</ele></trkpt>
    <trkpt lat="48.353598" lon="-4.684747"><ele>17.8</ele></trkpt>
    <trkpt lat="48.354209" lon="-4.685264"><ele>26.2</ele></trkpt>
    <trkpt lat="48.354593" lon="-4.685904"><ele>31.2</ele></trkpt>
    <trkpt lat="48.354548" lon="-4.686335"><ele>31.0</ele></trkpt>
    <trkpt lat="48.354765" lon="-4.688068"><ele>21.2</ele></trkpt>
    <trkpt lat="48.354818" lon="-4.688317"><ele>20.8</ele></trkpt>
    <trkpt lat="48.354725" lon="-4.690094"><ele>9.0</ele></trkpt>
    <trkpt lat="48.354827" lon="-4.690338"><ele>8.2</ele></trkpt>
    <trkpt lat="48.354864" lon="-4.691287"><ele>13.4</ele></trkpt>
    <trkpt lat="48.354247" lon="-4.692026"><ele>13.6</ele></trkpt>
    <trkpt lat="48.353909" lon="-4.692077"><ele>13.0</ele></trkpt>
    <trkpt lat="48.353437" lon="-4.693676"><ele>10.2</ele></trkpt>
    <trkpt lat="48.353522" lon="-4.694274"><ele>9.4</ele></trkpt>
    <trkpt lat="48.353153" lon="-4.695396"><ele>9.2</ele></trkpt>
    <trkpt lat="48.353086" lon="-4.695413"><ele>9.2</ele></trkpt>
    <trkpt lat="48.352143" lon="-4.696603"><ele>2.4</ele></trkpt>
    <trkpt lat="48.350133" lon="-4.700489"><ele>3.0</ele></trkpt>
    <trkpt lat="48.350066" lon="-4.700667"><ele>3.4</ele></trkpt>
    <trkpt lat="48.349367" lon="-4.701220"><ele>1.6</ele></trkpt>
    <trkpt lat="48.348704" lon="-4.701993"><ele>-15.4</ele></trkpt>
    <trkpt lat="48.348620" lon="-4.702186"><ele>-17.0</ele></trkpt>
    <trkpt lat="48.347513" lon="-4.702693"><ele>1.4</ele></trkpt>
    <trkpt lat="48.346654" lon="-4.703018"><ele>1.8</ele></trkpt>
    <trkpt lat="48.346647" lon="-4.703071"><ele>1.8</ele></trkpt>
    <trkpt lat="48.346529" lon="-4.702973"><ele>1.6</ele></trkpt>
    <trkpt lat="48.346231" lon="-4.703044"><ele>1.8</ele></trkpt>
    <trkpt lat="48.345309" lon="-4.702722"><ele>4.4</ele></trkpt>
    <trkpt lat="48.345277" lon="-4.702623"><ele>4.4</ele></trkpt>
    <trkpt lat="48.344944" lon="-4.702443"><ele>10.2</ele></trkpt>
    <trkpt lat="48.344951" lon="-4.702237"><ele>10.2</ele></trkpt>
    <trkpt lat="48.344217" lon="-4.701325"><ele>11.2</ele></trkpt>
    <trkpt lat="48.343247" lon="-4.701343"><ele>10.0</ele></trkpt>
    <trkpt lat="48.342540" lon="-4.701235"><ele>10.6</ele></trkpt>
    <trkpt lat="48.341562" lon="-4.700711"><ele>27.4</ele></trkpt>
    <trkpt lat="48.340524" lon="-4.700874"><ele>14.4</ele></trkpt>
    <trkpt lat="48.340404" lon="-4.701022"><ele>14.8</ele></trkpt>
    <trkpt lat="48.339704" lon="-4.702424"><ele>8.6</ele></trkpt>
    <trkpt lat="48.339702" lon="-4.702572"><ele>8.6</ele></trkpt>
    <trkpt lat="48.339551" lon="-4.701539"><ele>3.8</ele></trkpt>
    <trkpt lat="48.339469" lon="-4.701338"><ele>3.4</ele></trkpt>
    <trkpt lat="48.338934" lon="-4.700638"><ele>13.6</ele></trkpt>
    <trkpt lat="48.338919" lon="-4.700532"><ele>13.8</ele></trkpt>
    <trkpt lat="48.339004" lon="-4.699287"><ele>8.0</ele></trkpt>
    <trkpt lat="48.338887" lon="-4.699094"><ele>8.2</ele></trkpt>
    <trkpt lat="48.337822" lon="-4.698858"><ele>15.8</ele></trkpt>
    <trkpt lat="48.337392" lon="-4.699640"><ele>13.8</ele></trkpt>
    <trkpt lat="48.337305" lon="-4.699630"><ele>13.6</ele></trkpt>
    <trkpt lat="48.337170" lon="-4.699731"><ele>13.0</ele></trkpt>
    <trkpt lat="48.337150" lon="-4.701150"><ele>21.6</ele></trkpt>
    <trkpt lat="48.336758" lon="-4.702308"><ele>14.4</ele></trkpt>
    <trkpt lat="48.336673" lon="-4.702440"><ele>14.4</ele></trkpt>
    <trkpt lat="48.336529" lon="-4.703534"><ele>28.4</ele></trkpt>
    <trkpt lat="48.336560" lon="-4.703745"><ele>29.2</ele></trkpt>
    <trkpt lat="48.336582" lon="-4.705183"><ele>33.2</ele></trkpt>
    <trkpt lat="48.336516" lon="-4.706346"><ele>37.8</ele></trkpt>
    <trkpt lat="48.336299" lon="-4.707706"><ele>42.6</ele></trkpt>
    <trkpt lat="48.336288" lon="-4.707976"><ele>43.2</ele></trkpt>
    <trkpt lat="48.336100" lon="-4.709025"><ele>46.8</ele></trkpt>
    <trkpt lat="48.335868" lon="-4.709705"><ele>47.0</ele></trkpt>
    <trkpt lat="48.334473" lon="-4.709155"><ele>39.2</ele></trkpt>
    <trkpt lat="48.334504" lon="-4.709014"><ele>39.0</ele></trkpt>
    <trkpt lat="48.334439" lon="-4.707245"><ele>20.6</ele></trkpt>
    <trkpt lat="48.334293" lon="-4.707083"><ele>19.4</ele></trkpt>
    <trkpt lat="48.333884" lon="-4.707858"><ele>22.4</ele></trkpt>
    <trkpt lat="48.333841" lon="-4.707827"><ele>22.2</ele></trkpt>
    <trkpt lat="48.332775" lon="-4.708154"><ele>22.8</ele></trkpt>
    <trkpt lat="48.332667" lon="-4.708139"><ele>22.6</ele></trkpt>
    <trkpt lat="48.332162" lon="-4.708437"><ele>27.8</ele></trkpt>
    <trkpt lat="48.332115" lon="-4.708528"><ele>28.0</ele></trkpt>
    <trkpt lat="48.331908" lon="-4.709492"><ele>41.0</ele></trkpt>
    <trkpt lat="48.331827" lon="-4.709525"><ele>41.0</ele></trkpt>
    <trkpt lat="48.331488" lon="-4.710895"><ele>40.8</ele></trkpt>
    <trkpt lat="48.331595" lon="-4.711104"><ele>41.6</ele></trkpt>
    <trkpt lat="48.331723" lon="-4.712178"><ele>42.0</ele></trkpt>
    <trkpt lat="48.331728" lon="-4.712409"><ele>42.2</ele></trkpt>
    <trkpt lat="48.332161" lon="-4.713526"><ele>40.6</ele></trkpt>
    <trkpt lat="48.331930" lon="-4.713822"><ele>41.0</ele></trkpt>
    <trkpt lat="48.330822" lon="-4.714165"><ele>22.0</ele></trkpt>
    <trkpt lat="48.330693" lon="-4.714247"><ele>22.2</ele></trkpt>
    <trkpt lat="48.330529" lon="-4.714458"><ele>22.4</ele></trkpt>
    <trkpt lat="48.330766" lon="-4.715392"><ele>34.4</ele></trkpt>
    <trkpt lat="48.330602" lon="-4.715780"><ele>34.4</ele></trkpt>
    <trkpt lat="48.330305" lon="-4.717121"><ele>32.0</ele></trkpt>
    <trkpt lat="48.330419" lon="-4.717269"><ele>32.0</ele></trkpt>
    <trkpt lat="48.330917" lon="-4.717175"><ele>38.2</ele></trkpt>
    <trkpt lat="48.330972" lon="-4.717059"><ele>38.6</ele></trkpt>
    <trkpt lat="48.331371" lon="-4.717509"><ele>26.2</ele></trkpt>
    <trkpt lat="48.330942" lon="-4.718754"><ele>18.0</ele></trkpt>
    <trkpt lat="48.330991" lon="-4.718759"><ele>19.0</ele></trkpt>
    <trkpt lat="48.330747" lon="-4.719750"><ele>21.4</ele></trkpt>
    <trkpt lat="48.330685" lon="-4.720669"><ele>26.4</ele></trkpt>
    <trkpt lat="48.330590" lon="-4.720862"><ele>26.8</ele></trkpt>
    <trkpt lat="48.330529" lon="-4.722204"><ele>30.0</ele></trkpt>
    <trkpt lat="48.330445" lon="-4.722437"><ele>29.8</ele></trkpt>
    <trkpt lat="48.330373" lon="-4.723417"><ele>23.0</ele></trkpt>
    <trkpt lat="48.330434" lon="-4.723514"><ele>23.6</ele></trkpt>
    <trkpt lat="48.330461" lon="-4.724455"><ele>20.8</ele></trkpt>
    <trkpt lat="48.330585" lon="-4.724662"><ele>21.0</ele></trkpt>
    <trkpt lat="48.330770" lon="-4.725153"><ele>35.4</ele></trkpt>
    <trkpt lat="48.330606" lon="-4.726178"><ele>22.2</ele></trkpt>
    <trkpt lat="48.330687" lon="-4.726312"><ele>22.6</ele></trkpt>
    <trkpt lat="48.330739" lon="-4.726498"><ele>23.2</ele></trkpt>
    <trkpt lat="48.330647" lon="-4.727391"><ele>28.4</ele></trkpt>
    <trkpt lat="48.330583" lon="-4.727598"><ele>28.8</ele></trkpt>
    <trkpt lat="48.330617" lon="-4.728602"><ele>35.2</ele></trkpt>
    <trkpt lat="48.331169" lon="-4.729990"><ele>39.2</ele></trkpt>
    <trkpt lat="48.331281" lon="-4.728785"><ele>47.0</ele></trkpt>
    <trkpt lat="48.331260" lon="-4.728583"><ele>47.8</ele></trkpt>
    <trkpt lat="48.331829" lon="-4.728357"><ele>49.4</ele></trkpt>
    <trkpt lat="48.332225" lon="-4.728359"><ele>49.4</ele></trkpt>
    <trkpt lat="48.333275" lon="-4.728433"><ele>52.6</ele></trkpt>
    <trkpt lat="48.333560" lon="-4.728553"><ele>52.8</ele></trkpt>
    <trkpt lat="48.334693" lon="-4.729124"><ele>48.6</ele></trkpt>
    <trkpt lat="48.336057" lon="-4.729731"><ele>48.4</ele></trkpt>
    <trkpt lat="48.336163" lon="-4.730195"><ele>48.4</ele></trkpt>
    <trkpt lat="48.336030" lon="-4.731772"><ele>42.0</ele></trkpt>
    <trkpt lat="48.335933" lon="-4.732230"><ele>41.4</ele></trkpt>
    <trkpt lat="48.335265" lon="-4.733778"><ele>29.4</ele></trkpt>
    <trkpt lat="48.335147" lon="-4.733866"><ele>28.4</ele></trkpt>
    <trkpt lat="48.334198" lon="-4.735238"><ele>20.8</ele></trkpt>
    <trkpt lat="48.333974" lon="-4.735442"><ele>20.6</ele></trkpt>
    <trkpt lat="48.333348" lon="-4.736718"><ele>12.2</ele></trkpt>
    <trkpt lat="48.333309" lon="-4.736962"><ele>12.8</ele></trkpt>
    <trkpt lat="48.333306" lon="-4.737423"><ele>24.2</ele></trkpt>
    <trkpt lat="48.333274" lon="-4.737482"><ele>24.4</ele></trkpt>
    <trkpt lat="48.333311" lon="-4.737915"><ele>29.8</ele></trkpt>
    <trkpt lat="48.333430" lon="-4.737970"><ele>30.0</ele></trkpt>
    <trkpt lat="48.333694" lon="-4.738533"><ele>35.2</ele></trkpt>
    <trkpt lat="48.333083" lon="-4.738944"><ele>39.6</ele></trkpt>
    <trkpt lat="48.332341" lon="-4.739753"><ele>35.6</ele></trkpt>
    <trkpt lat="48.332233" lon="-4.740004"><ele>35.6</ele></trkpt>
    <trkpt lat="48.332206" lon="-4.741019"><ele>41.2</ele></trkpt>
    <trkpt lat="48.332090" lon="-4.741323"><ele>40.8</ele></trkpt>
    <trkpt lat="48.332008" lon="-4.742322"><ele>36.2</ele></trkpt>
    <trkpt lat="48.331783" lon="-4.742691"><ele>36.8</ele></trkpt>
    <trkpt lat="48.331549" lon="-4.744053"><ele>21.8</ele></trkpt>
    <trkpt lat="48.331583" lon="-4.744268"><ele>21.6</ele></trkpt>
    <trkpt lat="48.330861" lon="-4.744403"><ele>16.2</ele></trkpt>
    <trkpt lat="48.330776" lon="-4.744356"><ele>16.8</ele></trkpt>
    <trkpt lat="48.330579" lon="-4.745032"><ele>25.8</ele></trkpt>
    <trkpt lat="48.330508" lon="-4.745125"><ele>27.2</ele></trkpt>
    <trkpt lat="48.330456" lon="-4.745736"><ele>35.4</ele></trkpt>
    <trkpt lat="48.330364" lon="-4.745912"><ele>36.4</ele></trkpt>
    <trkpt lat="48.329920" lon="-4.747196"><ele>33.4</ele></trkpt>
    <trkpt lat="48.329870" lon="-4.748850"><ele>32.6</ele></trkpt>
    <trkpt lat="48.329973" lon="-4.749366"><ele>32.6</ele></trkpt>
    <trkpt lat="48.329987" lon="-4.750977"><ele>17.4</ele></trkpt>
    <trkpt lat="48.329947" lon="-4.751193"><ele>17.8</ele></trkpt>
    <trkpt lat="48.330306" lon="-4.752568"><ele>22.0</ele></trkpt>
    <trkpt lat="48.330421" lon="-4.752650"><ele>22.2</ele></trkpt>
    <trkpt lat="48.330257" lon="-4.753624"><ele>18.0</ele></trkpt>
    <trkpt lat="48.330391" lon="-4.753716"><ele>17.4</ele></trkpt>
    <trkpt lat="48.329841" lon="-4.753672"><ele>19.0</ele></trkpt>
    <trkpt lat="48.329773" lon="-4.753761"><ele>19.4</ele></trkpt>
    <trkpt lat="48.329371" lon="-4.754677"><ele>24.4</ele></trkpt>
    <trkpt lat="48.329200" lon="-4.754841"><ele>24.2</ele></trkpt>
    <trkpt lat="48.328910" lon="-4.756116"><ele>25.6</ele></trkpt>
    <trkpt lat="48.329063" lon="-4.757158"><ele>3.6</ele></trkpt>
    <trkpt lat="48.329057" lon="-4.757333"><ele>5.2</ele></trkpt>
    <trkpt lat="48.328781" lon="-4.759240"><ele>21.8</ele></trkpt>
    <trkpt lat="48.328740" lon="-4.759724"><ele>22.0</ele></trkpt>
    <trkpt lat="48.328506" lon="-4.760862"><ele>19.2</ele></trkpt>
    <trkpt lat="48.328361" lon="-4.761172"><ele>20.0</ele></trkpt>
    <trkpt lat="48.328238" lon="-4.762348"><ele>19.0</ele></trkpt>
    <trkpt lat="48.328310" lon="-4.762586"><ele>19.0</ele></trkpt>
    <trkpt lat="48.328340" lon="-4.764102"><ele>17.0</ele></trkpt>
    <trkpt lat="48.328429" lon="-4.765024"><ele>14.2</ele></trkpt>
    <trkpt lat="48.328475" lon="-4.765237"><ele>14.4</ele></trkpt>
    <trkpt lat="48.328526" lon="-4.766162"><ele>20.2</ele></trkpt>
    <trkpt lat="48.328617" lon="-4.766411"><ele>20.4</ele></trkpt>
    <trkpt lat="48.328999" lon="-4.766571"><ele>22.4</ele></trkpt>
    <trkpt lat="48.329196" lon="-4.766415"><ele>22.4</ele></trkpt>
    <trkpt lat="48.328883" lon="-4.768119"><ele>20.4</ele></trkpt>
    <trkpt lat="48.329353" lon="-4.768948"><ele>25.8</ele></trkpt>
    <trkpt lat="48.329540" lon="-4.769096"><ele>26.0</ele></trkpt>
    <trkpt lat="48.329584" lon="-4.770440"><ele>20.0</ele></trkpt>
    <trkpt lat="48.329538" lon="-4.770572"><ele>19.6</ele></trkpt>
    <trkpt lat="48.329561" lon="-4.770648"><ele>19.6</ele></trkpt>
    <trkpt lat="48.329621" lon="-4.770682"><ele>19.4</ele></trkpt>
    <trkpt lat="48.330405" lon="-4.770462"><ele>25.6</ele></trkpt>
    <trkpt lat="48.330401" lon="-4.770288"><ele>31.6</ele></trkpt>
    <trkpt lat="48.330480" lon="-4.770402"><ele>25.6</ele></trkpt>
    <trkpt lat="48.330394" lon="-4.770399"><ele>40.6</ele></trkpt>
    <trkpt lat="48.330419" lon="-4.770407"><ele>23.8</ele></trkpt>
    <trkpt lat="48.330413" lon="-4.770459"><ele>25.6</ele></trkpt>
    <trkpt lat="48.330368" lon="-4.770407"><ele>40.4</ele></trkpt>
    <trkpt lat="48.330366" lon="-4.770444"><ele>25.2</ele></trkpt>
    <trkpt lat="48.330805" lon="-4.770268"><ele>25.8</ele></trkpt>
    <trkpt lat="48.330926" lon="-4.770283"><ele>25.8</ele></trkpt>
    <trkpt lat="48.331756" lon="-4.770675"><ele>27.2</ele></trkpt>
    <trkpt lat="48.331836" lon="-4.770812"><ele>27.2</ele></trkpt>
    <trkpt lat="48.332359" lon="-4.770816"><ele>27.8</ele></trkpt>
    <trkpt lat="48.332408" lon="-4.770672"><ele>27.8</ele></trkpt>
    <trkpt lat="48.332371" lon="-4.769791"><ele>2.4</ele></trkpt>
    <trkpt lat="48.332421" lon="-4.769671"><ele>2.2</ele></trkpt>
    <trkpt lat="48.332531" lon="-4.769569"><ele>1.8</ele></trkpt>
    <trkpt lat="48.333324" lon="-4.770011"><ele>31.6</ele></trkpt>
    <trkpt lat="48.333778" lon="-4.769134"><ele>33.2</ele></trkpt>
    <trkpt lat="48.333871" lon="-4.768591"><ele>33.4</ele></trkpt>
    <trkpt lat="48.334239" lon="-4.767017"><ele>34.4</ele></trkpt>
    <trkpt lat="48.334721" lon="-4.765589"><ele>33.4</ele></trkpt>
    <trkpt lat="48.334899" lon="-4.765173"><ele>33.8</ele></trkpt>
    <trkpt lat="48.335376" lon="-4.763674"><ele>39.4</ele></trkpt>
    <trkpt lat="48.335499" lon="-4.763478"><ele>39.2</ele></trkpt>
    <trkpt lat="48.335890" lon="-4.761844"><ele>38.4</ele></trkpt>
    <trkpt lat="48.336244" lon="-4.760125"><ele>36.0</ele></trkpt>
    <trkpt lat="48.336621" lon="-4.760150"><ele>36.0</ele></trkpt>
    <trkpt lat="48.337591" lon="-4.760692"><ele>28.2</ele></trkpt>
    <trkpt lat="48.338653" lon="-4.760559"><ele>24.8</ele></trkpt>
    <trkpt lat="48.339498" lon="-4.760973"><ele>29.2</ele></trkpt>
    <trkpt lat="48.339700" lon="-4.761010"><ele>29.2</ele></trkpt>
    <trkpt lat="48.340325" lon="-4.761432"><ele>35.0</ele></trkpt>
    <trkpt lat="48.340503" lon="-4.761607"><ele>35.2</ele></trkpt>
    <trkpt lat="48.341123" lon="-4.761972"><ele>38.6</ele></trkpt>
    <trkpt lat="48.341297" lon="-4.761821"><ele>38.6</ele></trkpt>
    <trkpt lat="48.341464" lon="-4.760837"><ele>39.8</ele></trkpt>
    <trkpt lat="48.341586" lon="-4.760554"><ele>40.0</ele></trkpt>
    <trkpt lat="48.341902" lon="-4.759574"><ele>40.0</ele></trkpt>
    <trkpt lat="48.343097" lon="-4.759734"><ele>42.8</ele></trkpt>
    <trkpt lat="48.343319" lon="-4.759640"><ele>42.8</ele></trkpt>
    <trkpt lat="48.344020" lon="-4.759554"><ele>43.8</ele></trkpt>
    <trkpt lat="48.344212" lon="-4.759620"><ele>43.8</ele></trkpt>
    <trkpt lat="48.344206" lon="-4.757740"><ele>44.6</ele></trkpt>
    <trkpt lat="48.345227" lon="-4.757098"><ele>45.8</ele></trkpt>
    <trkpt lat="48.345335" lon="-4.757070"><ele>45.8</ele></trkpt>
    <trkpt lat="48.346987" lon="-4.757404"><ele>42.8</ele></trkpt>
    <trkpt lat="48.348074" lon="-4.757419"><ele>38.6</ele></trkpt>
    <trkpt lat="48.348239" lon="-4.757382"><ele>38.8</ele></trkpt>
    <trkpt lat="48.348500" lon="-4.759081"><ele>36.0</ele></trkpt>
    <trkpt lat="48.348699" lon="-4.759239"><ele>35.8</ele></trkpt>
    <trkpt lat="48.349530" lon="-4.759417"><ele>37.6</ele></trkpt>
    <trkpt lat="48.350381" lon="-4.760174"><ele>39.6</ele></trkpt>
    <trkpt lat="48.350997" lon="-4.760784"><ele>42.0</ele></trkpt>
    <trkpt lat="48.351831" lon="-4.761377"><ele>46.0</ele></trkpt>
    <trkpt lat="48.351946" lon="-4.761516"><ele>46.4</ele></trkpt>
    <trkpt lat="48.352622" lon="-4.762033"><ele>49.4</ele></trkpt>
    <trkpt lat="48.353429" lon="-4.762029"><ele>49.8</ele></trkpt>
    <trkpt lat="48.354582" lon="-4.761930"><ele>48.6</ele></trkpt>
    <trkpt lat="48.354960" lon="-4.761749"><ele>47.8</ele></trkpt>
    <trkpt lat="48.356289" lon="-4.761409"><ele>41.6</ele></trkpt>
    <trkpt lat="48.356850" lon="-4.761948"><ele>33.0</ele></trkpt>
    <trkpt lat="48.356872" lon="-4.762047"><ele>33.0</ele></trkpt>
    <trkpt lat="48.357155" lon="-4.762574"><ele>30.2</ele></trkpt>
    <trkpt lat="48.357782" lon="-4.761797"><ele>19.4</ele></trkpt>
    <trkpt lat="48.357858" lon="-4.761633"><ele>19.6</ele></trkpt>
    <trkpt lat="48.358020" lon="-4.761552"><ele>19.6</ele></trkpt>
    <trkpt lat="48.358944" lon="-4.762224"><ele>9.8</ele></trkpt>
    <trkpt lat="48.359887" lon="-4.762810"><ele>5.0</ele></trkpt>
    <trkpt lat="48.360534" lon="-4.762268"><ele>2.6</ele></trkpt>
    <trkpt lat="48.360573" lon="-4.762447"><ele>2.6</ele></trkpt>
    <trkpt lat="48.360938" lon="-4.763436"><ele>4.0</ele></trkpt>
    <trkpt lat="48.360999" lon="-4.763520"><ele>3.8</ele></trkpt>
    <trkpt lat="48.361308" lon="-4.764430"><ele>3.8</ele></trkpt>
    <trkpt lat="48.361520" lon="-4.766283"><ele>3.6</ele></trkpt>
    <trkpt lat="48.362107" lon="-4.766899"><ele>1.8</ele></trkpt>
    <trkpt lat="48.363378" lon="-4.766107"><ele>3.2</ele></trkpt>
    <trkpt lat="48.363711" lon="-4.765941"><ele>3.8</ele></trkpt>
    <trkpt lat="48.363429" lon="-4.765164"><ele>3.6</ele></trkpt>
    <trkpt lat="48.363426" lon="-4.765003"><ele>3.6</ele></trkpt>
    <trkpt lat="48.363565" lon="-4.761323"><ele>3.4</ele></trkpt>
    <trkpt lat="48.363533" lon="-4.761089"><ele>3.4</ele></trkpt>
    <trkpt lat="48.363636" lon="-4.759619"><ele>3.8</ele></trkpt>
    <trkpt lat="48.363804" lon="-4.758513"><ele>4.2</ele></trkpt>
    <trkpt lat="48.363806" lon="-4.758175"><ele>4.4</ele></trkpt>
    <trkpt lat="48.364230" lon="-4.757420"><ele>8.0</ele></trkpt>
    <trkpt lat="48.364004" lon="-4.756292"><ele>6.0</ele></trkpt>
    <trkpt lat="48.363916" lon="-4.756235"><ele>6.0</ele></trkpt>
    <trkpt lat="48.363998" lon="-4.755122"><ele>6.6</ele></trkpt>
    <trkpt lat="48.364140" lon="-4.755048"><ele>6.6</ele></trkpt>
    <trkpt lat="48.364546" lon="-4.754159"><ele>7.4</ele></trkpt>
    <trkpt lat="48.364777" lon="-4.753053"><ele>5.2</ele></trkpt>
    <trkpt lat="48.364804" lon="-4.753020"><ele>5.4</ele></trkpt>
    <trkpt lat="48.365369" lon="-4.752463"><ele>11.4</ele></trkpt>
    <trkpt lat="48.365478" lon="-4.752579"><ele>11.6</ele></trkpt>
    <trkpt lat="48.366085" lon="-4.752483"><ele>23.2</ele></trkpt>
    <trkpt lat="48.366328" lon="-4.752765"><ele>24.8</ele></trkpt>
    <trkpt lat="48.366758" lon="-4.751959"><ele>29.0</ele></trkpt>
    <trkpt lat="48.367428" lon="-4.750818"><ele>30.6</ele></trkpt>
    <trkpt lat="48.367542" lon="-4.750702"><ele>30.4</ele></trkpt>
    <trkpt lat="48.368155" lon="-4.750417"><ele>-16.8</ele></trkpt>
    <trkpt lat="48.368157" lon="-4.750559"><ele>-16.2</ele></trkpt>
    <trkpt lat="48.368843" lon="-4.751870"><ele>39.2</ele></trkpt>
    <trkpt lat="48.369482" lon="-4.752948"><ele>40.2</ele></trkpt>
    <trkpt lat="48.369623" lon="-4.752947"><ele>40.4</ele></trkpt>
    <trkpt lat="48.370346" lon="-4.753720"><ele>34.6</ele></trkpt>
    <trkpt lat="48.370418" lon="-4.753884"><ele>34.6</ele></trkpt>
    <trkpt lat="48.370854" lon="-4.754281"><ele>33.4</ele></trkpt>
    <trkpt lat="48.371003" lon="-4.754110"><ele>33.6</ele></trkpt>
    <trkpt lat="48.371638" lon="-4.753937"><ele>32.6</ele></trkpt>
    <trkpt lat="48.371913" lon="-4.755858"><ele>28.6</ele></trkpt>
    <trkpt lat="48.371894" lon="-4.757383"><ele>25.0</ele></trkpt>
    <trkpt lat="48.371842" lon="-4.757706"><ele>24.8</ele></trkpt>
    <trkpt lat="48.372101" lon="-4.758617"><ele>27.4</ele></trkpt>
    <trkpt lat="48.372088" lon="-4.759605"><ele>14.8</ele></trkpt>
    <trkpt lat="48.371989" lon="-4.759874"><ele>13.4</ele></trkpt>
    <trkpt lat="48.371598" lon="-4.760366"><ele>14.2</ele></trkpt>
    <trkpt lat="48.370998" lon="-4.760897"><ele>21.0</ele></trkpt>
    <trkpt lat="48.370956" lon="-4.760994"><ele>21.2</ele></trkpt>
    <trkpt lat="48.370263" lon="-4.761280"><ele>22.8</ele></trkpt>
    <trkpt lat="48.370164" lon="-4.761278"><ele>23.2</ele></trkpt>
    <trkpt lat="48.369413" lon="-4.761725"><ele>27.2</ele></trkpt>
    <trkpt lat="48.369093" lon="-4.762714"><ele>22.8</ele></trkpt>
    <trkpt lat="48.368572" lon="-4.762930"><ele>22.0</ele></trkpt>
    <trkpt lat="48.368458" lon="-4.763130"><ele>22.2</ele></trkpt>
    <trkpt lat="48.367844" lon="-4.763630"><ele>19.0</ele></trkpt>
    <trkpt lat="48.367231" lon="-4.766220"><ele>12.0</ele></trkpt>
    <trkpt lat="48.367059" lon="-4.766216"><ele>12.8</ele></trkpt>
    <trkpt lat="48.366367" lon="-4.766905"><ele>12.2</ele></trkpt>
    <trkpt lat="48.365924" lon="-4.767184"><ele>17.8</ele></trkpt>
    <trkpt lat="48.365911" lon="-4.767257"><ele>17.8</ele></trkpt>
    <trkpt lat="48.365952" lon="-4.767426"><ele>18.0</ele></trkpt>
    <trkpt lat="48.365586" lon="-4.768380"><ele>11.6</ele></trkpt>
    <trkpt lat="48.364793" lon="-4.769775"><ele>12.6</ele></trkpt>
    <trkpt lat="48.364605" lon="-4.770564"><ele>20.6</ele></trkpt>
    <trkpt lat="48.364650" lon="-4.770701"><ele>20.4</ele></trkpt>
    <trkpt lat="48.364641" lon="-4.770967"><ele>20.4</ele></trkpt>
    <trkpt lat="48.364919" lon="-4.771326"><ele>14.8</ele></trkpt>
    <trkpt lat="48.364982" lon="-4.771353"><ele>15.0</ele></trkpt>
    <trkpt lat="48.365052" lon="-4.771477"><ele>15.0</ele></trkpt>
    <trkpt lat="48.364850" lon="-4.772507"><ele>14.6</ele></trkpt>
    <trkpt lat="48.364742" lon="-4.772750"><ele>14.6</ele></trkpt>
    <trkpt lat="48.364321" lon="-4.774273"><ele>11.4</ele></trkpt>
    <trkpt lat="48.364036" lon="-4.774512"><ele>12.4</ele></trkpt>
    <trkpt lat="48.364104" lon="-4.775781"><ele>9.6</ele></trkpt>
    <trkpt lat="48.364041" lon="-4.775951"><ele>9.8</ele></trkpt>
    <trkpt lat="48.364217" lon="-4.776924"><ele>13.2</ele></trkpt>
    <trkpt lat="48.364110" lon="-4.778217"><ele>16.4</ele></trkpt>
    <trkpt lat="48.364162" lon="-4.779433"><ele>16.6</ele></trkpt>
    <trkpt lat="48.365284" lon="-4.780560"><ele>12.8</ele></trkpt>
    <trkpt lat="48.365956" lon="-4.781291"><ele>13.2</ele></trkpt>
    <trkpt lat="48.366003" lon="-4.781567"><ele>14.6</ele></trkpt>
    <trkpt lat="48.365991" lon="-4.782477"><ele>27.0</ele></trkpt>
    <trkpt lat="48.366761" lon="-4.784497"><ele>18.2</ele></trkpt>
    <trkpt lat="48.366836" lon="-4.784542"><ele>18.2</ele></trkpt>
    <trkpt lat="48.367517" lon="-4.784268"><ele>19.4</ele></trkpt>
    <trkpt lat="48.367932" lon="-4.784770"><ele>12.0</ele></trkpt>
    <trkpt lat="48.368138" lon="-4.785718"><ele>20.0</ele></trkpt>
    <trkpt lat="48.368119" lon="-4.785954"><ele>20.6</ele></trkpt>
    <trkpt lat="48.367828" lon="-4.786296"><ele>26.6</ele></trkpt>
    <trkpt lat="48.367729" lon="-4.786507"><ele>26.6</ele></trkpt>
    <trkpt lat="48.367151" lon="-4.786614"><ele>19.8</ele></trkpt>
    <trkpt lat="48.367067" lon="-4.786506"><ele>20.0</ele></trkpt>
    <trkpt lat="48.366908" lon="-4.785491"><ele>20.0</ele></trkpt>
    <trkpt lat="48.366853" lon="-4.785295"><ele>19.2</ele></trkpt>
    <trkpt lat="48.366426" lon="-4.784314"><ele>19.4</ele></trkpt>
    <trkpt lat="48.366348" lon="-4.784461"><ele>19.8</ele></trkpt>
    <trkpt lat="48.365477" lon="-4.785292"><ele>18.0</ele></trkpt>
    <trkpt lat="48.365325" lon="-4.785503"><ele>18.2</ele></trkpt>
    <trkpt lat="48.364921" lon="-4.785827"><ele>19.6</ele></trkpt>
    <trkpt lat="48.363603" lon="-4.786111"><ele>23.8</ele></trkpt>
    <trkpt lat="48.362802" lon="-4.786586"><ele>23.8</ele></trkpt>
    <trkpt lat="48.362906" lon="-4.786564"><ele>24.0</ele></trkpt>
    <trkpt lat="48.362773" lon="-4.786555"><ele>6.0</ele></trkpt>
    <trkpt lat="48.362859" lon="-4.786521"><ele>24.0</ele></trkpt>
    <trkpt lat="48.362823" lon="-4.786481"><ele>24.2</ele></trkpt>
    <trkpt lat="48.362852" lon="-4.786552"><ele>22.4</ele></trkpt>
    <trkpt lat="48.362752" lon="-4.786556"><ele>24.4</ele></trkpt>
    <trkpt lat="48.362179" lon="-4.786235"><ele>25.4</ele></trkpt>
    <trkpt lat="48.362106" lon="-4.786241"><ele>25.0</ele></trkpt>
    <trkpt lat="48.361818" lon="-4.785153"><ele>24.2</ele></trkpt>
    <trkpt lat="48.361992" lon="-4.784792"><ele>23.8</ele></trkpt>
    <trkpt lat="48.361817" lon="-4.783134"><ele>22.6</ele></trkpt>
    <trkpt lat="48.362245" lon="-4.781365"><ele>23.4</ele></trkpt>
    <trkpt lat="48.362707" lon="-4.779858"><ele>19.8</ele></trkpt>
    <trkpt lat="48.362816" lon="-4.779808"><ele>20.6</ele></trkpt>
    <trkpt lat="48.362919" lon="-4.778667"><ele>20.0</ele></trkpt>
    <trkpt lat="48.362969" lon="-4.778489"><ele>19.8</ele></trkpt>
    <trkpt lat="48.363767" lon="-4.777668"><ele>21.2</ele></trkpt>
    <trkpt lat="48.363846" lon="-4.777449"><ele>21.2</ele></trkpt>
    <trkpt lat="48.363992" lon="-4.776135"><ele>9.0</ele></trkpt>
    <trkpt lat="48.363945" lon="-4.775606"><ele>9.2</ele></trkpt>
    <trkpt lat="48.363916" lon="-4.774674"><ele>10.0</ele></trkpt>
    <trkpt lat="48.363943" lon="-4.774529"><ele>10.6</ele></trkpt>
    <trkpt lat="48.363490" lon="-4.773036"><ele>9.4</ele></trkpt>
    <trkpt lat="48.363879" lon="-4.772460"><ele>19.4</ele></trkpt>
    <trkpt lat="48.364023" lon="-4.772444"><ele>19.8</ele></trkpt>
    <trkpt lat="48.364041" lon="-4.771268"><ele>15.6</ele></trkpt>
    <trkpt lat="48.364105" lon="-4.769886"><ele>15.0</ele></trkpt>
    <trkpt lat="48.364062" lon="-4.769969"><ele>14.6</ele></trkpt>
    <trkpt lat="48.363547" lon="-4.770523"><ele>5.2</ele></trkpt>
    <trkpt lat="48.363582" lon="-4.770247"><ele>5.0</ele></trkpt>
    <trkpt lat="48.363561" lon="-4.769022"><ele>2.6</ele></trkpt>
    <trkpt lat="48.363582" lon="-4.767978"><ele>2.6</ele></trkpt>
    <trkpt lat="48.363688" lon="-4.766478"><ele>3.6</ele></trkpt>
    <trkpt lat="48.363488" lon="-4.765993"><ele>3.6</ele></trkpt>
    <trkpt lat="48.363231" lon="-4.766253"><ele>3.4</ele></trkpt>
    <trkpt lat="48.362231" lon="-4.766728"><ele>1.8</ele></trkpt>
    <trkpt lat="48.362083" lon="-4.766836"><ele>1.8</ele></trkpt>
    <trkpt lat="48.362121" lon="-4.768187"><ele>5.0</ele></trkpt>
    <trkpt lat="48.361794" lon="-4.769644"><ele>6.4</ele></trkpt>
    <trkpt lat="48.361890" lon="-4.771612"><ele>2.4</ele></trkpt>
    <trkpt lat="48.361836" lon="-4.771698"><ele>2.6</ele></trkpt>
    <trkpt lat="48.361732" lon="-4.772021"><ele>3.0</ele></trkpt>
    <trkpt lat="48.361531" lon="-4.772913"><ele>8.8</ele></trkpt>
    <trkpt lat="48.361424" lon="-4.772925"><ele>9.2</ele></trkpt>
    <trkpt lat="48.361320" lon="-4.773059"><ele>9.8</ele></trkpt>
    <trkpt lat="48.361267" lon="-4.774127"><ele>4.0</ele></trkpt>
    <trkpt lat="48.361363" lon="-4.774399"><ele>4.6</ele></trkpt>
    <trkpt lat="48.361134" lon="-4.775662"><ele>9.4</ele></trkpt>
    <trkpt lat="48.361061" lon="-4.775886"><ele>9.4</ele></trkpt>
    <trkpt lat="48.360896" lon="-4.776893"><ele>8.0</ele></trkpt>
    <trkpt lat="48.360805" lon="-4.777047"><ele>8.0</ele></trkpt>
    <trkpt lat="48.359866" lon="-4.777919"><ele>11.0</ele></trkpt>
    <trkpt lat="48.359167" lon="-4.779315"><ele>11.6</ele></trkpt>
    <trkpt lat="48.358526" lon="-4.779706"><ele>19.2</ele></trkpt>
    <trkpt lat="48.358397" lon="-4.779673"><ele>19.2</ele></trkpt>
    <trkpt lat="48.357850" lon="-4.779280"><ele>16.0</ele></trkpt>
    <trkpt lat="48.356975" lon="-4.778224"><ele>8.4</ele></trkpt>
    <trkpt lat="48.356811" lon="-4.777506"><ele>13.0</ele></trkpt>
    <trkpt lat="48.356685" lon="-4.777803"><ele>13.8</ele></trkpt>
    <trkpt lat="48.355846" lon="-4.778188"><ele>17.0</ele></trkpt>
    <trkpt lat="48.355280" lon="-4.778869"><ele>21.4</ele></trkpt>
    <trkpt lat="48.355184" lon="-4.778913"><ele>21.0</ele></trkpt>
    <trkpt lat="48.354558" lon="-4.779523"><ele>29.6</ele></trkpt>
    <trkpt lat="48.353675" lon="-4.779464"><ele>29.8</ele></trkpt>
    <trkpt lat="48.352806" lon="-4.777830"><ele>32.4</ele></trkpt>
    <trkpt lat="48.352668" lon="-4.777735"><ele>32.4</ele></trkpt>
    <trkpt lat="48.352134" lon="-4.776446"><ele>23.2</ele></trkpt>
    <trkpt lat="48.352041" lon="-4.776363"><ele>23.2</ele></trkpt>
    <trkpt lat="48.352060" lon="-4.774786"><ele>14.6</ele></trkpt>
    <trkpt lat="48.351381" lon="-4.774647"><ele>12.0</ele></trkpt>
    <trkpt lat="48.351267" lon="-4.774667"><ele>12.6</ele></trkpt>
    <trkpt lat="48.350964" lon="-4.774143"><ele>20.4</ele></trkpt>
    <trkpt lat="48.350829" lon="-4.774141"><ele>20.0</ele></trkpt>
    <trkpt lat="48.350043" lon="-4.773472"><ele>19.4</ele></trkpt>
    <trkpt lat="48.349421" lon="-4.772620"><ele>21.8</ele></trkpt>
    <trkpt lat="48.349325" lon="-4.772548"><ele>20.4</ele></trkpt>
    <trkpt lat="48.348828" lon="-4.771190"><ele>15.6</ele></trkpt>
    <trkpt lat="48.348827" lon="-4.771098"><ele>15.8</ele></trkpt>
    <trkpt lat="48.348255" lon="-4.770697"><ele>15.2</ele></trkpt>
    <trkpt lat="48.347619" lon="-4.769884"><ele>10.2</ele></trkpt>
    <trkpt lat="48.347579" lon="-4.770000"><ele>10.2</ele></trkpt>
    <trkpt lat="48.346908" lon="-4.769830"><ele>13.8</ele></trkpt>
    <trkpt lat="48.346797" lon="-4.769844"><ele>14.0</ele></trkpt>
    <trkpt lat="48.345968" lon="-4.770302"><ele>15.0</ele></trkpt>
    <trkpt lat="48.345816" lon="-4.770463"><ele>15.0</ele></trkpt>
    <trkpt lat="48.343970" lon="-4.771868"><ele>12.0</ele></trkpt>
    <trkpt lat="48.343778" lon="-4.771861"><ele>11.8</ele></trkpt>
    <trkpt lat="48.343093" lon="-4.771389"><ele>8.6</ele></trkpt>
    <trkpt lat="48.342763" lon="-4.771509"><ele>11.0</ele></trkpt>
    <trkpt lat="48.342178" lon="-4.771607"><ele>13.8</ele></trkpt>
    <trkpt lat="48.342117" lon="-4.771654"><ele>14.0</ele></trkpt>
    <trkpt lat="48.341383" lon="-4.771755"><ele>20.0</ele></trkpt>
    <trkpt lat="48.340532" lon="-4.772749"><ele>11.2</ele></trkpt>
    <trkpt lat="48.340375" lon="-4.772719"><ele>10.2</ele></trkpt>
    <trkpt lat="48.339654" lon="-4.772382"><ele>17.4</ele></trkpt>
    <trkpt lat="48.339616" lon="-4.772439"><ele>17.6</ele></trkpt>
    <trkpt lat="48.339570" lon="-4.772655"><ele>18.0</ele></trkpt>
    <trkpt lat="48.339178" lon="-4.773152"><ele>18.0</ele></trkpt>
    <trkpt lat="48.339072" lon="-4.773340"><ele>18.6</ele></trkpt>
    <trkpt lat="48.338486" lon="-4.773951"><ele>16.0</ele></trkpt>
    <trkpt lat="48.337649" lon="-4.774277"><ele>17.2</ele></trkpt>
    <trkpt lat="48.337577" lon="-4.774143"><ele>17.6</ele></trkpt>
    <trkpt lat="48.336611" lon="-4.774757"><ele>17.6</ele></trkpt>
    <trkpt lat="48.335914" lon="-4.773996"><ele>7.4</ele></trkpt>
    <trkpt lat="48.335943" lon="-4.773810"><ele>7.6</ele></trkpt>
    <trkpt lat="48.335600" lon="-4.772159"><ele>12.6</ele></trkpt>
    <trkpt lat="48.335507" lon="-4.771865"><ele>12.2</ele></trkpt>
    <trkpt lat="48.335147" lon="-4.771231"><ele>10.6</ele></trkpt>
    <trkpt lat="48.335130" lon="-4.771280"><ele>10.2</ele></trkpt>
    <trkpt lat="48.334493" lon="-4.771571"><ele>16.4</ele></trkpt>
    <trkpt lat="48.333626" lon="-4.771527"><ele>16.0</ele></trkpt>
    <trkpt lat="48.332805" lon="-4.771789"><ele>19.2</ele></trkpt>
    <trkpt lat="48.332660" lon="-4.771936"><ele>18.6</ele></trkpt>
    <trkpt lat="48.331962" lon="-4.772903"><ele>13.6</ele></trkpt>
    <trkpt lat="48.331002" lon="-4.773374"><ele>18.2</ele></trkpt>
    <trkpt lat="48.330324" lon="-4.772571"><ele>14.4</ele></trkpt>
    <trkpt lat="48.330469" lon="-4.772110"><ele>14.4</ele></trkpt>
    <trkpt lat="48.329722" lon="-4.771818"><ele>18.4</ele></trkpt>
    <trkpt lat="48.329570" lon="-4.771628"><ele>18.4</ele></trkpt>
    <trkpt lat="48.329894" lon="-4.770207"><ele>26.4</ele></trkpt>
    <trkpt lat="48.330384" lon="-4.769905"><ele>28.8</ele></trkpt>
  </trkseg></trk>
</gpx>
