<?xml version="1.0" encoding="UTF-8"?>
<gpx version="1.1" creator="tcap-parcours" xmlns="http://www.topografix.com/GPX/1/1">
  <metadata><name>Tour d'Ouessant – Tour complet, 33,6 km</name></metadata>
  <trk><name>Tour d'Ouessant – Tour complet, 33,6 km</name><trkseg>
    <trkpt lat="48.457279" lon="-5.123189"><ele>20.2</ele></trkpt>
    <trkpt lat="48.457479" lon="-5.123298"><ele>19.8</ele></trkpt>
    <trkpt lat="48.458052" lon="-5.123467"><ele>18.2</ele></trkpt>
    <trkpt lat="48.458059" lon="-5.123569"><ele>18.0</ele></trkpt>
    <trkpt lat="48.457945" lon="-5.124288"><ele>16.4</ele></trkpt>
    <trkpt lat="48.457970" lon="-5.124676"><ele>15.6</ele></trkpt>
    <trkpt lat="48.458105" lon="-5.125159"><ele>15.2</ele></trkpt>
    <trkpt lat="48.458633" lon="-5.126300"><ele>15.0</ele></trkpt>
    <trkpt lat="48.458737" lon="-5.126607"><ele>15.2</ele></trkpt>
    <trkpt lat="48.458810" lon="-5.127141"><ele>16.4</ele></trkpt>
    <trkpt lat="48.458844" lon="-5.127989"><ele>19.4</ele></trkpt>
    <trkpt lat="48.458900" lon="-5.128521"><ele>21.2</ele></trkpt>
    <trkpt lat="48.458997" lon="-5.128681"><ele>22.0</ele></trkpt>
    <trkpt lat="48.459266" lon="-5.128336"><ele>22.0</ele></trkpt>
    <trkpt lat="48.459321" lon="-5.128314"><ele>22.2</ele></trkpt>
    <trkpt lat="48.459722" lon="-5.129021"><ele>22.8</ele></trkpt>
    <trkpt lat="48.459717" lon="-5.129088"><ele>22.8</ele></trkpt>
    <trkpt lat="48.459555" lon="-5.129392"><ele>22.8</ele></trkpt>
    <trkpt lat="48.459536" lon="-5.129485"><ele>22.8</ele></trkpt>
    <trkpt lat="48.459637" lon="-5.130236"><ele>19.0</ele></trkpt>
    <trkpt lat="48.459608" lon="-5.130618"><ele>20.8</ele></trkpt>
    <trkpt lat="48.459505" lon="-5.130867"><ele>21.8</ele></trkpt>
    <trkpt lat="48.459109" lon="-5.131309"><ele>21.0</ele></trkpt>
    <trkpt lat="48.458971" lon="-5.131563"><ele>17.8</ele></trkpt>
    <trkpt lat="48.458890" lon="-5.131844"><ele>15.8</ele></trkpt>
    <trkpt lat="48.458961" lon="-5.132072"><ele>12.2</ele></trkpt>
    <trkpt lat="48.458937" lon="-5.132201"><ele>12.2</ele></trkpt>
    <trkpt lat="48.458879" lon="-5.132301"><ele>12.8</ele></trkpt>
    <trkpt lat="48.458696" lon="-5.132344"><ele>14.6</ele></trkpt>
    <trkpt lat="48.458381" lon="-5.132581"><ele>18.4</ele></trkpt>
    <trkpt lat="48.458194" lon="-5.132509"><ele>17.4</ele></trkpt>
    <trkpt lat="48.457917" lon="-5.132181"><ele>14.2</ele></trkpt>
    <trkpt lat="48.457776" lon="-5.131950"><ele>11.6</ele></trkpt>
    <trkpt lat="48.457643" lon="-5.132020"><ele>11.6</ele></trkpt>
    <trkpt lat="48.457336" lon="-5.132000"><ele>12.8</ele></trkpt>
    <trkpt lat="48.457183" lon="-5.132067"><ele>13.0</ele></trkpt>
    <trkpt lat="48.456825" lon="-5.132405"><ele>15.0</ele></trkpt>
    <trkpt lat="48.456229" lon="-5.132744"><ele>18.0</ele></trkpt>
    <trkpt lat="48.456164" lon="-5.132664"><ele>19.4</ele></trkpt>
    <trkpt lat="48.456131" lon="-5.132332"><ele>22.0</ele></trkpt>
    <trkpt lat="48.456077" lon="-5.132251"><ele>22.4</ele></trkpt>
    <trkpt lat="48.455658" lon="-5.132200"><ele>19.4</ele></trkpt>
    <trkpt lat="48.455525" lon="-5.132258"><ele>18.8</ele></trkpt>
    <trkpt lat="48.455339" lon="-5.132516"><ele>18.4</ele></trkpt>
    <trkpt lat="48.455276" lon="-5.133111"><ele>18.2</ele></trkpt>
    <trkpt lat="48.455092" lon="-5.133471"><ele>17.6</ele></trkpt>
    <trkpt lat="48.454701" lon="-5.133937"><ele>18.4</ele></trkpt>
    <trkpt lat="48.454546" lon="-5.134253"><ele>17.4</ele></trkpt>
    <trkpt lat="48.454380" lon="-5.134381"><ele>15.0</ele></trkpt>
    <trkpt lat="48.454052" lon="-5.134850"><ele>10.4</ele></trkpt>
    <trkpt lat="48.453879" lon="-5.135383"><ele>10.6</ele></trkpt>
    <trkpt lat="48.453860" lon="-5.135744"><ele>11.4</ele></trkpt>
    <trkpt lat="48.453824" lon="-5.135860"><ele>11.6</ele></trkpt>
    <trkpt lat="48.453683" lon="-5.135926"><ele>11.4</ele></trkpt>
    <trkpt lat="48.453402" lon="-5.135907"><ele>10.6</ele></trkpt>
    <trkpt lat="48.453177" lon="-5.136250"><ele>9.6</ele></trkpt>
    <trkpt lat="48.452923" lon="-5.136435"><ele>9.8</ele></trkpt>
    <trkpt lat="48.452807" lon="-5.136348"><ele>9.6</ele></trkpt>
    <trkpt lat="48.452725" lon="-5.136337"><ele>9.2</ele></trkpt>
    <trkpt lat="48.452601" lon="-5.136360"><ele>8.8</ele></trkpt>
    <trkpt lat="48.452283" lon="-5.136533"><ele>7.2</ele></trkpt>
    <trkpt lat="48.452094" lon="-5.136859"><ele>6.0</ele></trkpt>
    <trkpt lat="48.451585" lon="-5.138311"><ele>6.4</ele></trkpt>
    <trkpt lat="48.451639" lon="-5.138773"><ele>8.4</ele></trkpt>
    <trkpt lat="48.451624" lon="-5.139320"><ele>10.6</ele></trkpt>
    <trkpt lat="48.451703" lon="-5.139689"><ele>11.4</ele></trkpt>
    <trkpt lat="48.451681" lon="-5.139837"><ele>11.4</ele></trkpt>
    <trkpt lat="48.451600" lon="-5.139856"><ele>11.2</ele></trkpt>
    <trkpt lat="48.451391" lon="-5.139762"><ele>10.2</ele></trkpt>
    <trkpt lat="48.451226" lon="-5.139501"><ele>10.0</ele></trkpt>
    <trkpt lat="48.451092" lon="-5.139382"><ele>10.0</ele></trkpt>
    <trkpt lat="48.450539" lon="-5.139238"><ele>8.4</ele></trkpt>
    <trkpt lat="48.450373" lon="-5.139238"><ele>8.2</ele></trkpt>
    <trkpt lat="48.450314" lon="-5.139274"><ele>7.8</ele></trkpt>
    <trkpt lat="48.450142" lon="-5.139584"><ele>6.8</ele></trkpt>
    <trkpt lat="48.449758" lon="-5.139866"><ele>8.2</ele></trkpt>
    <trkpt lat="48.449691" lon="-5.140031"><ele>9.4</ele></trkpt>
    <trkpt lat="48.449712" lon="-5.140140"><ele>10.0</ele></trkpt>
    <trkpt lat="48.449678" lon="-5.140431"><ele>11.0</ele></trkpt>
    <trkpt lat="48.449492" lon="-5.140776"><ele>10.4</ele></trkpt>
    <trkpt lat="48.449193" lon="-5.140656"><ele>11.4</ele></trkpt>
    <trkpt lat="48.448966" lon="-5.140364"><ele>12.4</ele></trkpt>
    <trkpt lat="48.448842" lon="-5.140035"><ele>12.6</ele></trkpt>
    <trkpt lat="48.448642" lon="-5.139765"><ele>12.2</ele></trkpt>
    <trkpt lat="48.448668" lon="-5.139116"><ele>13.4</ele></trkpt>
    <trkpt lat="48.448579" lon="-5.138760"><ele>11.8</ele></trkpt>
    <trkpt lat="48.448960" lon="-5.138275"><ele>11.4</ele></trkpt>
    <trkpt lat="48.448993" lon="-5.137977"><ele>11.0</ele></trkpt>
    <trkpt lat="48.449090" lon="-5.137953"><ele>10.6</ele></trkpt>
    <trkpt lat="48.449205" lon="-5.137817"><ele>10.2</ele></trkpt>
    <trkpt lat="48.449472" lon="-5.137685"><ele>8.8</ele></trkpt>
    <trkpt lat="48.449969" lon="-5.137337"><ele>7.8</ele></trkpt>
    <trkpt lat="48.450188" lon="-5.137034"><ele>7.8</ele></trkpt>
    <trkpt lat="48.450403" lon="-5.136599"><ele>9.2</ele></trkpt>
    <trkpt lat="48.450189" lon="-5.135609"><ele>10.6</ele></trkpt>
    <trkpt lat="48.450097" lon="-5.135328"><ele>13.0</ele></trkpt>
    <trkpt lat="48.449871" lon="-5.135141"><ele>14.6</ele></trkpt>
    <trkpt lat="48.449807" lon="-5.135037"><ele>15.4</ele></trkpt>
    <trkpt lat="48.449754" lon="-5.134855"><ele>16.0</ele></trkpt>
    <trkpt lat="48.449435" lon="-5.134734"><ele>14.4</ele></trkpt>
    <trkpt lat="48.448981" lon="-5.133706"><ele>15.0</ele></trkpt>
    <trkpt lat="48.448967" lon="-5.133567"><ele>14.2</ele></trkpt>
    <trkpt lat="48.449004" lon="-5.133477"><ele>13.6</ele></trkpt>
    <trkpt lat="48.449419" lon="-5.133174"><ele>14.0</ele></trkpt>
    <trkpt lat="48.449497" lon="-5.133066"><ele>14.4</ele></trkpt>
    <trkpt lat="48.449528" lon="-5.132958"><ele>14.4</ele></trkpt>
    <trkpt lat="48.449502" lon="-5.132699"><ele>14.8</ele></trkpt>
    <trkpt lat="48.449264" lon="-5.131954"><ele>15.4</ele></trkpt>
    <trkpt lat="48.449256" lon="-5.131655"><ele>14.8</ele></trkpt>
    <trkpt lat="48.449292" lon="-5.131521"><ele>14.4</ele></trkpt>
    <trkpt lat="48.450179" lon="-5.129789"><ele>20.6</ele></trkpt>
    <trkpt lat="48.450323" lon="-5.129603"><ele>20.8</ele></trkpt>
    <trkpt lat="48.450512" lon="-5.129222"><ele>20.4</ele></trkpt>
    <trkpt lat="48.450573" lon="-5.128274"><ele>18.0</ele></trkpt>
    <trkpt lat="48.450505" lon="-5.127804"><ele>19.0</ele></trkpt>
    <trkpt lat="48.450514" lon="-5.127372"><ele>19.2</ele></trkpt>
    <trkpt lat="48.450776" lon="-5.126500"><ele>19.6</ele></trkpt>
    <trkpt lat="48.450998" lon="-5.126063"><ele>17.4</ele></trkpt>
    <trkpt lat="48.450821" lon="-5.125462"><ele>15.8</ele></trkpt>
    <trkpt lat="48.450915" lon="-5.125372"><ele>16.0</ele></trkpt>
    <trkpt lat="48.451222" lon="-5.125235"><ele>17.6</ele></trkpt>
    <trkpt lat="48.451378" lon="-5.125101"><ele>17.8</ele></trkpt>
    <trkpt lat="48.451777" lon="-5.124354"><ele>18.0</ele></trkpt>
    <trkpt lat="48.452073" lon="-5.124276"><ele>18.0</ele></trkpt>
    <trkpt lat="48.452521" lon="-5.123775"><ele>18.2</ele></trkpt>
    <trkpt lat="48.452843" lon="-5.123696"><ele>18.2</ele></trkpt>
    <trkpt lat="48.452935" lon="-5.123491"><ele>18.8</ele></trkpt>
    <trkpt lat="48.452937" lon="-5.123055"><ele>21.4</ele></trkpt>
    <trkpt lat="48.452983" lon="-5.122686"><ele>22.6</ele></trkpt>
    <trkpt lat="48.453162" lon="-5.122177"><ele>21.6</ele></trkpt>
    <trkpt lat="48.453287" lon="-5.121294"><ele>21.4</ele></trkpt>
    <trkpt lat="48.453379" lon="-5.120887"><ele>20.6</ele></trkpt>
    <trkpt lat="48.453474" lon="-5.120619"><ele>20.2</ele></trkpt>
    <trkpt lat="48.453394" lon="-5.120162"><ele>21.0</ele></trkpt>
    <trkpt lat="48.453325" lon="-5.119233"><ele>25.2</ele></trkpt>
    <trkpt lat="48.453375" lon="-5.118719"><ele>26.4</ele></trkpt>
    <trkpt lat="48.453415" lon="-5.117708"><ele>29.2</ele></trkpt>
    <trkpt lat="48.453407" lon="-5.116881"><ele>28.8</ele></trkpt>
    <trkpt lat="48.453600" lon="-5.115279"><ele>25.6</ele></trkpt>
    <trkpt lat="48.453681" lon="-5.114930"><ele>24.0</ele></trkpt>
    <trkpt lat="48.453898" lon="-5.114247"><ele>22.4</ele></trkpt>
    <trkpt lat="48.454114" lon="-5.113083"><ele>18.8</ele></trkpt>
    <trkpt lat="48.454126" lon="-5.112784"><ele>18.8</ele></trkpt>
    <trkpt lat="48.454206" lon="-5.112221"><ele>21.2</ele></trkpt>
    <trkpt lat="48.454378" lon="-5.111710"><ele>22.0</ele></trkpt>
    <trkpt lat="48.454439" lon="-5.111148"><ele>21.8</ele></trkpt>
    <trkpt lat="48.454452" lon="-5.110732"><ele>22.4</ele></trkpt>
    <trkpt lat="48.454552" lon="-5.110185"><ele>22.0</ele></trkpt>
    <trkpt lat="48.454647" lon="-5.108638"><ele>20.6</ele></trkpt>
    <trkpt lat="48.454821" lon="-5.107609"><ele>19.8</ele></trkpt>
    <trkpt lat="48.454968" lon="-5.107105"><ele>18.6</ele></trkpt>
    <trkpt lat="48.455380" lon="-5.106073"><ele>18.4</ele></trkpt>
    <trkpt lat="48.455551" lon="-5.105463"><ele>17.6</ele></trkpt>
    <trkpt lat="48.455569" lon="-5.105302"><ele>16.6</ele></trkpt>
    <trkpt lat="48.455552" lon="-5.105022"><ele>14.6</ele></trkpt>
    <trkpt lat="48.455597" lon="-5.104730"><ele>12.6</ele></trkpt>
    <trkpt lat="48.455605" lon="-5.104432"><ele>12.0</ele></trkpt>
    <trkpt lat="48.455685" lon="-5.103877"><ele>12.6</ele></trkpt>
    <trkpt lat="48.455853" lon="-5.103136"><ele>15.0</ele></trkpt>
    <trkpt lat="48.455907" lon="-5.102716"><ele>14.2</ele></trkpt>
    <trkpt lat="48.456032" lon="-5.102191"><ele>13.2</ele></trkpt>
    <trkpt lat="48.456203" lon="-5.101769"><ele>13.8</ele></trkpt>
    <trkpt lat="48.456308" lon="-5.100994"><ele>13.8</ele></trkpt>
    <trkpt lat="48.456425" lon="-5.100604"><ele>14.0</ele></trkpt>
    <trkpt lat="48.456471" lon="-5.100257"><ele>14.6</ele></trkpt>
    <trkpt lat="48.456685" lon="-5.099568"><ele>15.2</ele></trkpt>
    <trkpt lat="48.456760" lon="-5.099202"><ele>15.0</ele></trkpt>
    <trkpt lat="48.456731" lon="-5.098821"><ele>13.8</ele></trkpt>
    <trkpt lat="48.456680" lon="-5.098680"><ele>12.8</ele></trkpt>
    <trkpt lat="48.456330" lon="-5.098405"><ele>10.0</ele></trkpt>
    <trkpt lat="48.455954" lon="-5.098028"><ele>13.8</ele></trkpt>
    <trkpt lat="48.455795" lon="-5.098021"><ele>15.0</ele></trkpt>
    <trkpt lat="48.455482" lon="-5.097816"><ele>16.4</ele></trkpt>
    <trkpt lat="48.455084" lon="-5.097665"><ele>16.0</ele></trkpt>
    <trkpt lat="48.454638" lon="-5.097699"><ele>15.0</ele></trkpt>
    <trkpt lat="48.454424" lon="-5.097889"><ele>12.6</ele></trkpt>
    <trkpt lat="48.454270" lon="-5.097575"><ele>10.4</ele></trkpt>
    <trkpt lat="48.454256" lon="-5.097347"><ele>8.6</ele></trkpt>
    <trkpt lat="48.454396" lon="-5.097124"><ele>5.6</ele></trkpt>
    <trkpt lat="48.454367" lon="-5.097044"><ele>5.0</ele></trkpt>
    <trkpt lat="48.454389" lon="-5.096938"><ele>5.0</ele></trkpt>
    <trkpt lat="48.454700" lon="-5.096622"><ele>4.2</ele></trkpt>
    <trkpt lat="48.454784" lon="-5.096566"><ele>3.8</ele></trkpt>
    <trkpt lat="48.454951" lon="-5.096577"><ele>3.8</ele></trkpt>
    <trkpt lat="48.455208" lon="-5.096749"><ele>4.0</ele></trkpt>
    <trkpt lat="48.455294" lon="-5.096632"><ele>5.2</ele></trkpt>
    <trkpt lat="48.455586" lon="-5.096523"><ele>5.6</ele></trkpt>
    <trkpt lat="48.455719" lon="-5.096431"><ele>6.2</ele></trkpt>
    <trkpt lat="48.455824" lon="-5.096140"><ele>6.0</ele></trkpt>
    <trkpt lat="48.455925" lon="-5.095473"><ele>6.4</ele></trkpt>
    <trkpt lat="48.455767" lon="-5.095555"><ele>7.8</ele></trkpt>
    <trkpt lat="48.455628" lon="-5.095546"><ele>9.8</ele></trkpt>
    <trkpt lat="48.455405" lon="-5.095396"><ele>12.8</ele></trkpt>
    <trkpt lat="48.455095" lon="-5.095313"><ele>14.2</ele></trkpt>
    <trkpt lat="48.454267" lon="-5.094934"><ele>16.6</ele></trkpt>
    <trkpt lat="48.453754" lon="-5.095116"><ele>16.4</ele></trkpt>
    <trkpt lat="48.453575" lon="-5.095316"><ele>14.4</ele></trkpt>
    <trkpt lat="48.453381" lon="-5.095362"><ele>12.4</ele></trkpt>
    <trkpt lat="48.453326" lon="-5.095163"><ele>12.0</ele></trkpt>
    <trkpt lat="48.453330" lon="-5.094773"><ele>14.2</ele></trkpt>
    <trkpt lat="48.453221" lon="-5.094471"><ele>14.2</ele></trkpt>
    <trkpt lat="48.453155" lon="-5.094152"><ele>13.4</ele></trkpt>
    <trkpt lat="48.452977" lon="-5.093816"><ele>12.6</ele></trkpt>
    <trkpt lat="48.452942" lon="-5.093600"><ele>12.6</ele></trkpt>
    <trkpt lat="48.452960" lon="-5.093361"><ele>13.4</ele></trkpt>
    <trkpt lat="48.452937" lon="-5.093182"><ele>14.2</ele></trkpt>
    <trkpt lat="48.452795" lon="-5.092968"><ele>14.0</ele></trkpt>
    <trkpt lat="48.452374" lon="-5.092479"><ele>8.8</ele></trkpt>
    <trkpt lat="48.452033" lon="-5.092198"><ele>5.8</ele></trkpt>
    <trkpt lat="48.451880" lon="-5.092147"><ele>6.2</ele></trkpt>
    <trkpt lat="48.451629" lon="-5.092180"><ele>8.4</ele></trkpt>
    <trkpt lat="48.451225" lon="-5.092469"><ele>12.8</ele></trkpt>
    <trkpt lat="48.451023" lon="-5.092567"><ele>13.2</ele></trkpt>
    <trkpt lat="48.450913" lon="-5.092578"><ele>13.4</ele></trkpt>
    <trkpt lat="48.450749" lon="-5.092421"><ele>13.0</ele></trkpt>
    <trkpt lat="48.450309" lon="-5.091654"><ele>10.2</ele></trkpt>
    <trkpt lat="48.450180" lon="-5.091585"><ele>10.2</ele></trkpt>
    <trkpt lat="48.449995" lon="-5.091676"><ele>11.2</ele></trkpt>
    <trkpt lat="48.449874" lon="-5.091839"><ele>12.6</ele></trkpt>
    <trkpt lat="48.449554" lon="-5.092479"><ele>14.6</ele></trkpt>
    <trkpt lat="48.449189" lon="-5.092918"><ele>15.6</ele></trkpt>
    <trkpt lat="48.448462" lon="-5.093953"><ele>12.2</ele></trkpt>
    <trkpt lat="48.447913" lon="-5.094560"><ele>10.4</ele></trkpt>
    <trkpt lat="48.447909" lon="-5.094662"><ele>10.0</ele></trkpt>
    <trkpt lat="48.448061" lon="-5.095022"><ele>9.2</ele></trkpt>
    <trkpt lat="48.448077" lon="-5.095408"><ele>10.0</ele></trkpt>
    <trkpt lat="48.448044" lon="-5.095826"><ele>11.2</ele></trkpt>
    <trkpt lat="48.447930" lon="-5.096214"><ele>10.8</ele></trkpt>
    <trkpt lat="48.447852" lon="-5.096766"><ele>8.6</ele></trkpt>
    <trkpt lat="48.447742" lon="-5.097153"><ele>8.4</ele></trkpt>
    <trkpt lat="48.447782" lon="-5.097342"><ele>8.6</ele></trkpt>
    <trkpt lat="48.447739" lon="-5.097475"><ele>9.0</ele></trkpt>
    <trkpt lat="48.447574" lon="-5.097521"><ele>9.6</ele></trkpt>
    <trkpt lat="48.447370" lon="-5.097645"><ele>10.4</ele></trkpt>
    <trkpt lat="48.447255" lon="-5.097773"><ele>11.4</ele></trkpt>
    <trkpt lat="48.447069" lon="-5.097897"><ele>13.6</ele></trkpt>
    <trkpt lat="48.446865" lon="-5.097946"><ele>15.8</ele></trkpt>
    <trkpt lat="48.446624" lon="-5.098182"><ele>18.2</ele></trkpt>
    <trkpt lat="48.446499" lon="-5.098087"><ele>20.6</ele></trkpt>
    <trkpt lat="48.446396" lon="-5.098122"><ele>21.2</ele></trkpt>
    <trkpt lat="48.445894" lon="-5.098073"><ele>13.8</ele></trkpt>
    <trkpt lat="48.445722" lon="-5.097975"><ele>12.0</ele></trkpt>
    <trkpt lat="48.445487" lon="-5.097948"><ele>10.6</ele></trkpt>
    <trkpt lat="48.445289" lon="-5.097843"><ele>9.0</ele></trkpt>
    <trkpt lat="48.444960" lon="-5.098224"><ele>9.0</ele></trkpt>
    <trkpt lat="48.444681" lon="-5.098816"><ele>14.4</ele></trkpt>
    <trkpt lat="48.444561" lon="-5.099202"><ele>14.2</ele></trkpt>
    <trkpt lat="48.444513" lon="-5.099589"><ele>12.4</ele></trkpt>
    <trkpt lat="48.444668" lon="-5.099973"><ele>9.8</ele></trkpt>
    <trkpt lat="48.444743" lon="-5.100354"><ele>9.2</ele></trkpt>
    <trkpt lat="48.444959" lon="-5.100640"><ele>9.2</ele></trkpt>
    <trkpt lat="48.445166" lon="-5.100769"><ele>9.4</ele></trkpt>
    <trkpt lat="48.445290" lon="-5.101004"><ele>9.4</ele></trkpt>
    <trkpt lat="48.445325" lon="-5.101203"><ele>9.6</ele></trkpt>
    <trkpt lat="48.445283" lon="-5.101290"><ele>9.8</ele></trkpt>
    <trkpt lat="48.445179" lon="-5.101359"><ele>10.4</ele></trkpt>
    <trkpt lat="48.445066" lon="-5.101586"><ele>10.8</ele></trkpt>
    <trkpt lat="48.444969" lon="-5.101681"><ele>11.4</ele></trkpt>
    <trkpt lat="48.444873" lon="-5.101709"><ele>11.8</ele></trkpt>
    <trkpt lat="48.444720" lon="-5.101675"><ele>12.2</ele></trkpt>
    <trkpt lat="48.444551" lon="-5.101865"><ele>11.6</ele></trkpt>
    <trkpt lat="48.444419" lon="-5.101942"><ele>11.2</ele></trkpt>
    <trkpt lat="48.444159" lon="-5.101936"><ele>12.0</ele></trkpt>
    <trkpt lat="48.443979" lon="-5.102298"><ele>11.8</ele></trkpt>
    <trkpt lat="48.443942" lon="-5.102630"><ele>11.0</ele></trkpt>
    <trkpt lat="48.443844" lon="-5.102989"><ele>9.8</ele></trkpt>
    <trkpt lat="48.443838" lon="-5.103226"><ele>10.0</ele></trkpt>
    <trkpt lat="48.444073" lon="-5.103521"><ele>11.4</ele></trkpt>
    <trkpt lat="48.444125" lon="-5.103978"><ele>12.8</ele></trkpt>
    <trkpt lat="48.444278" lon="-5.104350"><ele>13.2</ele></trkpt>
    <trkpt lat="48.444484" lon="-5.104619"><ele>13.2</ele></trkpt>
    <trkpt lat="48.444525" lon="-5.104760"><ele>13.4</ele></trkpt>
    <trkpt lat="48.444519" lon="-5.104882"><ele>13.4</ele></trkpt>
    <trkpt lat="48.444459" lon="-5.105218"><ele>13.4</ele></trkpt>
    <trkpt lat="48.444376" lon="-5.105478"><ele>13.6</ele></trkpt>
    <trkpt lat="48.444113" lon="-5.106035"><ele>14.8</ele></trkpt>
    <trkpt lat="48.443620" lon="-5.106897"><ele>16.8</ele></trkpt>
    <trkpt lat="48.443337" lon="-5.107745"><ele>23.8</ele></trkpt>
    <trkpt lat="48.443312" lon="-5.108082"><ele>23.8</ele></trkpt>
    <trkpt lat="48.443075" lon="-5.108325"><ele>24.4</ele></trkpt>
    <trkpt lat="48.442964" lon="-5.108550"><ele>24.8</ele></trkpt>
    <trkpt lat="48.442855" lon="-5.108671"><ele>24.6</ele></trkpt>
    <trkpt lat="48.442915" lon="-5.108925"><ele>23.2</ele></trkpt>
    <trkpt lat="48.442779" lon="-5.109269"><ele>18.8</ele></trkpt>
    <trkpt lat="48.442752" lon="-5.109447"><ele>16.0</ele></trkpt>
    <trkpt lat="48.442755" lon="-5.109764"><ele>12.4</ele></trkpt>
    <trkpt lat="48.442565" lon="-5.110092"><ele>10.0</ele></trkpt>
    <trkpt lat="48.442402" lon="-5.110565"><ele>8.8</ele></trkpt>
    <trkpt lat="48.442393" lon="-5.110782"><ele>8.8</ele></trkpt>
    <trkpt lat="48.442490" lon="-5.111233"><ele>8.8</ele></trkpt>
    <trkpt lat="48.442253" lon="-5.111107"><ele>14.6</ele></trkpt>
    <trkpt lat="48.442222" lon="-5.111035"><ele>16.4</ele></trkpt>
    <trkpt lat="48.442118" lon="-5.111029"><ele>13.2</ele></trkpt>
    <trkpt lat="48.441973" lon="-5.110686"><ele>10.4</ele></trkpt>
    <trkpt lat="48.441918" lon="-5.110378"><ele>8.6</ele></trkpt>
    <trkpt lat="48.441965" lon="-5.109932"><ele>7.2</ele></trkpt>
    <trkpt lat="48.441958" lon="-5.109759"><ele>7.2</ele></trkpt>
    <trkpt lat="48.441725" lon="-5.109018"><ele>9.2</ele></trkpt>
    <trkpt lat="48.441618" lon="-5.108861"><ele>10.0</ele></trkpt>
    <trkpt lat="48.441118" lon="-5.108470"><ele>8.8</ele></trkpt>
    <trkpt lat="48.440650" lon="-5.108395"><ele>7.2</ele></trkpt>
    <trkpt lat="48.440394" lon="-5.108277"><ele>9.0</ele></trkpt>
    <trkpt lat="48.440029" lon="-5.108333"><ele>10.2</ele></trkpt>
    <trkpt lat="48.439588" lon="-5.108770"><ele>10.4</ele></trkpt>
    <trkpt lat="48.439302" lon="-5.109176"><ele>10.4</ele></trkpt>
    <trkpt lat="48.438855" lon="-5.110150"><ele>12.2</ele></trkpt>
    <trkpt lat="48.438706" lon="-5.111076"><ele>9.8</ele></trkpt>
    <trkpt lat="48.438515" lon="-5.111570"><ele>11.0</ele></trkpt>
    <trkpt lat="48.438481" lon="-5.111738"><ele>10.8</ele></trkpt>
    <trkpt lat="48.438453" lon="-5.112246"><ele>9.4</ele></trkpt>
    <trkpt lat="48.438468" lon="-5.112658"><ele>8.0</ele></trkpt>
    <trkpt lat="48.438497" lon="-5.112796"><ele>9.2</ele></trkpt>
    <trkpt lat="48.439026" lon="-5.113706"><ele>7.0</ele></trkpt>
    <trkpt lat="48.439622" lon="-5.114005"><ele>7.8</ele></trkpt>
    <trkpt lat="48.439701" lon="-5.114098"><ele>8.2</ele></trkpt>
    <trkpt lat="48.439727" lon="-5.114201"><ele>8.4</ele></trkpt>
    <trkpt lat="48.439706" lon="-5.114316"><ele>8.6</ele></trkpt>
    <trkpt lat="48.439660" lon="-5.114379"><ele>8.6</ele></trkpt>
    <trkpt lat="48.439382" lon="-5.114507"><ele>9.0</ele></trkpt>
    <trkpt lat="48.439222" lon="-5.114904"><ele>9.6</ele></trkpt>
    <trkpt lat="48.438877" lon="-5.116106"><ele>12.0</ele></trkpt>
    <trkpt lat="48.438966" lon="-5.116435"><ele>12.6</ele></trkpt>
    <trkpt lat="48.438933" lon="-5.116774"><ele>13.0</ele></trkpt>
    <trkpt lat="48.438643" lon="-5.116966"><ele>13.6</ele></trkpt>
    <trkpt lat="48.438577" lon="-5.116978"><ele>13.0</ele></trkpt>
    <trkpt lat="48.438520" lon="-5.116936"><ele>12.4</ele></trkpt>
    <trkpt lat="48.438598" lon="-5.116270"><ele>9.6</ele></trkpt>
    <trkpt lat="48.438544" lon="-5.115994"><ele>8.6</ele></trkpt>
    <trkpt lat="48.438339" lon="-5.115520"><ele>7.8</ele></trkpt>
    <trkpt lat="48.438031" lon="-5.115215"><ele>7.8</ele></trkpt>
    <trkpt lat="48.437871" lon="-5.114998"><ele>7.6</ele></trkpt>
    <trkpt lat="48.437805" lon="-5.114968"><ele>7.4</ele></trkpt>
    <trkpt lat="48.437535" lon="-5.115020"><ele>7.4</ele></trkpt>
    <trkpt lat="48.437294" lon="-5.115164"><ele>7.6</ele></trkpt>
    <trkpt lat="48.437233" lon="-5.115158"><ele>7.6</ele></trkpt>
    <trkpt lat="48.437165" lon="-5.115089"><ele>7.6</ele></trkpt>
    <trkpt lat="48.437143" lon="-5.115004"><ele>7.8</ele></trkpt>
    <trkpt lat="48.437158" lon="-5.114937"><ele>7.8</ele></trkpt>
    <trkpt lat="48.437410" lon="-5.114490"><ele>8.6</ele></trkpt>
    <trkpt lat="48.437488" lon="-5.114057"><ele>9.0</ele></trkpt>
    <trkpt lat="48.437448" lon="-5.113824"><ele>9.4</ele></trkpt>
    <trkpt lat="48.437142" lon="-5.113614"><ele>9.4</ele></trkpt>
    <trkpt lat="48.437006" lon="-5.113293"><ele>8.8</ele></trkpt>
    <trkpt lat="48.437011" lon="-5.113187"><ele>8.8</ele></trkpt>
    <trkpt lat="48.437126" lon="-5.112827"><ele>10.2</ele></trkpt>
    <trkpt lat="48.437127" lon="-5.112535"><ele>11.4</ele></trkpt>
    <trkpt lat="48.437000" lon="-5.112291"><ele>12.6</ele></trkpt>
    <trkpt lat="48.436290" lon="-5.111704"><ele>17.4</ele></trkpt>
    <trkpt lat="48.436197" lon="-5.111579"><ele>17.8</ele></trkpt>
    <trkpt lat="48.436174" lon="-5.111463"><ele>18.0</ele></trkpt>
    <trkpt lat="48.436347" lon="-5.111004"><ele>19.2</ele></trkpt>
    <trkpt lat="48.436631" lon="-5.110481"><ele>20.6</ele></trkpt>
    <trkpt lat="48.436910" lon="-5.110060"><ele>20.0</ele></trkpt>
    <trkpt lat="48.436993" lon="-5.109817"><ele>20.2</ele></trkpt>
    <trkpt lat="48.437046" lon="-5.108850"><ele>21.0</ele></trkpt>
    <trkpt lat="48.436967" lon="-5.108135"><ele>23.0</ele></trkpt>
    <trkpt lat="48.436990" lon="-5.107100"><ele>24.2</ele></trkpt>
    <trkpt lat="48.436894" lon="-5.106225"><ele>23.2</ele></trkpt>
    <trkpt lat="48.436964" lon="-5.105826"><ele>21.0</ele></trkpt>
    <trkpt lat="48.437077" lon="-5.105531"><ele>20.8</ele></trkpt>
    <trkpt lat="48.437412" lon="-5.105267"><ele>21.6</ele></trkpt>
    <trkpt lat="48.437567" lon="-5.105050"><ele>22.6</ele></trkpt>
    <trkpt lat="48.437622" lon="-5.104618"><ele>23.0</ele></trkpt>
    <trkpt lat="48.437592" lon="-5.104290"><ele>23.0</ele></trkpt>
    <trkpt lat="48.437288" lon="-5.103317"><ele>21.8</ele></trkpt>
    <trkpt lat="48.437266" lon="-5.102932"><ele>21.4</ele></trkpt>
    <trkpt lat="48.437306" lon="-5.102684"><ele>21.0</ele></trkpt>
    <trkpt lat="48.437385" lon="-5.102537"><ele>21.0</ele></trkpt>
    <trkpt lat="48.437507" lon="-5.102445"><ele>21.4</ele></trkpt>
    <trkpt lat="48.437825" lon="-5.102068"><ele>24.4</ele></trkpt>
    <trkpt lat="48.438291" lon="-5.101853"><ele>26.2</ele></trkpt>
    <trkpt lat="48.438550" lon="-5.101972"><ele>26.0</ele></trkpt>
    <trkpt lat="48.439156" lon="-5.101381"><ele>26.4</ele></trkpt>
    <trkpt lat="48.439205" lon="-5.101223"><ele>25.2</ele></trkpt>
    <trkpt lat="48.439206" lon="-5.100934"><ele>22.0</ele></trkpt>
    <trkpt lat="48.439467" lon="-5.100552"><ele>22.4</ele></trkpt>
    <trkpt lat="48.439825" lon="-5.099896"><ele>28.8</ele></trkpt>
    <trkpt lat="48.439880" lon="-5.098937"><ele>30.2</ele></trkpt>
    <trkpt lat="48.439938" lon="-5.098619"><ele>30.8</ele></trkpt>
    <trkpt lat="48.440036" lon="-5.098330"><ele>31.4</ele></trkpt>
    <trkpt lat="48.440540" lon="-5.097250"><ele>32.4</ele></trkpt>
    <trkpt lat="48.441429" lon="-5.095938"><ele>28.0</ele></trkpt>
    <trkpt lat="48.441571" lon="-5.095674"><ele>27.4</ele></trkpt>
    <trkpt lat="48.441708" lon="-5.095302"><ele>26.8</ele></trkpt>
    <trkpt lat="48.441739" lon="-5.094912"><ele>27.2</ele></trkpt>
    <trkpt lat="48.441647" lon="-5.094520"><ele>28.4</ele></trkpt>
    <trkpt lat="48.441502" lon="-5.094158"><ele>31.2</ele></trkpt>
    <trkpt lat="48.441229" lon="-5.093727"><ele>34.0</ele></trkpt>
    <trkpt lat="48.441054" lon="-5.093258"><ele>35.8</ele></trkpt>
    <trkpt lat="48.440984" lon="-5.093205"><ele>36.6</ele></trkpt>
    <trkpt lat="48.440998" lon="-5.093043"><ele>36.0</ele></trkpt>
    <trkpt lat="48.440930" lon="-5.092721"><ele>35.0</ele></trkpt>
    <trkpt lat="48.440985" lon="-5.091553"><ele>31.0</ele></trkpt>
    <trkpt lat="48.440966" lon="-5.091364"><ele>31.0</ele></trkpt>
    <trkpt lat="48.440984" lon="-5.091110"><ele>30.8</ele></trkpt>
    <trkpt lat="48.440937" lon="-5.090758"><ele>31.2</ele></trkpt>
    <trkpt lat="48.441077" lon="-5.090161"><ele>32.0</ele></trkpt>
    <trkpt lat="48.441044" lon="-5.090040"><ele>31.4</ele></trkpt>
    <trkpt lat="48.441089" lon="-5.089815"><ele>30.6</ele></trkpt>
    <trkpt lat="48.441197" lon="-5.089568"><ele>29.8</ele></trkpt>
    <trkpt lat="48.441361" lon="-5.089039"><ele>27.0</ele></trkpt>
    <trkpt lat="48.441538" lon="-5.088876"><ele>26.2</ele></trkpt>
    <trkpt lat="48.441876" lon="-5.088750"><ele>25.6</ele></trkpt>
    <trkpt lat="48.442003" lon="-5.088791"><ele>25.2</ele></trkpt>
    <trkpt lat="48.442346" lon="-5.089015"><ele>25.0</ele></trkpt>
    <trkpt lat="48.442708" lon="-5.089074"><ele>25.4</ele></trkpt>
    <trkpt lat="48.442930" lon="-5.088840"><ele>25.0</ele></trkpt>
    <trkpt lat="48.443099" lon="-5.088744"><ele>25.6</ele></trkpt>
    <trkpt lat="48.443322" lon="-5.088695"><ele>25.8</ele></trkpt>
    <trkpt lat="48.443464" lon="-5.088519"><ele>24.8</ele></trkpt>
    <trkpt lat="48.443540" lon="-5.088479"><ele>24.2</ele></trkpt>
    <trkpt lat="48.443777" lon="-5.088467"><ele>23.2</ele></trkpt>
    <trkpt lat="48.444615" lon="-5.088566"><ele>27.8</ele></trkpt>
    <trkpt lat="48.444724" lon="-5.088253"><ele>24.8</ele></trkpt>
    <trkpt lat="48.444870" lon="-5.087966"><ele>21.8</ele></trkpt>
    <trkpt lat="48.445043" lon="-5.087774"><ele>20.4</ele></trkpt>
    <trkpt lat="48.445329" lon="-5.087631"><ele>23.8</ele></trkpt>
    <trkpt lat="48.445625" lon="-5.087360"><ele>24.6</ele></trkpt>
    <trkpt lat="48.445829" lon="-5.087269"><ele>22.8</ele></trkpt>
    <trkpt lat="48.446345" lon="-5.087333"><ele>22.8</ele></trkpt>
    <trkpt lat="48.446625" lon="-5.087186"><ele>25.4</ele></trkpt>
    <trkpt lat="48.447032" lon="-5.085973"><ele>25.8</ele></trkpt>
    <trkpt lat="48.447391" lon="-5.085379"><ele>26.8</ele></trkpt>
    <trkpt lat="48.447543" lon="-5.085067"><ele>26.8</ele></trkpt>
    <trkpt lat="48.447609" lon="-5.084621"><ele>26.6</ele></trkpt>
    <trkpt lat="48.447773" lon="-5.084203"><ele>24.4</ele></trkpt>
    <trkpt lat="48.447904" lon="-5.084010"><ele>22.8</ele></trkpt>
    <trkpt lat="48.448182" lon="-5.083749"><ele>19.6</ele></trkpt>
    <trkpt lat="48.448356" lon="-5.083663"><ele>18.4</ele></trkpt>
    <trkpt lat="48.448552" lon="-5.083648"><ele>17.6</ele></trkpt>
    <trkpt lat="48.448637" lon="-5.083572"><ele>17.4</ele></trkpt>
    <trkpt lat="48.448697" lon="-5.083443"><ele>17.0</ele></trkpt>
    <trkpt lat="48.448775" lon="-5.083049"><ele>16.0</ele></trkpt>
    <trkpt lat="48.448874" lon="-5.082740"><ele>15.8</ele></trkpt>
    <trkpt lat="48.449170" lon="-5.082287"><ele>14.8</ele></trkpt>
    <trkpt lat="48.449305" lon="-5.082163"><ele>14.4</ele></trkpt>
    <trkpt lat="48.449679" lon="-5.081948"><ele>16.2</ele></trkpt>
    <trkpt lat="48.450163" lon="-5.081534"><ele>19.6</ele></trkpt>
    <trkpt lat="48.450433" lon="-5.081456"><ele>20.0</ele></trkpt>
    <trkpt lat="48.451073" lon="-5.081550"><ele>18.0</ele></trkpt>
    <trkpt lat="48.451200" lon="-5.081478"><ele>18.0</ele></trkpt>
    <trkpt lat="48.451306" lon="-5.081327"><ele>18.2</ele></trkpt>
    <trkpt lat="48.451310" lon="-5.080829"><ele>18.4</ele></trkpt>
    <trkpt lat="48.451536" lon="-5.079971"><ele>18.6</ele></trkpt>
    <trkpt lat="48.451515" lon="-5.079787"><ele>18.4</ele></trkpt>
    <trkpt lat="48.451420" lon="-5.079568"><ele>17.2</ele></trkpt>
    <trkpt lat="48.451382" lon="-5.079161"><ele>15.6</ele></trkpt>
    <trkpt lat="48.451259" lon="-5.078980"><ele>15.6</ele></trkpt>
    <trkpt lat="48.450701" lon="-5.078638"><ele>21.6</ele></trkpt>
    <trkpt lat="48.450539" lon="-5.078414"><ele>22.6</ele></trkpt>
    <trkpt lat="48.450275" lon="-5.077875"><ele>22.6</ele></trkpt>
    <trkpt lat="48.449932" lon="-5.077600"><ele>22.8</ele></trkpt>
    <trkpt lat="48.449824" lon="-5.077424"><ele>22.4</ele></trkpt>
    <trkpt lat="48.449782" lon="-5.077269"><ele>22.2</ele></trkpt>
    <trkpt lat="48.449771" lon="-5.076504"><ele>20.8</ele></trkpt>
    <trkpt lat="48.449810" lon="-5.075877"><ele>21.0</ele></trkpt>
    <trkpt lat="48.449936" lon="-5.075256"><ele>22.4</ele></trkpt>
    <trkpt lat="48.450165" lon="-5.074407"><ele>22.6</ele></trkpt>
    <trkpt lat="48.450265" lon="-5.074162"><ele>21.0</ele></trkpt>
    <trkpt lat="48.450838" lon="-5.073725"><ele>15.8</ele></trkpt>
    <trkpt lat="48.450981" lon="-5.073674"><ele>15.8</ele></trkpt>
    <trkpt lat="48.451173" lon="-5.073523"><ele>16.8</ele></trkpt>
    <trkpt lat="48.451397" lon="-5.073178"><ele>19.2</ele></trkpt>
    <trkpt lat="48.451678" lon="-5.072862"><ele>21.6</ele></trkpt>
    <trkpt lat="48.451783" lon="-5.072659"><ele>22.2</ele></trkpt>
    <trkpt lat="48.451820" lon="-5.072434"><ele>21.8</ele></trkpt>
    <trkpt lat="48.451763" lon="-5.071758"><ele>21.2</ele></trkpt>
    <trkpt lat="48.451830" lon="-5.071437"><ele>21.4</ele></trkpt>
    <trkpt lat="48.451960" lon="-5.071032"><ele>22.2</ele></trkpt>
    <trkpt lat="48.452201" lon="-5.070620"><ele>22.8</ele></trkpt>
    <trkpt lat="48.452483" lon="-5.070401"><ele>23.4</ele></trkpt>
    <trkpt lat="48.452736" lon="-5.070070"><ele>21.4</ele></trkpt>
    <trkpt lat="48.452729" lon="-5.069972"><ele>20.4</ele></trkpt>
    <trkpt lat="48.452577" lon="-5.069793"><ele>17.6</ele></trkpt>
    <trkpt lat="48.452531" lon="-5.069666"><ele>16.8</ele></trkpt>
    <trkpt lat="48.452551" lon="-5.069379"><ele>17.2</ele></trkpt>
    <trkpt lat="48.452707" lon="-5.068556"><ele>21.4</ele></trkpt>
    <trkpt lat="48.452240" lon="-5.068306"><ele>25.0</ele></trkpt>
    <trkpt lat="48.452126" lon="-5.067786"><ele>25.6</ele></trkpt>
    <trkpt lat="48.451777" lon="-5.067537"><ele>28.4</ele></trkpt>
    <trkpt lat="48.451429" lon="-5.067144"><ele>29.4</ele></trkpt>
    <trkpt lat="48.450607" lon="-5.066840"><ele>26.8</ele></trkpt>
    <trkpt lat="48.450366" lon="-5.066692"><ele>24.0</ele></trkpt>
    <trkpt lat="48.449928" lon="-5.066593"><ele>19.6</ele></trkpt>
    <trkpt lat="48.449843" lon="-5.066477"><ele>18.4</ele></trkpt>
    <trkpt lat="48.449829" lon="-5.066369"><ele>17.8</ele></trkpt>
    <trkpt lat="48.449855" lon="-5.066254"><ele>17.4</ele></trkpt>
    <trkpt lat="48.450021" lon="-5.066045"><ele>17.2</ele></trkpt>
    <trkpt lat="48.450188" lon="-5.066032"><ele>17.8</ele></trkpt>
    <trkpt lat="48.450343" lon="-5.065956"><ele>19.6</ele></trkpt>
    <trkpt lat="48.450561" lon="-5.065994"><ele>22.2</ele></trkpt>
    <trkpt lat="48.450680" lon="-5.065879"><ele>22.8</ele></trkpt>
    <trkpt lat="48.450883" lon="-5.065246"><ele>23.2</ele></trkpt>
    <trkpt lat="48.450920" lon="-5.064939"><ele>23.2</ele></trkpt>
    <trkpt lat="48.451151" lon="-5.064478"><ele>22.8</ele></trkpt>
    <trkpt lat="48.451179" lon="-5.064080"><ele>21.2</ele></trkpt>
    <trkpt lat="48.451172" lon="-5.063979"><ele>20.6</ele></trkpt>
    <trkpt lat="48.451079" lon="-5.063845"><ele>19.4</ele></trkpt>
    <trkpt lat="48.450976" lon="-5.063531"><ele>18.2</ele></trkpt>
    <trkpt lat="48.450973" lon="-5.063344"><ele>18.8</ele></trkpt>
    <trkpt lat="48.450925" lon="-5.063172"><ele>20.2</ele></trkpt>
    <trkpt lat="48.450886" lon="-5.062775"><ele>25.0</ele></trkpt>
    <trkpt lat="48.450801" lon="-5.062582"><ele>25.6</ele></trkpt>
    <trkpt lat="48.450474" lon="-5.062497"><ele>25.0</ele></trkpt>
    <trkpt lat="48.450044" lon="-5.062529"><ele>24.4</ele></trkpt>
    <trkpt lat="48.449829" lon="-5.062292"><ele>23.0</ele></trkpt>
    <trkpt lat="48.449855" lon="-5.062015"><ele>22.2</ele></trkpt>
    <trkpt lat="48.450025" lon="-5.061469"><ele>23.6</ele></trkpt>
    <trkpt lat="48.450038" lon="-5.061118"><ele>24.6</ele></trkpt>
    <trkpt lat="48.449955" lon="-5.060705"><ele>24.8</ele></trkpt>
    <trkpt lat="48.449968" lon="-5.060409"><ele>24.8</ele></trkpt>
    <trkpt lat="48.450166" lon="-5.059968"><ele>25.2</ele></trkpt>
    <trkpt lat="48.450288" lon="-5.059830"><ele>25.2</ele></trkpt>
    <trkpt lat="48.450346" lon="-5.059707"><ele>25.0</ele></trkpt>
    <trkpt lat="48.450365" lon="-5.059256"><ele>21.6</ele></trkpt>
    <trkpt lat="48.450553" lon="-5.058950"><ele>18.6</ele></trkpt>
    <trkpt lat="48.450712" lon="-5.058814"><ele>18.0</ele></trkpt>
    <trkpt lat="48.450798" lon="-5.058835"><ele>18.0</ele></trkpt>
    <trkpt lat="48.451713" lon="-5.059740"><ele>22.8</ele></trkpt>
    <trkpt lat="48.451887" lon="-5.059612"><ele>22.4</ele></trkpt>
    <trkpt lat="48.452056" lon="-5.059563"><ele>23.2</ele></trkpt>
    <trkpt lat="48.452490" lon="-5.059177"><ele>23.6</ele></trkpt>
    <trkpt lat="48.452753" lon="-5.059079"><ele>23.4</ele></trkpt>
    <trkpt lat="48.453334" lon="-5.057726"><ele>23.2</ele></trkpt>
    <trkpt lat="48.453267" lon="-5.056973"><ele>24.4</ele></trkpt>
    <trkpt lat="48.453280" lon="-5.056705"><ele>24.2</ele></trkpt>
    <trkpt lat="48.453349" lon="-5.056405"><ele>23.2</ele></trkpt>
    <trkpt lat="48.453519" lon="-5.056102"><ele>22.6</ele></trkpt>
    <trkpt lat="48.453762" lon="-5.055814"><ele>22.4</ele></trkpt>
    <trkpt lat="48.453861" lon="-5.055644"><ele>21.8</ele></trkpt>
    <trkpt lat="48.454120" lon="-5.055394"><ele>19.4</ele></trkpt>
    <trkpt lat="48.454244" lon="-5.055355"><ele>18.6</ele></trkpt>
    <trkpt lat="48.454418" lon="-5.055383"><ele>17.4</ele></trkpt>
    <trkpt lat="48.454626" lon="-5.055251"><ele>15.0</ele></trkpt>
    <trkpt lat="48.454775" lon="-5.055222"><ele>12.8</ele></trkpt>
    <trkpt lat="48.454986" lon="-5.055507"><ele>9.2</ele></trkpt>
    <trkpt lat="48.455180" lon="-5.055600"><ele>11.0</ele></trkpt>
    <trkpt lat="48.455306" lon="-5.055328"><ele>15.2</ele></trkpt>
    <trkpt lat="48.455354" lon="-5.055068"><ele>16.8</ele></trkpt>
    <trkpt lat="48.455534" lon="-5.054796"><ele>16.6</ele></trkpt>
    <trkpt lat="48.455774" lon="-5.054624"><ele>17.8</ele></trkpt>
    <trkpt lat="48.456140" lon="-5.054559"><ele>20.8</ele></trkpt>
    <trkpt lat="48.456481" lon="-5.054333"><ele>23.0</ele></trkpt>
    <trkpt lat="48.456517" lon="-5.054230"><ele>23.0</ele></trkpt>
    <trkpt lat="48.456513" lon="-5.054070"><ele>22.6</ele></trkpt>
    <trkpt lat="48.456371" lon="-5.053486"><ele>21.0</ele></trkpt>
    <trkpt lat="48.456212" lon="-5.053144"><ele>19.8</ele></trkpt>
    <trkpt lat="48.456222" lon="-5.052808"><ele>18.4</ele></trkpt>
    <trkpt lat="48.456362" lon="-5.052442"><ele>17.4</ele></trkpt>
    <trkpt lat="48.456500" lon="-5.052389"><ele>17.2</ele></trkpt>
    <trkpt lat="48.456558" lon="-5.052239"><ele>17.0</ele></trkpt>
    <trkpt lat="48.456811" lon="-5.052153"><ele>17.4</ele></trkpt>
    <trkpt lat="48.457128" lon="-5.051959"><ele>18.8</ele></trkpt>
    <trkpt lat="48.457161" lon="-5.051863"><ele>18.6</ele></trkpt>
    <trkpt lat="48.457168" lon="-5.051611"><ele>17.8</ele></trkpt>
    <trkpt lat="48.457240" lon="-5.051344"><ele>16.4</ele></trkpt>
    <trkpt lat="48.457311" lon="-5.051334"><ele>16.0</ele></trkpt>
    <trkpt lat="48.457612" lon="-5.051501"><ele>15.6</ele></trkpt>
    <trkpt lat="48.457748" lon="-5.051407"><ele>15.8</ele></trkpt>
    <trkpt lat="48.458009" lon="-5.051459"><ele>17.2</ele></trkpt>
    <trkpt lat="48.458162" lon="-5.051261"><ele>17.8</ele></trkpt>
    <trkpt lat="48.458428" lon="-5.051235"><ele>19.0</ele></trkpt>
    <trkpt lat="48.458597" lon="-5.051304"><ele>19.6</ele></trkpt>
    <trkpt lat="48.458817" lon="-5.051605"><ele>18.4</ele></trkpt>
    <trkpt lat="48.459002" lon="-5.052339"><ele>18.4</ele></trkpt>
    <trkpt lat="48.459082" lon="-5.052385"><ele>18.2</ele></trkpt>
    <trkpt lat="48.459147" lon="-5.052487"><ele>17.8</ele></trkpt>
    <trkpt lat="48.459356" lon="-5.052930"><ele>16.6</ele></trkpt>
    <trkpt lat="48.459511" lon="-5.053028"><ele>15.4</ele></trkpt>
    <trkpt lat="48.459147" lon="-5.051960"><ele>14.6</ele></trkpt>
    <trkpt lat="48.459053" lon="-5.051396"><ele>12.2</ele></trkpt>
    <trkpt lat="48.459089" lon="-5.051250"><ele>11.4</ele></trkpt>
    <trkpt lat="48.459343" lon="-5.051011"><ele>16.0</ele></trkpt>
    <trkpt lat="48.459411" lon="-5.050871"><ele>17.0</ele></trkpt>
    <trkpt lat="48.459391" lon="-5.050552"><ele>18.0</ele></trkpt>
    <trkpt lat="48.459304" lon="-5.050258"><ele>18.0</ele></trkpt>
    <trkpt lat="48.459308" lon="-5.050082"><ele>18.2</ele></trkpt>
    <trkpt lat="48.459424" lon="-5.049714"><ele>18.6</ele></trkpt>
    <trkpt lat="48.459563" lon="-5.049479"><ele>18.6</ele></trkpt>
    <trkpt lat="48.459662" lon="-5.049137"><ele>18.6</ele></trkpt>
    <trkpt lat="48.459762" lon="-5.048942"><ele>19.2</ele></trkpt>
    <trkpt lat="48.459804" lon="-5.048391"><ele>23.2</ele></trkpt>
    <trkpt lat="48.459438" lon="-5.047849"><ele>26.4</ele></trkpt>
    <trkpt lat="48.459127" lon="-5.047471"><ele>26.4</ele></trkpt>
    <trkpt lat="48.459131" lon="-5.047366"><ele>26.4</ele></trkpt>
    <trkpt lat="48.459201" lon="-5.047149"><ele>26.8</ele></trkpt>
    <trkpt lat="48.459243" lon="-5.046768"><ele>27.2</ele></trkpt>
    <trkpt lat="48.459091" lon="-5.045984"><ele>26.0</ele></trkpt>
    <trkpt lat="48.459131" lon="-5.045458"><ele>28.2</ele></trkpt>
    <trkpt lat="48.459086" lon="-5.045120"><ele>29.0</ele></trkpt>
    <trkpt lat="48.458515" lon="-5.043823"><ele>30.8</ele></trkpt>
    <trkpt lat="48.458477" lon="-5.043469"><ele>29.8</ele></trkpt>
    <trkpt lat="48.458416" lon="-5.043265"><ele>29.0</ele></trkpt>
    <trkpt lat="48.458203" lon="-5.043025"><ele>27.8</ele></trkpt>
    <trkpt lat="48.458174" lon="-5.042829"><ele>27.2</ele></trkpt>
    <trkpt lat="48.458211" lon="-5.042511"><ele>26.8</ele></trkpt>
    <trkpt lat="48.458378" lon="-5.041786"><ele>27.8</ele></trkpt>
    <trkpt lat="48.458562" lon="-5.041156"><ele>26.0</ele></trkpt>
    <trkpt lat="48.458738" lon="-5.040829"><ele>25.4</ele></trkpt>
    <trkpt lat="48.459076" lon="-5.040569"><ele>29.6</ele></trkpt>
    <trkpt lat="48.459199" lon="-5.040317"><ele>31.8</ele></trkpt>
    <trkpt lat="48.459208" lon="-5.040042"><ele>32.8</ele></trkpt>
    <trkpt lat="48.459125" lon="-5.039825"><ele>31.8</ele></trkpt>
    <trkpt lat="48.459056" lon="-5.039320"><ele>28.8</ele></trkpt>
    <trkpt lat="48.459063" lon="-5.038938"><ele>27.0</ele></trkpt>
    <trkpt lat="48.459183" lon="-5.038250"><ele>26.4</ele></trkpt>
    <trkpt lat="48.459382" lon="-5.037773"><ele>25.2</ele></trkpt>
    <trkpt lat="48.459607" lon="-5.037381"><ele>20.4</ele></trkpt>
    <trkpt lat="48.459753" lon="-5.037211"><ele>19.2</ele></trkpt>
    <trkpt lat="48.459873" lon="-5.037176"><ele>19.4</ele></trkpt>
    <trkpt lat="48.460285" lon="-5.036896"><ele>20.6</ele></trkpt>
    <trkpt lat="48.460538" lon="-5.036651"><ele>21.6</ele></trkpt>
    <trkpt lat="48.460700" lon="-5.036275"><ele>22.2</ele></trkpt>
    <trkpt lat="48.460728" lon="-5.035934"><ele>21.6</ele></trkpt>
    <trkpt lat="48.461070" lon="-5.035514"><ele>19.6</ele></trkpt>
    <trkpt lat="48.461500" lon="-5.035441"><ele>19.0</ele></trkpt>
    <trkpt lat="48.462261" lon="-5.035069"><ele>21.2</ele></trkpt>
    <trkpt lat="48.462474" lon="-5.035111"><ele>22.6</ele></trkpt>
    <trkpt lat="48.462822" lon="-5.035008"><ele>24.0</ele></trkpt>
    <trkpt lat="48.462890" lon="-5.035046"><ele>24.4</ele></trkpt>
    <trkpt lat="48.462960" lon="-5.035161"><ele>25.0</ele></trkpt>
    <trkpt lat="48.463156" lon="-5.035677"><ele>27.2</ele></trkpt>
    <trkpt lat="48.463323" lon="-5.036265"><ele>26.6</ele></trkpt>
    <trkpt lat="48.463448" lon="-5.036952"><ele>29.2</ele></trkpt>
    <trkpt lat="48.463480" lon="-5.037645"><ele>28.2</ele></trkpt>
    <trkpt lat="48.463317" lon="-5.039431"><ele>28.0</ele></trkpt>
    <trkpt lat="48.463340" lon="-5.039671"><ele>27.4</ele></trkpt>
    <trkpt lat="48.463536" lon="-5.040181"><ele>26.4</ele></trkpt>
    <trkpt lat="48.463967" lon="-5.040625"><ele>22.6</ele></trkpt>
    <trkpt lat="48.464294" lon="-5.041168"><ele>20.0</ele></trkpt>
    <trkpt lat="48.464445" lon="-5.041283"><ele>20.6</ele></trkpt>
    <trkpt lat="48.464573" lon="-5.041538"><ele>23.6</ele></trkpt>
    <trkpt lat="48.464730" lon="-5.041750"><ele>24.6</ele></trkpt>
    <trkpt lat="48.464810" lon="-5.042013"><ele>23.0</ele></trkpt>
    <trkpt lat="48.464833" lon="-5.042253"><ele>22.4</ele></trkpt>
    <trkpt lat="48.464750" lon="-5.042566"><ele>22.6</ele></trkpt>
    <trkpt lat="48.464543" lon="-5.042819"><ele>22.0</ele></trkpt>
    <trkpt lat="48.464360" lon="-5.042910"><ele>21.6</ele></trkpt>
    <trkpt lat="48.464133" lon="-5.042883"><ele>22.4</ele></trkpt>
    <trkpt lat="48.463980" lon="-5.043052"><ele>23.6</ele></trkpt>
    <trkpt lat="48.463731" lon="-5.043611"><ele>25.4</ele></trkpt>
    <trkpt lat="48.463460" lon="-5.044344"><ele>28.8</ele></trkpt>
    <trkpt lat="48.463230" lon="-5.044828"><ele>29.0</ele></trkpt>
    <trkpt lat="48.463091" lon="-5.045047"><ele>28.2</ele></trkpt>
    <trkpt lat="48.462865" lon="-5.045265"><ele>28.6</ele></trkpt>
    <trkpt lat="48.462387" lon="-5.046091"><ele>31.6</ele></trkpt>
    <trkpt lat="48.462082" lon="-5.046861"><ele>31.8</ele></trkpt>
    <trkpt lat="48.461949" lon="-5.047321"><ele>33.2</ele></trkpt>
    <trkpt lat="48.461785" lon="-5.047738"><ele>32.8</ele></trkpt>
    <trkpt lat="48.461763" lon="-5.047888"><ele>32.2</ele></trkpt>
    <trkpt lat="48.461935" lon="-5.048341"><ele>30.8</ele></trkpt>
    <trkpt lat="48.461967" lon="-5.048548"><ele>30.4</ele></trkpt>
    <trkpt lat="48.462017" lon="-5.048622"><ele>30.2</ele></trkpt>
    <trkpt lat="48.462208" lon="-5.048756"><ele>29.4</ele></trkpt>
    <trkpt lat="48.462550" lon="-5.048907"><ele>28.6</ele></trkpt>
    <trkpt lat="48.463130" lon="-5.049334"><ele>30.6</ele></trkpt>
    <trkpt lat="48.463300" lon="-5.049564"><ele>31.8</ele></trkpt>
    <trkpt lat="48.463429" lon="-5.049637"><ele>31.8</ele></trkpt>
    <trkpt lat="48.463454" lon="-5.049829"><ele>32.0</ele></trkpt>
    <trkpt lat="48.463788" lon="-5.050282"><ele>31.4</ele></trkpt>
    <trkpt lat="48.464163" lon="-5.050524"><ele>29.2</ele></trkpt>
    <trkpt lat="48.464489" lon="-5.050669"><ele>32.0</ele></trkpt>
    <trkpt lat="48.464928" lon="-5.050965"><ele>34.2</ele></trkpt>
    <trkpt lat="48.465040" lon="-5.051090"><ele>33.6</ele></trkpt>
    <trkpt lat="48.465126" lon="-5.051652"><ele>30.6</ele></trkpt>
    <trkpt lat="48.465093" lon="-5.052771"><ele>30.8</ele></trkpt>
    <trkpt lat="48.465011" lon="-5.053220"><ele>30.6</ele></trkpt>
    <trkpt lat="48.465084" lon="-5.053476"><ele>30.2</ele></trkpt>
    <trkpt lat="48.465049" lon="-5.053553"><ele>30.0</ele></trkpt>
    <trkpt lat="48.464794" lon="-5.053807"><ele>30.2</ele></trkpt>
    <trkpt lat="48.464769" lon="-5.053897"><ele>30.0</ele></trkpt>
    <trkpt lat="48.464803" lon="-5.054110"><ele>28.8</ele></trkpt>
    <trkpt lat="48.464801" lon="-5.054583"><ele>26.4</ele></trkpt>
    <trkpt lat="48.464869" lon="-5.055071"><ele>26.0</ele></trkpt>
    <trkpt lat="48.464901" lon="-5.055190"><ele>26.2</ele></trkpt>
    <trkpt lat="48.465206" lon="-5.055464"><ele>27.2</ele></trkpt>
    <trkpt lat="48.465344" lon="-5.055697"><ele>29.8</ele></trkpt>
    <trkpt lat="48.465801" lon="-5.056032"><ele>37.2</ele></trkpt>
    <trkpt lat="48.465947" lon="-5.056372"><ele>39.4</ele></trkpt>
    <trkpt lat="48.466061" lon="-5.056785"><ele>39.8</ele></trkpt>
    <trkpt lat="48.466256" lon="-5.057015"><ele>39.0</ele></trkpt>
    <trkpt lat="48.466288" lon="-5.057130"><ele>38.8</ele></trkpt>
    <trkpt lat="48.466265" lon="-5.057492"><ele>38.4</ele></trkpt>
    <trkpt lat="48.466311" lon="-5.057866"><ele>38.6</ele></trkpt>
    <trkpt lat="48.466483" lon="-5.058418"><ele>37.6</ele></trkpt>
    <trkpt lat="48.466566" lon="-5.059190"><ele>36.0</ele></trkpt>
    <trkpt lat="48.466762" lon="-5.059357"><ele>37.0</ele></trkpt>
    <trkpt lat="48.467007" lon="-5.059452"><ele>36.4</ele></trkpt>
    <trkpt lat="48.468287" lon="-5.059392"><ele>30.0</ele></trkpt>
    <trkpt lat="48.468469" lon="-5.059430"><ele>30.0</ele></trkpt>
    <trkpt lat="48.468646" lon="-5.059568"><ele>30.8</ele></trkpt>
    <trkpt lat="48.468766" lon="-5.059609"><ele>31.4</ele></trkpt>
    <trkpt lat="48.468850" lon="-5.059527"><ele>32.0</ele></trkpt>
    <trkpt lat="48.469038" lon="-5.059041"><ele>32.2</ele></trkpt>
    <trkpt lat="48.469188" lon="-5.058855"><ele>32.2</ele></trkpt>
    <trkpt lat="48.469709" lon="-5.058595"><ele>31.6</ele></trkpt>
    <trkpt lat="48.470291" lon="-5.058361"><ele>36.2</ele></trkpt>
    <trkpt lat="48.470466" lon="-5.058332"><ele>37.2</ele></trkpt>
    <trkpt lat="48.470605" lon="-5.058411"><ele>37.8</ele></trkpt>
    <trkpt lat="48.470786" lon="-5.058940"><ele>40.2</ele></trkpt>
    <trkpt lat="48.471212" lon="-5.059539"><ele>45.4</ele></trkpt>
    <trkpt lat="48.471469" lon="-5.059692"><ele>48.6</ele></trkpt>
    <trkpt lat="48.471643" lon="-5.059696"><ele>51.0</ele></trkpt>
    <trkpt lat="48.471844" lon="-5.059350"><ele>54.4</ele></trkpt>
    <trkpt lat="48.472575" lon="-5.058368"><ele>59.6</ele></trkpt>
    <trkpt lat="48.472940" lon="-5.057530"><ele>62.0</ele></trkpt>
    <trkpt lat="48.473086" lon="-5.057274"><ele>61.2</ele></trkpt>
    <trkpt lat="48.473514" lon="-5.056906"><ele>64.0</ele></trkpt>
    <trkpt lat="48.473569" lon="-5.056805"><ele>64.2</ele></trkpt>
    <trkpt lat="48.473697" lon="-5.056687"><ele>64.2</ele></trkpt>
    <trkpt lat="48.473804" lon="-5.056624"><ele>64.4</ele></trkpt>
    <trkpt lat="48.474043" lon="-5.056625"><ele>64.2</ele></trkpt>
    <trkpt lat="48.474138" lon="-5.056561"><ele>64.0</ele></trkpt>
    <trkpt lat="48.474396" lon="-5.055727"><ele>63.6</ele></trkpt>
    <trkpt lat="48.475283" lon="-5.053452"><ele>61.2</ele></trkpt>
    <trkpt lat="48.475682" lon="-5.052753"><ele>61.6</ele></trkpt>
    <trkpt lat="48.475858" lon="-5.052509"><ele>60.6</ele></trkpt>
    <trkpt lat="48.475975" lon="-5.052429"><ele>59.4</ele></trkpt>
    <trkpt lat="48.476367" lon="-5.052539"><ele>56.4</ele></trkpt>
    <trkpt lat="48.476493" lon="-5.052742"><ele>55.8</ele></trkpt>
    <trkpt lat="48.476940" lon="-5.053231"><ele>52.4</ele></trkpt>
    <trkpt lat="48.476869" lon="-5.053667"><ele>51.0</ele></trkpt>
    <trkpt lat="48.476706" lon="-5.054187"><ele>51.6</ele></trkpt>
    <trkpt lat="48.476696" lon="-5.054665"><ele>51.0</ele></trkpt>
    <trkpt lat="48.476727" lon="-5.055354"><ele>47.4</ele></trkpt>
    <trkpt lat="48.476456" lon="-5.055666"><ele>45.2</ele></trkpt>
    <trkpt lat="48.476360" lon="-5.055874"><ele>46.2</ele></trkpt>
    <trkpt lat="48.476290" lon="-5.056575"><ele>48.2</ele></trkpt>
    <trkpt lat="48.476211" lon="-5.056843"><ele>48.0</ele></trkpt>
    <trkpt lat="48.476164" lon="-5.057253"><ele>48.0</ele></trkpt>
    <trkpt lat="48.476032" lon="-5.057386"><ele>48.4</ele></trkpt>
    <trkpt lat="48.475898" lon="-5.057636"><ele>49.4</ele></trkpt>
    <trkpt lat="48.475674" lon="-5.058510"><ele>46.8</ele></trkpt>
    <trkpt lat="48.475587" lon="-5.058718"><ele>45.4</ele></trkpt>
    <trkpt lat="48.475373" lon="-5.059064"><ele>45.6</ele></trkpt>
    <trkpt lat="48.475365" lon="-5.059164"><ele>45.8</ele></trkpt>
    <trkpt lat="48.475405" lon="-5.059354"><ele>46.4</ele></trkpt>
    <trkpt lat="48.475343" lon="-5.059581"><ele>46.8</ele></trkpt>
    <trkpt lat="48.475304" lon="-5.060044"><ele>46.0</ele></trkpt>
    <trkpt lat="48.475342" lon="-5.060376"><ele>45.0</ele></trkpt>
    <trkpt lat="48.475481" lon="-5.060614"><ele>43.2</ele></trkpt>
    <trkpt lat="48.475568" lon="-5.060851"><ele>44.6</ele></trkpt>
    <trkpt lat="48.476001" lon="-5.061398"><ele>43.8</ele></trkpt>
    <trkpt lat="48.476172" lon="-5.061536"><ele>43.2</ele></trkpt>
    <trkpt lat="48.476496" lon="-5.061957"><ele>43.4</ele></trkpt>
    <trkpt lat="48.476797" lon="-5.062220"><ele>44.6</ele></trkpt>
    <trkpt lat="48.477057" lon="-5.062351"><ele>44.8</ele></trkpt>
    <trkpt lat="48.477753" lon="-5.062907"><ele>41.8</ele></trkpt>
    <trkpt lat="48.478350" lon="-5.063830"><ele>37.4</ele></trkpt>
    <trkpt lat="48.478641" lon="-5.064197"><ele>34.4</ele></trkpt>
    <trkpt lat="48.478892" lon="-5.064727"><ele>27.8</ele></trkpt>
    <trkpt lat="48.479110" lon="-5.065705"><ele>31.4</ele></trkpt>
    <trkpt lat="48.479268" lon="-5.066113"><ele>31.2</ele></trkpt>
    <trkpt lat="48.479400" lon="-5.066348"><ele>30.0</ele></trkpt>
    <trkpt lat="48.479483" lon="-5.066404"><ele>26.4</ele></trkpt>
    <trkpt lat="48.479562" lon="-5.066380"><ele>25.6</ele></trkpt>
    <trkpt lat="48.479778" lon="-5.066165"><ele>24.0</ele></trkpt>
    <trkpt lat="48.480234" lon="-5.065217"><ele>30.6</ele></trkpt>
    <trkpt lat="48.480413" lon="-5.064777"><ele>30.2</ele></trkpt>
    <trkpt lat="48.480529" lon="-5.064575"><ele>27.0</ele></trkpt>
    <trkpt lat="48.480570" lon="-5.064610"><ele>26.2</ele></trkpt>
    <trkpt lat="48.480664" lon="-5.065238"><ele>24.6</ele></trkpt>
    <trkpt lat="48.480904" lon="-5.066136"><ele>21.8</ele></trkpt>
    <trkpt lat="48.481244" lon="-5.066532"><ele>20.2</ele></trkpt>
    <trkpt lat="48.481385" lon="-5.066560"><ele>21.4</ele></trkpt>
    <trkpt lat="48.481451" lon="-5.066616"><ele>22.0</ele></trkpt>
    <trkpt lat="48.481629" lon="-5.067033"><ele>24.6</ele></trkpt>
    <trkpt lat="48.481665" lon="-5.067199"><ele>25.2</ele></trkpt>
    <trkpt lat="48.481713" lon="-5.067770"><ele>23.8</ele></trkpt>
    <trkpt lat="48.481803" lon="-5.068150"><ele>23.0</ele></trkpt>
    <trkpt lat="48.481807" lon="-5.068306"><ele>22.8</ele></trkpt>
    <trkpt lat="48.481731" lon="-5.068880"><ele>21.0</ele></trkpt>
    <trkpt lat="48.481624" lon="-5.069184"><ele>19.0</ele></trkpt>
    <trkpt lat="48.481482" lon="-5.069832"><ele>19.4</ele></trkpt>
    <trkpt lat="48.481400" lon="-5.070047"><ele>18.8</ele></trkpt>
    <trkpt lat="48.481398" lon="-5.070184"><ele>18.4</ele></trkpt>
    <trkpt lat="48.481466" lon="-5.070276"><ele>17.6</ele></trkpt>
    <trkpt lat="48.481693" lon="-5.070272"><ele>15.4</ele></trkpt>
    <trkpt lat="48.481979" lon="-5.070395"><ele>11.6</ele></trkpt>
    <trkpt lat="48.481964" lon="-5.070530"><ele>11.4</ele></trkpt>
    <trkpt lat="48.481668" lon="-5.071026"><ele>16.8</ele></trkpt>
    <trkpt lat="48.481823" lon="-5.071202"><ele>15.8</ele></trkpt>
    <trkpt lat="48.482052" lon="-5.071552"><ele>14.2</ele></trkpt>
    <trkpt lat="48.482136" lon="-5.071772"><ele>14.2</ele></trkpt>
    <trkpt lat="48.482389" lon="-5.072171"><ele>14.2</ele></trkpt>
    <trkpt lat="48.482621" lon="-5.072666"><ele>13.0</ele></trkpt>
    <trkpt lat="48.482748" lon="-5.072848"><ele>13.2</ele></trkpt>
    <trkpt lat="48.482766" lon="-5.072931"><ele>13.4</ele></trkpt>
    <trkpt lat="48.482713" lon="-5.073064"><ele>14.0</ele></trkpt>
    <trkpt lat="48.481862" lon="-5.073722"><ele>30.8</ele></trkpt>
    <trkpt lat="48.481530" lon="-5.073436"><ele>30.0</ele></trkpt>
    <trkpt lat="48.481302" lon="-5.073183"><ele>29.8</ele></trkpt>
    <trkpt lat="48.481143" lon="-5.072939"><ele>29.4</ele></trkpt>
    <trkpt lat="48.480861" lon="-5.072699"><ele>28.6</ele></trkpt>
    <trkpt lat="48.480620" lon="-5.072603"><ele>27.0</ele></trkpt>
    <trkpt lat="48.480359" lon="-5.072631"><ele>22.8</ele></trkpt>
    <trkpt lat="48.480332" lon="-5.072592"><ele>21.8</ele></trkpt>
    <trkpt lat="48.480488" lon="-5.071564"><ele>21.2</ele></trkpt>
    <trkpt lat="48.480431" lon="-5.071282"><ele>20.6</ele></trkpt>
    <trkpt lat="48.480293" lon="-5.071385"><ele>19.0</ele></trkpt>
    <trkpt lat="48.480254" lon="-5.071323"><ele>18.8</ele></trkpt>
    <trkpt lat="48.480378" lon="-5.070745"><ele>20.4</ele></trkpt>
    <trkpt lat="48.480343" lon="-5.070227"><ele>21.6</ele></trkpt>
    <trkpt lat="48.480302" lon="-5.070078"><ele>21.8</ele></trkpt>
    <trkpt lat="48.479750" lon="-5.069394"><ele>23.2</ele></trkpt>
    <trkpt lat="48.479572" lon="-5.069081"><ele>24.6</ele></trkpt>
    <trkpt lat="48.479466" lon="-5.068965"><ele>25.0</ele></trkpt>
    <trkpt lat="48.478763" lon="-5.068635"><ele>27.6</ele></trkpt>
    <trkpt lat="48.478394" lon="-5.068547"><ele>28.0</ele></trkpt>
    <trkpt lat="48.478342" lon="-5.068596"><ele>27.8</ele></trkpt>
    <trkpt lat="48.478306" lon="-5.068875"><ele>26.8</ele></trkpt>
    <trkpt lat="48.478177" lon="-5.069273"><ele>27.0</ele></trkpt>
    <trkpt lat="48.478217" lon="-5.069401"><ele>27.4</ele></trkpt>
    <trkpt lat="48.478485" lon="-5.069908"><ele>27.6</ele></trkpt>
    <trkpt lat="48.478531" lon="-5.070664"><ele>23.4</ele></trkpt>
    <trkpt lat="48.478404" lon="-5.070944"><ele>24.8</ele></trkpt>
    <trkpt lat="48.478052" lon="-5.071065"><ele>29.8</ele></trkpt>
    <trkpt lat="48.477737" lon="-5.071487"><ele>28.6</ele></trkpt>
    <trkpt lat="48.477529" lon="-5.071641"><ele>28.6</ele></trkpt>
    <trkpt lat="48.477228" lon="-5.072013"><ele>27.8</ele></trkpt>
    <trkpt lat="48.476615" lon="-5.072569"><ele>25.2</ele></trkpt>
    <trkpt lat="48.476420" lon="-5.073121"><ele>23.8</ele></trkpt>
    <trkpt lat="48.476339" lon="-5.073581"><ele>24.2</ele></trkpt>
    <trkpt lat="48.476294" lon="-5.073672"><ele>24.4</ele></trkpt>
    <trkpt lat="48.475879" lon="-5.073953"><ele>24.8</ele></trkpt>
    <trkpt lat="48.475604" lon="-5.074241"><ele>23.6</ele></trkpt>
    <trkpt lat="48.475361" lon="-5.074351"><ele>22.0</ele></trkpt>
    <trkpt lat="48.474598" lon="-5.075156"><ele>20.6</ele></trkpt>
    <trkpt lat="48.474326" lon="-5.075333"><ele>19.8</ele></trkpt>
    <trkpt lat="48.474276" lon="-5.075537"><ele>20.4</ele></trkpt>
    <trkpt lat="48.474222" lon="-5.075622"><ele>21.0</ele></trkpt>
    <trkpt lat="48.473953" lon="-5.075745"><ele>23.8</ele></trkpt>
    <trkpt lat="48.473903" lon="-5.075816"><ele>24.0</ele></trkpt>
    <trkpt lat="48.473869" lon="-5.075960"><ele>23.8</ele></trkpt>
    <trkpt lat="48.473879" lon="-5.076078"><ele>23.0</ele></trkpt>
    <trkpt lat="48.474052" lon="-5.076330"><ele>20.0</ele></trkpt>
    <trkpt lat="48.474081" lon="-5.076685"><ele>18.2</ele></trkpt>
    <trkpt lat="48.473995" lon="-5.077436"><ele>20.0</ele></trkpt>
    <trkpt lat="48.473761" lon="-5.077789"><ele>18.4</ele></trkpt>
    <trkpt lat="48.473484" lon="-5.078977"><ele>20.8</ele></trkpt>
    <trkpt lat="48.473301" lon="-5.079560"><ele>20.0</ele></trkpt>
    <trkpt lat="48.473230" lon="-5.079722"><ele>19.2</ele></trkpt>
    <trkpt lat="48.472998" lon="-5.080043"><ele>18.8</ele></trkpt>
    <trkpt lat="48.472988" lon="-5.080180"><ele>19.0</ele></trkpt>
    <trkpt lat="48.473041" lon="-5.080598"><ele>19.2</ele></trkpt>
    <trkpt lat="48.472992" lon="-5.081121"><ele>19.0</ele></trkpt>
    <trkpt lat="48.472882" lon="-5.081297"><ele>17.2</ele></trkpt>
    <trkpt lat="48.472690" lon="-5.081281"><ele>17.8</ele></trkpt>
    <trkpt lat="48.472633" lon="-5.081420"><ele>18.4</ele></trkpt>
    <trkpt lat="48.472594" lon="-5.081669"><ele>18.6</ele></trkpt>
    <trkpt lat="48.472483" lon="-5.081790"><ele>19.0</ele></trkpt>
    <trkpt lat="48.472279" lon="-5.081825"><ele>20.0</ele></trkpt>
    <trkpt lat="48.471974" lon="-5.081698"><ele>23.6</ele></trkpt>
    <trkpt lat="48.471782" lon="-5.081783"><ele>24.8</ele></trkpt>
    <trkpt lat="48.471754" lon="-5.081951"><ele>24.6</ele></trkpt>
    <trkpt lat="48.471831" lon="-5.082202"><ele>24.0</ele></trkpt>
    <trkpt lat="48.471871" lon="-5.082782"><ele>22.8</ele></trkpt>
    <trkpt lat="48.471959" lon="-5.083156"><ele>21.6</ele></trkpt>
    <trkpt lat="48.471984" lon="-5.083536"><ele>21.2</ele></trkpt>
    <trkpt lat="48.472124" lon="-5.084325"><ele>21.2</ele></trkpt>
    <trkpt lat="48.472196" lon="-5.084579"><ele>21.2</ele></trkpt>
    <trkpt lat="48.472671" lon="-5.085753"><ele>20.4</ele></trkpt>
    <trkpt lat="48.472637" lon="-5.086329"><ele>22.0</ele></trkpt>
    <trkpt lat="48.472667" lon="-5.086827"><ele>21.6</ele></trkpt>
    <trkpt lat="48.472578" lon="-5.087468"><ele>20.8</ele></trkpt>
    <trkpt lat="48.472333" lon="-5.088068"><ele>18.8</ele></trkpt>
    <trkpt lat="48.472350" lon="-5.088398"><ele>16.8</ele></trkpt>
    <trkpt lat="48.472396" lon="-5.088670"><ele>13.0</ele></trkpt>
    <trkpt lat="48.472467" lon="-5.088837"><ele>11.0</ele></trkpt>
    <trkpt lat="48.472674" lon="-5.089093"><ele>14.4</ele></trkpt>
    <trkpt lat="48.472841" lon="-5.089396"><ele>15.6</ele></trkpt>
    <trkpt lat="48.473030" lon="-5.089925"><ele>14.6</ele></trkpt>
    <trkpt lat="48.473153" lon="-5.090845"><ele>11.2</ele></trkpt>
    <trkpt lat="48.473200" lon="-5.090995"><ele>11.6</ele></trkpt>
    <trkpt lat="48.473307" lon="-5.091132"><ele>13.2</ele></trkpt>
    <trkpt lat="48.473495" lon="-5.091042"><ele>14.8</ele></trkpt>
    <trkpt lat="48.473779" lon="-5.091023"><ele>13.4</ele></trkpt>
    <trkpt lat="48.473928" lon="-5.091151"><ele>12.4</ele></trkpt>
    <trkpt lat="48.474049" lon="-5.091758"><ele>13.0</ele></trkpt>
    <trkpt lat="48.474032" lon="-5.092241"><ele>13.0</ele></trkpt>
    <trkpt lat="48.474094" lon="-5.092342"><ele>12.8</ele></trkpt>
    <trkpt lat="48.474241" lon="-5.092346"><ele>12.2</ele></trkpt>
    <trkpt lat="48.474554" lon="-5.092136"><ele>11.0</ele></trkpt>
    <trkpt lat="48.475126" lon="-5.091955"><ele>9.8</ele></trkpt>
    <trkpt lat="48.475217" lon="-5.092000"><ele>10.0</ele></trkpt>
    <trkpt lat="48.475307" lon="-5.092124"><ele>10.4</ele></trkpt>
    <trkpt lat="48.475341" lon="-5.092327"><ele>10.8</ele></trkpt>
    <trkpt lat="48.475158" lon="-5.092961"><ele>12.0</ele></trkpt>
    <trkpt lat="48.474988" lon="-5.093323"><ele>12.8</ele></trkpt>
    <trkpt lat="48.474788" lon="-5.094099"><ele>13.2</ele></trkpt>
    <trkpt lat="48.474734" lon="-5.094205"><ele>13.0</ele></trkpt>
    <trkpt lat="48.474532" lon="-5.094298"><ele>12.6</ele></trkpt>
    <trkpt lat="48.473957" lon="-5.094343"><ele>11.0</ele></trkpt>
    <trkpt lat="48.473564" lon="-5.094233"><ele>11.0</ele></trkpt>
    <trkpt lat="48.473441" lon="-5.094321"><ele>10.8</ele></trkpt>
    <trkpt lat="48.473277" lon="-5.094537"><ele>10.2</ele></trkpt>
    <trkpt lat="48.473037" lon="-5.094665"><ele>9.0</ele></trkpt>
    <trkpt lat="48.472794" lon="-5.094727"><ele>8.8</ele></trkpt>
    <trkpt lat="48.472738" lon="-5.094794"><ele>8.8</ele></trkpt>
    <trkpt lat="48.472748" lon="-5.095168"><ele>7.8</ele></trkpt>
    <trkpt lat="48.472791" lon="-5.095349"><ele>8.0</ele></trkpt>
    <trkpt lat="48.472882" lon="-5.095447"><ele>8.4</ele></trkpt>
    <trkpt lat="48.472905" lon="-5.095539"><ele>8.6</ele></trkpt>
    <trkpt lat="48.472920" lon="-5.095955"><ele>9.2</ele></trkpt>
    <trkpt lat="48.472967" lon="-5.096078"><ele>9.4</ele></trkpt>
    <trkpt lat="48.472967" lon="-5.096342"><ele>10.4</ele></trkpt>
    <trkpt lat="48.473086" lon="-5.097003"><ele>10.4</ele></trkpt>
    <trkpt lat="48.473102" lon="-5.097456"><ele>10.4</ele></trkpt>
    <trkpt lat="48.473029" lon="-5.098002"><ele>9.2</ele></trkpt>
    <trkpt lat="48.472784" lon="-5.098539"><ele>8.8</ele></trkpt>
    <trkpt lat="48.472679" lon="-5.098680"><ele>9.4</ele></trkpt>
    <trkpt lat="48.472741" lon="-5.099102"><ele>11.6</ele></trkpt>
    <trkpt lat="48.472662" lon="-5.099988"><ele>10.8</ele></trkpt>
    <trkpt lat="48.472603" lon="-5.100277"><ele>11.2</ele></trkpt>
    <trkpt lat="48.472428" lon="-5.100835"><ele>11.0</ele></trkpt>
    <trkpt lat="48.472323" lon="-5.101632"><ele>12.4</ele></trkpt>
    <trkpt lat="48.472239" lon="-5.102458"><ele>13.4</ele></trkpt>
    <trkpt lat="48.472230" lon="-5.103133"><ele>15.8</ele></trkpt>
    <trkpt lat="48.472128" lon="-5.103868"><ele>17.8</ele></trkpt>
    <trkpt lat="48.472084" lon="-5.104637"><ele>16.4</ele></trkpt>
    <trkpt lat="48.471891" lon="-5.105651"><ele>18.6</ele></trkpt>
    <trkpt lat="48.471658" lon="-5.106530"><ele>15.8</ele></trkpt>
    <trkpt lat="48.471083" lon="-5.106874"><ele>11.4</ele></trkpt>
    <trkpt lat="48.470979" lon="-5.106502"><ele>8.8</ele></trkpt>
    <trkpt lat="48.470997" lon="-5.105989"><ele>8.4</ele></trkpt>
    <trkpt lat="48.470975" lon="-5.105902"><ele>8.4</ele></trkpt>
    <trkpt lat="48.470915" lon="-5.105881"><ele>8.2</ele></trkpt>
    <trkpt lat="48.470695" lon="-5.106042"><ele>7.4</ele></trkpt>
    <trkpt lat="48.470461" lon="-5.106152"><ele>7.4</ele></trkpt>
    <trkpt lat="48.469872" lon="-5.106646"><ele>8.6</ele></trkpt>
    <trkpt lat="48.469812" lon="-5.106766"><ele>8.6</ele></trkpt>
    <trkpt lat="48.469757" lon="-5.107080"><ele>8.8</ele></trkpt>
    <trkpt lat="48.469647" lon="-5.107263"><ele>9.4</ele></trkpt>
    <trkpt lat="48.469588" lon="-5.107311"><ele>9.8</ele></trkpt>
    <trkpt lat="48.469406" lon="-5.107345"><ele>10.6</ele></trkpt>
    <trkpt lat="48.469242" lon="-5.107508"><ele>10.2</ele></trkpt>
    <trkpt lat="48.468912" lon="-5.107981"><ele>9.6</ele></trkpt>
    <trkpt lat="48.468879" lon="-5.108089"><ele>9.4</ele></trkpt>
    <trkpt lat="48.468867" lon="-5.108385"><ele>9.2</ele></trkpt>
    <trkpt lat="48.468817" lon="-5.108562"><ele>10.2</ele></trkpt>
    <trkpt lat="48.468589" lon="-5.108848"><ele>12.2</ele></trkpt>
    <trkpt lat="48.468478" lon="-5.108894"><ele>12.6</ele></trkpt>
    <trkpt lat="48.468340" lon="-5.108834"><ele>12.8</ele></trkpt>
    <trkpt lat="48.467977" lon="-5.108204"><ele>9.6</ele></trkpt>
    <trkpt lat="48.467938" lon="-5.108014"><ele>9.4</ele></trkpt>
    <trkpt lat="48.467956" lon="-5.107800"><ele>10.0</ele></trkpt>
    <trkpt lat="48.467770" lon="-5.107489"><ele>11.6</ele></trkpt>
    <trkpt lat="48.467582" lon="-5.107282"><ele>11.2</ele></trkpt>
    <trkpt lat="48.467371" lon="-5.107217"><ele>10.4</ele></trkpt>
    <trkpt lat="48.467286" lon="-5.107134"><ele>10.4</ele></trkpt>
    <trkpt lat="48.467222" lon="-5.107020"><ele>10.6</ele></trkpt>
    <trkpt lat="48.467123" lon="-5.106518"><ele>11.6</ele></trkpt>
    <trkpt lat="48.466934" lon="-5.106319"><ele>11.8</ele></trkpt>
    <trkpt lat="48.466719" lon="-5.105929"><ele>12.2</ele></trkpt>
    <trkpt lat="48.466399" lon="-5.105708"><ele>14.0</ele></trkpt>
    <trkpt lat="48.466277" lon="-5.105691"><ele>15.6</ele></trkpt>
    <trkpt lat="48.466058" lon="-5.105892"><ele>16.2</ele></trkpt>
    <trkpt lat="48.465776" lon="-5.106510"><ele>16.8</ele></trkpt>
    <trkpt lat="48.465324" lon="-5.106920"><ele>18.4</ele></trkpt>
    <trkpt lat="48.464999" lon="-5.107080"><ele>16.4</ele></trkpt>
    <trkpt lat="48.464795" lon="-5.107371"><ele>13.8</ele></trkpt>
    <trkpt lat="48.464549" lon="-5.107605"><ele>12.0</ele></trkpt>
    <trkpt lat="48.464511" lon="-5.107697"><ele>11.8</ele></trkpt>
    <trkpt lat="48.464532" lon="-5.107790"><ele>11.8</ele></trkpt>
    <trkpt lat="48.464766" lon="-5.108224"><ele>14.4</ele></trkpt>
    <trkpt lat="48.465059" lon="-5.108607"><ele>15.4</ele></trkpt>
    <trkpt lat="48.465157" lon="-5.108972"><ele>18.8</ele></trkpt>
    <trkpt lat="48.465132" lon="-5.109351"><ele>20.2</ele></trkpt>
    <trkpt lat="48.464879" lon="-5.109915"><ele>20.6</ele></trkpt>
    <trkpt lat="48.464705" lon="-5.110743"><ele>19.2</ele></trkpt>
    <trkpt lat="48.464593" lon="-5.111491"><ele>16.6</ele></trkpt>
    <trkpt lat="48.464597" lon="-5.112291"><ele>13.2</ele></trkpt>
    <trkpt lat="48.464638" lon="-5.112595"><ele>12.0</ele></trkpt>
    <trkpt lat="48.464650" lon="-5.113003"><ele>11.6</ele></trkpt>
    <trkpt lat="48.464821" lon="-5.113379"><ele>13.2</ele></trkpt>
    <trkpt lat="48.464985" lon="-5.113607"><ele>14.0</ele></trkpt>
    <trkpt lat="48.465009" lon="-5.113729"><ele>14.4</ele></trkpt>
    <trkpt lat="48.464933" lon="-5.113876"><ele>13.4</ele></trkpt>
    <trkpt lat="48.464809" lon="-5.113987"><ele>12.2</ele></trkpt>
    <trkpt lat="48.464407" lon="-5.114034"><ele>12.4</ele></trkpt>
    <trkpt lat="48.464134" lon="-5.114384"><ele>12.0</ele></trkpt>
    <trkpt lat="48.463995" lon="-5.114485"><ele>11.8</ele></trkpt>
    <trkpt lat="48.463867" lon="-5.114502"><ele>11.6</ele></trkpt>
    <trkpt lat="48.463715" lon="-5.114686"><ele>11.2</ele></trkpt>
    <trkpt lat="48.463686" lon="-5.114940"><ele>11.4</ele></trkpt>
    <trkpt lat="48.463763" lon="-5.115267"><ele>13.0</ele></trkpt>
    <trkpt lat="48.463913" lon="-5.116260"><ele>19.8</ele></trkpt>
    <trkpt lat="48.463752" lon="-5.117082"><ele>17.0</ele></trkpt>
    <trkpt lat="48.463506" lon="-5.117619"><ele>14.8</ele></trkpt>
    <trkpt lat="48.463187" lon="-5.117794"><ele>15.0</ele></trkpt>
    <trkpt lat="48.462949" lon="-5.118027"><ele>15.8</ele></trkpt>
    <trkpt lat="48.462737" lon="-5.118549"><ele>18.6</ele></trkpt>
    <trkpt lat="48.462455" lon="-5.119118"><ele>20.4</ele></trkpt>
    <trkpt lat="48.462268" lon="-5.119798"><ele>20.2</ele></trkpt>
    <trkpt lat="48.462057" lon="-5.120012"><ele>17.4</ele></trkpt>
    <trkpt lat="48.461933" lon="-5.120493"><ele>11.8</ele></trkpt>
    <trkpt lat="48.461843" lon="-5.120629"><ele>11.0</ele></trkpt>
    <trkpt lat="48.461872" lon="-5.121132"><ele>12.6</ele></trkpt>
    <trkpt lat="48.461808" lon="-5.121688"><ele>12.6</ele></trkpt>
    <trkpt lat="48.461861" lon="-5.121828"><ele>12.0</ele></trkpt>
    <trkpt lat="48.461999" lon="-5.121992"><ele>11.8</ele></trkpt>
    <trkpt lat="48.462107" lon="-5.122263"><ele>12.8</ele></trkpt>
    <trkpt lat="48.462006" lon="-5.122498"><ele>15.6</ele></trkpt>
    <trkpt lat="48.461924" lon="-5.122988"><ele>23.2</ele></trkpt>
    <trkpt lat="48.461550" lon="-5.123128"><ele>23.4</ele></trkpt>
    <trkpt lat="48.461237" lon="-5.123135"><ele>24.4</ele></trkpt>
    <trkpt lat="48.461084" lon="-5.123349"><ele>22.8</ele></trkpt>
    <trkpt lat="48.461058" lon="-5.123527"><ele>20.4</ele></trkpt>
    <trkpt lat="48.460992" lon="-5.123616"><ele>19.0</ele></trkpt>
    <trkpt lat="48.460840" lon="-5.123984"><ele>18.4</ele></trkpt>
    <trkpt lat="48.460651" lon="-5.124180"><ele>17.8</ele></trkpt>
    <trkpt lat="48.460550" lon="-5.124715"><ele>13.4</ele></trkpt>
    <trkpt lat="48.460495" lon="-5.125357"><ele>10.6</ele></trkpt>
    <trkpt lat="48.460462" lon="-5.125424"><ele>11.0</ele></trkpt>
    <trkpt lat="48.460103" lon="-5.125588"><ele>13.4</ele></trkpt>
    <trkpt lat="48.459792" lon="-5.125833"><ele>13.6</ele></trkpt>
    <trkpt lat="48.459602" lon="-5.125934"><ele>13.6</ele></trkpt>
    <trkpt lat="48.458968" lon="-5.126093"><ele>14.6</ele></trkpt>
    <trkpt lat="48.458523" lon="-5.126018"><ele>14.6</ele></trkpt>
    <trkpt lat="48.458031" lon="-5.124970"><ele>15.4</ele></trkpt>
    <trkpt lat="48.457957" lon="-5.124649"><ele>15.8</ele></trkpt>
    <trkpt lat="48.457940" lon="-5.124358"><ele>16.4</ele></trkpt>
    <trkpt lat="48.458050" lon="-5.123535"><ele>18.0</ele></trkpt>
    <trkpt lat="48.458025" lon="-5.123404"><ele>18.0</ele></trkpt>
    <trkpt lat="48.457223" lon="-5.123188"><ele>20.6</ele></trkpt>
  </trkseg></trk>
</gpx>
