<?xml version="1.0" encoding="UTF-8"?>
<gpx version="1.1" creator="tcap-parcours" xmlns="http://www.topografix.com/GPX/1/1">
  <metadata><name>Le tour du village – 3 – Boucle 11 km</name></metadata>
  <trk><name>Le tour du village – 3 – Boucle 11 km</name><trkseg>
    <trkpt lat="48.370080" lon="-4.640146"><ele>60.0</ele></trkpt>
    <trkpt lat="48.370362" lon="-4.640161"><ele>60.0</ele></trkpt>
    <trkpt lat="48.370671" lon="-4.640031"><ele>58.0</ele></trkpt>
    <trkpt lat="48.370762" lon="-4.640063"><ele>58.0</ele></trkpt>
    <trkpt lat="48.371100" lon="-4.640374"><ele>57.3</ele></trkpt>
    <trkpt lat="48.371581" lon="-4.640608"><ele>56.0</ele></trkpt>
    <trkpt lat="48.371623" lon="-4.640597"><ele>55.7</ele></trkpt>
    <trkpt lat="48.371555" lon="-4.641710"><ele>57.3</ele></trkpt>
    <trkpt lat="48.371430" lon="-4.642413"><ele>58.0</ele></trkpt>
    <trkpt lat="48.371204" lon="-4.643266"><ele>58.0</ele></trkpt>
    <trkpt lat="48.371155" lon="-4.643627"><ele>57.6</ele></trkpt>
    <trkpt lat="48.371344" lon="-4.643705"><ele>57.0</ele></trkpt>
    <trkpt lat="48.371378" lon="-4.643864"><ele>57.0</ele></trkpt>
    <trkpt lat="48.371325" lon="-4.644294"><ele>56.3</ele></trkpt>
    <trkpt lat="48.371246" lon="-4.644539"><ele>56.0</ele></trkpt>
    <trkpt lat="48.371059" lon="-4.644596"><ele>57.0</ele></trkpt>
    <trkpt lat="48.371042" lon="-4.644693"><ele>57.0</ele></trkpt>
    <trkpt lat="48.371035" lon="-4.644819"><ele>57.0</ele></trkpt>
    <trkpt lat="48.371112" lon="-4.645267"><ele>57.0</ele></trkpt>
    <trkpt lat="48.371123" lon="-4.646038"><ele>58.0</ele></trkpt>
    <trkpt lat="48.371092" lon="-4.646130"><ele>58.0</ele></trkpt>
    <trkpt lat="48.370901" lon="-4.646386"><ele>59.0</ele></trkpt>
    <trkpt lat="48.370882" lon="-4.646466"><ele>59.0</ele></trkpt>
    <trkpt lat="48.370927" lon="-4.646688"><ele>59.0</ele></trkpt>
    <trkpt lat="48.371160" lon="-4.647294"><ele>59.6</ele></trkpt>
    <trkpt lat="48.371389" lon="-4.647577"><ele>60.2</ele></trkpt>
    <trkpt lat="48.371811" lon="-4.647514"><ele>60.9</ele></trkpt>
    <trkpt lat="48.371920" lon="-4.647543"><ele>61.0</ele></trkpt>
    <trkpt lat="48.372215" lon="-4.647435"><ele>61.7</ele></trkpt>
    <trkpt lat="48.372421" lon="-4.647424"><ele>62.1</ele></trkpt>
    <trkpt lat="48.372682" lon="-4.647224"><ele>62.0</ele></trkpt>
    <trkpt lat="48.372893" lon="-4.647507"><ele>62.0</ele></trkpt>
    <trkpt lat="48.373363" lon="-4.648418"><ele>61.4</ele></trkpt>
    <trkpt lat="48.374340" lon="-4.649926"><ele>57.0</ele></trkpt>
    <trkpt lat="48.374797" lon="-4.650769"><ele>57.0</ele></trkpt>
    <trkpt lat="48.375952" lon="-4.652573"><ele>64.8</ele></trkpt>
    <trkpt lat="48.376497" lon="-4.653022"><ele>66.4</ele></trkpt>
    <trkpt lat="48.377067" lon="-4.653322"><ele>67.6</ele></trkpt>
    <trkpt lat="48.377242" lon="-4.653507"><ele>67.4</ele></trkpt>
    <trkpt lat="48.377353" lon="-4.653870"><ele>67.8</ele></trkpt>
    <trkpt lat="48.377535" lon="-4.655357"><ele>70.8</ele></trkpt>
    <trkpt lat="48.377577" lon="-4.655538"><ele>71.0</ele></trkpt>
    <trkpt lat="48.377652" lon="-4.655685"><ele>71.4</ele></trkpt>
    <trkpt lat="48.377807" lon="-4.655800"><ele>72.6</ele></trkpt>
    <trkpt lat="48.378617" lon="-4.656083"><ele>78.2</ele></trkpt>
    <trkpt lat="48.378885" lon="-4.656242"><ele>79.0</ele></trkpt>
    <trkpt lat="48.378943" lon="-4.656315"><ele>79.0</ele></trkpt>
    <trkpt lat="48.378967" lon="-4.656518"><ele>79.2</ele></trkpt>
    <trkpt lat="48.378920" lon="-4.657103"><ele>80.0</ele></trkpt>
    <trkpt lat="48.378725" lon="-4.658393"><ele>83.8</ele></trkpt>
    <trkpt lat="48.378660" lon="-4.658515"><ele>84.0</ele></trkpt>
    <trkpt lat="48.378377" lon="-4.658683"><ele>84.4</ele></trkpt>
    <trkpt lat="48.378345" lon="-4.658937"><ele>84.4</ele></trkpt>
    <trkpt lat="48.378752" lon="-4.661012"><ele>88.0</ele></trkpt>
    <trkpt lat="48.379175" lon="-4.662555"><ele>90.8</ele></trkpt>
    <trkpt lat="48.379422" lon="-4.663775"><ele>93.0</ele></trkpt>
    <trkpt lat="48.379058" lon="-4.664415"><ele>93.6</ele></trkpt>
    <trkpt lat="48.379002" lon="-4.664462"><ele>93.6</ele></trkpt>
    <trkpt lat="48.378527" lon="-4.664320"><ele>92.0</ele></trkpt>
    <trkpt lat="48.377712" lon="-4.664243"><ele>89.2</ele></trkpt>
    <trkpt lat="48.377532" lon="-4.664248"><ele>88.2</ele></trkpt>
    <trkpt lat="48.377473" lon="-4.664333"><ele>87.8</ele></trkpt>
    <trkpt lat="48.377602" lon="-4.665083"><ele>88.6</ele></trkpt>
    <trkpt lat="48.377945" lon="-4.666307"><ele>90.0</ele></trkpt>
    <trkpt lat="48.378277" lon="-4.667270"><ele>91.6</ele></trkpt>
    <trkpt lat="48.378450" lon="-4.667893"><ele>92.4</ele></trkpt>
    <trkpt lat="48.378633" lon="-4.669352"><ele>93.6</ele></trkpt>
    <trkpt lat="48.378908" lon="-4.670808"><ele>94.2</ele></trkpt>
    <trkpt lat="48.378912" lon="-4.671082"><ele>94.0</ele></trkpt>
    <trkpt lat="48.378865" lon="-4.671152"><ele>93.8</ele></trkpt>
    <trkpt lat="48.378627" lon="-4.671303"><ele>93.0</ele></trkpt>
    <trkpt lat="48.377838" lon="-4.671613"><ele>89.8</ele></trkpt>
    <trkpt lat="48.376558" lon="-4.671843"><ele>86.4</ele></trkpt>
    <trkpt lat="48.374900" lon="-4.671857"><ele>81.6</ele></trkpt>
    <trkpt lat="48.374748" lon="-4.671913"><ele>81.4</ele></trkpt>
    <trkpt lat="48.374547" lon="-4.672032"><ele>81.4</ele></trkpt>
    <trkpt lat="48.374335" lon="-4.672385"><ele>80.8</ele></trkpt>
    <trkpt lat="48.374048" lon="-4.672655"><ele>79.4</ele></trkpt>
    <trkpt lat="48.372780" lon="-4.673742"><ele>74.4</ele></trkpt>
    <trkpt lat="48.372532" lon="-4.673903"><ele>73.8</ele></trkpt>
    <trkpt lat="48.372160" lon="-4.674250"><ele>72.2</ele></trkpt>
    <trkpt lat="48.371610" lon="-4.674383"><ele>69.8</ele></trkpt>
    <trkpt lat="48.371393" lon="-4.674513"><ele>68.8</ele></trkpt>
    <trkpt lat="48.371277" lon="-4.674778"><ele>68.0</ele></trkpt>
    <trkpt lat="48.371223" lon="-4.674825"><ele>67.6</ele></trkpt>
    <trkpt lat="48.370442" lon="-4.675120"><ele>64.8</ele></trkpt>
    <trkpt lat="48.370078" lon="-4.675308"><ele>63.4</ele></trkpt>
    <trkpt lat="48.369423" lon="-4.675757"><ele>59.4</ele></trkpt>
    <trkpt lat="48.368307" lon="-4.676292"><ele>51.8</ele></trkpt>
    <trkpt lat="48.368292" lon="-4.676375"><ele>50.8</ele></trkpt>
    <trkpt lat="48.368318" lon="-4.676560"><ele>49.8</ele></trkpt>
    <trkpt lat="48.368280" lon="-4.676612"><ele>49.0</ele></trkpt>
    <trkpt lat="48.368163" lon="-4.676650"><ele>48.6</ele></trkpt>
    <trkpt lat="48.368107" lon="-4.676732"><ele>48.6</ele></trkpt>
    <trkpt lat="48.368020" lon="-4.677140"><ele>48.2</ele></trkpt>
    <trkpt lat="48.367938" lon="-4.677298"><ele>48.0</ele></trkpt>
    <trkpt lat="48.367895" lon="-4.677357"><ele>47.6</ele></trkpt>
    <trkpt lat="48.367767" lon="-4.677362"><ele>46.6</ele></trkpt>
    <trkpt lat="48.367633" lon="-4.677535"><ele>44.2</ele></trkpt>
    <trkpt lat="48.367575" lon="-4.677708"><ele>41.8</ele></trkpt>
    <trkpt lat="48.367585" lon="-4.677988"><ele>37.4</ele></trkpt>
    <trkpt lat="48.367555" lon="-4.678152"><ele>36.4</ele></trkpt>
    <trkpt lat="48.367475" lon="-4.678352"><ele>36.6</ele></trkpt>
    <trkpt lat="48.367407" lon="-4.678408"><ele>37.0</ele></trkpt>
    <trkpt lat="48.367218" lon="-4.678710"><ele>38.8</ele></trkpt>
    <trkpt lat="48.367132" lon="-4.679235"><ele>41.2</ele></trkpt>
    <trkpt lat="48.366968" lon="-4.679765"><ele>43.8</ele></trkpt>
    <trkpt lat="48.366907" lon="-4.680107"><ele>44.8</ele></trkpt>
    <trkpt lat="48.366503" lon="-4.680978"><ele>46.0</ele></trkpt>
    <trkpt lat="48.366335" lon="-4.681943"><ele>51.4</ele></trkpt>
    <trkpt lat="48.366260" lon="-4.682028"><ele>51.6</ele></trkpt>
    <trkpt lat="48.365813" lon="-4.682280"><ele>47.2</ele></trkpt>
    <trkpt lat="48.365630" lon="-4.682455"><ele>44.2</ele></trkpt>
    <trkpt lat="48.365368" lon="-4.682862"><ele>40.6</ele></trkpt>
    <trkpt lat="48.365123" lon="-4.683482"><ele>36.6</ele></trkpt>
    <trkpt lat="48.364973" lon="-4.683678"><ele>34.8</ele></trkpt>
    <trkpt lat="48.363918" lon="-4.684300"><ele>32.4</ele></trkpt>
    <trkpt lat="48.363720" lon="-4.684523"><ele>32.4</ele></trkpt>
    <trkpt lat="48.363468" lon="-4.684963"><ele>34.4</ele></trkpt>
    <trkpt lat="48.363373" lon="-4.684935"><ele>36.0</ele></trkpt>
    <trkpt lat="48.363270" lon="-4.684695"><ele>36.8</ele></trkpt>
    <trkpt lat="48.363260" lon="-4.684592"><ele>38.0</ele></trkpt>
    <trkpt lat="48.363325" lon="-4.684043"><ele>42.8</ele></trkpt>
    <trkpt lat="48.363310" lon="-4.683925"><ele>43.8</ele></trkpt>
    <trkpt lat="48.363250" lon="-4.683815"><ele>44.4</ele></trkpt>
    <trkpt lat="48.363090" lon="-4.683690"><ele>45.6</ele></trkpt>
    <trkpt lat="48.362850" lon="-4.683595"><ele>45.8</ele></trkpt>
    <trkpt lat="48.362457" lon="-4.683567"><ele>45.0</ele></trkpt>
    <trkpt lat="48.362323" lon="-4.683620"><ele>44.2</ele></trkpt>
    <trkpt lat="48.362270" lon="-4.683737"><ele>43.6</ele></trkpt>
    <trkpt lat="48.362118" lon="-4.684373"><ele>43.2</ele></trkpt>
    <trkpt lat="48.362205" lon="-4.684867"><ele>46.0</ele></trkpt>
    <trkpt lat="48.362222" lon="-4.685128"><ele>47.2</ele></trkpt>
    <trkpt lat="48.362147" lon="-4.686055"><ele>49.8</ele></trkpt>
    <trkpt lat="48.362100" lon="-4.686173"><ele>50.4</ele></trkpt>
    <trkpt lat="48.361950" lon="-4.686217"><ele>51.2</ele></trkpt>
    <trkpt lat="48.361813" lon="-4.686197"><ele>51.4</ele></trkpt>
    <trkpt lat="48.361333" lon="-4.686043"><ele>47.8</ele></trkpt>
    <trkpt lat="48.359093" lon="-4.685502"><ele>34.4</ele></trkpt>
    <trkpt lat="48.358432" lon="-4.685268"><ele>42.4</ele></trkpt>
    <trkpt lat="48.358357" lon="-4.685168"><ele>43.0</ele></trkpt>
    <trkpt lat="48.358348" lon="-4.685078"><ele>43.0</ele></trkpt>
    <trkpt lat="48.358372" lon="-4.684407"><ele>44.6</ele></trkpt>
    <trkpt lat="48.358287" lon="-4.684262"><ele>44.4</ele></trkpt>
    <trkpt lat="48.358190" lon="-4.684182"><ele>44.2</ele></trkpt>
    <trkpt lat="48.357822" lon="-4.684042"><ele>41.6</ele></trkpt>
    <trkpt lat="48.356952" lon="-4.683827"><ele>35.6</ele></trkpt>
    <trkpt lat="48.356790" lon="-4.683725"><ele>35.0</ele></trkpt>
    <trkpt lat="48.356647" lon="-4.683570"><ele>34.6</ele></trkpt>
    <trkpt lat="48.356592" lon="-4.683325"><ele>34.4</ele></trkpt>
    <trkpt lat="48.356585" lon="-4.682810"><ele>32.4</ele></trkpt>
    <trkpt lat="48.356608" lon="-4.682610"><ele>32.0</ele></trkpt>
    <trkpt lat="48.356508" lon="-4.682098"><ele>30.8</ele></trkpt>
    <trkpt lat="48.356495" lon="-4.681792"><ele>30.0</ele></trkpt>
    <trkpt lat="48.356448" lon="-4.681552"><ele>29.2</ele></trkpt>
    <trkpt lat="48.356480" lon="-4.681185"><ele>28.0</ele></trkpt>
    <trkpt lat="48.356458" lon="-4.680942"><ele>26.6</ele></trkpt>
    <trkpt lat="48.356392" lon="-4.680757"><ele>25.0</ele></trkpt>
    <trkpt lat="48.356335" lon="-4.680705"><ele>24.2</ele></trkpt>
    <trkpt lat="48.356038" lon="-4.680675"><ele>20.0</ele></trkpt>
    <trkpt lat="48.356110" lon="-4.680280"><ele>15.4</ele></trkpt>
    <trkpt lat="48.356223" lon="-4.680033"><ele>13.0</ele></trkpt>
    <trkpt lat="48.356287" lon="-4.679792"><ele>13.6</ele></trkpt>
    <trkpt lat="48.356318" lon="-4.679448"><ele>14.2</ele></trkpt>
    <trkpt lat="48.356253" lon="-4.679007"><ele>13.2</ele></trkpt>
    <trkpt lat="48.356192" lon="-4.678915"><ele>12.8</ele></trkpt>
    <trkpt lat="48.355977" lon="-4.678863"><ele>12.6</ele></trkpt>
    <trkpt lat="48.355818" lon="-4.678530"><ele>14.4</ele></trkpt>
    <trkpt lat="48.355382" lon="-4.678015"><ele>18.8</ele></trkpt>
    <trkpt lat="48.355293" lon="-4.677723"><ele>20.0</ele></trkpt>
    <trkpt lat="48.355230" lon="-4.677633"><ele>20.8</ele></trkpt>
    <trkpt lat="48.355180" lon="-4.677423"><ele>21.4</ele></trkpt>
    <trkpt lat="48.355157" lon="-4.676952"><ele>22.2</ele></trkpt>
    <trkpt lat="48.355088" lon="-4.676655"><ele>22.2</ele></trkpt>
    <trkpt lat="48.354880" lon="-4.676162"><ele>19.4</ele></trkpt>
    <trkpt lat="48.354678" lon="-4.674680"><ele>14.8</ele></trkpt>
    <trkpt lat="48.354672" lon="-4.674175"><ele>14.0</ele></trkpt>
    <trkpt lat="48.354727" lon="-4.673975"><ele>14.8</ele></trkpt>
    <trkpt lat="48.354995" lon="-4.673610"><ele>17.2</ele></trkpt>
    <trkpt lat="48.355173" lon="-4.673433"><ele>18.4</ele></trkpt>
    <trkpt lat="48.355395" lon="-4.673260"><ele>19.4</ele></trkpt>
    <trkpt lat="48.355880" lon="-4.672990"><ele>21.2</ele></trkpt>
    <trkpt lat="48.355968" lon="-4.672878"><ele>21.6</ele></trkpt>
    <trkpt lat="48.356042" lon="-4.672688"><ele>21.8</ele></trkpt>
    <trkpt lat="48.356065" lon="-4.672240"><ele>22.8</ele></trkpt>
    <trkpt lat="48.356165" lon="-4.672032"><ele>24.2</ele></trkpt>
    <trkpt lat="48.356310" lon="-4.671807"><ele>25.0</ele></trkpt>
    <trkpt lat="48.356517" lon="-4.671637"><ele>25.0</ele></trkpt>
    <trkpt lat="48.356585" lon="-4.671537"><ele>24.8</ele></trkpt>
    <trkpt lat="48.356837" lon="-4.671035"><ele>24.8</ele></trkpt>
    <trkpt lat="48.356968" lon="-4.670845"><ele>24.8</ele></trkpt>
    <trkpt lat="48.356980" lon="-4.670742"><ele>25.4</ele></trkpt>
    <trkpt lat="48.356845" lon="-4.670545"><ele>28.8</ele></trkpt>
    <trkpt lat="48.356820" lon="-4.670405"><ele>30.6</ele></trkpt>
    <trkpt lat="48.356938" lon="-4.670247"><ele>31.8</ele></trkpt>
    <trkpt lat="48.357282" lon="-4.669967"><ele>31.2</ele></trkpt>
    <trkpt lat="48.357478" lon="-4.669627"><ele>31.0</ele></trkpt>
    <trkpt lat="48.357618" lon="-4.669488"><ele>31.2</ele></trkpt>
    <trkpt lat="48.357645" lon="-4.669402"><ele>31.6</ele></trkpt>
    <trkpt lat="48.357620" lon="-4.669180"><ele>34.2</ele></trkpt>
    <trkpt lat="48.357647" lon="-4.669072"><ele>35.0</ele></trkpt>
    <trkpt lat="48.357697" lon="-4.668992"><ele>36.0</ele></trkpt>
    <trkpt lat="48.357915" lon="-4.668837"><ele>38.6</ele></trkpt>
    <trkpt lat="48.358007" lon="-4.668647"><ele>40.6</ele></trkpt>
    <trkpt lat="48.358017" lon="-4.668443"><ele>43.0</ele></trkpt>
    <trkpt lat="48.357878" lon="-4.668312"><ele>44.6</ele></trkpt>
    <trkpt lat="48.357455" lon="-4.668350"><ele>45.4</ele></trkpt>
    <trkpt lat="48.357233" lon="-4.668475"><ele>46.2</ele></trkpt>
    <trkpt lat="48.356487" lon="-4.668303"><ele>47.2</ele></trkpt>
    <trkpt lat="48.356437" lon="-4.668263"><ele>47.2</ele></trkpt>
    <trkpt lat="48.356410" lon="-4.668178"><ele>47.2</ele></trkpt>
    <trkpt lat="48.356360" lon="-4.667917"><ele>47.2</ele></trkpt>
    <trkpt lat="48.356328" lon="-4.667477"><ele>47.2</ele></trkpt>
    <trkpt lat="48.356512" lon="-4.666978"><ele>49.2</ele></trkpt>
    <trkpt lat="48.356553" lon="-4.666582"><ele>49.8</ele></trkpt>
    <trkpt lat="48.356807" lon="-4.665753"><ele>51.4</ele></trkpt>
    <trkpt lat="48.357028" lon="-4.665195"><ele>52.0</ele></trkpt>
    <trkpt lat="48.357013" lon="-4.664757"><ele>52.6</ele></trkpt>
    <trkpt lat="48.357098" lon="-4.664665"><ele>53.4</ele></trkpt>
    <trkpt lat="48.357528" lon="-4.664558"><ele>55.6</ele></trkpt>
    <trkpt lat="48.357817" lon="-4.664378"><ele>56.2</ele></trkpt>
    <trkpt lat="48.358122" lon="-4.664440"><ele>56.8</ele></trkpt>
    <trkpt lat="48.358287" lon="-4.664308"><ele>57.0</ele></trkpt>
    <trkpt lat="48.358810" lon="-4.664132"><ele>58.2</ele></trkpt>
    <trkpt lat="48.359025" lon="-4.663980"><ele>58.0</ele></trkpt>
    <trkpt lat="48.359217" lon="-4.663600"><ele>59.4</ele></trkpt>
    <trkpt lat="48.359357" lon="-4.663430"><ele>60.4</ele></trkpt>
    <trkpt lat="48.359445" lon="-4.663240"><ele>61.4</ele></trkpt>
    <trkpt lat="48.360152" lon="-4.662188"><ele>65.0</ele></trkpt>
    <trkpt lat="48.360195" lon="-4.662042"><ele>65.6</ele></trkpt>
    <trkpt lat="48.360162" lon="-4.661650"><ele>67.4</ele></trkpt>
    <trkpt lat="48.360348" lon="-4.661317"><ele>68.4</ele></trkpt>
    <trkpt lat="48.360675" lon="-4.660878"><ele>70.0</ele></trkpt>
    <trkpt lat="48.361068" lon="-4.660587"><ele>71.6</ele></trkpt>
    <trkpt lat="48.361555" lon="-4.660138"><ele>72.8</ele></trkpt>
    <trkpt lat="48.361565" lon="-4.659997"><ele>72.8</ele></trkpt>
    <trkpt lat="48.361277" lon="-4.659160"><ele>71.6</ele></trkpt>
    <trkpt lat="48.360657" lon="-4.657915"><ele>68.4</ele></trkpt>
    <trkpt lat="48.360553" lon="-4.657367"><ele>67.6</ele></trkpt>
    <trkpt lat="48.360580" lon="-4.657160"><ele>67.8</ele></trkpt>
    <trkpt lat="48.360660" lon="-4.656998"><ele>67.8</ele></trkpt>
    <trkpt lat="48.361043" lon="-4.656665"><ele>70.8</ele></trkpt>
    <trkpt lat="48.361512" lon="-4.656435"><ele>73.0</ele></trkpt>
    <trkpt lat="48.361925" lon="-4.656338"><ele>75.6</ele></trkpt>
    <trkpt lat="48.362320" lon="-4.656338"><ele>76.8</ele></trkpt>
    <trkpt lat="48.362465" lon="-4.656275"><ele>77.4</ele></trkpt>
    <trkpt lat="48.362580" lon="-4.656055"><ele>77.6</ele></trkpt>
    <trkpt lat="48.362747" lon="-4.655260"><ele>77.4</ele></trkpt>
    <trkpt lat="48.362803" lon="-4.655140"><ele>77.8</ele></trkpt>
    <trkpt lat="48.362883" lon="-4.655070"><ele>78.4</ele></trkpt>
    <trkpt lat="48.363847" lon="-4.654845"><ele>79.4</ele></trkpt>
    <trkpt lat="48.364150" lon="-4.654722"><ele>79.4</ele></trkpt>
    <trkpt lat="48.365365" lon="-4.653957"><ele>78.6</ele></trkpt>
    <trkpt lat="48.365642" lon="-4.653735"><ele>79.4</ele></trkpt>
    <trkpt lat="48.365940" lon="-4.653387"><ele>79.8</ele></trkpt>
    <trkpt lat="48.366095" lon="-4.653352"><ele>79.6</ele></trkpt>
    <trkpt lat="48.366610" lon="-4.653365"><ele>79.0</ele></trkpt>
    <trkpt lat="48.366693" lon="-4.653305"><ele>79.0</ele></trkpt>
    <trkpt lat="48.366953" lon="-4.652968"><ele>78.8</ele></trkpt>
    <trkpt lat="48.367350" lon="-4.652875"><ele>77.8</ele></trkpt>
    <trkpt lat="48.367477" lon="-4.652645"><ele>77.2</ele></trkpt>
    <trkpt lat="48.367758" lon="-4.651707"><ele>75.6</ele></trkpt>
    <trkpt lat="48.368120" lon="-4.651183"><ele>75.0</ele></trkpt>
    <trkpt lat="48.368547" lon="-4.650732"><ele>73.8</ele></trkpt>
    <trkpt lat="48.368703" lon="-4.650510"><ele>74.2</ele></trkpt>
    <trkpt lat="48.368843" lon="-4.650195"><ele>74.2</ele></trkpt>
    <trkpt lat="48.368908" lon="-4.649553"><ele>73.2</ele></trkpt>
    <trkpt lat="48.368962" lon="-4.649415"><ele>73.0</ele></trkpt>
    <trkpt lat="48.368895" lon="-4.649293"><ele>65.1</ele></trkpt>
    <trkpt lat="48.368838" lon="-4.648639"><ele>64.1</ele></trkpt>
    <trkpt lat="48.368580" lon="-4.647765"><ele>63.5</ele></trkpt>
    <trkpt lat="48.368638" lon="-4.647616"><ele>63.0</ele></trkpt>
    <trkpt lat="48.368949" lon="-4.647405"><ele>61.3</ele></trkpt>
    <trkpt lat="48.369046" lon="-4.647190"><ele>60.3</ele></trkpt>
    <trkpt lat="48.369078" lon="-4.646644"><ele>59.0</ele></trkpt>
    <trkpt lat="48.369229" lon="-4.646111"><ele>57.9</ele></trkpt>
    <trkpt lat="48.369272" lon="-4.645672"><ele>57.3</ele></trkpt>
    <trkpt lat="48.369283" lon="-4.645384"><ele>57.2</ele></trkpt>
    <trkpt lat="48.369240" lon="-4.645100"><ele>57.6</ele></trkpt>
    <trkpt lat="48.369400" lon="-4.644461"><ele>58.1</ele></trkpt>
    <trkpt lat="48.369492" lon="-4.644248"><ele>57.8</ele></trkpt>
    <trkpt lat="48.369637" lon="-4.643531"><ele>58.4</ele></trkpt>
    <trkpt lat="48.369648" lon="-4.643161"><ele>59.5</ele></trkpt>
    <trkpt lat="48.369713" lon="-4.642868"><ele>60.0</ele></trkpt>
    <trkpt lat="48.369687" lon="-4.642481"><ele>60.7</ele></trkpt>
    <trkpt lat="48.369617" lon="-4.642143"><ele>60.4</ele></trkpt>
    <trkpt lat="48.369765" lon="-4.641639"><ele>60.3</ele></trkpt>
    <trkpt lat="48.369839" lon="-4.641563"><ele>60.2</ele></trkpt>
    <trkpt lat="48.369870" lon="-4.641462"><ele>60.0</ele></trkpt>
    <trkpt lat="48.369887" lon="-4.641188"><ele>60.0</ele></trkpt>
    <trkpt lat="48.370043" lon="-4.640741"><ele>60.0</ele></trkpt>
  </trkseg></trk>
</gpx>
