<?xml version="1.0" encoding="UTF-8"?>
<gpx version="1.1" creator="tcap-parcours" xmlns="http://www.topografix.com/GPX/1/1">
  <metadata><name>Le tour du village – 2 – Boucle 22 km</name></metadata>
  <trk><name>Le tour du village – 2 – Boucle 22 km</name><trkseg>
    <trkpt lat="48.370080" lon="-4.640146"><ele>60.0</ele></trkpt>
    <trkpt lat="48.370362" lon="-4.640161"><ele>60.0</ele></trkpt>
    <trkpt lat="48.370671" lon="-4.640031"><ele>58.0</ele></trkpt>
    <trkpt lat="48.370762" lon="-4.640063"><ele>58.0</ele></trkpt>
    <trkpt lat="48.371100" lon="-4.640374"><ele>57.3</ele></trkpt>
    <trkpt lat="48.371581" lon="-4.640608"><ele>56.0</ele></trkpt>
    <trkpt lat="48.371623" lon="-4.640597"><ele>55.7</ele></trkpt>
    <trkpt lat="48.371555" lon="-4.641710"><ele>57.3</ele></trkpt>
    <trkpt lat="48.371430" lon="-4.642413"><ele>58.0</ele></trkpt>
    <trkpt lat="48.371204" lon="-4.643266"><ele>58.0</ele></trkpt>
    <trkpt lat="48.371155" lon="-4.643627"><ele>57.6</ele></trkpt>
    <trkpt lat="48.371344" lon="-4.643705"><ele>57.0</ele></trkpt>
    <trkpt lat="48.371378" lon="-4.643864"><ele>57.0</ele></trkpt>
    <trkpt lat="48.371325" lon="-4.644294"><ele>56.3</ele></trkpt>
    <trkpt lat="48.371246" lon="-4.644539"><ele>56.0</ele></trkpt>
    <trkpt lat="48.371059" lon="-4.644596"><ele>57.0</ele></trkpt>
    <trkpt lat="48.371042" lon="-4.644693"><ele>57.0</ele></trkpt>
    <trkpt lat="48.371035" lon="-4.644819"><ele>57.0</ele></trkpt>
    <trkpt lat="48.371112" lon="-4.645267"><ele>57.0</ele></trkpt>
    <trkpt lat="48.371123" lon="-4.646038"><ele>58.0</ele></trkpt>
    <trkpt lat="48.371092" lon="-4.646130"><ele>58.0</ele></trkpt>
    <trkpt lat="48.370901" lon="-4.646386"><ele>59.0</ele></trkpt>
    <trkpt lat="48.370882" lon="-4.646466"><ele>59.0</ele></trkpt>
    <trkpt lat="48.370927" lon="-4.646688"><ele>59.0</ele></trkpt>
    <trkpt lat="48.371160" lon="-4.647294"><ele>59.6</ele></trkpt>
    <trkpt lat="48.371389" lon="-4.647577"><ele>60.2</ele></trkpt>
    <trkpt lat="48.371811" lon="-4.647514"><ele>60.9</ele></trkpt>
    <trkpt lat="48.371920" lon="-4.647543"><ele>61.0</ele></trkpt>
    <trkpt lat="48.372215" lon="-4.647435"><ele>61.7</ele></trkpt>
    <trkpt lat="48.372421" lon="-4.647424"><ele>62.1</ele></trkpt>
    <trkpt lat="48.372682" lon="-4.647224"><ele>62.0</ele></trkpt>
    <trkpt lat="48.372893" lon="-4.647507"><ele>62.0</ele></trkpt>
    <trkpt lat="48.373363" lon="-4.648418"><ele>61.4</ele></trkpt>
    <trkpt lat="48.374340" lon="-4.649926"><ele>57.0</ele></trkpt>
    <trkpt lat="48.374797" lon="-4.650769"><ele>57.0</ele></trkpt>
    <trkpt lat="48.375894" lon="-4.652483"><ele>57.0</ele></trkpt>
    <trkpt lat="48.376069" lon="-4.652681"><ele>57.9</ele></trkpt>
    <trkpt lat="48.376569" lon="-4.653056"><ele>59.0</ele></trkpt>
    <trkpt lat="48.377094" lon="-4.653338"><ele>59.0</ele></trkpt>
    <trkpt lat="48.377301" lon="-4.653534"><ele>59.0</ele></trkpt>
    <trkpt lat="48.377347" lon="-4.653629"><ele>59.0</ele></trkpt>
    <trkpt lat="48.377472" lon="-4.655107"><ele>62.0</ele></trkpt>
    <trkpt lat="48.377527" lon="-4.655459"><ele>62.1</ele></trkpt>
    <trkpt lat="48.377624" lon="-4.655683"><ele>63.0</ele></trkpt>
    <trkpt lat="48.377765" lon="-4.655791"><ele>64.0</ele></trkpt>
    <trkpt lat="48.378834" lon="-4.656179"><ele>69.5</ele></trkpt>
    <trkpt lat="48.379573" lon="-4.656842"><ele>71.1</ele></trkpt>
    <trkpt lat="48.380056" lon="-4.657030"><ele>71.2</ele></trkpt>
    <trkpt lat="48.380701" lon="-4.657149"><ele>68.3</ele></trkpt>
    <trkpt lat="48.380703" lon="-4.657107"><ele>67.6</ele></trkpt>
    <trkpt lat="48.380822" lon="-4.657087"><ele>67.4</ele></trkpt>
    <trkpt lat="48.381045" lon="-4.656912"><ele>66.2</ele></trkpt>
    <trkpt lat="48.381415" lon="-4.656872"><ele>64.8</ele></trkpt>
    <trkpt lat="48.381880" lon="-4.657023"><ele>67.2</ele></trkpt>
    <trkpt lat="48.381950" lon="-4.656920"><ele>67.6</ele></trkpt>
    <trkpt lat="48.382043" lon="-4.656550"><ele>67.8</ele></trkpt>
    <trkpt lat="48.382162" lon="-4.656405"><ele>67.8</ele></trkpt>
    <trkpt lat="48.382430" lon="-4.656195"><ele>66.8</ele></trkpt>
    <trkpt lat="48.382720" lon="-4.656220"><ele>65.6</ele></trkpt>
    <trkpt lat="48.383298" lon="-4.656380"><ele>67.2</ele></trkpt>
    <trkpt lat="48.383747" lon="-4.656188"><ele>72.4</ele></trkpt>
    <trkpt lat="48.384100" lon="-4.656150"><ele>75.4</ele></trkpt>
    <trkpt lat="48.384300" lon="-4.656253"><ele>75.8</ele></trkpt>
    <trkpt lat="48.384477" lon="-4.656402"><ele>76.2</ele></trkpt>
    <trkpt lat="48.384582" lon="-4.656435"><ele>76.6</ele></trkpt>
    <trkpt lat="48.384703" lon="-4.656343"><ele>76.6</ele></trkpt>
    <trkpt lat="48.384817" lon="-4.656115"><ele>76.6</ele></trkpt>
    <trkpt lat="48.384938" lon="-4.656062"><ele>77.0</ele></trkpt>
    <trkpt lat="48.385223" lon="-4.656287"><ele>78.4</ele></trkpt>
    <trkpt lat="48.385325" lon="-4.656338"><ele>79.0</ele></trkpt>
    <trkpt lat="48.385393" lon="-4.656325"><ele>79.2</ele></trkpt>
    <trkpt lat="48.385548" lon="-4.656182"><ele>79.6</ele></trkpt>
    <trkpt lat="48.385845" lon="-4.655450"><ele>80.6</ele></trkpt>
    <trkpt lat="48.386152" lon="-4.654945"><ele>82.6</ele></trkpt>
    <trkpt lat="48.386365" lon="-4.654707"><ele>82.2</ele></trkpt>
    <trkpt lat="48.386700" lon="-4.654452"><ele>81.6</ele></trkpt>
    <trkpt lat="48.386920" lon="-4.654135"><ele>80.8</ele></trkpt>
    <trkpt lat="48.387405" lon="-4.653600"><ele>79.2</ele></trkpt>
    <trkpt lat="48.387732" lon="-4.653180"><ele>77.6</ele></trkpt>
    <trkpt lat="48.387803" lon="-4.653135"><ele>77.4</ele></trkpt>
    <trkpt lat="48.388260" lon="-4.653140"><ele>79.4</ele></trkpt>
    <trkpt lat="48.388432" lon="-4.653087"><ele>79.8</ele></trkpt>
    <trkpt lat="48.389475" lon="-4.652558"><ele>82.2</ele></trkpt>
    <trkpt lat="48.389893" lon="-4.652125"><ele>83.4</ele></trkpt>
    <trkpt lat="48.390143" lon="-4.651740"><ele>84.0</ele></trkpt>
    <trkpt lat="48.390432" lon="-4.651387"><ele>84.4</ele></trkpt>
    <trkpt lat="48.390878" lon="-4.650965"><ele>83.6</ele></trkpt>
    <trkpt lat="48.391325" lon="-4.650680"><ele>82.0</ele></trkpt>
    <trkpt lat="48.391738" lon="-4.650252"><ele>79.4</ele></trkpt>
    <trkpt lat="48.391978" lon="-4.649848"><ele>77.2</ele></trkpt>
    <trkpt lat="48.392213" lon="-4.649530"><ele>75.6</ele></trkpt>
    <trkpt lat="48.392890" lon="-4.648727"><ele>70.8</ele></trkpt>
    <trkpt lat="48.392998" lon="-4.648700"><ele>70.2</ele></trkpt>
    <trkpt lat="48.393207" lon="-4.648765"><ele>69.2</ele></trkpt>
    <trkpt lat="48.393343" lon="-4.648497"><ele>69.2</ele></trkpt>
    <trkpt lat="48.393570" lon="-4.648185"><ele>67.6</ele></trkpt>
    <trkpt lat="48.393618" lon="-4.647977"><ele>66.6</ele></trkpt>
    <trkpt lat="48.393815" lon="-4.647645"><ele>64.6</ele></trkpt>
    <trkpt lat="48.394050" lon="-4.647148"><ele>62.0</ele></trkpt>
    <trkpt lat="48.394467" lon="-4.646042"><ele>58.4</ele></trkpt>
    <trkpt lat="48.394597" lon="-4.645393"><ele>56.4</ele></trkpt>
    <trkpt lat="48.394638" lon="-4.645133"><ele>56.0</ele></trkpt>
    <trkpt lat="48.394620" lon="-4.644965"><ele>56.2</ele></trkpt>
    <trkpt lat="48.394262" lon="-4.644468"><ele>57.4</ele></trkpt>
    <trkpt lat="48.394197" lon="-4.644243"><ele>57.4</ele></trkpt>
    <trkpt lat="48.394233" lon="-4.643652"><ele>55.8</ele></trkpt>
    <trkpt lat="48.394205" lon="-4.643275"><ele>55.0</ele></trkpt>
    <trkpt lat="48.394277" lon="-4.643137"><ele>54.6</ele></trkpt>
    <trkpt lat="48.394463" lon="-4.642945"><ele>54.0</ele></trkpt>
    <trkpt lat="48.394477" lon="-4.642875"><ele>53.8</ele></trkpt>
    <trkpt lat="48.394437" lon="-4.642770"><ele>53.6</ele></trkpt>
    <trkpt lat="48.394187" lon="-4.642422"><ele>54.8</ele></trkpt>
    <trkpt lat="48.394167" lon="-4.642297"><ele>55.2</ele></trkpt>
    <trkpt lat="48.394358" lon="-4.641652"><ele>55.2</ele></trkpt>
    <trkpt lat="48.394453" lon="-4.641562"><ele>54.8</ele></trkpt>
    <trkpt lat="48.394568" lon="-4.641585"><ele>54.6</ele></trkpt>
    <trkpt lat="48.396938" lon="-4.643742"><ele>44.8</ele></trkpt>
    <trkpt lat="48.397853" lon="-4.644628"><ele>47.2</ele></trkpt>
    <trkpt lat="48.397853" lon="-4.644710"><ele>47.4</ele></trkpt>
    <trkpt lat="48.397707" lon="-4.645047"><ele>48.4</ele></trkpt>
    <trkpt lat="48.397510" lon="-4.645313"><ele>47.2</ele></trkpt>
    <trkpt lat="48.397267" lon="-4.645463"><ele>46.4</ele></trkpt>
    <trkpt lat="48.396855" lon="-4.645570"><ele>47.0</ele></trkpt>
    <trkpt lat="48.396673" lon="-4.645732"><ele>47.2</ele></trkpt>
    <trkpt lat="48.396015" lon="-4.646885"><ele>49.4</ele></trkpt>
    <trkpt lat="48.395823" lon="-4.647165"><ele>50.6</ele></trkpt>
    <trkpt lat="48.395812" lon="-4.647245"><ele>50.8</ele></trkpt>
    <trkpt lat="48.395837" lon="-4.647310"><ele>51.0</ele></trkpt>
    <trkpt lat="48.396240" lon="-4.647505"><ele>50.2</ele></trkpt>
    <trkpt lat="48.396590" lon="-4.647760"><ele>49.8</ele></trkpt>
    <trkpt lat="48.397013" lon="-4.648292"><ele>51.0</ele></trkpt>
    <trkpt lat="48.397120" lon="-4.648375"><ele>51.8</ele></trkpt>
    <trkpt lat="48.397325" lon="-4.648462"><ele>52.8</ele></trkpt>
    <trkpt lat="48.397693" lon="-4.648512"><ele>54.8</ele></trkpt>
    <trkpt lat="48.397983" lon="-4.648645"><ele>56.6</ele></trkpt>
    <trkpt lat="48.398455" lon="-4.648743"><ele>58.8</ele></trkpt>
    <trkpt lat="48.398785" lon="-4.648988"><ele>61.2</ele></trkpt>
    <trkpt lat="48.398872" lon="-4.648983"><ele>61.2</ele></trkpt>
    <trkpt lat="48.398940" lon="-4.648928"><ele>61.2</ele></trkpt>
    <trkpt lat="48.398913" lon="-4.649107"><ele>61.0</ele></trkpt>
    <trkpt lat="48.398963" lon="-4.649322"><ele>61.6</ele></trkpt>
    <trkpt lat="48.399125" lon="-4.649655"><ele>61.8</ele></trkpt>
    <trkpt lat="48.399277" lon="-4.649843"><ele>61.6</ele></trkpt>
    <trkpt lat="48.399435" lon="-4.649935"><ele>60.6</ele></trkpt>
    <trkpt lat="48.399753" lon="-4.649850"><ele>58.8</ele></trkpt>
    <trkpt lat="48.399845" lon="-4.649912"><ele>58.6</ele></trkpt>
    <trkpt lat="48.399980" lon="-4.650583"><ele>59.0</ele></trkpt>
    <trkpt lat="48.400072" lon="-4.650723"><ele>59.4</ele></trkpt>
    <trkpt lat="48.400210" lon="-4.650613"><ele>59.8</ele></trkpt>
    <trkpt lat="48.400322" lon="-4.650433"><ele>59.6</ele></trkpt>
    <trkpt lat="48.400523" lon="-4.650307"><ele>60.4</ele></trkpt>
    <trkpt lat="48.400673" lon="-4.650115"><ele>61.2</ele></trkpt>
    <trkpt lat="48.401362" lon="-4.649435"><ele>64.2</ele></trkpt>
    <trkpt lat="48.401473" lon="-4.649238"><ele>64.4</ele></trkpt>
    <trkpt lat="48.401448" lon="-4.649088"><ele>64.6</ele></trkpt>
    <trkpt lat="48.401188" lon="-4.648808"><ele>64.6</ele></trkpt>
    <trkpt lat="48.400018" lon="-4.647340"><ele>62.4</ele></trkpt>
    <trkpt lat="48.399913" lon="-4.647363"><ele>62.6</ele></trkpt>
    <trkpt lat="48.399758" lon="-4.647583"><ele>62.6</ele></trkpt>
    <trkpt lat="48.399828" lon="-4.647415"><ele>62.2</ele></trkpt>
    <trkpt lat="48.399317" lon="-4.648212"><ele>61.6</ele></trkpt>
    <trkpt lat="48.398913" lon="-4.648955"><ele>60.6</ele></trkpt>
    <trkpt lat="48.398805" lon="-4.649033"><ele>61.2</ele></trkpt>
    <trkpt lat="48.398500" lon="-4.648795"><ele>62.8</ele></trkpt>
    <trkpt lat="48.398217" lon="-4.648758"><ele>62.6</ele></trkpt>
    <trkpt lat="48.397710" lon="-4.648545"><ele>60.4</ele></trkpt>
    <trkpt lat="48.397082" lon="-4.648378"><ele>55.0</ele></trkpt>
    <trkpt lat="48.396953" lon="-4.648275"><ele>53.8</ele></trkpt>
    <trkpt lat="48.396482" lon="-4.647697"><ele>48.8</ele></trkpt>
    <trkpt lat="48.396025" lon="-4.647410"><ele>47.6</ele></trkpt>
    <trkpt lat="48.395830" lon="-4.647328"><ele>47.6</ele></trkpt>
    <trkpt lat="48.395725" lon="-4.647327"><ele>47.8</ele></trkpt>
    <trkpt lat="48.395612" lon="-4.647438"><ele>48.6</ele></trkpt>
    <trkpt lat="48.395408" lon="-4.647745"><ele>50.6</ele></trkpt>
    <trkpt lat="48.395122" lon="-4.648380"><ele>53.6</ele></trkpt>
    <trkpt lat="48.394512" lon="-4.649382"><ele>56.2</ele></trkpt>
    <trkpt lat="48.394367" lon="-4.649782"><ele>56.0</ele></trkpt>
    <trkpt lat="48.394068" lon="-4.650318"><ele>59.8</ele></trkpt>
    <trkpt lat="48.394027" lon="-4.650460"><ele>60.8</ele></trkpt>
    <trkpt lat="48.393758" lon="-4.650857"><ele>63.0</ele></trkpt>
    <trkpt lat="48.393463" lon="-4.651148"><ele>66.6</ele></trkpt>
    <trkpt lat="48.393067" lon="-4.651352"><ele>70.8</ele></trkpt>
    <trkpt lat="48.392758" lon="-4.651587"><ele>72.2</ele></trkpt>
    <trkpt lat="48.392500" lon="-4.651965"><ele>73.8</ele></trkpt>
    <trkpt lat="48.392105" lon="-4.653217"><ele>75.6</ele></trkpt>
    <trkpt lat="48.391965" lon="-4.653528"><ele>76.2</ele></trkpt>
    <trkpt lat="48.391702" lon="-4.654503"><ele>80.0</ele></trkpt>
    <trkpt lat="48.391652" lon="-4.654577"><ele>80.2</ele></trkpt>
    <trkpt lat="48.391380" lon="-4.654622"><ele>81.6</ele></trkpt>
    <trkpt lat="48.391228" lon="-4.654732"><ele>82.4</ele></trkpt>
    <trkpt lat="48.390992" lon="-4.655317"><ele>84.0</ele></trkpt>
    <trkpt lat="48.390768" lon="-4.656072"><ele>88.0</ele></trkpt>
    <trkpt lat="48.390730" lon="-4.656800"><ele>90.4</ele></trkpt>
    <trkpt lat="48.390468" lon="-4.657698"><ele>93.4</ele></trkpt>
    <trkpt lat="48.390155" lon="-4.658612"><ele>95.4</ele></trkpt>
    <trkpt lat="48.389850" lon="-4.660013"><ele>99.4</ele></trkpt>
    <trkpt lat="48.389878" lon="-4.660405"><ele>99.8</ele></trkpt>
    <trkpt lat="48.390212" lon="-4.661107"><ele>99.6</ele></trkpt>
    <trkpt lat="48.390308" lon="-4.661925"><ele>99.4</ele></trkpt>
    <trkpt lat="48.390823" lon="-4.665165"><ele>96.8</ele></trkpt>
    <trkpt lat="48.391040" lon="-4.666763"><ele>95.6</ele></trkpt>
    <trkpt lat="48.391050" lon="-4.667283"><ele>95.6</ele></trkpt>
    <trkpt lat="48.390823" lon="-4.668947"><ele>94.6</ele></trkpt>
    <trkpt lat="48.390867" lon="-4.670333"><ele>93.6</ele></trkpt>
    <trkpt lat="48.390833" lon="-4.670512"><ele>93.6</ele></trkpt>
    <trkpt lat="48.390325" lon="-4.670615"><ele>92.6</ele></trkpt>
    <trkpt lat="48.389503" lon="-4.670635"><ele>91.0</ele></trkpt>
    <trkpt lat="48.389002" lon="-4.670710"><ele>91.0</ele></trkpt>
    <trkpt lat="48.388593" lon="-4.670832"><ele>91.2</ele></trkpt>
    <trkpt lat="48.388032" lon="-4.671057"><ele>91.8</ele></trkpt>
    <trkpt lat="48.387810" lon="-4.671208"><ele>92.0</ele></trkpt>
    <trkpt lat="48.386928" lon="-4.671545"><ele>89.8</ele></trkpt>
    <trkpt lat="48.385525" lon="-4.672380"><ele>91.4</ele></trkpt>
    <trkpt lat="48.385360" lon="-4.672358"><ele>91.6</ele></trkpt>
    <trkpt lat="48.384962" lon="-4.671787"><ele>92.6</ele></trkpt>
    <trkpt lat="48.384955" lon="-4.671577"><ele>92.8</ele></trkpt>
    <trkpt lat="48.385542" lon="-4.670043"><ele>93.0</ele></trkpt>
    <trkpt lat="48.385690" lon="-4.669423"><ele>93.8</ele></trkpt>
    <trkpt lat="48.386030" lon="-4.667568"><ele>95.2</ele></trkpt>
    <trkpt lat="48.386157" lon="-4.667115"><ele>95.8</ele></trkpt>
    <trkpt lat="48.386453" lon="-4.666393"><ele>97.4</ele></trkpt>
    <trkpt lat="48.386573" lon="-4.666215"><ele>98.2</ele></trkpt>
    <trkpt lat="48.386708" lon="-4.665878"><ele>100.2</ele></trkpt>
    <trkpt lat="48.386773" lon="-4.665833"><ele>100.0</ele></trkpt>
    <trkpt lat="48.386747" lon="-4.665788"><ele>100.2</ele></trkpt>
    <trkpt lat="48.386760" lon="-4.665808"><ele>99.8</ele></trkpt>
    <trkpt lat="48.386932" lon="-4.665575"><ele>100.0</ele></trkpt>
    <trkpt lat="48.387308" lon="-4.664940"><ele>100.8</ele></trkpt>
    <trkpt lat="48.387362" lon="-4.664735"><ele>101.2</ele></trkpt>
    <trkpt lat="48.387340" lon="-4.664593"><ele>101.8</ele></trkpt>
    <trkpt lat="48.386887" lon="-4.664145"><ele>103.4</ele></trkpt>
    <trkpt lat="48.386390" lon="-4.663105"><ele>103.0</ele></trkpt>
    <trkpt lat="48.386047" lon="-4.662712"><ele>101.8</ele></trkpt>
    <trkpt lat="48.385888" lon="-4.662470"><ele>100.6</ele></trkpt>
    <trkpt lat="48.385757" lon="-4.662363"><ele>99.4</ele></trkpt>
    <trkpt lat="48.385500" lon="-4.662348"><ele>97.6</ele></trkpt>
    <trkpt lat="48.384300" lon="-4.662847"><ele>88.0</ele></trkpt>
    <trkpt lat="48.383720" lon="-4.663163"><ele>86.4</ele></trkpt>
    <trkpt lat="48.382883" lon="-4.663705"><ele>83.4</ele></trkpt>
    <trkpt lat="48.382590" lon="-4.663813"><ele>82.6</ele></trkpt>
    <trkpt lat="48.381762" lon="-4.663795"><ele>84.6</ele></trkpt>
    <trkpt lat="48.381612" lon="-4.663710"><ele>85.0</ele></trkpt>
    <trkpt lat="48.381312" lon="-4.663328"><ele>84.8</ele></trkpt>
    <trkpt lat="48.381152" lon="-4.663263"><ele>85.0</ele></trkpt>
    <trkpt lat="48.381053" lon="-4.663287"><ele>85.2</ele></trkpt>
    <trkpt lat="48.380685" lon="-4.663188"><ele>84.8</ele></trkpt>
    <trkpt lat="48.380125" lon="-4.663177"><ele>84.2</ele></trkpt>
    <trkpt lat="48.379815" lon="-4.663315"><ele>84.2</ele></trkpt>
    <trkpt lat="48.379475" lon="-4.663682"><ele>84.2</ele></trkpt>
    <trkpt lat="48.379222" lon="-4.664122"><ele>84.6</ele></trkpt>
    <trkpt lat="48.379207" lon="-4.664237"><ele>85.0</ele></trkpt>
    <trkpt lat="48.379295" lon="-4.664385"><ele>85.0</ele></trkpt>
    <trkpt lat="48.379612" lon="-4.664703"><ele>84.8</ele></trkpt>
    <trkpt lat="48.379983" lon="-4.665282"><ele>84.8</ele></trkpt>
    <trkpt lat="48.380332" lon="-4.665563"><ele>85.0</ele></trkpt>
    <trkpt lat="48.380485" lon="-4.665733"><ele>85.4</ele></trkpt>
    <trkpt lat="48.380718" lon="-4.666123"><ele>86.4</ele></trkpt>
    <trkpt lat="48.380677" lon="-4.667012"><ele>88.2</ele></trkpt>
    <trkpt lat="48.380713" lon="-4.667485"><ele>88.2</ele></trkpt>
    <trkpt lat="48.380898" lon="-4.668045"><ele>88.6</ele></trkpt>
    <trkpt lat="48.381233" lon="-4.669563"><ele>89.2</ele></trkpt>
    <trkpt lat="48.381220" lon="-4.669945"><ele>89.2</ele></trkpt>
    <trkpt lat="48.381175" lon="-4.670118"><ele>89.0</ele></trkpt>
    <trkpt lat="48.381103" lon="-4.670225"><ele>89.2</ele></trkpt>
    <trkpt lat="48.380675" lon="-4.670540"><ele>89.2</ele></trkpt>
    <trkpt lat="48.379220" lon="-4.671035"><ele>87.6</ele></trkpt>
    <trkpt lat="48.378023" lon="-4.671578"><ele>85.4</ele></trkpt>
    <trkpt lat="48.376998" lon="-4.671803"><ele>84.0</ele></trkpt>
    <trkpt lat="48.376477" lon="-4.671872"><ele>83.0</ele></trkpt>
    <trkpt lat="48.375567" lon="-4.671860"><ele>80.2</ele></trkpt>
    <trkpt lat="48.374825" lon="-4.671912"><ele>77.4</ele></trkpt>
    <trkpt lat="48.374528" lon="-4.672067"><ele>77.2</ele></trkpt>
    <trkpt lat="48.374347" lon="-4.672393"><ele>76.2</ele></trkpt>
    <trkpt lat="48.374105" lon="-4.672655"><ele>74.4</ele></trkpt>
    <trkpt lat="48.373938" lon="-4.672748"><ele>73.8</ele></trkpt>
    <trkpt lat="48.372770" lon="-4.673777"><ele>68.6</ele></trkpt>
    <trkpt lat="48.372365" lon="-4.674065"><ele>68.0</ele></trkpt>
    <trkpt lat="48.372148" lon="-4.674283"><ele>66.4</ele></trkpt>
    <trkpt lat="48.371710" lon="-4.674368"><ele>63.6</ele></trkpt>
    <trkpt lat="48.371460" lon="-4.674467"><ele>62.6</ele></trkpt>
    <trkpt lat="48.371350" lon="-4.674562"><ele>62.2</ele></trkpt>
    <trkpt lat="48.371300" lon="-4.674740"><ele>61.8</ele></trkpt>
    <trkpt lat="48.371217" lon="-4.674835"><ele>61.6</ele></trkpt>
    <trkpt lat="48.370855" lon="-4.674963"><ele>60.4</ele></trkpt>
    <trkpt lat="48.370218" lon="-4.675280"><ele>58.4</ele></trkpt>
    <trkpt lat="48.370127" lon="-4.675288"><ele>58.0</ele></trkpt>
    <trkpt lat="48.369540" lon="-4.675688"><ele>53.2</ele></trkpt>
    <trkpt lat="48.368332" lon="-4.676263"><ele>41.6</ele></trkpt>
    <trkpt lat="48.368297" lon="-4.676322"><ele>41.0</ele></trkpt>
    <trkpt lat="48.368307" lon="-4.676570"><ele>38.6</ele></trkpt>
    <trkpt lat="48.368140" lon="-4.676685"><ele>37.8</ele></trkpt>
    <trkpt lat="48.368030" lon="-4.677073"><ele>37.0</ele></trkpt>
    <trkpt lat="48.367913" lon="-4.677302"><ele>36.6</ele></trkpt>
    <trkpt lat="48.367843" lon="-4.677355"><ele>36.2</ele></trkpt>
    <trkpt lat="48.367742" lon="-4.677320"><ele>35.6</ele></trkpt>
    <trkpt lat="48.367625" lon="-4.677475"><ele>33.8</ele></trkpt>
    <trkpt lat="48.367568" lon="-4.677698"><ele>30.4</ele></trkpt>
    <trkpt lat="48.367578" lon="-4.677950"><ele>28.2</ele></trkpt>
    <trkpt lat="48.367550" lon="-4.678187"><ele>26.8</ele></trkpt>
    <trkpt lat="48.367480" lon="-4.678375"><ele>26.6</ele></trkpt>
    <trkpt lat="48.367202" lon="-4.678750"><ele>28.2</ele></trkpt>
    <trkpt lat="48.367092" lon="-4.679543"><ele>31.6</ele></trkpt>
    <trkpt lat="48.366987" lon="-4.679933"><ele>32.8</ele></trkpt>
    <trkpt lat="48.366497" lon="-4.681053"><ele>35.2</ele></trkpt>
    <trkpt lat="48.366360" lon="-4.681827"><ele>40.4</ele></trkpt>
    <trkpt lat="48.366300" lon="-4.682002"><ele>41.6</ele></trkpt>
    <trkpt lat="48.365605" lon="-4.682467"><ele>35.8</ele></trkpt>
    <trkpt lat="48.365348" lon="-4.682907"><ele>32.8</ele></trkpt>
    <trkpt lat="48.365150" lon="-4.683437"><ele>29.4</ele></trkpt>
    <trkpt lat="48.365068" lon="-4.683577"><ele>28.4</ele></trkpt>
    <trkpt lat="48.364598" lon="-4.683933"><ele>26.8</ele></trkpt>
    <trkpt lat="48.363962" lon="-4.684273"><ele>26.4</ele></trkpt>
    <trkpt lat="48.363800" lon="-4.684452"><ele>26.0</ele></trkpt>
    <trkpt lat="48.363547" lon="-4.684910"><ele>27.6</ele></trkpt>
    <trkpt lat="48.363482" lon="-4.684972"><ele>28.6</ele></trkpt>
    <trkpt lat="48.363393" lon="-4.684967"><ele>29.8</ele></trkpt>
    <trkpt lat="48.363278" lon="-4.684837"><ele>31.2</ele></trkpt>
    <trkpt lat="48.363267" lon="-4.684375"><ele>36.8</ele></trkpt>
    <trkpt lat="48.363320" lon="-4.683988"><ele>39.2</ele></trkpt>
    <trkpt lat="48.363298" lon="-4.683863"><ele>40.2</ele></trkpt>
    <trkpt lat="48.363243" lon="-4.683790"><ele>40.6</ele></trkpt>
    <trkpt lat="48.362768" lon="-4.683588"><ele>42.4</ele></trkpt>
    <trkpt lat="48.362437" lon="-4.683575"><ele>42.4</ele></trkpt>
    <trkpt lat="48.362310" lon="-4.683630"><ele>41.6</ele></trkpt>
    <trkpt lat="48.362253" lon="-4.683740"><ele>41.0</ele></trkpt>
    <trkpt lat="48.362107" lon="-4.684422"><ele>40.8</ele></trkpt>
    <trkpt lat="48.362188" lon="-4.684883"><ele>43.0</ele></trkpt>
    <trkpt lat="48.362212" lon="-4.685252"><ele>44.4</ele></trkpt>
    <trkpt lat="48.362135" lon="-4.686113"><ele>47.0</ele></trkpt>
    <trkpt lat="48.362088" lon="-4.686205"><ele>47.4</ele></trkpt>
    <trkpt lat="48.361862" lon="-4.686228"><ele>47.8</ele></trkpt>
    <trkpt lat="48.360657" lon="-4.685875"><ele>39.0</ele></trkpt>
    <trkpt lat="48.358388" lon="-4.685302"><ele>40.0</ele></trkpt>
    <trkpt lat="48.358318" lon="-4.685363"><ele>40.2</ele></trkpt>
    <trkpt lat="48.358295" lon="-4.685447"><ele>40.8</ele></trkpt>
    <trkpt lat="48.358230" lon="-4.686140"><ele>41.4</ele></trkpt>
    <trkpt lat="48.358330" lon="-4.686645"><ele>41.2</ele></trkpt>
    <trkpt lat="48.358328" lon="-4.686877"><ele>40.8</ele></trkpt>
    <trkpt lat="48.358285" lon="-4.687038"><ele>40.6</ele></trkpt>
    <trkpt lat="48.358130" lon="-4.687165"><ele>41.2</ele></trkpt>
    <trkpt lat="48.356878" lon="-4.687067"><ele>39.8</ele></trkpt>
    <trkpt lat="48.355838" lon="-4.686870"><ele>36.0</ele></trkpt>
    <trkpt lat="48.355662" lon="-4.686895"><ele>34.8</ele></trkpt>
    <trkpt lat="48.355600" lon="-4.686983"><ele>34.0</ele></trkpt>
    <trkpt lat="48.355555" lon="-4.687167"><ele>32.8</ele></trkpt>
    <trkpt lat="48.355488" lon="-4.687918"><ele>29.0</ele></trkpt>
    <trkpt lat="48.355430" lon="-4.688153"><ele>28.2</ele></trkpt>
    <trkpt lat="48.355228" lon="-4.688352"><ele>27.2</ele></trkpt>
    <trkpt lat="48.354803" lon="-4.688595"><ele>22.4</ele></trkpt>
    <trkpt lat="48.354747" lon="-4.688693"><ele>21.6</ele></trkpt>
    <trkpt lat="48.354757" lon="-4.688955"><ele>20.0</ele></trkpt>
    <trkpt lat="48.354842" lon="-4.689312"><ele>17.6</ele></trkpt>
    <trkpt lat="48.354653" lon="-4.689655"><ele>15.2</ele></trkpt>
    <trkpt lat="48.354632" lon="-4.689888"><ele>13.2</ele></trkpt>
    <trkpt lat="48.354682" lon="-4.690127"><ele>11.0</ele></trkpt>
    <trkpt lat="48.354860" lon="-4.690398"><ele>9.0</ele></trkpt>
    <trkpt lat="48.354892" lon="-4.690748"><ele>8.0</ele></trkpt>
    <trkpt lat="48.354878" lon="-4.691128"><ele>8.8</ele></trkpt>
    <trkpt lat="48.354898" lon="-4.691173"><ele>9.0</ele></trkpt>
    <trkpt lat="48.354962" lon="-4.691178"><ele>9.6</ele></trkpt>
    <trkpt lat="48.354603" lon="-4.691622"><ele>19.4</ele></trkpt>
    <trkpt lat="48.354547" lon="-4.691852"><ele>21.6</ele></trkpt>
    <trkpt lat="48.354460" lon="-4.691978"><ele>22.8</ele></trkpt>
    <trkpt lat="48.354362" lon="-4.692047"><ele>23.0</ele></trkpt>
    <trkpt lat="48.354127" lon="-4.692090"><ele>21.2</ele></trkpt>
    <trkpt lat="48.353887" lon="-4.692300"><ele>20.0</ele></trkpt>
    <trkpt lat="48.353735" lon="-4.692752"><ele>20.0</ele></trkpt>
    <trkpt lat="48.353638" lon="-4.693222"><ele>20.2</ele></trkpt>
    <trkpt lat="48.353620" lon="-4.693498"><ele>19.8</ele></trkpt>
    <trkpt lat="48.353653" lon="-4.694202"><ele>18.2</ele></trkpt>
    <trkpt lat="48.353580" lon="-4.694828"><ele>14.4</ele></trkpt>
    <trkpt lat="48.353217" lon="-4.695335"><ele>9.0</ele></trkpt>
    <trkpt lat="48.353132" lon="-4.695390"><ele>6.8</ele></trkpt>
    <trkpt lat="48.352942" lon="-4.695410"><ele>4.0</ele></trkpt>
    <trkpt lat="48.352690" lon="-4.695622"><ele>1.8</ele></trkpt>
    <trkpt lat="48.352582" lon="-4.695802"><ele>1.6</ele></trkpt>
    <trkpt lat="48.352358" lon="-4.696325"><ele>2.0</ele></trkpt>
    <trkpt lat="48.352205" lon="-4.696777"><ele>0.6</ele></trkpt>
    <trkpt lat="48.352155" lon="-4.696805"><ele>0.4</ele></trkpt>
    <trkpt lat="48.352095" lon="-4.696777"><ele>0.2</ele></trkpt>
    <trkpt lat="48.351972" lon="-4.696617"><ele>0.0</ele></trkpt>
    <trkpt lat="48.351958" lon="-4.696533"><ele>0.0</ele></trkpt>
    <trkpt lat="48.352030" lon="-4.696353"><ele>0.0</ele></trkpt>
    <trkpt lat="48.352157" lon="-4.696212"><ele>0.0</ele></trkpt>
    <trkpt lat="48.352222" lon="-4.696060"><ele>0.0</ele></trkpt>
    <trkpt lat="48.352605" lon="-4.695767"><ele>0.0</ele></trkpt>
    <trkpt lat="48.352847" lon="-4.695522"><ele>0.0</ele></trkpt>
    <trkpt lat="48.353283" lon="-4.695233"><ele>3.6</ele></trkpt>
    <trkpt lat="48.353567" lon="-4.694863"><ele>11.2</ele></trkpt>
    <trkpt lat="48.353618" lon="-4.694702"><ele>11.6</ele></trkpt>
    <trkpt lat="48.353665" lon="-4.694158"><ele>14.0</ele></trkpt>
    <trkpt lat="48.353627" lon="-4.693785"><ele>16.0</ele></trkpt>
    <trkpt lat="48.353652" lon="-4.693270"><ele>18.0</ele></trkpt>
    <trkpt lat="48.353885" lon="-4.692307"><ele>19.8</ele></trkpt>
    <trkpt lat="48.354058" lon="-4.692162"><ele>19.4</ele></trkpt>
    <trkpt lat="48.354257" lon="-4.692068"><ele>19.8</ele></trkpt>
    <trkpt lat="48.354482" lon="-4.691857"><ele>21.8</ele></trkpt>
    <trkpt lat="48.354545" lon="-4.691722"><ele>21.8</ele></trkpt>
    <trkpt lat="48.354577" lon="-4.691542"><ele>20.2</ele></trkpt>
    <trkpt lat="48.354898" lon="-4.691145"><ele>14.8</ele></trkpt>
    <trkpt lat="48.354942" lon="-4.691137"><ele>13.2</ele></trkpt>
    <trkpt lat="48.354900" lon="-4.691110"><ele>11.4</ele></trkpt>
    <trkpt lat="48.354895" lon="-4.691062"><ele>11.0</ele></trkpt>
    <trkpt lat="48.354872" lon="-4.690375"><ele>5.4</ele></trkpt>
    <trkpt lat="48.354708" lon="-4.690058"><ele>5.2</ele></trkpt>
    <trkpt lat="48.354648" lon="-4.689820"><ele>6.4</ele></trkpt>
    <trkpt lat="48.354680" lon="-4.689578"><ele>9.0</ele></trkpt>
    <trkpt lat="48.354845" lon="-4.689342"><ele>11.0</ele></trkpt>
    <trkpt lat="48.354858" lon="-4.689222"><ele>11.8</ele></trkpt>
    <trkpt lat="48.354798" lon="-4.689085"><ele>12.4</ele></trkpt>
    <trkpt lat="48.354770" lon="-4.688865"><ele>13.8</ele></trkpt>
    <trkpt lat="48.354808" lon="-4.688223"><ele>17.8</ele></trkpt>
    <trkpt lat="48.354590" lon="-4.687203"><ele>21.8</ele></trkpt>
    <trkpt lat="48.354590" lon="-4.686418"><ele>27.8</ele></trkpt>
    <trkpt lat="48.354633" lon="-4.685737"><ele>29.2</ele></trkpt>
    <trkpt lat="48.354620" lon="-4.685273"><ele>30.4</ele></trkpt>
    <trkpt lat="48.354557" lon="-4.685202"><ele>30.4</ele></trkpt>
    <trkpt lat="48.354047" lon="-4.685253"><ele>27.0</ele></trkpt>
    <trkpt lat="48.353810" lon="-4.685165"><ele>24.6</ele></trkpt>
    <trkpt lat="48.353717" lon="-4.685020"><ele>23.2</ele></trkpt>
    <trkpt lat="48.353645" lon="-4.684700"><ele>21.0</ele></trkpt>
    <trkpt lat="48.353775" lon="-4.684305"><ele>20.2</ele></trkpt>
    <trkpt lat="48.353883" lon="-4.684228"><ele>20.2</ele></trkpt>
    <trkpt lat="48.353940" lon="-4.684103"><ele>20.6</ele></trkpt>
    <trkpt lat="48.353952" lon="-4.683935"><ele>20.6</ele></trkpt>
    <trkpt lat="48.353922" lon="-4.683600"><ele>19.0</ele></trkpt>
    <trkpt lat="48.354078" lon="-4.683067"><ele>18.0</ele></trkpt>
    <trkpt lat="48.354173" lon="-4.682950"><ele>18.2</ele></trkpt>
    <trkpt lat="48.354385" lon="-4.682827"><ele>20.4</ele></trkpt>
    <trkpt lat="48.354425" lon="-4.682687"><ele>21.6</ele></trkpt>
    <trkpt lat="48.354403" lon="-4.682482"><ele>21.4</ele></trkpt>
    <trkpt lat="48.354575" lon="-4.682313"><ele>21.6</ele></trkpt>
    <trkpt lat="48.354650" lon="-4.682188"><ele>22.4</ele></trkpt>
    <trkpt lat="48.354740" lon="-4.682170"><ele>22.4</ele></trkpt>
    <trkpt lat="48.354905" lon="-4.682313"><ele>24.8</ele></trkpt>
    <trkpt lat="48.354987" lon="-4.682332"><ele>25.8</ele></trkpt>
    <trkpt lat="48.355083" lon="-4.682282"><ele>26.2</ele></trkpt>
    <trkpt lat="48.355297" lon="-4.682053"><ele>25.4</ele></trkpt>
    <trkpt lat="48.355327" lon="-4.681983"><ele>25.2</ele></trkpt>
    <trkpt lat="48.355342" lon="-4.681745"><ele>23.8</ele></trkpt>
    <trkpt lat="48.355420" lon="-4.681547"><ele>22.6</ele></trkpt>
    <trkpt lat="48.355590" lon="-4.681390"><ele>22.0</ele></trkpt>
    <trkpt lat="48.355665" lon="-4.681247"><ele>21.4</ele></trkpt>
    <trkpt lat="48.355797" lon="-4.681137"><ele>20.4</ele></trkpt>
    <trkpt lat="48.356073" lon="-4.680718"><ele>15.2</ele></trkpt>
    <trkpt lat="48.356108" lon="-4.680287"><ele>9.8</ele></trkpt>
    <trkpt lat="48.356272" lon="-4.679847"><ele>5.6</ele></trkpt>
    <trkpt lat="48.356295" lon="-4.679498"><ele>4.8</ele></trkpt>
    <trkpt lat="48.356220" lon="-4.678955"><ele>2.4</ele></trkpt>
    <trkpt lat="48.355962" lon="-4.678848"><ele>5.2</ele></trkpt>
    <trkpt lat="48.355848" lon="-4.678585"><ele>7.0</ele></trkpt>
    <trkpt lat="48.355650" lon="-4.678297"><ele>10.6</ele></trkpt>
    <trkpt lat="48.355577" lon="-4.678280"><ele>12.0</ele></trkpt>
    <trkpt lat="48.355388" lon="-4.678048"><ele>14.2</ele></trkpt>
    <trkpt lat="48.355218" lon="-4.677615"><ele>16.0</ele></trkpt>
    <trkpt lat="48.355178" lon="-4.677420"><ele>16.0</ele></trkpt>
    <trkpt lat="48.355152" lon="-4.676925"><ele>16.8</ele></trkpt>
    <trkpt lat="48.355052" lon="-4.676528"><ele>15.0</ele></trkpt>
    <trkpt lat="48.354932" lon="-4.676268"><ele>13.6</ele></trkpt>
    <trkpt lat="48.354877" lon="-4.676052"><ele>12.2</ele></trkpt>
    <trkpt lat="48.354703" lon="-4.674955"><ele>8.2</ele></trkpt>
    <trkpt lat="48.354715" lon="-4.674727"><ele>7.4</ele></trkpt>
    <trkpt lat="48.354655" lon="-4.674192"><ele>7.2</ele></trkpt>
    <trkpt lat="48.354723" lon="-4.673962"><ele>7.8</ele></trkpt>
    <trkpt lat="48.355003" lon="-4.673570"><ele>8.2</ele></trkpt>
    <trkpt lat="48.355507" lon="-4.673152"><ele>10.6</ele></trkpt>
    <trkpt lat="48.355805" lon="-4.672963"><ele>12.4</ele></trkpt>
    <trkpt lat="48.355992" lon="-4.672727"><ele>12.6</ele></trkpt>
    <trkpt lat="48.356025" lon="-4.672620"><ele>12.6</ele></trkpt>
    <trkpt lat="48.356042" lon="-4.672212"><ele>14.2</ele></trkpt>
    <trkpt lat="48.356132" lon="-4.672008"><ele>15.6</ele></trkpt>
    <trkpt lat="48.356308" lon="-4.671680"><ele>16.6</ele></trkpt>
    <trkpt lat="48.356537" lon="-4.671503"><ele>17.6</ele></trkpt>
    <trkpt lat="48.356935" lon="-4.670862"><ele>19.8</ele></trkpt>
    <trkpt lat="48.356942" lon="-4.670722"><ele>21.0</ele></trkpt>
    <trkpt lat="48.356863" lon="-4.670653"><ele>23.0</ele></trkpt>
    <trkpt lat="48.356823" lon="-4.670557"><ele>24.8</ele></trkpt>
    <trkpt lat="48.356833" lon="-4.670443"><ele>26.0</ele></trkpt>
    <trkpt lat="48.356915" lon="-4.670235"><ele>26.8</ele></trkpt>
    <trkpt lat="48.357423" lon="-4.669765"><ele>27.4</ele></trkpt>
    <trkpt lat="48.357625" lon="-4.669355"><ele>28.8</ele></trkpt>
    <trkpt lat="48.357650" lon="-4.669157"><ele>30.2</ele></trkpt>
    <trkpt lat="48.357795" lon="-4.668947"><ele>31.2</ele></trkpt>
    <trkpt lat="48.357892" lon="-4.668915"><ele>31.2</ele></trkpt>
    <trkpt lat="48.357977" lon="-4.668790"><ele>32.2</ele></trkpt>
    <trkpt lat="48.357968" lon="-4.668440"><ele>35.2</ele></trkpt>
    <trkpt lat="48.357875" lon="-4.668342"><ele>38.0</ele></trkpt>
    <trkpt lat="48.357497" lon="-4.668362"><ele>40.0</ele></trkpt>
    <trkpt lat="48.357297" lon="-4.668483"><ele>41.6</ele></trkpt>
    <trkpt lat="48.357187" lon="-4.668498"><ele>42.2</ele></trkpt>
    <trkpt lat="48.356758" lon="-4.668340"><ele>45.4</ele></trkpt>
    <trkpt lat="48.356493" lon="-4.668298"><ele>46.6</ele></trkpt>
    <trkpt lat="48.356445" lon="-4.668252"><ele>46.8</ele></trkpt>
    <trkpt lat="48.356397" lon="-4.668092"><ele>46.8</ele></trkpt>
    <trkpt lat="48.356323" lon="-4.667500"><ele>46.8</ele></trkpt>
    <trkpt lat="48.356505" lon="-4.666972"><ele>47.4</ele></trkpt>
    <trkpt lat="48.356542" lon="-4.666573"><ele>47.6</ele></trkpt>
    <trkpt lat="48.356820" lon="-4.665665"><ele>49.8</ele></trkpt>
    <trkpt lat="48.356992" lon="-4.665253"><ele>50.6</ele></trkpt>
    <trkpt lat="48.357015" lon="-4.664778"><ele>52.0</ele></trkpt>
    <trkpt lat="48.357048" lon="-4.664722"><ele>52.4</ele></trkpt>
    <trkpt lat="48.357482" lon="-4.664528"><ele>54.6</ele></trkpt>
    <trkpt lat="48.357773" lon="-4.664320"><ele>55.6</ele></trkpt>
    <trkpt lat="48.358073" lon="-4.664420"><ele>55.6</ele></trkpt>
    <trkpt lat="48.358948" lon="-4.663977"><ele>56.4</ele></trkpt>
    <trkpt lat="48.359028" lon="-4.663878"><ele>56.6</ele></trkpt>
    <trkpt lat="48.359162" lon="-4.663593"><ele>57.4</ele></trkpt>
    <trkpt lat="48.359317" lon="-4.663418"><ele>58.4</ele></trkpt>
    <trkpt lat="48.360122" lon="-4.662190"><ele>62.2</ele></trkpt>
    <trkpt lat="48.360170" lon="-4.662007"><ele>62.8</ele></trkpt>
    <trkpt lat="48.360142" lon="-4.661638"><ele>63.6</ele></trkpt>
    <trkpt lat="48.360353" lon="-4.661260"><ele>63.6</ele></trkpt>
    <trkpt lat="48.360667" lon="-4.660867"><ele>64.2</ele></trkpt>
    <trkpt lat="48.361095" lon="-4.660567"><ele>65.4</ele></trkpt>
    <trkpt lat="48.361542" lon="-4.660083"><ele>66.8</ele></trkpt>
    <trkpt lat="48.361552" lon="-4.660008"><ele>66.8</ele></trkpt>
    <trkpt lat="48.361475" lon="-4.659732"><ele>67.4</ele></trkpt>
    <trkpt lat="48.361252" lon="-4.659110"><ele>69.0</ele></trkpt>
    <trkpt lat="48.360640" lon="-4.657822"><ele>69.8</ele></trkpt>
    <trkpt lat="48.360545" lon="-4.657377"><ele>69.6</ele></trkpt>
    <trkpt lat="48.360557" lon="-4.657180"><ele>69.8</ele></trkpt>
    <trkpt lat="48.360602" lon="-4.657057"><ele>69.8</ele></trkpt>
    <trkpt lat="48.360589" lon="-4.657013"><ele>70.3</ele></trkpt>
    <trkpt lat="48.361074" lon="-4.656644"><ele>72.0</ele></trkpt>
    <trkpt lat="48.361327" lon="-4.656516"><ele>72.2</ele></trkpt>
    <trkpt lat="48.361848" lon="-4.656364"><ele>73.3</ele></trkpt>
    <trkpt lat="48.362345" lon="-4.656357"><ele>74.3</ele></trkpt>
    <trkpt lat="48.362446" lon="-4.656300"><ele>74.9</ele></trkpt>
    <trkpt lat="48.362532" lon="-4.656160"><ele>74.8</ele></trkpt>
    <trkpt lat="48.362577" lon="-4.656012"><ele>75.0</ele></trkpt>
    <trkpt lat="48.362696" lon="-4.655397"><ele>75.0</ele></trkpt>
    <trkpt lat="48.362760" lon="-4.655199"><ele>75.8</ele></trkpt>
    <trkpt lat="48.362871" lon="-4.655094"><ele>76.0</ele></trkpt>
    <trkpt lat="48.363930" lon="-4.654829"><ele>76.0</ele></trkpt>
    <trkpt lat="48.364220" lon="-4.654693"><ele>76.0</ele></trkpt>
    <trkpt lat="48.364860" lon="-4.654315"><ele>75.0</ele></trkpt>
    <trkpt lat="48.365472" lon="-4.653892"><ele>74.0</ele></trkpt>
    <trkpt lat="48.365605" lon="-4.653785"><ele>74.0</ele></trkpt>
    <trkpt lat="48.365898" lon="-4.653428"><ele>74.0</ele></trkpt>
    <trkpt lat="48.365989" lon="-4.653389"><ele>74.0</ele></trkpt>
    <trkpt lat="48.366435" lon="-4.653420"><ele>73.0</ele></trkpt>
    <trkpt lat="48.366668" lon="-4.653384"><ele>72.0</ele></trkpt>
    <trkpt lat="48.366769" lon="-4.653176"><ele>72.2</ele></trkpt>
    <trkpt lat="48.366972" lon="-4.652974"><ele>72.2</ele></trkpt>
    <trkpt lat="48.367116" lon="-4.652920"><ele>71.8</ele></trkpt>
    <trkpt lat="48.367325" lon="-4.652933"><ele>71.2</ele></trkpt>
    <trkpt lat="48.367444" lon="-4.652697"><ele>71.0</ele></trkpt>
    <trkpt lat="48.367683" lon="-4.651881"><ele>71.0</ele></trkpt>
    <trkpt lat="48.367819" lon="-4.651558"><ele>70.6</ele></trkpt>
    <trkpt lat="48.368104" lon="-4.651197"><ele>69.9</ele></trkpt>
    <trkpt lat="48.368478" lon="-4.650804"><ele>69.0</ele></trkpt>
    <trkpt lat="48.368689" lon="-4.650487"><ele>68.0</ele></trkpt>
    <trkpt lat="48.368781" lon="-4.650287"><ele>67.0</ele></trkpt>
    <trkpt lat="48.368872" lon="-4.649581"><ele>65.8</ele></trkpt>
    <trkpt lat="48.368916" lon="-4.649426"><ele>65.4</ele></trkpt>
    <trkpt lat="48.368838" lon="-4.648639"><ele>64.1</ele></trkpt>
    <trkpt lat="48.368589" lon="-4.647839"><ele>63.8</ele></trkpt>
    <trkpt lat="48.368589" lon="-4.647725"><ele>63.3</ele></trkpt>
    <trkpt lat="48.368654" lon="-4.647620"><ele>63.0</ele></trkpt>
    <trkpt lat="48.368949" lon="-4.647405"><ele>61.3</ele></trkpt>
    <trkpt lat="48.369071" lon="-4.647072"><ele>60.0</ele></trkpt>
    <trkpt lat="48.369088" lon="-4.646531"><ele>59.0</ele></trkpt>
    <trkpt lat="48.369229" lon="-4.646111"><ele>57.9</ele></trkpt>
    <trkpt lat="48.369272" lon="-4.645672"><ele>57.3</ele></trkpt>
    <trkpt lat="48.369283" lon="-4.645384"><ele>57.2</ele></trkpt>
    <trkpt lat="48.369257" lon="-4.645093"><ele>57.5</ele></trkpt>
    <trkpt lat="48.369400" lon="-4.644461"><ele>58.1</ele></trkpt>
    <trkpt lat="48.369492" lon="-4.644248"><ele>57.8</ele></trkpt>
    <trkpt lat="48.369637" lon="-4.643531"><ele>58.4</ele></trkpt>
    <trkpt lat="48.369648" lon="-4.643161"><ele>59.5</ele></trkpt>
    <trkpt lat="48.369713" lon="-4.642868"><ele>60.0</ele></trkpt>
    <trkpt lat="48.369687" lon="-4.642481"><ele>60.7</ele></trkpt>
    <trkpt lat="48.369617" lon="-4.642143"><ele>60.4</ele></trkpt>
    <trkpt lat="48.369765" lon="-4.641639"><ele>60.3</ele></trkpt>
    <trkpt lat="48.369839" lon="-4.641563"><ele>60.2</ele></trkpt>
    <trkpt lat="48.369870" lon="-4.641462"><ele>60.0</ele></trkpt>
    <trkpt lat="48.369887" lon="-4.641188"><ele>60.0</ele></trkpt>
    <trkpt lat="48.370042" lon="-4.640779"><ele>60.0</ele></trkpt>
    <trkpt lat="48.370051" lon="-4.640230"><ele>60.0</ele></trkpt>
    <trkpt lat="48.370080" lon="-4.640146"><ele>60.0</ele></trkpt>
    <trkpt lat="48.370127" lon="-4.640149"><ele>60.0</ele></trkpt>
  </trkseg></trk>
</gpx>
