<?xml version="1.0" encoding="UTF-8"?>
<gpx version="1.1" creator="tcap-parcours" xmlns="http://www.topografix.com/GPX/1/1">
  <metadata><name>Le tour du village – 1 – Boucle 14 km</name></metadata>
  <trk><name>Le tour du village – 1 – Boucle 14 km</name><trkseg>
    <trkpt lat="48.370168" lon="-4.640731"><ele>60.0</ele></trkpt>
    <trkpt lat="48.370200" lon="-4.640616"><ele>60.0</ele></trkpt>
    <trkpt lat="48.370210" lon="-4.640153"><ele>60.0</ele></trkpt>
    <trkpt lat="48.370362" lon="-4.640161"><ele>60.0</ele></trkpt>
    <trkpt lat="48.370671" lon="-4.640031"><ele>58.0</ele></trkpt>
    <trkpt lat="48.370762" lon="-4.640063"><ele>58.0</ele></trkpt>
    <trkpt lat="48.371100" lon="-4.640374"><ele>57.3</ele></trkpt>
    <trkpt lat="48.371581" lon="-4.640608"><ele>56.0</ele></trkpt>
    <trkpt lat="48.371675" lon="-4.640539"><ele>55.3</ele></trkpt>
    <trkpt lat="48.372546" lon="-4.640610"><ele>52.0</ele></trkpt>
    <trkpt lat="48.372546" lon="-4.640738"><ele>52.3</ele></trkpt>
    <trkpt lat="48.372475" lon="-4.640988"><ele>53.0</ele></trkpt>
    <trkpt lat="48.372514" lon="-4.641144"><ele>53.0</ele></trkpt>
    <trkpt lat="48.372751" lon="-4.641710"><ele>53.0</ele></trkpt>
    <trkpt lat="48.372859" lon="-4.641844"><ele>52.9</ele></trkpt>
    <trkpt lat="48.373046" lon="-4.641799"><ele>51.3</ele></trkpt>
    <trkpt lat="48.373218" lon="-4.641687"><ele>49.8</ele></trkpt>
    <trkpt lat="48.373390" lon="-4.641118"><ele>49.6</ele></trkpt>
    <trkpt lat="48.373483" lon="-4.641062"><ele>49.7</ele></trkpt>
    <trkpt lat="48.373695" lon="-4.641178"><ele>49.4</ele></trkpt>
    <trkpt lat="48.373832" lon="-4.641337"><ele>49.0</ele></trkpt>
    <trkpt lat="48.373880" lon="-4.641543"><ele>49.1</ele></trkpt>
    <trkpt lat="48.374060" lon="-4.641663"><ele>49.0</ele></trkpt>
    <trkpt lat="48.374220" lon="-4.642050"><ele>50.1</ele></trkpt>
    <trkpt lat="48.374302" lon="-4.642112"><ele>50.9</ele></trkpt>
    <trkpt lat="48.374757" lon="-4.642259"><ele>51.5</ele></trkpt>
    <trkpt lat="48.375134" lon="-4.642326"><ele>51.0</ele></trkpt>
    <trkpt lat="48.375540" lon="-4.642290"><ele>51.0</ele></trkpt>
    <trkpt lat="48.375682" lon="-4.642398"><ele>51.0</ele></trkpt>
    <trkpt lat="48.375888" lon="-4.642095"><ele>51.4</ele></trkpt>
    <trkpt lat="48.376223" lon="-4.641760"><ele>50.4</ele></trkpt>
    <trkpt lat="48.376296" lon="-4.641762"><ele>50.3</ele></trkpt>
    <trkpt lat="48.376301" lon="-4.641838"><ele>50.7</ele></trkpt>
    <trkpt lat="48.375815" lon="-4.642312"><ele>51.4</ele></trkpt>
    <trkpt lat="48.376301" lon="-4.641838"><ele>50.7</ele></trkpt>
    <trkpt lat="48.376363" lon="-4.641853"><ele>50.2</ele></trkpt>
    <trkpt lat="48.376383" lon="-4.641782"><ele>50.0</ele></trkpt>
    <trkpt lat="48.376444" lon="-4.641757"><ele>50.0</ele></trkpt>
    <trkpt lat="48.376453" lon="-4.641808"><ele>54.6</ele></trkpt>
    <trkpt lat="48.376735" lon="-4.641388"><ele>54.0</ele></trkpt>
    <trkpt lat="48.377070" lon="-4.640707"><ele>53.2</ele></trkpt>
    <trkpt lat="48.377543" lon="-4.639605"><ele>52.0</ele></trkpt>
    <trkpt lat="48.378603" lon="-4.637397"><ele>49.8</ele></trkpt>
    <trkpt lat="48.379148" lon="-4.636140"><ele>48.0</ele></trkpt>
    <trkpt lat="48.379210" lon="-4.635927"><ele>47.6</ele></trkpt>
    <trkpt lat="48.379268" lon="-4.635470"><ele>47.2</ele></trkpt>
    <trkpt lat="48.379230" lon="-4.634703"><ele>46.0</ele></trkpt>
    <trkpt lat="48.379172" lon="-4.634207"><ele>45.6</ele></trkpt>
    <trkpt lat="48.379018" lon="-4.633872"><ele>45.0</ele></trkpt>
    <trkpt lat="48.378820" lon="-4.633668"><ele>44.8</ele></trkpt>
    <trkpt lat="48.378342" lon="-4.633462"><ele>44.4</ele></trkpt>
    <trkpt lat="48.378102" lon="-4.633295"><ele>44.0</ele></trkpt>
    <trkpt lat="48.377928" lon="-4.633247"><ele>44.0</ele></trkpt>
    <trkpt lat="48.376983" lon="-4.633305"><ele>44.2</ele></trkpt>
    <trkpt lat="48.376455" lon="-4.633287"><ele>44.6</ele></trkpt>
    <trkpt lat="48.376110" lon="-4.633347"><ele>44.2</ele></trkpt>
    <trkpt lat="48.374960" lon="-4.633357"><ele>45.6</ele></trkpt>
    <trkpt lat="48.374797" lon="-4.633425"><ele>45.4</ele></trkpt>
    <trkpt lat="48.374438" lon="-4.633428"><ele>45.8</ele></trkpt>
    <trkpt lat="48.374317" lon="-4.633510"><ele>46.0</ele></trkpt>
    <trkpt lat="48.373945" lon="-4.633527"><ele>46.2</ele></trkpt>
    <trkpt lat="48.373107" lon="-4.633950"><ele>46.6</ele></trkpt>
    <trkpt lat="48.372933" lon="-4.633995"><ele>46.4</ele></trkpt>
    <trkpt lat="48.372645" lon="-4.634013"><ele>46.4</ele></trkpt>
    <trkpt lat="48.372020" lon="-4.633932"><ele>47.0</ele></trkpt>
    <trkpt lat="48.371847" lon="-4.633985"><ele>47.4</ele></trkpt>
    <trkpt lat="48.371675" lon="-4.633925"><ele>47.6</ele></trkpt>
    <trkpt lat="48.371627" lon="-4.633835"><ele>47.8</ele></trkpt>
    <trkpt lat="48.371785" lon="-4.632925"><ele>49.8</ele></trkpt>
    <trkpt lat="48.371753" lon="-4.632790"><ele>50.0</ele></trkpt>
    <trkpt lat="48.371193" lon="-4.632597"><ele>50.6</ele></trkpt>
    <trkpt lat="48.370338" lon="-4.632190"><ele>51.6</ele></trkpt>
    <trkpt lat="48.370115" lon="-4.632162"><ele>52.4</ele></trkpt>
    <trkpt lat="48.369707" lon="-4.631690"><ele>52.4</ele></trkpt>
    <trkpt lat="48.369547" lon="-4.631837"><ele>52.6</ele></trkpt>
    <trkpt lat="48.369412" lon="-4.632260"><ele>53.4</ele></trkpt>
    <trkpt lat="48.369325" lon="-4.632360"><ele>53.4</ele></trkpt>
    <trkpt lat="48.369263" lon="-4.632510"><ele>53.2</ele></trkpt>
    <trkpt lat="48.368897" lon="-4.634590"><ele>54.8</ele></trkpt>
    <trkpt lat="48.368818" lon="-4.634887"><ele>54.6</ele></trkpt>
    <trkpt lat="48.368712" lon="-4.634915"><ele>55.0</ele></trkpt>
    <trkpt lat="48.367817" lon="-4.634730"><ele>55.8</ele></trkpt>
    <trkpt lat="48.367412" lon="-4.634497"><ele>55.6</ele></trkpt>
    <trkpt lat="48.367148" lon="-4.634113"><ele>55.4</ele></trkpt>
    <trkpt lat="48.367022" lon="-4.634013"><ele>55.2</ele></trkpt>
    <trkpt lat="48.366657" lon="-4.633980"><ele>55.2</ele></trkpt>
    <trkpt lat="48.365832" lon="-4.633565"><ele>54.0</ele></trkpt>
    <trkpt lat="48.365380" lon="-4.633123"><ele>53.4</ele></trkpt>
    <trkpt lat="48.364925" lon="-4.632925"><ele>53.8</ele></trkpt>
    <trkpt lat="48.364877" lon="-4.632760"><ele>53.6</ele></trkpt>
    <trkpt lat="48.364618" lon="-4.632593"><ele>54.6</ele></trkpt>
    <trkpt lat="48.364498" lon="-4.632435"><ele>55.2</ele></trkpt>
    <trkpt lat="48.364375" lon="-4.632102"><ele>56.2</ele></trkpt>
    <trkpt lat="48.364255" lon="-4.630772"><ele>59.0</ele></trkpt>
    <trkpt lat="48.364268" lon="-4.630360"><ele>59.4</ele></trkpt>
    <trkpt lat="48.364398" lon="-4.629925"><ele>59.8</ele></trkpt>
    <trkpt lat="48.364392" lon="-4.629825"><ele>60.2</ele></trkpt>
    <trkpt lat="48.364348" lon="-4.629740"><ele>60.0</ele></trkpt>
    <trkpt lat="48.363918" lon="-4.629648"><ele>60.8</ele></trkpt>
    <trkpt lat="48.363527" lon="-4.629492"><ele>62.0</ele></trkpt>
    <trkpt lat="48.363283" lon="-4.629363"><ele>62.8</ele></trkpt>
    <trkpt lat="48.363062" lon="-4.629178"><ele>63.4</ele></trkpt>
    <trkpt lat="48.362923" lon="-4.629318"><ele>63.2</ele></trkpt>
    <trkpt lat="48.362735" lon="-4.629718"><ele>63.2</ele></trkpt>
    <trkpt lat="48.362603" lon="-4.629790"><ele>62.8</ele></trkpt>
    <trkpt lat="48.362352" lon="-4.629712"><ele>63.4</ele></trkpt>
    <trkpt lat="48.362028" lon="-4.629400"><ele>64.4</ele></trkpt>
    <trkpt lat="48.361857" lon="-4.629302"><ele>64.8</ele></trkpt>
    <trkpt lat="48.361688" lon="-4.629278"><ele>65.2</ele></trkpt>
    <trkpt lat="48.361390" lon="-4.629333"><ele>66.0</ele></trkpt>
    <trkpt lat="48.361302" lon="-4.629223"><ele>66.2</ele></trkpt>
    <trkpt lat="48.361012" lon="-4.628617"><ele>67.6</ele></trkpt>
    <trkpt lat="48.359973" lon="-4.627635"><ele>71.4</ele></trkpt>
    <trkpt lat="48.359700" lon="-4.627438"><ele>72.6</ele></trkpt>
    <trkpt lat="48.359518" lon="-4.627243"><ele>73.0</ele></trkpt>
    <trkpt lat="48.359005" lon="-4.626820"><ele>74.4</ele></trkpt>
    <trkpt lat="48.358975" lon="-4.626710"><ele>74.6</ele></trkpt>
    <trkpt lat="48.359020" lon="-4.625873"><ele>76.4</ele></trkpt>
    <trkpt lat="48.358978" lon="-4.625680"><ele>77.0</ele></trkpt>
    <trkpt lat="48.359125" lon="-4.624905"><ele>77.6</ele></trkpt>
    <trkpt lat="48.359080" lon="-4.624843"><ele>77.8</ele></trkpt>
    <trkpt lat="48.358667" lon="-4.624608"><ele>77.2</ele></trkpt>
    <trkpt lat="48.358303" lon="-4.624147"><ele>76.2</ele></trkpt>
    <trkpt lat="48.358250" lon="-4.623938"><ele>76.0</ele></trkpt>
    <trkpt lat="48.358273" lon="-4.623522"><ele>76.4</ele></trkpt>
    <trkpt lat="48.358242" lon="-4.623440"><ele>76.6</ele></trkpt>
    <trkpt lat="48.357825" lon="-4.623325"><ele>76.0</ele></trkpt>
    <trkpt lat="48.357462" lon="-4.623162"><ele>74.4</ele></trkpt>
    <trkpt lat="48.357178" lon="-4.623145"><ele>73.0</ele></trkpt>
    <trkpt lat="48.356565" lon="-4.622950"><ele>68.6</ele></trkpt>
    <trkpt lat="48.356173" lon="-4.623057"><ele>67.8</ele></trkpt>
    <trkpt lat="48.356092" lon="-4.622925"><ele>68.0</ele></trkpt>
    <trkpt lat="48.356073" lon="-4.622498"><ele>69.0</ele></trkpt>
    <trkpt lat="48.356013" lon="-4.622318"><ele>69.6</ele></trkpt>
    <trkpt lat="48.355647" lon="-4.622170"><ele>71.0</ele></trkpt>
    <trkpt lat="48.355213" lon="-4.621772"><ele>73.0</ele></trkpt>
    <trkpt lat="48.354885" lon="-4.621567"><ele>74.0</ele></trkpt>
    <trkpt lat="48.354280" lon="-4.621332"><ele>75.6</ele></trkpt>
    <trkpt lat="48.354013" lon="-4.621292"><ele>75.8</ele></trkpt>
    <trkpt lat="48.353842" lon="-4.621377"><ele>75.8</ele></trkpt>
    <trkpt lat="48.353590" lon="-4.621375"><ele>75.6</ele></trkpt>
    <trkpt lat="48.353500" lon="-4.621428"><ele>75.8</ele></trkpt>
    <trkpt lat="48.353250" lon="-4.622133"><ele>75.2</ele></trkpt>
    <trkpt lat="48.353113" lon="-4.622377"><ele>74.8</ele></trkpt>
    <trkpt lat="48.352917" lon="-4.623470"><ele>73.2</ele></trkpt>
    <trkpt lat="48.352798" lon="-4.623842"><ele>72.6</ele></trkpt>
    <trkpt lat="48.352827" lon="-4.624185"><ele>72.4</ele></trkpt>
    <trkpt lat="48.352678" lon="-4.624500"><ele>71.6</ele></trkpt>
    <trkpt lat="48.352582" lon="-4.625162"><ele>70.4</ele></trkpt>
    <trkpt lat="48.352492" lon="-4.625250"><ele>70.4</ele></trkpt>
    <trkpt lat="48.352153" lon="-4.625253"><ele>70.2</ele></trkpt>
    <trkpt lat="48.351923" lon="-4.625310"><ele>69.4</ele></trkpt>
    <trkpt lat="48.351818" lon="-4.625387"><ele>69.0</ele></trkpt>
    <trkpt lat="48.351995" lon="-4.626168"><ele>68.6</ele></trkpt>
    <trkpt lat="48.352078" lon="-4.626828"><ele>68.2</ele></trkpt>
    <trkpt lat="48.352067" lon="-4.627915"><ele>66.6</ele></trkpt>
    <trkpt lat="48.352028" lon="-4.628050"><ele>66.2</ele></trkpt>
    <trkpt lat="48.351908" lon="-4.628128"><ele>66.0</ele></trkpt>
    <trkpt lat="48.351382" lon="-4.628187"><ele>64.8</ele></trkpt>
    <trkpt lat="48.351260" lon="-4.628115"><ele>64.6</ele></trkpt>
    <trkpt lat="48.351237" lon="-4.627490"><ele>65.4</ele></trkpt>
    <trkpt lat="48.351045" lon="-4.626907"><ele>64.8</ele></trkpt>
    <trkpt lat="48.350920" lon="-4.626677"><ele>63.8</ele></trkpt>
    <trkpt lat="48.350632" lon="-4.625987"><ele>62.6</ele></trkpt>
    <trkpt lat="48.350437" lon="-4.625145"><ele>63.8</ele></trkpt>
    <trkpt lat="48.350378" lon="-4.625043"><ele>64.0</ele></trkpt>
    <trkpt lat="48.350307" lon="-4.625037"><ele>64.2</ele></trkpt>
    <trkpt lat="48.349920" lon="-4.625238"><ele>63.2</ele></trkpt>
    <trkpt lat="48.349793" lon="-4.625242"><ele>62.8</ele></trkpt>
    <trkpt lat="48.348925" lon="-4.624518"><ele>58.6</ele></trkpt>
    <trkpt lat="48.348652" lon="-4.624180"><ele>59.8</ele></trkpt>
    <trkpt lat="48.348525" lon="-4.623958"><ele>61.2</ele></trkpt>
    <trkpt lat="48.348142" lon="-4.623512"><ele>65.2</ele></trkpt>
    <trkpt lat="48.348057" lon="-4.623720"><ele>66.2</ele></trkpt>
    <trkpt lat="48.347935" lon="-4.624287"><ele>64.6</ele></trkpt>
    <trkpt lat="48.347837" lon="-4.624562"><ele>64.4</ele></trkpt>
    <trkpt lat="48.347862" lon="-4.624812"><ele>64.0</ele></trkpt>
    <trkpt lat="48.347605" lon="-4.625372"><ele>62.6</ele></trkpt>
    <trkpt lat="48.347538" lon="-4.625360"><ele>62.6</ele></trkpt>
    <trkpt lat="48.347145" lon="-4.624847"><ele>63.8</ele></trkpt>
    <trkpt lat="48.346967" lon="-4.624663"><ele>63.8</ele></trkpt>
    <trkpt lat="48.346908" lon="-4.624658"><ele>63.4</ele></trkpt>
    <trkpt lat="48.346405" lon="-4.625925"><ele>60.4</ele></trkpt>
    <trkpt lat="48.346272" lon="-4.626138"><ele>59.6</ele></trkpt>
    <trkpt lat="48.346027" lon="-4.626390"><ele>58.4</ele></trkpt>
    <trkpt lat="48.345975" lon="-4.626565"><ele>57.8</ele></trkpt>
    <trkpt lat="48.345960" lon="-4.626978"><ele>57.6</ele></trkpt>
    <trkpt lat="48.345717" lon="-4.627287"><ele>57.4</ele></trkpt>
    <trkpt lat="48.345407" lon="-4.627830"><ele>54.4</ele></trkpt>
    <trkpt lat="48.345282" lon="-4.627957"><ele>52.2</ele></trkpt>
    <trkpt lat="48.345163" lon="-4.627953"><ele>50.0</ele></trkpt>
    <trkpt lat="48.345125" lon="-4.628032"><ele>50.0</ele></trkpt>
    <trkpt lat="48.345143" lon="-4.628438"><ele>51.2</ele></trkpt>
    <trkpt lat="48.345253" lon="-4.628993"><ele>48.2</ele></trkpt>
    <trkpt lat="48.345158" lon="-4.629967"><ele>40.6</ele></trkpt>
    <trkpt lat="48.345173" lon="-4.630617"><ele>36.0</ele></trkpt>
    <trkpt lat="48.345085" lon="-4.630818"><ele>33.8</ele></trkpt>
    <trkpt lat="48.345030" lon="-4.631125"><ele>30.4</ele></trkpt>
    <trkpt lat="48.344887" lon="-4.631428"><ele>28.2</ele></trkpt>
    <trkpt lat="48.344677" lon="-4.631602"><ele>26.6</ele></trkpt>
    <trkpt lat="48.344390" lon="-4.631753"><ele>25.0</ele></trkpt>
    <trkpt lat="48.344240" lon="-4.631947"><ele>22.4</ele></trkpt>
    <trkpt lat="48.344257" lon="-4.631998"><ele>21.6</ele></trkpt>
    <trkpt lat="48.344320" lon="-4.632027"><ele>20.6</ele></trkpt>
    <trkpt lat="48.344887" lon="-4.632107"><ele>17.0</ele></trkpt>
    <trkpt lat="48.344952" lon="-4.632157"><ele>15.8</ele></trkpt>
    <trkpt lat="48.344960" lon="-4.632242"><ele>15.2</ele></trkpt>
    <trkpt lat="48.344773" lon="-4.632365"><ele>14.8</ele></trkpt>
    <trkpt lat="48.344165" lon="-4.632618"><ele>10.0</ele></trkpt>
    <trkpt lat="48.343965" lon="-4.632775"><ele>10.8</ele></trkpt>
    <trkpt lat="48.343887" lon="-4.632860"><ele>12.0</ele></trkpt>
    <trkpt lat="48.343567" lon="-4.633418"><ele>21.8</ele></trkpt>
    <trkpt lat="48.342950" lon="-4.633910"><ele>24.2</ele></trkpt>
    <trkpt lat="48.342883" lon="-4.634223"><ele>28.4</ele></trkpt>
    <trkpt lat="48.343000" lon="-4.634572"><ele>34.2</ele></trkpt>
    <trkpt lat="48.343057" lon="-4.634927"><ele>38.0</ele></trkpt>
    <trkpt lat="48.343255" lon="-4.635205"><ele>37.8</ele></trkpt>
    <trkpt lat="48.343363" lon="-4.635493"><ele>37.0</ele></trkpt>
    <trkpt lat="48.343405" lon="-4.635520"><ele>36.6</ele></trkpt>
    <trkpt lat="48.343537" lon="-4.635453"><ele>35.6</ele></trkpt>
    <trkpt lat="48.343628" lon="-4.635472"><ele>35.6</ele></trkpt>
    <trkpt lat="48.343868" lon="-4.635813"><ele>35.0</ele></trkpt>
    <trkpt lat="48.344027" lon="-4.635842"><ele>33.6</ele></trkpt>
    <trkpt lat="48.344137" lon="-4.635965"><ele>34.0</ele></trkpt>
    <trkpt lat="48.344190" lon="-4.636087"><ele>34.0</ele></trkpt>
    <trkpt lat="48.344163" lon="-4.636470"><ele>32.6</ele></trkpt>
    <trkpt lat="48.344200" lon="-4.636557"><ele>31.4</ele></trkpt>
    <trkpt lat="48.344457" lon="-4.636393"><ele>32.2</ele></trkpt>
    <trkpt lat="48.344552" lon="-4.636378"><ele>32.6</ele></trkpt>
    <trkpt lat="48.344590" lon="-4.636420"><ele>32.4</ele></trkpt>
    <trkpt lat="48.344725" lon="-4.636708"><ele>32.8</ele></trkpt>
    <trkpt lat="48.344802" lon="-4.637387"><ele>33.6</ele></trkpt>
    <trkpt lat="48.344935" lon="-4.637785"><ele>32.0</ele></trkpt>
    <trkpt lat="48.344973" lon="-4.638302"><ele>30.8</ele></trkpt>
    <trkpt lat="48.345145" lon="-4.638578"><ele>30.4</ele></trkpt>
    <trkpt lat="48.345300" lon="-4.638655"><ele>30.2</ele></trkpt>
    <trkpt lat="48.345510" lon="-4.638668"><ele>29.2</ele></trkpt>
    <trkpt lat="48.345752" lon="-4.638825"><ele>28.0</ele></trkpt>
    <trkpt lat="48.345790" lon="-4.639568"><ele>21.2</ele></trkpt>
    <trkpt lat="48.345908" lon="-4.639835"><ele>19.0</ele></trkpt>
    <trkpt lat="48.345967" lon="-4.639878"><ele>18.4</ele></trkpt>
    <trkpt lat="48.346390" lon="-4.639895"><ele>14.8</ele></trkpt>
    <trkpt lat="48.346720" lon="-4.639835"><ele>11.4</ele></trkpt>
    <trkpt lat="48.346873" lon="-4.639745"><ele>9.2</ele></trkpt>
    <trkpt lat="48.347202" lon="-4.639752"><ele>7.6</ele></trkpt>
    <trkpt lat="48.347612" lon="-4.639590"><ele>7.6</ele></trkpt>
    <trkpt lat="48.347658" lon="-4.639617"><ele>7.6</ele></trkpt>
    <trkpt lat="48.347667" lon="-4.639793"><ele>8.0</ele></trkpt>
    <trkpt lat="48.347493" lon="-4.639975"><ele>7.0</ele></trkpt>
    <trkpt lat="48.347288" lon="-4.640335"><ele>7.0</ele></trkpt>
    <trkpt lat="48.346977" lon="-4.640533"><ele>8.2</ele></trkpt>
    <trkpt lat="48.346835" lon="-4.640558"><ele>7.8</ele></trkpt>
    <trkpt lat="48.346263" lon="-4.641058"><ele>9.6</ele></trkpt>
    <trkpt lat="48.346040" lon="-4.641342"><ele>11.0</ele></trkpt>
    <trkpt lat="48.345713" lon="-4.641822"><ele>13.6</ele></trkpt>
    <trkpt lat="48.345615" lon="-4.642030"><ele>15.0</ele></trkpt>
    <trkpt lat="48.345528" lon="-4.642688"><ele>21.0</ele></trkpt>
    <trkpt lat="48.345578" lon="-4.642777"><ele>23.0</ele></trkpt>
    <trkpt lat="48.345757" lon="-4.642727"><ele>28.2</ele></trkpt>
    <trkpt lat="48.345838" lon="-4.642773"><ele>30.6</ele></trkpt>
    <trkpt lat="48.346252" lon="-4.643257"><ele>41.6</ele></trkpt>
    <trkpt lat="48.346287" lon="-4.643530"><ele>41.0</ele></trkpt>
    <trkpt lat="48.346265" lon="-4.644053"><ele>42.0</ele></trkpt>
    <trkpt lat="48.346340" lon="-4.644710"><ele>46.0</ele></trkpt>
    <trkpt lat="48.346323" lon="-4.645183"><ele>47.8</ele></trkpt>
    <trkpt lat="48.346343" lon="-4.645587"><ele>48.8</ele></trkpt>
    <trkpt lat="48.346417" lon="-4.646022"><ele>49.8</ele></trkpt>
    <trkpt lat="48.346662" lon="-4.647232"><ele>49.4</ele></trkpt>
    <trkpt lat="48.346817" lon="-4.647700"><ele>49.4</ele></trkpt>
    <trkpt lat="48.346952" lon="-4.648302"><ele>48.2</ele></trkpt>
    <trkpt lat="48.347043" lon="-4.649007"><ele>47.8</ele></trkpt>
    <trkpt lat="48.347133" lon="-4.649457"><ele>47.8</ele></trkpt>
    <trkpt lat="48.347665" lon="-4.650905"><ele>50.2</ele></trkpt>
    <trkpt lat="48.347883" lon="-4.651028"><ele>51.2</ele></trkpt>
    <trkpt lat="48.348163" lon="-4.651563"><ele>50.6</ele></trkpt>
    <trkpt lat="48.348610" lon="-4.652253"><ele>43.8</ele></trkpt>
    <trkpt lat="48.348802" lon="-4.652282"><ele>41.4</ele></trkpt>
    <trkpt lat="48.349112" lon="-4.652232"><ele>40.6</ele></trkpt>
    <trkpt lat="48.349408" lon="-4.652292"><ele>41.4</ele></trkpt>
    <trkpt lat="48.349515" lon="-4.652380"><ele>41.8</ele></trkpt>
    <trkpt lat="48.349800" lon="-4.652777"><ele>39.8</ele></trkpt>
    <trkpt lat="48.349985" lon="-4.652937"><ele>39.6</ele></trkpt>
    <trkpt lat="48.350072" lon="-4.652915"><ele>39.4</ele></trkpt>
    <trkpt lat="48.350157" lon="-4.652815"><ele>39.6</ele></trkpt>
    <trkpt lat="48.351008" lon="-4.651537"><ele>46.6</ele></trkpt>
    <trkpt lat="48.351158" lon="-4.651348"><ele>48.0</ele></trkpt>
    <trkpt lat="48.351182" lon="-4.651357"><ele>48.0</ele></trkpt>
    <trkpt lat="48.351230" lon="-4.651700"><ele>48.6</ele></trkpt>
    <trkpt lat="48.351450" lon="-4.652457"><ele>49.0</ele></trkpt>
    <trkpt lat="48.351592" lon="-4.653567"><ele>48.6</ele></trkpt>
    <trkpt lat="48.351730" lon="-4.654272"><ele>47.2</ele></trkpt>
    <trkpt lat="48.351820" lon="-4.654505"><ele>46.0</ele></trkpt>
    <trkpt lat="48.351975" lon="-4.654585"><ele>45.4</ele></trkpt>
    <trkpt lat="48.352313" lon="-4.654515"><ele>45.0</ele></trkpt>
    <trkpt lat="48.352735" lon="-4.654743"><ele>47.6</ele></trkpt>
    <trkpt lat="48.352932" lon="-4.654895"><ele>48.4</ele></trkpt>
    <trkpt lat="48.353672" lon="-4.655827"><ele>50.2</ele></trkpt>
    <trkpt lat="48.354578" lon="-4.656232"><ele>52.6</ele></trkpt>
    <trkpt lat="48.354795" lon="-4.656293"><ele>53.0</ele></trkpt>
    <trkpt lat="48.355212" lon="-4.656563"><ele>53.2</ele></trkpt>
    <trkpt lat="48.355493" lon="-4.656828"><ele>51.8</ele></trkpt>
    <trkpt lat="48.355672" lon="-4.657065"><ele>50.2</ele></trkpt>
    <trkpt lat="48.356208" lon="-4.658165"><ele>47.2</ele></trkpt>
    <trkpt lat="48.356260" lon="-4.658245"><ele>47.2</ele></trkpt>
    <trkpt lat="48.356343" lon="-4.658285"><ele>47.0</ele></trkpt>
    <trkpt lat="48.356505" lon="-4.658192"><ele>47.6</ele></trkpt>
    <trkpt lat="48.356537" lon="-4.658097"><ele>48.4</ele></trkpt>
    <trkpt lat="48.356705" lon="-4.656910"><ele>55.6</ele></trkpt>
    <trkpt lat="48.356947" lon="-4.656812"><ele>57.2</ele></trkpt>
    <trkpt lat="48.357450" lon="-4.656473"><ele>59.4</ele></trkpt>
    <trkpt lat="48.358262" lon="-4.656097"><ele>60.8</ele></trkpt>
    <trkpt lat="48.359568" lon="-4.655268"><ele>65.2</ele></trkpt>
    <trkpt lat="48.359660" lon="-4.655285"><ele>65.2</ele></trkpt>
    <trkpt lat="48.359833" lon="-4.655747"><ele>63.4</ele></trkpt>
    <trkpt lat="48.359910" lon="-4.655848"><ele>62.6</ele></trkpt>
    <trkpt lat="48.360038" lon="-4.655867"><ele>61.8</ele></trkpt>
    <trkpt lat="48.360355" lon="-4.655730"><ele>61.2</ele></trkpt>
    <trkpt lat="48.360535" lon="-4.655878"><ele>61.2</ele></trkpt>
    <trkpt lat="48.360553" lon="-4.655982"><ele>61.0</ele></trkpt>
    <trkpt lat="48.360480" lon="-4.656405"><ele>61.0</ele></trkpt>
    <trkpt lat="48.360493" lon="-4.656880"><ele>61.0</ele></trkpt>
    <trkpt lat="48.360547" lon="-4.656987"><ele>61.0</ele></trkpt>
    <trkpt lat="48.360695" lon="-4.656933"><ele>61.2</ele></trkpt>
    <trkpt lat="48.361087" lon="-4.656617"><ele>63.6</ele></trkpt>
    <trkpt lat="48.361298" lon="-4.656502"><ele>64.0</ele></trkpt>
    <trkpt lat="48.361847" lon="-4.656355"><ele>65.4</ele></trkpt>
    <trkpt lat="48.362257" lon="-4.656353"><ele>66.2</ele></trkpt>
    <trkpt lat="48.362432" lon="-4.656307"><ele>66.6</ele></trkpt>
    <trkpt lat="48.362552" lon="-4.656110"><ele>67.2</ele></trkpt>
    <trkpt lat="48.362720" lon="-4.655297"><ele>68.4</ele></trkpt>
    <trkpt lat="48.362833" lon="-4.655095"><ele>68.8</ele></trkpt>
    <trkpt lat="48.363120" lon="-4.655033"><ele>69.6</ele></trkpt>
    <trkpt lat="48.363350" lon="-4.654923"><ele>69.6</ele></trkpt>
    <trkpt lat="48.363693" lon="-4.654880"><ele>70.0</ele></trkpt>
    <trkpt lat="48.364117" lon="-4.654745"><ele>69.4</ele></trkpt>
    <trkpt lat="48.364893" lon="-4.654308"><ele>68.0</ele></trkpt>
    <trkpt lat="48.365440" lon="-4.653932"><ele>67.6</ele></trkpt>
    <trkpt lat="48.365647" lon="-4.653757"><ele>67.8</ele></trkpt>
    <trkpt lat="48.365930" lon="-4.653418"><ele>67.8</ele></trkpt>
    <trkpt lat="48.366603" lon="-4.653388"><ele>66.4</ele></trkpt>
    <trkpt lat="48.366690" lon="-4.653315"><ele>66.4</ele></trkpt>
    <trkpt lat="48.366858" lon="-4.653047"><ele>66.2</ele></trkpt>
    <trkpt lat="48.366965" lon="-4.652960"><ele>66.2</ele></trkpt>
    <trkpt lat="48.367242" lon="-4.652937"><ele>66.0</ele></trkpt>
    <trkpt lat="48.367352" lon="-4.652885"><ele>65.8</ele></trkpt>
    <trkpt lat="48.367427" lon="-4.652782"><ele>65.4</ele></trkpt>
    <trkpt lat="48.367482" lon="-4.652628"><ele>65.2</ele></trkpt>
    <trkpt lat="48.367672" lon="-4.651918"><ele>64.8</ele></trkpt>
    <trkpt lat="48.367838" lon="-4.651493"><ele>64.6</ele></trkpt>
    <trkpt lat="48.368630" lon="-4.650592"><ele>63.6</ele></trkpt>
    <trkpt lat="48.368808" lon="-4.650138"><ele>62.8</ele></trkpt>
    <trkpt lat="48.368868" lon="-4.649567"><ele>61.6</ele></trkpt>
    <trkpt lat="48.368913" lon="-4.649470"><ele>61.0</ele></trkpt>
    <trkpt lat="48.368995" lon="-4.649442"><ele>60.8</ele></trkpt>
    <trkpt lat="48.369073" lon="-4.649480"><ele>60.6</ele></trkpt>
    <trkpt lat="48.369543" lon="-4.649905"><ele>63.4</ele></trkpt>
    <trkpt lat="48.369645" lon="-4.649822"><ele>64.0</ele></trkpt>
    <trkpt lat="48.369817" lon="-4.649572"><ele>65.2</ele></trkpt>
    <trkpt lat="48.370067" lon="-4.649003"><ele>64.2</ele></trkpt>
    <trkpt lat="48.370165" lon="-4.648857"><ele>64.0</ele></trkpt>
    <trkpt lat="48.370323" lon="-4.648807"><ele>63.8</ele></trkpt>
    <trkpt lat="48.370632" lon="-4.648883"><ele>63.0</ele></trkpt>
    <trkpt lat="48.370778" lon="-4.648828"><ele>62.2</ele></trkpt>
    <trkpt lat="48.371023" lon="-4.648403"><ele>59.8</ele></trkpt>
    <trkpt lat="48.371280" lon="-4.647740"><ele>57.2</ele></trkpt>
    <trkpt lat="48.371422" lon="-4.647582"><ele>56.6</ele></trkpt>
    <trkpt lat="48.371389" lon="-4.647577"><ele>60.2</ele></trkpt>
    <trkpt lat="48.371118" lon="-4.647213"><ele>59.1</ele></trkpt>
    <trkpt lat="48.370881" lon="-4.646524"><ele>59.0</ele></trkpt>
    <trkpt lat="48.370901" lon="-4.646386"><ele>59.0</ele></trkpt>
    <trkpt lat="48.371092" lon="-4.646130"><ele>58.0</ele></trkpt>
    <trkpt lat="48.371123" lon="-4.646038"><ele>58.0</ele></trkpt>
    <trkpt lat="48.371112" lon="-4.645267"><ele>57.0</ele></trkpt>
    <trkpt lat="48.371035" lon="-4.644819"><ele>57.0</ele></trkpt>
    <trkpt lat="48.371059" lon="-4.644596"><ele>57.0</ele></trkpt>
    <trkpt lat="48.371207" lon="-4.644565"><ele>56.4</ele></trkpt>
    <trkpt lat="48.371286" lon="-4.644456"><ele>56.0</ele></trkpt>
    <trkpt lat="48.371378" lon="-4.643864"><ele>57.0</ele></trkpt>
    <trkpt lat="48.371344" lon="-4.643705"><ele>57.0</ele></trkpt>
    <trkpt lat="48.370886" lon="-4.643524"><ele>58.0</ele></trkpt>
    <trkpt lat="48.370932" lon="-4.643262"><ele>58.0</ele></trkpt>
    <trkpt lat="48.369713" lon="-4.642868"><ele>60.0</ele></trkpt>
    <trkpt lat="48.369687" lon="-4.642481"><ele>60.7</ele></trkpt>
    <trkpt lat="48.369617" lon="-4.642143"><ele>60.4</ele></trkpt>
    <trkpt lat="48.369765" lon="-4.641639"><ele>60.3</ele></trkpt>
    <trkpt lat="48.369839" lon="-4.641563"><ele>60.2</ele></trkpt>
    <trkpt lat="48.369870" lon="-4.641462"><ele>60.0</ele></trkpt>
    <trkpt lat="48.369887" lon="-4.641188"><ele>60.0</ele></trkpt>
    <trkpt lat="48.370042" lon="-4.640779"><ele>60.0</ele></trkpt>
    <trkpt lat="48.370047" lon="-4.640476"><ele>60.0</ele></trkpt>
  </trkseg></trk>
</gpx>
