<?xml version="1.0" encoding="UTF-8"?>
<gpx version="1.1" creator="tcap-parcours" xmlns="http://www.topografix.com/GPX/1/1">
  <metadata><name>tour-du-village-2-2</name></metadata>
  <trk><name>tour-du-village-2-2</name><trkseg>
    <trkpt lat="48.370080" lon="-4.640146"><ele>60.0</ele></trkpt>
    <trkpt lat="48.370362" lon="-4.640161"><ele>60.0</ele></trkpt>
    <trkpt lat="48.370671" lon="-4.640031"><ele>58.0</ele></trkpt>
    <trkpt lat="48.370762" lon="-4.640063"><ele>58.0</ele></trkpt>
    <trkpt lat="48.371100" lon="-4.640374"><ele>57.3</ele></trkpt>
    <trkpt lat="48.371581" lon="-4.640608"><ele>56.0</ele></trkpt>
    <trkpt lat="48.371623" lon="-4.640597"><ele>55.7</ele></trkpt>
    <trkpt lat="48.371555" lon="-4.641710"><ele>57.3</ele></trkpt>
    <trkpt lat="48.371430" lon="-4.642413"><ele>58.0</ele></trkpt>
    <trkpt lat="48.371204" lon="-4.643266"><ele>58.0</ele></trkpt>
    <trkpt lat="48.371155" lon="-4.643627"><ele>57.6</ele></trkpt>
    <trkpt lat="48.371344" lon="-4.643705"><ele>57.0</ele></trkpt>
    <trkpt lat="48.371378" lon="-4.643864"><ele>57.0</ele></trkpt>
    <trkpt lat="48.371325" lon="-4.644294"><ele>56.3</ele></trkpt>
    <trkpt lat="48.371246" lon="-4.644539"><ele>56.0</ele></trkpt>
    <trkpt lat="48.371059" lon="-4.644596"><ele>57.0</ele></trkpt>
    <trkpt lat="48.371042" lon="-4.644693"><ele>57.0</ele></trkpt>
    <trkpt lat="48.371035" lon="-4.644819"><ele>57.0</ele></trkpt>
    <trkpt lat="48.371112" lon="-4.645267"><ele>57.0</ele></trkpt>
    <trkpt lat="48.371123" lon="-4.646038"><ele>58.0</ele></trkpt>
    <trkpt lat="48.371092" lon="-4.646130"><ele>58.0</ele></trkpt>
    <trkpt lat="48.370901" lon="-4.646386"><ele>59.0</ele></trkpt>
    <trkpt lat="48.370882" lon="-4.646466"><ele>59.0</ele></trkpt>
    <trkpt lat="48.370927" lon="-4.646688"><ele>59.0</ele></trkpt>
    <trkpt lat="48.371160" lon="-4.647294"><ele>59.6</ele></trkpt>
    <trkpt lat="48.371389" lon="-4.647577"><ele>60.2</ele></trkpt>
    <trkpt lat="48.371811" lon="-4.647514"><ele>60.9</ele></trkpt>
    <trkpt lat="48.371920" lon="-4.647543"><ele>61.0</ele></trkpt>
    <trkpt lat="48.372215" lon="-4.647435"><ele>61.7</ele></trkpt>
    <trkpt lat="48.372421" lon="-4.647424"><ele>62.1</ele></trkpt>
    <trkpt lat="48.372682" lon="-4.647224"><ele>62.0</ele></trkpt>
    <trkpt lat="48.372893" lon="-4.647507"><ele>62.0</ele></trkpt>
    <trkpt lat="48.373363" lon="-4.648418"><ele>61.4</ele></trkpt>
    <trkpt lat="48.374340" lon="-4.649926"><ele>57.0</ele></trkpt>
    <trkpt lat="48.374797" lon="-4.650769"><ele>57.0</ele></trkpt>
    <trkpt lat="48.375894" lon="-4.652483"><ele>57.0</ele></trkpt>
    <trkpt lat="48.376069" lon="-4.652681"><ele>57.9</ele></trkpt>
    <trkpt lat="48.376569" lon="-4.653056"><ele>59.0</ele></trkpt>
    <trkpt lat="48.377094" lon="-4.653338"><ele>59.0</ele></trkpt>
    <trkpt lat="48.377301" lon="-4.653534"><ele>59.0</ele></trkpt>
    <trkpt lat="48.377347" lon="-4.653629"><ele>59.0</ele></trkpt>
    <trkpt lat="48.377472" lon="-4.655107"><ele>62.0</ele></trkpt>
    <trkpt lat="48.377527" lon="-4.655459"><ele>62.1</ele></trkpt>
    <trkpt lat="48.377624" lon="-4.655683"><ele>63.0</ele></trkpt>
    <trkpt lat="48.377765" lon="-4.655791"><ele>64.0</ele></trkpt>
    <trkpt lat="48.378834" lon="-4.656179"><ele>69.5</ele></trkpt>
    <trkpt lat="48.379573" lon="-4.656842"><ele>71.1</ele></trkpt>
    <trkpt lat="48.380056" lon="-4.657030"><ele>71.2</ele></trkpt>
    <trkpt lat="48.380701" lon="-4.657149"><ele>68.3</ele></trkpt>
    <trkpt lat="48.380703" lon="-4.657107"><ele>67.6</ele></trkpt>
    <trkpt lat="48.380822" lon="-4.657087"><ele>67.4</ele></trkpt>
    <trkpt lat="48.381045" lon="-4.656912"><ele>66.2</ele></trkpt>
    <trkpt lat="48.381415" lon="-4.656872"><ele>64.8</ele></trkpt>
    <trkpt lat="48.381880" lon="-4.657023"><ele>67.2</ele></trkpt>
    <trkpt lat="48.381950" lon="-4.656920"><ele>67.6</ele></trkpt>
    <trkpt lat="48.382043" lon="-4.656550"><ele>67.8</ele></trkpt>
    <trkpt lat="48.382162" lon="-4.656405"><ele>67.8</ele></trkpt>
    <trkpt lat="48.382430" lon="-4.656195"><ele>66.8</ele></trkpt>
    <trkpt lat="48.382720" lon="-4.656220"><ele>65.6</ele></trkpt>
    <trkpt lat="48.383298" lon="-4.656380"><ele>67.2</ele></trkpt>
    <trkpt lat="48.383747" lon="-4.656188"><ele>72.4</ele></trkpt>
    <trkpt lat="48.384100" lon="-4.656150"><ele>75.4</ele></trkpt>
    <trkpt lat="48.384300" lon="-4.656253"><ele>75.8</ele></trkpt>
    <trkpt lat="48.384477" lon="-4.656402"><ele>76.2</ele></trkpt>
    <trkpt lat="48.384582" lon="-4.656435"><ele>76.6</ele></trkpt>
    <trkpt lat="48.383974" lon="-4.656273"><ele>78.2</ele></trkpt>
    <trkpt lat="48.383112" lon="-4.656436"><ele>70.4</ele></trkpt>
    <trkpt lat="48.382465" lon="-4.656273"><ele>68.6</ele></trkpt>
    <trkpt lat="48.382142" lon="-4.656436"><ele>69.8</ele></trkpt>
    <trkpt lat="48.381926" lon="-4.656922"><ele>69.6</ele></trkpt>
    <trkpt lat="48.381818" lon="-4.657085"><ele>69.0</ele></trkpt>
    <trkpt lat="48.381495" lon="-4.656922"><ele>66.6</ele></trkpt>
    <trkpt lat="48.381064" lon="-4.656922"><ele>66.2</ele></trkpt>
    <trkpt lat="48.380740" lon="-4.657085"><ele>68.3</ele></trkpt>
    <trkpt lat="48.380093" lon="-4.657085"><ele>71.2</ele></trkpt>
    <trkpt lat="48.379554" lon="-4.656760"><ele>72.8</ele></trkpt>
    <trkpt lat="48.378800" lon="-4.656111"><ele>71.0</ele></trkpt>
    <trkpt lat="48.378908" lon="-4.656273"><ele>71.6</ele></trkpt>
    <trkpt lat="48.378908" lon="-4.657085"><ele>73.8</ele></trkpt>
    <trkpt lat="48.378692" lon="-4.658383"><ele>83.8</ele></trkpt>
    <trkpt lat="48.378692" lon="-4.658545"><ele>77.2</ele></trkpt>
    <trkpt lat="48.378369" lon="-4.658707"><ele>77.6</ele></trkpt>
    <trkpt lat="48.378045" lon="-4.658545"><ele>76.0</ele></trkpt>
    <trkpt lat="48.377830" lon="-4.658545"><ele>75.6</ele></trkpt>
    <trkpt lat="48.377506" lon="-4.658870"><ele>75.6</ele></trkpt>
    <trkpt lat="48.376644" lon="-4.659194"><ele>73.8</ele></trkpt>
    <trkpt lat="48.376105" lon="-4.659681"><ele>69.6</ele></trkpt>
    <trkpt lat="48.375674" lon="-4.659194"><ele>65.0</ele></trkpt>
    <trkpt lat="48.374596" lon="-4.658383"><ele>60.8</ele></trkpt>
    <trkpt lat="48.373949" lon="-4.657734"><ele>60.0</ele></trkpt>
    <trkpt lat="48.373302" lon="-4.657247"><ele>62.8</ele></trkpt>
    <trkpt lat="48.372763" lon="-4.657085"><ele>64.4</ele></trkpt>
    <trkpt lat="48.370931" lon="-4.656922"><ele>70.2</ele></trkpt>
    <trkpt lat="48.370284" lon="-4.656760"><ele>72.4</ele></trkpt>
    <trkpt lat="48.370068" lon="-4.656760"><ele>74.6</ele></trkpt>
    <trkpt lat="48.369098" lon="-4.655949"><ele>76.6</ele></trkpt>
    <trkpt lat="48.368236" lon="-4.654651"><ele>76.0</ele></trkpt>
    <trkpt lat="48.367589" lon="-4.653839"><ele>74.0</ele></trkpt>
    <trkpt lat="48.366727" lon="-4.653353"><ele>75.2</ele></trkpt>
    <trkpt lat="48.365972" lon="-4.653515"><ele>73.6</ele></trkpt>
    <trkpt lat="48.364139" lon="-4.654651"><ele>76.0</ele></trkpt>
    <trkpt lat="48.362954" lon="-4.655138"><ele>78.4</ele></trkpt>
    <trkpt lat="48.362738" lon="-4.655300"><ele>76.4</ele></trkpt>
    <trkpt lat="48.362415" lon="-4.656273"><ele>75.2</ele></trkpt>
    <trkpt lat="48.361121" lon="-4.656598"><ele>73.2</ele></trkpt>
    <trkpt lat="48.360690" lon="-4.656922"><ele>68.0</ele></trkpt>
    <trkpt lat="48.360582" lon="-4.657409"><ele>71.6</ele></trkpt>
    <trkpt lat="48.360690" lon="-4.657896"><ele>67.8</ele></trkpt>
    <trkpt lat="48.361229" lon="-4.659032"><ele>72.0</ele></trkpt>
    <trkpt lat="48.361552" lon="-4.660168"><ele>71.0</ele></trkpt>
    <trkpt lat="48.360798" lon="-4.660817"><ele>69.6</ele></trkpt>
    <trkpt lat="48.360151" lon="-4.662115"><ele>66.4</ele></trkpt>
    <trkpt lat="48.358857" lon="-4.663900"><ele>58.6</ele></trkpt>
    <trkpt lat="48.357995" lon="-4.664387"><ele>57.0</ele></trkpt>
    <trkpt lat="48.357672" lon="-4.664387"><ele>56.4</ele></trkpt>
    <trkpt lat="48.357025" lon="-4.664874"><ele>54.8</ele></trkpt>
    <trkpt lat="48.356486" lon="-4.666983"><ele>50.0</ele></trkpt>
    <trkpt lat="48.356270" lon="-4.667308"><ele>48.6</ele></trkpt>
    <trkpt lat="48.356594" lon="-4.668119"><ele>46.6</ele></trkpt>
    <trkpt lat="48.357133" lon="-4.668444"><ele>45.0</ele></trkpt>
    <trkpt lat="48.357456" lon="-4.668281"><ele>43.2</ele></trkpt>
    <trkpt lat="48.357887" lon="-4.668444"><ele>41.6</ele></trkpt>
    <trkpt lat="48.357887" lon="-4.668768"><ele>36.2</ele></trkpt>
    <trkpt lat="48.357672" lon="-4.669093"><ele>33.2</ele></trkpt>
    <trkpt lat="48.357456" lon="-4.669742"><ele>28.2</ele></trkpt>
    <trkpt lat="48.356917" lon="-4.670391"><ele>27.2</ele></trkpt>
    <trkpt lat="48.356917" lon="-4.670878"><ele>23.8</ele></trkpt>
    <trkpt lat="48.356486" lon="-4.671527"><ele>18.8</ele></trkpt>
    <trkpt lat="48.356537" lon="-4.671503"><ele>17.6</ele></trkpt>
    <trkpt lat="48.356935" lon="-4.670862"><ele>19.8</ele></trkpt>
    <trkpt lat="48.356942" lon="-4.670722"><ele>21.0</ele></trkpt>
    <trkpt lat="48.356863" lon="-4.670653"><ele>23.0</ele></trkpt>
    <trkpt lat="48.356823" lon="-4.670557"><ele>24.8</ele></trkpt>
    <trkpt lat="48.356833" lon="-4.670443"><ele>26.0</ele></trkpt>
    <trkpt lat="48.356915" lon="-4.670235"><ele>26.8</ele></trkpt>
    <trkpt lat="48.357423" lon="-4.669765"><ele>27.4</ele></trkpt>
    <trkpt lat="48.357625" lon="-4.669355"><ele>28.8</ele></trkpt>
    <trkpt lat="48.357650" lon="-4.669157"><ele>30.2</ele></trkpt>
    <trkpt lat="48.357795" lon="-4.668947"><ele>31.2</ele></trkpt>
    <trkpt lat="48.357892" lon="-4.668915"><ele>31.2</ele></trkpt>
    <trkpt lat="48.357977" lon="-4.668790"><ele>32.2</ele></trkpt>
    <trkpt lat="48.357968" lon="-4.668440"><ele>35.2</ele></trkpt>
    <trkpt lat="48.357875" lon="-4.668342"><ele>38.0</ele></trkpt>
    <trkpt lat="48.357497" lon="-4.668362"><ele>40.0</ele></trkpt>
    <trkpt lat="48.357297" lon="-4.668483"><ele>41.6</ele></trkpt>
    <trkpt lat="48.357187" lon="-4.668498"><ele>42.2</ele></trkpt>
    <trkpt lat="48.356758" lon="-4.668340"><ele>45.4</ele></trkpt>
    <trkpt lat="48.356493" lon="-4.668298"><ele>46.6</ele></trkpt>
    <trkpt lat="48.356445" lon="-4.668252"><ele>46.8</ele></trkpt>
    <trkpt lat="48.356397" lon="-4.668092"><ele>46.8</ele></trkpt>
    <trkpt lat="48.356323" lon="-4.667500"><ele>46.8</ele></trkpt>
    <trkpt lat="48.356505" lon="-4.666972"><ele>47.4</ele></trkpt>
    <trkpt lat="48.356542" lon="-4.666573"><ele>47.6</ele></trkpt>
    <trkpt lat="48.356820" lon="-4.665665"><ele>49.8</ele></trkpt>
    <trkpt lat="48.356992" lon="-4.665253"><ele>50.6</ele></trkpt>
    <trkpt lat="48.357015" lon="-4.664778"><ele>52.0</ele></trkpt>
    <trkpt lat="48.357048" lon="-4.664722"><ele>52.4</ele></trkpt>
    <trkpt lat="48.357482" lon="-4.664528"><ele>54.6</ele></trkpt>
    <trkpt lat="48.357773" lon="-4.664320"><ele>55.6</ele></trkpt>
    <trkpt lat="48.358073" lon="-4.664420"><ele>55.6</ele></trkpt>
    <trkpt lat="48.358948" lon="-4.663977"><ele>56.4</ele></trkpt>
    <trkpt lat="48.359028" lon="-4.663878"><ele>56.6</ele></trkpt>
    <trkpt lat="48.359162" lon="-4.663593"><ele>57.4</ele></trkpt>
    <trkpt lat="48.359317" lon="-4.663418"><ele>58.4</ele></trkpt>
    <trkpt lat="48.360122" lon="-4.662190"><ele>62.2</ele></trkpt>
    <trkpt lat="48.360170" lon="-4.662007"><ele>62.8</ele></trkpt>
    <trkpt lat="48.360142" lon="-4.661638"><ele>63.6</ele></trkpt>
    <trkpt lat="48.360353" lon="-4.661260"><ele>63.6</ele></trkpt>
    <trkpt lat="48.360667" lon="-4.660867"><ele>64.2</ele></trkpt>
    <trkpt lat="48.361095" lon="-4.660567"><ele>65.4</ele></trkpt>
    <trkpt lat="48.361542" lon="-4.660083"><ele>66.8</ele></trkpt>
    <trkpt lat="48.361552" lon="-4.660008"><ele>66.8</ele></trkpt>
    <trkpt lat="48.361475" lon="-4.659732"><ele>67.4</ele></trkpt>
    <trkpt lat="48.361252" lon="-4.659110"><ele>69.0</ele></trkpt>
    <trkpt lat="48.360640" lon="-4.657822"><ele>69.8</ele></trkpt>
    <trkpt lat="48.360545" lon="-4.657377"><ele>69.6</ele></trkpt>
    <trkpt lat="48.360557" lon="-4.657180"><ele>69.8</ele></trkpt>
    <trkpt lat="48.360602" lon="-4.657057"><ele>69.8</ele></trkpt>
    <trkpt lat="48.360589" lon="-4.657013"><ele>70.3</ele></trkpt>
    <trkpt lat="48.361074" lon="-4.656644"><ele>72.0</ele></trkpt>
    <trkpt lat="48.361327" lon="-4.656516"><ele>72.2</ele></trkpt>
    <trkpt lat="48.361848" lon="-4.656364"><ele>73.3</ele></trkpt>
    <trkpt lat="48.362345" lon="-4.656357"><ele>74.3</ele></trkpt>
    <trkpt lat="48.362446" lon="-4.656300"><ele>74.9</ele></trkpt>
    <trkpt lat="48.362532" lon="-4.656160"><ele>74.8</ele></trkpt>
    <trkpt lat="48.362577" lon="-4.656012"><ele>75.0</ele></trkpt>
    <trkpt lat="48.362696" lon="-4.655397"><ele>75.0</ele></trkpt>
    <trkpt lat="48.362760" lon="-4.655199"><ele>75.8</ele></trkpt>
    <trkpt lat="48.362871" lon="-4.655094"><ele>76.0</ele></trkpt>
    <trkpt lat="48.363930" lon="-4.654829"><ele>76.0</ele></trkpt>
    <trkpt lat="48.364220" lon="-4.654693"><ele>76.0</ele></trkpt>
    <trkpt lat="48.364860" lon="-4.654315"><ele>75.0</ele></trkpt>
    <trkpt lat="48.365472" lon="-4.653892"><ele>74.0</ele></trkpt>
    <trkpt lat="48.365605" lon="-4.653785"><ele>74.0</ele></trkpt>
    <trkpt lat="48.365898" lon="-4.653428"><ele>74.0</ele></trkpt>
    <trkpt lat="48.365989" lon="-4.653389"><ele>74.0</ele></trkpt>
    <trkpt lat="48.366435" lon="-4.653420"><ele>73.0</ele></trkpt>
    <trkpt lat="48.366668" lon="-4.653384"><ele>72.0</ele></trkpt>
    <trkpt lat="48.366769" lon="-4.653176"><ele>72.2</ele></trkpt>
    <trkpt lat="48.366972" lon="-4.652974"><ele>72.2</ele></trkpt>
    <trkpt lat="48.367116" lon="-4.652920"><ele>71.8</ele></trkpt>
    <trkpt lat="48.367325" lon="-4.652933"><ele>71.2</ele></trkpt>
    <trkpt lat="48.367444" lon="-4.652697"><ele>71.0</ele></trkpt>
    <trkpt lat="48.367683" lon="-4.651881"><ele>71.0</ele></trkpt>
    <trkpt lat="48.367819" lon="-4.651558"><ele>70.6</ele></trkpt>
    <trkpt lat="48.368104" lon="-4.651197"><ele>69.9</ele></trkpt>
    <trkpt lat="48.368478" lon="-4.650804"><ele>69.0</ele></trkpt>
    <trkpt lat="48.368689" lon="-4.650487"><ele>68.0</ele></trkpt>
    <trkpt lat="48.368781" lon="-4.650287"><ele>67.0</ele></trkpt>
    <trkpt lat="48.368872" lon="-4.649581"><ele>65.8</ele></trkpt>
    <trkpt lat="48.368916" lon="-4.649426"><ele>65.4</ele></trkpt>
    <trkpt lat="48.368838" lon="-4.648639"><ele>64.1</ele></trkpt>
    <trkpt lat="48.368589" lon="-4.647839"><ele>63.8</ele></trkpt>
    <trkpt lat="48.368589" lon="-4.647725"><ele>63.3</ele></trkpt>
    <trkpt lat="48.368654" lon="-4.647620"><ele>63.0</ele></trkpt>
    <trkpt lat="48.368949" lon="-4.647405"><ele>61.3</ele></trkpt>
    <trkpt lat="48.369071" lon="-4.647072"><ele>60.0</ele></trkpt>
    <trkpt lat="48.369088" lon="-4.646531"><ele>59.0</ele></trkpt>
    <trkpt lat="48.369229" lon="-4.646111"><ele>57.9</ele></trkpt>
    <trkpt lat="48.369272" lon="-4.645672"><ele>57.3</ele></trkpt>
    <trkpt lat="48.369283" lon="-4.645384"><ele>57.2</ele></trkpt>
    <trkpt lat="48.369257" lon="-4.645093"><ele>57.5</ele></trkpt>
    <trkpt lat="48.369400" lon="-4.644461"><ele>58.1</ele></trkpt>
    <trkpt lat="48.369492" lon="-4.644248"><ele>57.8</ele></trkpt>
    <trkpt lat="48.369637" lon="-4.643531"><ele>58.4</ele></trkpt>
    <trkpt lat="48.369648" lon="-4.643161"><ele>59.5</ele></trkpt>
    <trkpt lat="48.369713" lon="-4.642868"><ele>60.0</ele></trkpt>
    <trkpt lat="48.369687" lon="-4.642481"><ele>60.7</ele></trkpt>
    <trkpt lat="48.369617" lon="-4.642143"><ele>60.4</ele></trkpt>
    <trkpt lat="48.369765" lon="-4.641639"><ele>60.3</ele></trkpt>
    <trkpt lat="48.369839" lon="-4.641563"><ele>60.2</ele></trkpt>
    <trkpt lat="48.369870" lon="-4.641462"><ele>60.0</ele></trkpt>
    <trkpt lat="48.369887" lon="-4.641188"><ele>60.0</ele></trkpt>
    <trkpt lat="48.370042" lon="-4.640779"><ele>60.0</ele></trkpt>
    <trkpt lat="48.370051" lon="-4.640230"><ele>60.0</ele></trkpt>
    <trkpt lat="48.370080" lon="-4.640146"><ele>60.0</ele></trkpt>
    <trkpt lat="48.370127" lon="-4.640149"><ele>60.0</ele></trkpt>
  </trkseg></trk>
</gpx>
