<?xml version="1.0" encoding="UTF-8"?>
<gpx version="1.1" creator="tcap-parcours" xmlns="http://www.topografix.com/GPX/1/1">
  <metadata><name>trez-hir-plougonvelin</name></metadata>
  <trk><name>trez-hir-plougonvelin</name><trkseg>
    <trkpt lat="48.370203" lon="-4.640482"><ele>63.2</ele></trkpt>
    <trkpt lat="48.370142" lon="-4.640793"><ele>61.6</ele></trkpt>
    <trkpt lat="48.369669" lon="-4.642375"><ele>61.8</ele></trkpt>
    <trkpt lat="48.369611" lon="-4.642825"><ele>61.8</ele></trkpt>
    <trkpt lat="48.369613" lon="-4.643603"><ele>60.8</ele></trkpt>
    <trkpt lat="48.369491" lon="-4.644238"><ele>59.6</ele></trkpt>
    <trkpt lat="48.369266" lon="-4.645054"><ele>59.4</ele></trkpt>
    <trkpt lat="48.369246" lon="-4.645861"><ele>59.6</ele></trkpt>
    <trkpt lat="48.369190" lon="-4.646176"><ele>59.8</ele></trkpt>
    <trkpt lat="48.369083" lon="-4.646518"><ele>60.4</ele></trkpt>
    <trkpt lat="48.369054" lon="-4.647086"><ele>61.6</ele></trkpt>
    <trkpt lat="48.368958" lon="-4.647317"><ele>62.4</ele></trkpt>
    <trkpt lat="48.368630" lon="-4.647615"><ele>65.2</ele></trkpt>
    <trkpt lat="48.368566" lon="-4.647749"><ele>65.6</ele></trkpt>
    <trkpt lat="48.368824" lon="-4.648498"><ele>65.4</ele></trkpt>
    <trkpt lat="48.368884" lon="-4.648831"><ele>65.6</ele></trkpt>
    <trkpt lat="48.368896" lon="-4.649363"><ele>66.4</ele></trkpt>
    <trkpt lat="48.368846" lon="-4.649990"><ele>67.6</ele></trkpt>
    <trkpt lat="48.368788" lon="-4.650244"><ele>68.0</ele></trkpt>
    <trkpt lat="48.368688" lon="-4.650458"><ele>68.8</ele></trkpt>
    <trkpt lat="48.368494" lon="-4.650757"><ele>69.4</ele></trkpt>
    <trkpt lat="48.367938" lon="-4.651343"><ele>71.0</ele></trkpt>
    <trkpt lat="48.367795" lon="-4.651567"><ele>71.8</ele></trkpt>
    <trkpt lat="48.367639" lon="-4.651959"><ele>71.6</ele></trkpt>
    <trkpt lat="48.367462" lon="-4.652650"><ele>72.2</ele></trkpt>
    <trkpt lat="48.367325" lon="-4.652913"><ele>72.2</ele></trkpt>
    <trkpt lat="48.366984" lon="-4.652946"><ele>73.4</ele></trkpt>
    <trkpt lat="48.366570" lon="-4.653398"><ele>73.6</ele></trkpt>
    <trkpt lat="48.366371" lon="-4.653424"><ele>74.2</ele></trkpt>
    <trkpt lat="48.366050" lon="-4.653379"><ele>75.2</ele></trkpt>
    <trkpt lat="48.365881" lon="-4.653419"><ele>75.2</ele></trkpt>
    <trkpt lat="48.365604" lon="-4.653751"><ele>75.2</ele></trkpt>
    <trkpt lat="48.365350" lon="-4.653988"><ele>75.4</ele></trkpt>
    <trkpt lat="48.364895" lon="-4.654283"><ele>75.8</ele></trkpt>
    <trkpt lat="48.364663" lon="-4.654366"><ele>76.2</ele></trkpt>
    <trkpt lat="48.364084" lon="-4.654750"><ele>77.6</ele></trkpt>
    <trkpt lat="48.363532" lon="-4.654913"><ele>77.8</ele></trkpt>
    <trkpt lat="48.363319" lon="-4.654908"><ele>77.6</ele></trkpt>
    <trkpt lat="48.363123" lon="-4.655045"><ele>77.0</ele></trkpt>
    <trkpt lat="48.362802" lon="-4.655145"><ele>77.0</ele></trkpt>
    <trkpt lat="48.362749" lon="-4.655201"><ele>76.8</ele></trkpt>
    <trkpt lat="48.362710" lon="-4.655315"><ele>76.6</ele></trkpt>
    <trkpt lat="48.362570" lon="-4.656120"><ele>75.8</ele></trkpt>
    <trkpt lat="48.362435" lon="-4.656338"><ele>75.6</ele></trkpt>
    <trkpt lat="48.362332" lon="-4.656381"><ele>75.8</ele></trkpt>
    <trkpt lat="48.361844" lon="-4.656362"><ele>74.8</ele></trkpt>
    <trkpt lat="48.361374" lon="-4.656466"><ele>73.6</ele></trkpt>
    <trkpt lat="48.361002" lon="-4.656681"><ele>73.4</ele></trkpt>
    <trkpt lat="48.360592" lon="-4.657027"><ele>72.0</ele></trkpt>
    <trkpt lat="48.360540" lon="-4.657159"><ele>71.8</ele></trkpt>
    <trkpt lat="48.360524" lon="-4.657350"><ele>71.6</ele></trkpt>
    <trkpt lat="48.360606" lon="-4.657848"><ele>72.0</ele></trkpt>
    <trkpt lat="48.361258" lon="-4.659139"><ele>72.4</ele></trkpt>
    <trkpt lat="48.361528" lon="-4.659939"><ele>72.0</ele></trkpt>
    <trkpt lat="48.361548" lon="-4.660039"><ele>71.8</ele></trkpt>
    <trkpt lat="48.361530" lon="-4.660136"><ele>71.6</ele></trkpt>
    <trkpt lat="48.361044" lon="-4.660596"><ele>71.2</ele></trkpt>
    <trkpt lat="48.360570" lon="-4.660926"><ele>70.6</ele></trkpt>
    <trkpt lat="48.360164" lon="-4.661507"><ele>68.8</ele></trkpt>
    <trkpt lat="48.360099" lon="-4.661694"><ele>68.4</ele></trkpt>
    <trkpt lat="48.360159" lon="-4.662040"><ele>67.6</ele></trkpt>
    <trkpt lat="48.360115" lon="-4.662221"><ele>66.8</ele></trkpt>
    <trkpt lat="48.359269" lon="-4.663497"><ele>61.0</ele></trkpt>
    <trkpt lat="48.359095" lon="-4.663687"><ele>60.2</ele></trkpt>
    <trkpt lat="48.358956" lon="-4.663944"><ele>58.8</ele></trkpt>
    <trkpt lat="48.358069" lon="-4.664419"><ele>57.6</ele></trkpt>
    <trkpt lat="48.357826" lon="-4.664329"><ele>57.8</ele></trkpt>
    <trkpt lat="48.357699" lon="-4.664346"><ele>57.6</ele></trkpt>
    <trkpt lat="48.356994" lon="-4.664816"><ele>56.0</ele></trkpt>
    <trkpt lat="48.356972" lon="-4.665237"><ele>54.8</ele></trkpt>
    <trkpt lat="48.356721" lon="-4.665901"><ele>53.2</ele></trkpt>
    <trkpt lat="48.356529" lon="-4.666565"><ele>51.2</ele></trkpt>
    <trkpt lat="48.356483" lon="-4.667028"><ele>50.4</ele></trkpt>
    <trkpt lat="48.356322" lon="-4.667479"><ele>49.4</ele></trkpt>
    <trkpt lat="48.356319" lon="-4.667666"><ele>48.6</ele></trkpt>
    <trkpt lat="48.356371" lon="-4.667993"><ele>47.0</ele></trkpt>
    <trkpt lat="48.356462" lon="-4.668236"><ele>46.2</ele></trkpt>
    <trkpt lat="48.356506" lon="-4.668271"><ele>46.2</ele></trkpt>
    <trkpt lat="48.357275" lon="-4.668475"><ele>43.6</ele></trkpt>
    <trkpt lat="48.357507" lon="-4.668337"><ele>43.2</ele></trkpt>
    <trkpt lat="48.357832" lon="-4.668334"><ele>42.2</ele></trkpt>
    <trkpt lat="48.357951" lon="-4.668395"><ele>41.8</ele></trkpt>
    <trkpt lat="48.357968" lon="-4.668535"><ele>40.4</ele></trkpt>
    <trkpt lat="48.357914" lon="-4.668798"><ele>37.6</ele></trkpt>
    <trkpt lat="48.357813" lon="-4.668947"><ele>36.0</ele></trkpt>
    <trkpt lat="48.357596" lon="-4.669152"><ele>33.0</ele></trkpt>
    <trkpt lat="48.357599" lon="-4.669436"><ele>30.2</ele></trkpt>
    <trkpt lat="48.357569" lon="-4.669521"><ele>29.0</ele></trkpt>
    <trkpt lat="48.357126" lon="-4.669940"><ele>26.2</ele></trkpt>
    <trkpt lat="48.356863" lon="-4.670270"><ele>27.0</ele></trkpt>
    <trkpt lat="48.356817" lon="-4.670456"><ele>27.0</ele></trkpt>
    <trkpt lat="48.356921" lon="-4.670794"><ele>23.4</ele></trkpt>
    <trkpt lat="48.356897" lon="-4.670995"><ele>21.4</ele></trkpt>
    <trkpt lat="48.356502" lon="-4.671439"><ele>20.0</ele></trkpt>
    <trkpt lat="48.356041" lon="-4.672171"><ele>19.8</ele></trkpt>
    <trkpt lat="48.356005" lon="-4.672304"><ele>19.4</ele></trkpt>
    <trkpt lat="48.356004" lon="-4.672684"><ele>17.4</ele></trkpt>
    <trkpt lat="48.355944" lon="-4.672853"><ele>16.6</ele></trkpt>
    <trkpt lat="48.355715" lon="-4.673063"><ele>16.0</ele></trkpt>
    <trkpt lat="48.355288" lon="-4.673320"><ele>14.4</ele></trkpt>
    <trkpt lat="48.355007" lon="-4.673545"><ele>13.6</ele></trkpt>
    <trkpt lat="48.354764" lon="-4.673905"><ele>12.0</ele></trkpt>
    <trkpt lat="48.354609" lon="-4.674227"><ele>9.6</ele></trkpt>
    <trkpt lat="48.354865" lon="-4.676144"><ele>12.4</ele></trkpt>
    <trkpt lat="48.354998" lon="-4.676428"><ele>13.6</ele></trkpt>
    <trkpt lat="48.355149" lon="-4.676914"><ele>17.6</ele></trkpt>
    <trkpt lat="48.355165" lon="-4.677383"><ele>20.0</ele></trkpt>
    <trkpt lat="48.355210" lon="-4.677608"><ele>19.8</ele></trkpt>
    <trkpt lat="48.355389" lon="-4.678065"><ele>17.4</ele></trkpt>
    <trkpt lat="48.355569" lon="-4.678266"><ele>14.8</ele></trkpt>
    <trkpt lat="48.355671" lon="-4.678302"><ele>13.0</ele></trkpt>
    <trkpt lat="48.355800" lon="-4.678460"><ele>12.0</ele></trkpt>
    <trkpt lat="48.355987" lon="-4.678877"><ele>9.4</ele></trkpt>
    <trkpt lat="48.356245" lon="-4.679002"><ele>7.2</ele></trkpt>
    <trkpt lat="48.356284" lon="-4.679581"><ele>8.6</ele></trkpt>
    <trkpt lat="48.356236" lon="-4.679915"><ele>9.2</ele></trkpt>
    <trkpt lat="48.356067" lon="-4.680357"><ele>9.0</ele></trkpt>
    <trkpt lat="48.356036" lon="-4.680642"><ele>12.0</ele></trkpt>
    <trkpt lat="48.356072" lon="-4.680723"><ele>14.0</ele></trkpt>
    <trkpt lat="48.355765" lon="-4.681179"><ele>18.2</ele></trkpt>
    <trkpt lat="48.355381" lon="-4.681572"><ele>18.4</ele></trkpt>
    <trkpt lat="48.355320" lon="-4.681758"><ele>19.0</ele></trkpt>
    <trkpt lat="48.355290" lon="-4.682057"><ele>21.4</ele></trkpt>
    <trkpt lat="48.355014" lon="-4.682343"><ele>22.2</ele></trkpt>
    <trkpt lat="48.354732" lon="-4.682162"><ele>20.0</ele></trkpt>
    <trkpt lat="48.354640" lon="-4.682172"><ele>19.8</ele></trkpt>
    <trkpt lat="48.354559" lon="-4.682347"><ele>20.2</ele></trkpt>
    <trkpt lat="48.354387" lon="-4.682545"><ele>20.8</ele></trkpt>
    <trkpt lat="48.354398" lon="-4.682730"><ele>21.2</ele></trkpt>
    <trkpt lat="48.354363" lon="-4.682862"><ele>20.6</ele></trkpt>
    <trkpt lat="48.354124" lon="-4.682969"><ele>17.6</ele></trkpt>
    <trkpt lat="48.354042" lon="-4.683063"><ele>16.8</ele></trkpt>
    <trkpt lat="48.353970" lon="-4.683279"><ele>16.4</ele></trkpt>
    <trkpt lat="48.353902" lon="-4.683643"><ele>17.2</ele></trkpt>
    <trkpt lat="48.353932" lon="-4.684094"><ele>19.8</ele></trkpt>
    <trkpt lat="48.353852" lon="-4.684256"><ele>21.4</ele></trkpt>
    <trkpt lat="48.353734" lon="-4.684350"><ele>20.6</ele></trkpt>
    <trkpt lat="48.353615" lon="-4.684677"><ele>19.4</ele></trkpt>
    <trkpt lat="48.353630" lon="-4.684829"><ele>19.0</ele></trkpt>
    <trkpt lat="48.353744" lon="-4.685152"><ele>20.4</ele></trkpt>
    <trkpt lat="48.353791" lon="-4.685212"><ele>21.4</ele></trkpt>
    <trkpt lat="48.354034" lon="-4.685277"><ele>26.8</ele></trkpt>
    <trkpt lat="48.354504" lon="-4.685210"><ele>28.8</ele></trkpt>
    <trkpt lat="48.354641" lon="-4.685290"><ele>33.6</ele></trkpt>
    <trkpt lat="48.354646" lon="-4.685744"><ele>30.6</ele></trkpt>
    <trkpt lat="48.354585" lon="-4.686411"><ele>28.8</ele></trkpt>
    <trkpt lat="48.354573" lon="-4.687232"><ele>25.0</ele></trkpt>
    <trkpt lat="48.354777" lon="-4.688212"><ele>21.2</ele></trkpt>
    <trkpt lat="48.354771" lon="-4.688957"><ele>18.6</ele></trkpt>
    <trkpt lat="48.354850" lon="-4.689304"><ele>16.6</ele></trkpt>
    <trkpt lat="48.354822" lon="-4.689406"><ele>16.0</ele></trkpt>
    <trkpt lat="48.354675" lon="-4.689616"><ele>14.4</ele></trkpt>
    <trkpt lat="48.354639" lon="-4.689815"><ele>12.6</ele></trkpt>
    <trkpt lat="48.354676" lon="-4.690043"><ele>9.8</ele></trkpt>
    <trkpt lat="48.354857" lon="-4.690406"><ele>6.8</ele></trkpt>
    <trkpt lat="48.354896" lon="-4.690783"><ele>6.8</ele></trkpt>
    <trkpt lat="48.354889" lon="-4.691136"><ele>8.8</ele></trkpt>
    <trkpt lat="48.354908" lon="-4.691188"><ele>9.4</ele></trkpt>
    <trkpt lat="48.354938" lon="-4.691159"><ele>10.0</ele></trkpt>
    <trkpt lat="48.354899" lon="-4.691158"><ele>10.6</ele></trkpt>
    <trkpt lat="48.354737" lon="-4.691416"><ele>14.0</ele></trkpt>
    <trkpt lat="48.354536" lon="-4.691625"><ele>17.8</ele></trkpt>
    <trkpt lat="48.354503" lon="-4.691796"><ele>19.0</ele></trkpt>
    <trkpt lat="48.354367" lon="-4.691982"><ele>21.0</ele></trkpt>
    <trkpt lat="48.354111" lon="-4.692107"><ele>19.6</ele></trkpt>
    <trkpt lat="48.353908" lon="-4.692283"><ele>18.8</ele></trkpt>
    <trkpt lat="48.353761" lon="-4.692636"><ele>19.2</ele></trkpt>
    <trkpt lat="48.353614" lon="-4.693272"><ele>19.8</ele></trkpt>
    <trkpt lat="48.353603" lon="-4.693609"><ele>19.2</ele></trkpt>
    <trkpt lat="48.353680" lon="-4.694157"><ele>18.2</ele></trkpt>
    <trkpt lat="48.353617" lon="-4.694644"><ele>16.2</ele></trkpt>
    <trkpt lat="48.353563" lon="-4.694822"><ele>15.4</ele></trkpt>
    <trkpt lat="48.353383" lon="-4.694975"><ele>13.4</ele></trkpt>
    <trkpt lat="48.353154" lon="-4.695349"><ele>8.2</ele></trkpt>
    <trkpt lat="48.353006" lon="-4.695396"><ele>5.8</ele></trkpt>
    <trkpt lat="48.352712" lon="-4.695639"><ele>3.8</ele></trkpt>
    <trkpt lat="48.352233" lon="-4.696231"><ele>2.8</ele></trkpt>
    <trkpt lat="48.352155" lon="-4.696603"><ele>2.2</ele></trkpt>
    <trkpt lat="48.351905" lon="-4.696809"><ele>2.2</ele></trkpt>
    <trkpt lat="48.351760" lon="-4.697202"><ele>3.4</ele></trkpt>
    <trkpt lat="48.351417" lon="-4.697900"><ele>2.6</ele></trkpt>
    <trkpt lat="48.351186" lon="-4.698491"><ele>2.6</ele></trkpt>
    <trkpt lat="48.350967" lon="-4.698899"><ele>2.2</ele></trkpt>
    <trkpt lat="48.350600" lon="-4.699745"><ele>2.0</ele></trkpt>
    <trkpt lat="48.350092" lon="-4.700628"><ele>3.0</ele></trkpt>
    <trkpt lat="48.349580" lon="-4.701021"><ele>3.0</ele></trkpt>
    <trkpt lat="48.348840" lon="-4.701839"><ele>3.2</ele></trkpt>
    <trkpt lat="48.348193" lon="-4.702334"><ele>3.4</ele></trkpt>
    <trkpt lat="48.347469" lon="-4.702757"><ele>3.2</ele></trkpt>
    <trkpt lat="48.347053" lon="-4.702919"><ele>3.2</ele></trkpt>
    <trkpt lat="48.346565" lon="-4.703000"><ele>2.8</ele></trkpt>
    <trkpt lat="48.346297" lon="-4.703000"><ele>2.8</ele></trkpt>
    <trkpt lat="48.345768" lon="-4.702861"><ele>2.6</ele></trkpt>
    <trkpt lat="48.345325" lon="-4.702617"><ele>2.6</ele></trkpt>
    <trkpt lat="48.345176" lon="-4.702586"><ele>2.9</ele></trkpt>
    <trkpt lat="48.344988" lon="-4.702810"><ele>3.6</ele></trkpt>
    <trkpt lat="48.344905" lon="-4.702858"><ele>3.9</ele></trkpt>
    <trkpt lat="48.344933" lon="-4.702034"><ele>5.5</ele></trkpt>
    <trkpt lat="48.344915" lon="-4.701899"><ele>5.8</ele></trkpt>
    <trkpt lat="48.344789" lon="-4.701770"><ele>6.2</ele></trkpt>
    <trkpt lat="48.344212" lon="-4.701352"><ele>8.1</ele></trkpt>
    <trkpt lat="48.344019" lon="-4.701278"><ele>8.7</ele></trkpt>
    <trkpt lat="48.343719" lon="-4.701375"><ele>9.6</ele></trkpt>
    <trkpt lat="48.343281" lon="-4.701351"><ele>10.9</ele></trkpt>
    <trkpt lat="48.342965" lon="-4.701604"><ele>12.0</ele></trkpt>
    <trkpt lat="48.342896" lon="-4.701619"><ele>12.2</ele></trkpt>
    <trkpt lat="48.342751" lon="-4.701536"><ele>12.6</ele></trkpt>
    <trkpt lat="48.342548" lon="-4.701221"><ele>10.4</ele></trkpt>
    <trkpt lat="48.342430" lon="-4.701109"><ele>10.2</ele></trkpt>
    <trkpt lat="48.341547" lon="-4.700628"><ele>29.2</ele></trkpt>
    <trkpt lat="48.341338" lon="-4.700599"><ele>28.4</ele></trkpt>
    <trkpt lat="48.340692" lon="-4.700664"><ele>17.2</ele></trkpt>
    <trkpt lat="48.340567" lon="-4.700751"><ele>16.0</ele></trkpt>
    <trkpt lat="48.340358" lon="-4.700984"><ele>14.0</ele></trkpt>
    <trkpt lat="48.340054" lon="-4.701158"><ele>10.6</ele></trkpt>
    <trkpt lat="48.339872" lon="-4.701460"><ele>9.4</ele></trkpt>
    <trkpt lat="48.339731" lon="-4.701881"><ele>8.6</ele></trkpt>
    <trkpt lat="48.339698" lon="-4.702619"><ele>8.4</ele></trkpt>
    <trkpt lat="48.339270" lon="-4.702504"><ele>8.0</ele></trkpt>
    <trkpt lat="48.339152" lon="-4.702385"><ele>8.2</ele></trkpt>
    <trkpt lat="48.339120" lon="-4.702219"><ele>8.6</ele></trkpt>
    <trkpt lat="48.339163" lon="-4.702006"><ele>8.2</ele></trkpt>
    <trkpt lat="48.339337" lon="-4.701617"><ele>6.2</ele></trkpt>
    <trkpt lat="48.339361" lon="-4.701365"><ele>5.8</ele></trkpt>
    <trkpt lat="48.339075" lon="-4.700827"><ele>8.4</ele></trkpt>
    <trkpt lat="48.338937" lon="-4.700466"><ele>11.8</ele></trkpt>
    <trkpt lat="48.338676" lon="-4.700267"><ele>16.2</ele></trkpt>
    <trkpt lat="48.338702" lon="-4.700093"><ele>17.4</ele></trkpt>
    <trkpt lat="48.338926" lon="-4.699761"><ele>17.6</ele></trkpt>
    <trkpt lat="48.338970" lon="-4.699521"><ele>17.0</ele></trkpt>
    <trkpt lat="48.338904" lon="-4.699277"><ele>16.6</ele></trkpt>
    <trkpt lat="48.338670" lon="-4.698852"><ele>16.6</ele></trkpt>
    <trkpt lat="48.338458" lon="-4.698687"><ele>17.2</ele></trkpt>
    <trkpt lat="48.338285" lon="-4.698400"><ele>16.2</ele></trkpt>
    <trkpt lat="48.338179" lon="-4.698397"><ele>16.0</ele></trkpt>
    <trkpt lat="48.337851" lon="-4.698776"><ele>13.0</ele></trkpt>
    <trkpt lat="48.337746" lon="-4.699090"><ele>20.2</ele></trkpt>
    <trkpt lat="48.337712" lon="-4.699322"><ele>18.8</ele></trkpt>
    <trkpt lat="48.337625" lon="-4.699501"><ele>18.0</ele></trkpt>
    <trkpt lat="48.337543" lon="-4.699611"><ele>17.2</ele></trkpt>
    <trkpt lat="48.337348" lon="-4.699681"><ele>17.8</ele></trkpt>
    <trkpt lat="48.337246" lon="-4.699795"><ele>20.2</ele></trkpt>
    <trkpt lat="48.337068" lon="-4.700621"><ele>24.0</ele></trkpt>
    <trkpt lat="48.337154" lon="-4.701167"><ele>24.0</ele></trkpt>
    <trkpt lat="48.337153" lon="-4.701590"><ele>25.4</ele></trkpt>
    <trkpt lat="48.337196" lon="-4.701653"><ele>26.2</ele></trkpt>
    <trkpt lat="48.337359" lon="-4.701661"><ele>27.6</ele></trkpt>
    <trkpt lat="48.337746" lon="-4.701857"><ele>29.0</ele></trkpt>
    <trkpt lat="48.337776" lon="-4.701938"><ele>28.6</ele></trkpt>
    <trkpt lat="48.337748" lon="-4.702111"><ele>27.0</ele></trkpt>
    <trkpt lat="48.337783" lon="-4.701903"><ele>30.6</ele></trkpt>
    <trkpt lat="48.337619" lon="-4.703638"><ele>35.4</ele></trkpt>
    <trkpt lat="48.337449" lon="-4.704825"><ele>42.4</ele></trkpt>
    <trkpt lat="48.337438" lon="-4.705208"><ele>42.3</ele></trkpt>
    <trkpt lat="48.337550" lon="-4.705428"><ele>42.9</ele></trkpt>
    <trkpt lat="48.337948" lon="-4.705696"><ele>44.1</ele></trkpt>
    <trkpt lat="48.337998" lon="-4.705764"><ele>44.3</ele></trkpt>
    <trkpt lat="48.338107" lon="-4.706004"><ele>44.8</ele></trkpt>
    <trkpt lat="48.338164" lon="-4.706325"><ele>45.4</ele></trkpt>
    <trkpt lat="48.338123" lon="-4.706627"><ele>46.0</ele></trkpt>
    <trkpt lat="48.337943" lon="-4.707034"><ele>46.9</ele></trkpt>
    <trkpt lat="48.337890" lon="-4.707230"><ele>47.3</ele></trkpt>
    <trkpt lat="48.337866" lon="-4.707457"><ele>47.7</ele></trkpt>
    <trkpt lat="48.337918" lon="-4.707654"><ele>48.1</ele></trkpt>
    <trkpt lat="48.338446" lon="-4.709102"><ele>51.2</ele></trkpt>
    <trkpt lat="48.338428" lon="-4.709055"><ele>51.2</ele></trkpt>
    <trkpt lat="48.338639" lon="-4.709454"><ele>47.4</ele></trkpt>
    <trkpt lat="48.338874" lon="-4.709737"><ele>45.4</ele></trkpt>
    <trkpt lat="48.339394" lon="-4.710169"><ele>42.6</ele></trkpt>
    <trkpt lat="48.339539" lon="-4.710078"><ele>42.6</ele></trkpt>
    <trkpt lat="48.339660" lon="-4.710060"><ele>42.6</ele></trkpt>
    <trkpt lat="48.339890" lon="-4.710194"><ele>42.0</ele></trkpt>
    <trkpt lat="48.340015" lon="-4.710196"><ele>41.6</ele></trkpt>
    <trkpt lat="48.340357" lon="-4.710334"><ele>39.0</ele></trkpt>
    <trkpt lat="48.340996" lon="-4.710396"><ele>28.6</ele></trkpt>
    <trkpt lat="48.341152" lon="-4.710555"><ele>25.4</ele></trkpt>
    <trkpt lat="48.341104" lon="-4.710984"><ele>25.8</ele></trkpt>
    <trkpt lat="48.341182" lon="-4.711284"><ele>26.0</ele></trkpt>
    <trkpt lat="48.341314" lon="-4.711560"><ele>25.6</ele></trkpt>
    <trkpt lat="48.341411" lon="-4.712039"><ele>25.8</ele></trkpt>
    <trkpt lat="48.341384" lon="-4.712316"><ele>26.4</ele></trkpt>
    <trkpt lat="48.341301" lon="-4.712553"><ele>27.2</ele></trkpt>
    <trkpt lat="48.341249" lon="-4.712994"><ele>28.8</ele></trkpt>
    <trkpt lat="48.341044" lon="-4.713945"><ele>31.4</ele></trkpt>
    <trkpt lat="48.340963" lon="-4.714748"><ele>32.6</ele></trkpt>
    <trkpt lat="48.341092" lon="-4.715511"><ele>33.6</ele></trkpt>
    <trkpt lat="48.341189" lon="-4.716314"><ele>35.4</ele></trkpt>
    <trkpt lat="48.341268" lon="-4.717377"><ele>39.4</ele></trkpt>
    <trkpt lat="48.341346" lon="-4.717836"><ele>40.4</ele></trkpt>
    <trkpt lat="48.341453" lon="-4.718154"><ele>38.6</ele></trkpt>
    <trkpt lat="48.341779" lon="-4.718418"><ele>42.6</ele></trkpt>
    <trkpt lat="48.342044" lon="-4.718516"><ele>42.6</ele></trkpt>
    <trkpt lat="48.342570" lon="-4.718525"><ele>45.0</ele></trkpt>
    <trkpt lat="48.342779" lon="-4.718494"><ele>46.0</ele></trkpt>
    <trkpt lat="48.342871" lon="-4.718430"><ele>46.6</ele></trkpt>
    <trkpt lat="48.343222" lon="-4.718426"><ele>47.4</ele></trkpt>
    <trkpt lat="48.343452" lon="-4.718498"><ele>47.0</ele></trkpt>
    <trkpt lat="48.343858" lon="-4.718519"><ele>46.0</ele></trkpt>
    <trkpt lat="48.344373" lon="-4.718609"><ele>45.0</ele></trkpt>
    <trkpt lat="48.344455" lon="-4.718534"><ele>44.8</ele></trkpt>
    <trkpt lat="48.344677" lon="-4.716832"><ele>41.8</ele></trkpt>
    <trkpt lat="48.344846" lon="-4.715912"><ele>38.4</ele></trkpt>
    <trkpt lat="48.344878" lon="-4.715369"><ele>35.6</ele></trkpt>
    <trkpt lat="48.344871" lon="-4.715130"><ele>34.2</ele></trkpt>
    <trkpt lat="48.344722" lon="-4.713939"><ele>30.2</ele></trkpt>
    <trkpt lat="48.344724" lon="-4.713742"><ele>30.0</ele></trkpt>
    <trkpt lat="48.344817" lon="-4.713329"><ele>29.2</ele></trkpt>
    <trkpt lat="48.344817" lon="-4.713096"><ele>28.8</ele></trkpt>
    <trkpt lat="48.344792" lon="-4.712854"><ele>28.2</ele></trkpt>
    <trkpt lat="48.344714" lon="-4.712551"><ele>27.4</ele></trkpt>
    <trkpt lat="48.344659" lon="-4.712068"><ele>26.6</ele></trkpt>
    <trkpt lat="48.344692" lon="-4.711462"><ele>26.0</ele></trkpt>
    <trkpt lat="48.344656" lon="-4.710632"><ele>24.2</ele></trkpt>
    <trkpt lat="48.344667" lon="-4.709993"><ele>21.2</ele></trkpt>
    <trkpt lat="48.344552" lon="-4.709309"><ele>19.0</ele></trkpt>
    <trkpt lat="48.344550" lon="-4.709179"><ele>18.8</ele></trkpt>
    <trkpt lat="48.344582" lon="-4.709103"><ele>18.6</ele></trkpt>
    <trkpt lat="48.344823" lon="-4.709061"><ele>17.0</ele></trkpt>
    <trkpt lat="48.344957" lon="-4.709105"><ele>15.8</ele></trkpt>
    <trkpt lat="48.345431" lon="-4.709617"><ele>14.4</ele></trkpt>
    <trkpt lat="48.345546" lon="-4.709692"><ele>14.4</ele></trkpt>
    <trkpt lat="48.345677" lon="-4.709656"><ele>14.4</ele></trkpt>
    <trkpt lat="48.345903" lon="-4.709401"><ele>13.8</ele></trkpt>
    <trkpt lat="48.345997" lon="-4.709403"><ele>13.8</ele></trkpt>
    <trkpt lat="48.346371" lon="-4.709803"><ele>14.0</ele></trkpt>
    <trkpt lat="48.346613" lon="-4.710122"><ele>13.8</ele></trkpt>
    <trkpt lat="48.346775" lon="-4.710194"><ele>13.2</ele></trkpt>
    <trkpt lat="48.347007" lon="-4.710188"><ele>12.4</ele></trkpt>
    <trkpt lat="48.347136" lon="-4.710059"><ele>12.2</ele></trkpt>
    <trkpt lat="48.347281" lon="-4.709727"><ele>11.6</ele></trkpt>
    <trkpt lat="48.347538" lon="-4.708803"><ele>10.8</ele></trkpt>
    <trkpt lat="48.347634" lon="-4.708634"><ele>10.4</ele></trkpt>
    <trkpt lat="48.347996" lon="-4.708194"><ele>9.6</ele></trkpt>
    <trkpt lat="48.348183" lon="-4.707830"><ele>9.0</ele></trkpt>
    <trkpt lat="48.348223" lon="-4.707800"><ele>8.8</ele></trkpt>
    <trkpt lat="48.348410" lon="-4.707983"><ele>9.2</ele></trkpt>
    <trkpt lat="48.348593" lon="-4.707946"><ele>10.0</ele></trkpt>
    <trkpt lat="48.348877" lon="-4.708027"><ele>11.6</ele></trkpt>
    <trkpt lat="48.348993" lon="-4.707964"><ele>12.2</ele></trkpt>
    <trkpt lat="48.349240" lon="-4.707520"><ele>13.0</ele></trkpt>
    <trkpt lat="48.349708" lon="-4.706420"><ele>10.8</ele></trkpt>
    <trkpt lat="48.350476" lon="-4.705406"><ele>14.4</ele></trkpt>
    <trkpt lat="48.350747" lon="-4.706197"><ele>17.0</ele></trkpt>
    <trkpt lat="48.351213" lon="-4.707255"><ele>22.2</ele></trkpt>
    <trkpt lat="48.351695" lon="-4.707979"><ele>28.0</ele></trkpt>
    <trkpt lat="48.351763" lon="-4.708025"><ele>28.6</ele></trkpt>
    <trkpt lat="48.351871" lon="-4.707993"><ele>29.6</ele></trkpt>
    <trkpt lat="48.352109" lon="-4.707691"><ele>32.2</ele></trkpt>
    <trkpt lat="48.352512" lon="-4.707003"><ele>35.6</ele></trkpt>
    <trkpt lat="48.352905" lon="-4.706048"><ele>37.8</ele></trkpt>
    <trkpt lat="48.352995" lon="-4.705664"><ele>37.8</ele></trkpt>
    <trkpt lat="48.353000" lon="-4.705266"><ele>35.4</ele></trkpt>
    <trkpt lat="48.353038" lon="-4.704997"><ele>33.2</ele></trkpt>
    <trkpt lat="48.353589" lon="-4.703854"><ele>34.4</ele></trkpt>
    <trkpt lat="48.353727" lon="-4.703084"><ele>30.8</ele></trkpt>
    <trkpt lat="48.353907" lon="-4.702565"><ele>35.8</ele></trkpt>
    <trkpt lat="48.354104" lon="-4.702190"><ele>39.8</ele></trkpt>
    <trkpt lat="48.354241" lon="-4.701731"><ele>41.8</ele></trkpt>
    <trkpt lat="48.354357" lon="-4.700979"><ele>37.8</ele></trkpt>
    <trkpt lat="48.354454" lon="-4.700902"><ele>44.8</ele></trkpt>
    <trkpt lat="48.354834" lon="-4.701116"><ele>45.6</ele></trkpt>
    <trkpt lat="48.355062" lon="-4.701165"><ele>47.2</ele></trkpt>
    <trkpt lat="48.355788" lon="-4.701100"><ele>50.2</ele></trkpt>
    <trkpt lat="48.355869" lon="-4.701036"><ele>50.4</ele></trkpt>
    <trkpt lat="48.355901" lon="-4.700823"><ele>50.6</ele></trkpt>
    <trkpt lat="48.355833" lon="-4.700252"><ele>49.8</ele></trkpt>
    <trkpt lat="48.355854" lon="-4.699991"><ele>49.2</ele></trkpt>
    <trkpt lat="48.355960" lon="-4.699794"><ele>49.0</ele></trkpt>
    <trkpt lat="48.356152" lon="-4.699730"><ele>49.4</ele></trkpt>
    <trkpt lat="48.356274" lon="-4.699538"><ele>49.8</ele></trkpt>
    <trkpt lat="48.356559" lon="-4.698863"><ele>49.4</ele></trkpt>
    <trkpt lat="48.356725" lon="-4.698017"><ele>48.8</ele></trkpt>
    <trkpt lat="48.356890" lon="-4.697443"><ele>48.0</ele></trkpt>
    <trkpt lat="48.357340" lon="-4.696757"><ele>47.0</ele></trkpt>
    <trkpt lat="48.357467" lon="-4.696480"><ele>46.2</ele></trkpt>
    <trkpt lat="48.357487" lon="-4.696327"><ele>46.0</ele></trkpt>
    <trkpt lat="48.357461" lon="-4.696183"><ele>45.8</ele></trkpt>
    <trkpt lat="48.357363" lon="-4.695944"><ele>45.6</ele></trkpt>
    <trkpt lat="48.357095" lon="-4.695430"><ele>45.2</ele></trkpt>
    <trkpt lat="48.356929" lon="-4.695183"><ele>44.8</ele></trkpt>
    <trkpt lat="48.356856" lon="-4.695168"><ele>44.8</ele></trkpt>
    <trkpt lat="48.356639" lon="-4.695320"><ele>44.2</ele></trkpt>
    <trkpt lat="48.356317" lon="-4.695296"><ele>43.0</ele></trkpt>
    <trkpt lat="48.356211" lon="-4.695339"><ele>42.6</ele></trkpt>
    <trkpt lat="48.356173" lon="-4.695311"><ele>42.4</ele></trkpt>
    <trkpt lat="48.356161" lon="-4.695223"><ele>41.8</ele></trkpt>
    <trkpt lat="48.356210" lon="-4.694883"><ele>40.8</ele></trkpt>
    <trkpt lat="48.356339" lon="-4.694284"><ele>39.8</ele></trkpt>
    <trkpt lat="48.356401" lon="-4.694134"><ele>39.2</ele></trkpt>
    <trkpt lat="48.356524" lon="-4.693977"><ele>38.8</ele></trkpt>
    <trkpt lat="48.356540" lon="-4.693878"><ele>38.6</ele></trkpt>
    <trkpt lat="48.356501" lon="-4.693793"><ele>38.4</ele></trkpt>
    <trkpt lat="48.356392" lon="-4.693710"><ele>37.8</ele></trkpt>
    <trkpt lat="48.355960" lon="-4.693851"><ele>36.6</ele></trkpt>
    <trkpt lat="48.355850" lon="-4.693858"><ele>36.6</ele></trkpt>
    <trkpt lat="48.355809" lon="-4.693819"><ele>36.4</ele></trkpt>
    <trkpt lat="48.355805" lon="-4.693421"><ele>35.6</ele></trkpt>
    <trkpt lat="48.355691" lon="-4.692940"><ele>35.2</ele></trkpt>
    <trkpt lat="48.356026" lon="-4.691889"><ele>30.6</ele></trkpt>
    <trkpt lat="48.356064" lon="-4.691646"><ele>29.2</ele></trkpt>
    <trkpt lat="48.356048" lon="-4.691290"><ele>27.4</ele></trkpt>
    <trkpt lat="48.355929" lon="-4.691104"><ele>26.4</ele></trkpt>
    <trkpt lat="48.355763" lon="-4.691006"><ele>25.0</ele></trkpt>
    <trkpt lat="48.355290" lon="-4.691112"><ele>18.0</ele></trkpt>
    <trkpt lat="48.354888" lon="-4.691105"><ele>12.0</ele></trkpt>
    <trkpt lat="48.354911" lon="-4.690729"><ele>9.6</ele></trkpt>
    <trkpt lat="48.354879" lon="-4.690425"><ele>8.4</ele></trkpt>
    <trkpt lat="48.354827" lon="-4.690262"><ele>8.2</ele></trkpt>
    <trkpt lat="48.354671" lon="-4.689992"><ele>8.6</ele></trkpt>
    <trkpt lat="48.354634" lon="-4.689822"><ele>9.2</ele></trkpt>
    <trkpt lat="48.354664" lon="-4.689597"><ele>11.2</ele></trkpt>
    <trkpt lat="48.354856" lon="-4.689360"><ele>15.2</ele></trkpt>
    <trkpt lat="48.354888" lon="-4.689238"><ele>16.4</ele></trkpt>
    <trkpt lat="48.354775" lon="-4.688841"><ele>18.6</ele></trkpt>
    <trkpt lat="48.354760" lon="-4.688570"><ele>20.2</ele></trkpt>
    <trkpt lat="48.354795" lon="-4.688152"><ele>22.8</ele></trkpt>
    <trkpt lat="48.354580" lon="-4.687222"><ele>23.6</ele></trkpt>
    <trkpt lat="48.354638" lon="-4.685563"><ele>32.6</ele></trkpt>
    <trkpt lat="48.354623" lon="-4.685300"><ele>32.0</ele></trkpt>
    <trkpt lat="48.354540" lon="-4.685012"><ele>32.4</ele></trkpt>
    <trkpt lat="48.354520" lon="-4.684441"><ele>27.4</ele></trkpt>
    <trkpt lat="48.354587" lon="-4.683665"><ele>26.2</ele></trkpt>
    <trkpt lat="48.354554" lon="-4.683043"><ele>26.8</ele></trkpt>
    <trkpt lat="48.354612" lon="-4.682572"><ele>26.6</ele></trkpt>
    <trkpt lat="48.354665" lon="-4.682390"><ele>25.4</ele></trkpt>
    <trkpt lat="48.354734" lon="-4.682304"><ele>24.6</ele></trkpt>
    <trkpt lat="48.354870" lon="-4.682265"><ele>23.8</ele></trkpt>
    <trkpt lat="48.355061" lon="-4.682326"><ele>24.6</ele></trkpt>
    <trkpt lat="48.355257" lon="-4.682106"><ele>25.2</ele></trkpt>
    <trkpt lat="48.355320" lon="-4.682006"><ele>24.8</ele></trkpt>
    <trkpt lat="48.355370" lon="-4.681736"><ele>23.2</ele></trkpt>
    <trkpt lat="48.355435" lon="-4.681585"><ele>22.0</ele></trkpt>
    <trkpt lat="48.355587" lon="-4.681427"><ele>21.6</ele></trkpt>
    <trkpt lat="48.355689" lon="-4.681243"><ele>21.4</ele></trkpt>
    <trkpt lat="48.355811" lon="-4.681140"><ele>20.4</ele></trkpt>
    <trkpt lat="48.356043" lon="-4.680799"><ele>15.4</ele></trkpt>
    <trkpt lat="48.356079" lon="-4.680721"><ele>14.0</ele></trkpt>
    <trkpt lat="48.356110" lon="-4.680290"><ele>9.4</ele></trkpt>
    <trkpt lat="48.356278" lon="-4.679884"><ele>5.8</ele></trkpt>
    <trkpt lat="48.356316" lon="-4.679582"><ele>6.8</ele></trkpt>
    <trkpt lat="48.356281" lon="-4.679149"><ele>5.8</ele></trkpt>
    <trkpt lat="48.356224" lon="-4.678930"><ele>5.6</ele></trkpt>
    <trkpt lat="48.356137" lon="-4.678860"><ele>6.2</ele></trkpt>
    <trkpt lat="48.355958" lon="-4.678830"><ele>7.2</ele></trkpt>
    <trkpt lat="48.355884" lon="-4.678527"><ele>8.8</ele></trkpt>
    <trkpt lat="48.355594" lon="-4.678245"><ele>12.4</ele></trkpt>
    <trkpt lat="48.355542" lon="-4.678242"><ele>11.2</ele></trkpt>
    <trkpt lat="48.355195" lon="-4.677556"><ele>19.0</ele></trkpt>
    <trkpt lat="48.355141" lon="-4.677275"><ele>20.0</ele></trkpt>
    <trkpt lat="48.355118" lon="-4.676884"><ele>20.8</ele></trkpt>
    <trkpt lat="48.355054" lon="-4.676564"><ele>18.4</ele></trkpt>
    <trkpt lat="48.354878" lon="-4.676173"><ele>14.8</ele></trkpt>
    <trkpt lat="48.354809" lon="-4.675424"><ele>11.4</ele></trkpt>
    <trkpt lat="48.354689" lon="-4.674568"><ele>8.6</ele></trkpt>
    <trkpt lat="48.354693" lon="-4.674144"><ele>9.2</ele></trkpt>
    <trkpt lat="48.354915" lon="-4.673741"><ele>11.2</ele></trkpt>
    <trkpt lat="48.355108" lon="-4.673470"><ele>12.0</ele></trkpt>
    <trkpt lat="48.355277" lon="-4.673329"><ele>12.8</ele></trkpt>
    <trkpt lat="48.355805" lon="-4.673015"><ele>14.8</ele></trkpt>
    <trkpt lat="48.355958" lon="-4.672858"><ele>15.8</ele></trkpt>
    <trkpt lat="48.356060" lon="-4.672579"><ele>16.8</ele></trkpt>
    <trkpt lat="48.356059" lon="-4.672305"><ele>18.0</ele></trkpt>
    <trkpt lat="48.356096" lon="-4.672129"><ele>19.0</ele></trkpt>
    <trkpt lat="48.356628" lon="-4.671468"><ele>20.4</ele></trkpt>
    <trkpt lat="48.356955" lon="-4.670941"><ele>20.6</ele></trkpt>
    <trkpt lat="48.356980" lon="-4.670754"><ele>21.6</ele></trkpt>
    <trkpt lat="48.356864" lon="-4.670479"><ele>25.4</ele></trkpt>
    <trkpt lat="48.356887" lon="-4.670331"><ele>27.2</ele></trkpt>
    <trkpt lat="48.356975" lon="-4.670208"><ele>27.8</ele></trkpt>
    <trkpt lat="48.357418" lon="-4.669825"><ele>27.4</ele></trkpt>
    <trkpt lat="48.357621" lon="-4.669553"><ele>28.0</ele></trkpt>
    <trkpt lat="48.357668" lon="-4.669429"><ele>28.6</ele></trkpt>
    <trkpt lat="48.357700" lon="-4.669166"><ele>31.4</ele></trkpt>
    <trkpt lat="48.357915" lon="-4.668921"><ele>35.4</ele></trkpt>
    <trkpt lat="48.357997" lon="-4.668716"><ele>37.2</ele></trkpt>
    <trkpt lat="48.358014" lon="-4.668431"><ele>39.2</ele></trkpt>
    <trkpt lat="48.357986" lon="-4.668339"><ele>40.2</ele></trkpt>
    <trkpt lat="48.357928" lon="-4.668289"><ele>40.8</ele></trkpt>
    <trkpt lat="48.357444" lon="-4.668283"><ele>43.2</ele></trkpt>
    <trkpt lat="48.357227" lon="-4.668383"><ele>44.0</ele></trkpt>
    <trkpt lat="48.357093" lon="-4.668393"><ele>44.6</ele></trkpt>
    <trkpt lat="48.356797" lon="-4.668308"><ele>45.6</ele></trkpt>
    <trkpt lat="48.356400" lon="-4.668097"><ele>49.6</ele></trkpt>
    <trkpt lat="48.356308" lon="-4.667510"><ele>48.6</ele></trkpt>
    <trkpt lat="48.356340" lon="-4.667310"><ele>49.6</ele></trkpt>
    <trkpt lat="48.356492" lon="-4.666947"><ele>50.4</ele></trkpt>
    <trkpt lat="48.356549" lon="-4.666510"><ele>51.4</ele></trkpt>
    <trkpt lat="48.356764" lon="-4.665743"><ele>53.4</ele></trkpt>
    <trkpt lat="48.356984" lon="-4.665223"><ele>54.6</ele></trkpt>
    <trkpt lat="48.357033" lon="-4.664748"><ele>55.6</ele></trkpt>
    <trkpt lat="48.357320" lon="-4.664617"><ele>57.0</ele></trkpt>
    <trkpt lat="48.357676" lon="-4.664383"><ele>58.2</ele></trkpt>
    <trkpt lat="48.357851" lon="-4.664358"><ele>58.2</ele></trkpt>
    <trkpt lat="48.358103" lon="-4.664429"><ele>58.6</ele></trkpt>
    <trkpt lat="48.358373" lon="-4.664269"><ele>58.2</ele></trkpt>
    <trkpt lat="48.358815" lon="-4.664109"><ele>58.6</ele></trkpt>
    <trkpt lat="48.358998" lon="-4.663970"><ele>58.8</ele></trkpt>
    <trkpt lat="48.359215" lon="-4.663583"><ele>60.0</ele></trkpt>
    <trkpt lat="48.359852" lon="-4.662652"><ele>64.4</ele></trkpt>
    <trkpt lat="48.360095" lon="-4.662236"><ele>66.2</ele></trkpt>
    <trkpt lat="48.360172" lon="-4.662037"><ele>67.2</ele></trkpt>
    <trkpt lat="48.360134" lon="-4.661665"><ele>68.4</ele></trkpt>
    <trkpt lat="48.360202" lon="-4.661490"><ele>69.0</ele></trkpt>
    <trkpt lat="48.360642" lon="-4.660891"><ele>70.2</ele></trkpt>
    <trkpt lat="48.361041" lon="-4.660626"><ele>71.6</ele></trkpt>
    <trkpt lat="48.361386" lon="-4.660327"><ele>70.2</ele></trkpt>
    <trkpt lat="48.361546" lon="-4.659977"><ele>73.8</ele></trkpt>
    <trkpt lat="48.361463" lon="-4.659695"><ele>71.8</ele></trkpt>
    <trkpt lat="48.361199" lon="-4.659070"><ele>73.0</ele></trkpt>
    <trkpt lat="48.360566" lon="-4.657760"><ele>73.0</ele></trkpt>
    <trkpt lat="48.360512" lon="-4.657339"><ele>72.6</ele></trkpt>
    <trkpt lat="48.360515" lon="-4.656127"><ele>71.4</ele></trkpt>
    <trkpt lat="48.360582" lon="-4.655971"><ele>71.6</ele></trkpt>
    <trkpt lat="48.360894" lon="-4.655583"><ele>72.8</ele></trkpt>
    <trkpt lat="48.361135" lon="-4.655127"><ele>73.6</ele></trkpt>
    <trkpt lat="48.361238" lon="-4.654868"><ele>74.0</ele></trkpt>
    <trkpt lat="48.361494" lon="-4.653978"><ele>75.6</ele></trkpt>
    <trkpt lat="48.361819" lon="-4.653424"><ele>76.2</ele></trkpt>
    <trkpt lat="48.361949" lon="-4.652999"><ele>76.4</ele></trkpt>
    <trkpt lat="48.362192" lon="-4.652726"><ele>76.4</ele></trkpt>
    <trkpt lat="48.362320" lon="-4.652444"><ele>74.2</ele></trkpt>
    <trkpt lat="48.362459" lon="-4.652249"><ele>73.4</ele></trkpt>
    <trkpt lat="48.362531" lon="-4.651774"><ele>76.2</ele></trkpt>
    <trkpt lat="48.362649" lon="-4.651261"><ele>76.2</ele></trkpt>
    <trkpt lat="48.363257" lon="-4.649365"><ele>74.4</ele></trkpt>
    <trkpt lat="48.363717" lon="-4.648322"><ele>73.2</ele></trkpt>
    <trkpt lat="48.363980" lon="-4.647305"><ele>72.6</ele></trkpt>
    <trkpt lat="48.364663" lon="-4.645578"><ele>70.4</ele></trkpt>
    <trkpt lat="48.364980" lon="-4.644468"><ele>69.6</ele></trkpt>
    <trkpt lat="48.365320" lon="-4.643858"><ele>69.0</ele></trkpt>
    <trkpt lat="48.365564" lon="-4.643322"><ele>68.8</ele></trkpt>
    <trkpt lat="48.365641" lon="-4.643009"><ele>68.4</ele></trkpt>
    <trkpt lat="48.365757" lon="-4.642115"><ele>68.0</ele></trkpt>
    <trkpt lat="48.365822" lon="-4.642056"><ele>68.0</ele></trkpt>
    <trkpt lat="48.365884" lon="-4.642066"><ele>68.0</ele></trkpt>
    <trkpt lat="48.366200" lon="-4.642338"><ele>68.4</ele></trkpt>
    <trkpt lat="48.366457" lon="-4.642271"><ele>68.4</ele></trkpt>
    <trkpt lat="48.367018" lon="-4.642498"><ele>69.4</ele></trkpt>
    <trkpt lat="48.367936" lon="-4.642790"><ele>69.2</ele></trkpt>
    <trkpt lat="48.368140" lon="-4.642908"><ele>68.8</ele></trkpt>
    <trkpt lat="48.369528" lon="-4.642958"><ele>61.8</ele></trkpt>
    <trkpt lat="48.369563" lon="-4.642930"><ele>61.6</ele></trkpt>
    <trkpt lat="48.369635" lon="-4.642706"><ele>61.2</ele></trkpt>
    <trkpt lat="48.369842" lon="-4.641799"><ele>60.0</ele></trkpt>
    <trkpt lat="48.370155" lon="-4.640735"><ele>59.0</ele></trkpt>
  </trkseg></trk>
</gpx>
