<?xml version="1.0" encoding="UTF-8"?>
<gpx version="1.1" creator="tcap-parcours" xmlns="http://www.topografix.com/GPX/1/1">
  <metadata><name>trez-hir-plougonvelin-2</name></metadata>
  <trk><name>trez-hir-plougonvelin-2</name><trkseg>
    <trkpt lat="48.370182" lon="-4.640510"><ele>64.0</ele></trkpt>
    <trkpt lat="48.370200" lon="-4.640607"><ele>63.6</ele></trkpt>
    <trkpt lat="48.370158" lon="-4.640833"><ele>63.0</ele></trkpt>
    <trkpt lat="48.369687" lon="-4.642355"><ele>63.8</ele></trkpt>
    <trkpt lat="48.369635" lon="-4.642814"><ele>63.2</ele></trkpt>
    <trkpt lat="48.369623" lon="-4.643495"><ele>62.0</ele></trkpt>
    <trkpt lat="48.369567" lon="-4.643922"><ele>60.8</ele></trkpt>
    <trkpt lat="48.369287" lon="-4.644972"><ele>61.0</ele></trkpt>
    <trkpt lat="48.369264" lon="-4.645132"><ele>61.0</ele></trkpt>
    <trkpt lat="48.369296" lon="-4.645476"><ele>60.8</ele></trkpt>
    <trkpt lat="48.369241" lon="-4.646027"><ele>61.4</ele></trkpt>
    <trkpt lat="48.369212" lon="-4.646184"><ele>61.8</ele></trkpt>
    <trkpt lat="48.369092" lon="-4.646498"><ele>61.8</ele></trkpt>
    <trkpt lat="48.369077" lon="-4.647021"><ele>63.4</ele></trkpt>
    <trkpt lat="48.368978" lon="-4.647319"><ele>64.2</ele></trkpt>
    <trkpt lat="48.368889" lon="-4.647425"><ele>64.8</ele></trkpt>
    <trkpt lat="48.368667" lon="-4.647572"><ele>66.4</ele></trkpt>
    <trkpt lat="48.368599" lon="-4.647715"><ele>66.4</ele></trkpt>
    <trkpt lat="48.368619" lon="-4.647857"><ele>66.6</ele></trkpt>
    <trkpt lat="48.368836" lon="-4.648515"><ele>67.2</ele></trkpt>
    <trkpt lat="48.368908" lon="-4.648936"><ele>67.2</ele></trkpt>
    <trkpt lat="48.368919" lon="-4.649336"><ele>67.6</ele></trkpt>
    <trkpt lat="48.368849" lon="-4.649975"><ele>69.0</ele></trkpt>
    <trkpt lat="48.368704" lon="-4.650434"><ele>70.2</ele></trkpt>
    <trkpt lat="48.368568" lon="-4.650659"><ele>70.4</ele></trkpt>
    <trkpt lat="48.368014" lon="-4.651247"><ele>72.0</ele></trkpt>
    <trkpt lat="48.367801" lon="-4.651555"><ele>72.4</ele></trkpt>
    <trkpt lat="48.367661" lon="-4.651911"><ele>72.2</ele></trkpt>
    <trkpt lat="48.367428" lon="-4.652713"><ele>73.2</ele></trkpt>
    <trkpt lat="48.367321" lon="-4.652893"><ele>72.8</ele></trkpt>
    <trkpt lat="48.366940" lon="-4.652951"><ele>74.8</ele></trkpt>
    <trkpt lat="48.366579" lon="-4.653353"><ele>74.8</ele></trkpt>
    <trkpt lat="48.366056" lon="-4.653349"><ele>75.6</ele></trkpt>
    <trkpt lat="48.365881" lon="-4.653415"><ele>76.4</ele></trkpt>
    <trkpt lat="48.365636" lon="-4.653722"><ele>76.4</ele></trkpt>
    <trkpt lat="48.365465" lon="-4.653867"><ele>76.2</ele></trkpt>
    <trkpt lat="48.364207" lon="-4.654667"><ele>77.8</ele></trkpt>
    <trkpt lat="48.363953" lon="-4.654788"><ele>78.0</ele></trkpt>
    <trkpt lat="48.363341" lon="-4.654920"><ele>78.2</ele></trkpt>
    <trkpt lat="48.363068" lon="-4.655056"><ele>77.8</ele></trkpt>
    <trkpt lat="48.362842" lon="-4.655098"><ele>77.0</ele></trkpt>
    <trkpt lat="48.362785" lon="-4.655143"><ele>77.2</ele></trkpt>
    <trkpt lat="48.362719" lon="-4.655286"><ele>77.2</ele></trkpt>
    <trkpt lat="48.362562" lon="-4.656056"><ele>75.6</ele></trkpt>
    <trkpt lat="48.362469" lon="-4.656266"><ele>75.8</ele></trkpt>
    <trkpt lat="48.362329" lon="-4.656339"><ele>76.2</ele></trkpt>
    <trkpt lat="48.361897" lon="-4.656328"><ele>75.2</ele></trkpt>
    <trkpt lat="48.361392" lon="-4.656434"><ele>74.4</ele></trkpt>
    <trkpt lat="48.361065" lon="-4.656612"><ele>73.6</ele></trkpt>
    <trkpt lat="48.360589" lon="-4.657021"><ele>71.2</ele></trkpt>
    <trkpt lat="48.360547" lon="-4.657127"><ele>71.2</ele></trkpt>
    <trkpt lat="48.360527" lon="-4.657309"><ele>72.2</ele></trkpt>
    <trkpt lat="48.360633" lon="-4.657867"><ele>72.6</ele></trkpt>
    <trkpt lat="48.361262" lon="-4.659106"><ele>73.0</ele></trkpt>
    <trkpt lat="48.361564" lon="-4.660011"><ele>72.8</ele></trkpt>
    <trkpt lat="48.361563" lon="-4.660074"><ele>72.6</ele></trkpt>
    <trkpt lat="48.361060" lon="-4.660559"><ele>71.4</ele></trkpt>
    <trkpt lat="48.360575" lon="-4.660906"><ele>70.4</ele></trkpt>
    <trkpt lat="48.360300" lon="-4.661291"><ele>68.8</ele></trkpt>
    <trkpt lat="48.360148" lon="-4.661537"><ele>69.0</ele></trkpt>
    <trkpt lat="48.360109" lon="-4.661672"><ele>68.8</ele></trkpt>
    <trkpt lat="48.360172" lon="-4.661986"><ele>67.8</ele></trkpt>
    <trkpt lat="48.360145" lon="-4.662165"><ele>67.4</ele></trkpt>
    <trkpt lat="48.359448" lon="-4.663177"><ele>62.8</ele></trkpt>
    <trkpt lat="48.358958" lon="-4.663962"><ele>60.0</ele></trkpt>
    <trkpt lat="48.358636" lon="-4.664120"><ele>59.4</ele></trkpt>
    <trkpt lat="48.358309" lon="-4.664217"><ele>59.2</ele></trkpt>
    <trkpt lat="48.358103" lon="-4.664390"><ele>59.2</ele></trkpt>
    <trkpt lat="48.358033" lon="-4.664393"><ele>59.2</ele></trkpt>
    <trkpt lat="48.357882" lon="-4.664305"><ele>59.2</ele></trkpt>
    <trkpt lat="48.357774" lon="-4.664319"><ele>59.2</ele></trkpt>
    <trkpt lat="48.357007" lon="-4.664683"><ele>57.2</ele></trkpt>
    <trkpt lat="48.357015" lon="-4.664937"><ele>56.2</ele></trkpt>
    <trkpt lat="48.356974" lon="-4.665219"><ele>55.4</ele></trkpt>
    <trkpt lat="48.356740" lon="-4.665831"><ele>54.6</ele></trkpt>
    <trkpt lat="48.356530" lon="-4.666518"><ele>52.4</ele></trkpt>
    <trkpt lat="48.356490" lon="-4.667002"><ele>51.4</ele></trkpt>
    <trkpt lat="48.356376" lon="-4.667227"><ele>50.8</ele></trkpt>
    <trkpt lat="48.356318" lon="-4.667426"><ele>50.2</ele></trkpt>
    <trkpt lat="48.356329" lon="-4.667763"><ele>49.0</ele></trkpt>
    <trkpt lat="48.356369" lon="-4.667984"><ele>48.4</ele></trkpt>
    <trkpt lat="48.356458" lon="-4.668274"><ele>47.6</ele></trkpt>
    <trkpt lat="48.356769" lon="-4.668269"><ele>47.8</ele></trkpt>
    <trkpt lat="48.357218" lon="-4.668488"><ele>45.2</ele></trkpt>
    <trkpt lat="48.357302" lon="-4.668484"><ele>45.2</ele></trkpt>
    <trkpt lat="48.357459" lon="-4.668342"><ele>44.8</ele></trkpt>
    <trkpt lat="48.357548" lon="-4.668341"><ele>44.2</ele></trkpt>
    <trkpt lat="48.357632" lon="-4.668396"><ele>43.6</ele></trkpt>
    <trkpt lat="48.357695" lon="-4.668324"><ele>43.6</ele></trkpt>
    <trkpt lat="48.357910" lon="-4.668331"><ele>43.6</ele></trkpt>
    <trkpt lat="48.357963" lon="-4.668382"><ele>42.8</ele></trkpt>
    <trkpt lat="48.357985" lon="-4.668486"><ele>41.4</ele></trkpt>
    <trkpt lat="48.357970" lon="-4.668734"><ele>39.4</ele></trkpt>
    <trkpt lat="48.357875" lon="-4.668904"><ele>37.6</ele></trkpt>
    <trkpt lat="48.357652" lon="-4.669094"><ele>34.8</ele></trkpt>
    <trkpt lat="48.357648" lon="-4.669398"><ele>31.0</ele></trkpt>
    <trkpt lat="48.357586" lon="-4.669523"><ele>29.6</ele></trkpt>
    <trkpt lat="48.357297" lon="-4.669843"><ele>28.4</ele></trkpt>
    <trkpt lat="48.356960" lon="-4.670131"><ele>29.2</ele></trkpt>
    <trkpt lat="48.356864" lon="-4.670303"><ele>29.2</ele></trkpt>
    <trkpt lat="48.356873" lon="-4.670483"><ele>27.8</ele></trkpt>
    <trkpt lat="48.356991" lon="-4.670692"><ele>24.6</ele></trkpt>
    <trkpt lat="48.356962" lon="-4.670912"><ele>22.8</ele></trkpt>
    <trkpt lat="48.356891" lon="-4.671044"><ele>22.2</ele></trkpt>
    <trkpt lat="48.356057" lon="-4.672112"><ele>21.8</ele></trkpt>
    <trkpt lat="48.356026" lon="-4.672216"><ele>21.6</ele></trkpt>
    <trkpt lat="48.356027" lon="-4.672642"><ele>19.0</ele></trkpt>
    <trkpt lat="48.355955" lon="-4.672837"><ele>18.0</ele></trkpt>
    <trkpt lat="48.355786" lon="-4.672999"><ele>17.4</ele></trkpt>
    <trkpt lat="48.355279" lon="-4.673291"><ele>15.4</ele></trkpt>
    <trkpt lat="48.355004" lon="-4.673512"><ele>14.0</ele></trkpt>
    <trkpt lat="48.354799" lon="-4.673796"><ele>12.0</ele></trkpt>
    <trkpt lat="48.354699" lon="-4.674018"><ele>11.4</ele></trkpt>
    <trkpt lat="48.354664" lon="-4.674188"><ele>9.6</ele></trkpt>
    <trkpt lat="48.354714" lon="-4.674815"><ele>10.2</ele></trkpt>
    <trkpt lat="48.354813" lon="-4.675289"><ele>12.6</ele></trkpt>
    <trkpt lat="48.354906" lon="-4.676139"><ele>14.8</ele></trkpt>
    <trkpt lat="48.355048" lon="-4.676479"><ele>17.8</ele></trkpt>
    <trkpt lat="48.355163" lon="-4.676908"><ele>21.4</ele></trkpt>
    <trkpt lat="48.355216" lon="-4.677560"><ele>21.2</ele></trkpt>
    <trkpt lat="48.355379" lon="-4.677992"><ele>18.8</ele></trkpt>
    <trkpt lat="48.355575" lon="-4.678254"><ele>16.0</ele></trkpt>
    <trkpt lat="48.355669" lon="-4.678302"><ele>14.6</ele></trkpt>
    <trkpt lat="48.355845" lon="-4.678511"><ele>12.8</ele></trkpt>
    <trkpt lat="48.355979" lon="-4.678860"><ele>10.4</ele></trkpt>
    <trkpt lat="48.356148" lon="-4.678871"><ele>9.6</ele></trkpt>
    <trkpt lat="48.356245" lon="-4.678955"><ele>9.0</ele></trkpt>
    <trkpt lat="48.356316" lon="-4.679446"><ele>9.2</ele></trkpt>
    <trkpt lat="48.356287" lon="-4.679880"><ele>9.4</ele></trkpt>
    <trkpt lat="48.356102" lon="-4.680263"><ele>9.6</ele></trkpt>
    <trkpt lat="48.356055" lon="-4.680599"><ele>14.4</ele></trkpt>
    <trkpt lat="48.356064" lon="-4.680739"><ele>17.0</ele></trkpt>
    <trkpt lat="48.355794" lon="-4.681146"><ele>22.4</ele></trkpt>
    <trkpt lat="48.355661" lon="-4.681222"><ele>24.0</ele></trkpt>
    <trkpt lat="48.355572" lon="-4.681398"><ele>25.4</ele></trkpt>
    <trkpt lat="48.355409" lon="-4.681553"><ele>24.6</ele></trkpt>
    <trkpt lat="48.355334" lon="-4.681744"><ele>25.2</ele></trkpt>
    <trkpt lat="48.355333" lon="-4.681974"><ele>27.4</ele></trkpt>
    <trkpt lat="48.355297" lon="-4.682050"><ele>27.8</ele></trkpt>
    <trkpt lat="48.355032" lon="-4.682320"><ele>29.6</ele></trkpt>
    <trkpt lat="48.354938" lon="-4.682323"><ele>28.4</ele></trkpt>
    <trkpt lat="48.354712" lon="-4.682149"><ele>26.0</ele></trkpt>
    <trkpt lat="48.354640" lon="-4.682169"><ele>25.8</ele></trkpt>
    <trkpt lat="48.354583" lon="-4.682294"><ele>26.0</ele></trkpt>
    <trkpt lat="48.354392" lon="-4.682455"><ele>24.2</ele></trkpt>
    <trkpt lat="48.354432" lon="-4.682662"><ele>25.6</ele></trkpt>
    <trkpt lat="48.354367" lon="-4.682853"><ele>25.6</ele></trkpt>
    <trkpt lat="48.354149" lon="-4.682944"><ele>21.2</ele></trkpt>
    <trkpt lat="48.354065" lon="-4.683022"><ele>20.2</ele></trkpt>
    <trkpt lat="48.353909" lon="-4.683573"><ele>19.8</ele></trkpt>
    <trkpt lat="48.353967" lon="-4.683984"><ele>22.4</ele></trkpt>
    <trkpt lat="48.353950" lon="-4.684097"><ele>23.0</ele></trkpt>
    <trkpt lat="48.353910" lon="-4.684205"><ele>23.0</ele></trkpt>
    <trkpt lat="48.353777" lon="-4.684264"><ele>22.0</ele></trkpt>
    <trkpt lat="48.353727" lon="-4.684476"><ele>21.0</ele></trkpt>
    <trkpt lat="48.353678" lon="-4.684549"><ele>20.2</ele></trkpt>
    <trkpt lat="48.353640" lon="-4.684543"><ele>19.8</ele></trkpt>
    <trkpt lat="48.353685" lon="-4.684522"><ele>20.4</ele></trkpt>
    <trkpt lat="48.353627" lon="-4.684673"><ele>19.6</ele></trkpt>
    <trkpt lat="48.353721" lon="-4.685051"><ele>22.4</ele></trkpt>
    <trkpt lat="48.353791" lon="-4.685146"><ele>23.4</ele></trkpt>
    <trkpt lat="48.354027" lon="-4.685243"><ele>26.0</ele></trkpt>
    <trkpt lat="48.354194" lon="-4.685201"><ele>28.2</ele></trkpt>
    <trkpt lat="48.354527" lon="-4.685218"><ele>31.6</ele></trkpt>
    <trkpt lat="48.354637" lon="-4.685270"><ele>33.0</ele></trkpt>
    <trkpt lat="48.354654" lon="-4.685410"><ele>33.2</ele></trkpt>
    <trkpt lat="48.354587" lon="-4.686175"><ele>31.6</ele></trkpt>
    <trkpt lat="48.354562" lon="-4.687279"><ele>25.6</ele></trkpt>
    <trkpt lat="48.354749" lon="-4.688035"><ele>23.8</ele></trkpt>
    <trkpt lat="48.354850" lon="-4.688181"><ele>23.8</ele></trkpt>
    <trkpt lat="48.355274" lon="-4.688242"><ele>26.2</ele></trkpt>
    <trkpt lat="48.355347" lon="-4.688214"><ele>27.2</ele></trkpt>
    <trkpt lat="48.355429" lon="-4.688116"><ele>28.6</ele></trkpt>
    <trkpt lat="48.355480" lon="-4.687986"><ele>28.8</ele></trkpt>
    <trkpt lat="48.355518" lon="-4.687399"><ele>30.8</ele></trkpt>
    <trkpt lat="48.355584" lon="-4.687006"><ele>32.6</ele></trkpt>
    <trkpt lat="48.355631" lon="-4.686859"><ele>33.4</ele></trkpt>
    <trkpt lat="48.355719" lon="-4.686780"><ele>34.4</ele></trkpt>
    <trkpt lat="48.357010" lon="-4.687048"><ele>40.2</ele></trkpt>
    <trkpt lat="48.357940" lon="-4.687115"><ele>42.2</ele></trkpt>
    <trkpt lat="48.358282" lon="-4.687039"><ele>42.6</ele></trkpt>
    <trkpt lat="48.358351" lon="-4.686911"><ele>42.6</ele></trkpt>
    <trkpt lat="48.358362" lon="-4.686666"><ele>42.6</ele></trkpt>
    <trkpt lat="48.358261" lon="-4.686265"><ele>42.6</ele></trkpt>
    <trkpt lat="48.358241" lon="-4.686011"><ele>42.8</ele></trkpt>
    <trkpt lat="48.358417" lon="-4.684504"><ele>42.0</ele></trkpt>
    <trkpt lat="48.358362" lon="-4.684325"><ele>42.0</ele></trkpt>
    <trkpt lat="48.358131" lon="-4.684134"><ele>40.4</ele></trkpt>
    <trkpt lat="48.357877" lon="-4.684022"><ele>38.4</ele></trkpt>
    <trkpt lat="48.356969" lon="-4.683790"><ele>35.0</ele></trkpt>
    <trkpt lat="48.356811" lon="-4.683691"><ele>34.8</ele></trkpt>
    <trkpt lat="48.356679" lon="-4.683493"><ele>34.4</ele></trkpt>
    <trkpt lat="48.356503" lon="-4.681758"><ele>28.0</ele></trkpt>
    <trkpt lat="48.356456" lon="-4.681519"><ele>27.4</ele></trkpt>
    <trkpt lat="48.356487" lon="-4.681194"><ele>25.2</ele></trkpt>
    <trkpt lat="48.356459" lon="-4.680892"><ele>22.2</ele></trkpt>
    <trkpt lat="48.356331" lon="-4.680700"><ele>20.4</ele></trkpt>
    <trkpt lat="48.356205" lon="-4.680655"><ele>18.6</ele></trkpt>
    <trkpt lat="48.356087" lon="-4.680669"><ele>17.6</ele></trkpt>
    <trkpt lat="48.356046" lon="-4.680617"><ele>16.6</ele></trkpt>
    <trkpt lat="48.356089" lon="-4.680288"><ele>11.6</ele></trkpt>
    <trkpt lat="48.356226" lon="-4.680013"><ele>10.2</ele></trkpt>
    <trkpt lat="48.356278" lon="-4.679762"><ele>10.8</ele></trkpt>
    <trkpt lat="48.356300" lon="-4.679539"><ele>10.6</ele></trkpt>
    <trkpt lat="48.356262" lon="-4.679035"><ele>9.2</ele></trkpt>
    <trkpt lat="48.356194" lon="-4.678915"><ele>8.6</ele></trkpt>
    <trkpt lat="48.355929" lon="-4.678842"><ele>10.8</ele></trkpt>
    <trkpt lat="48.355872" lon="-4.678563"><ele>12.0</ele></trkpt>
    <trkpt lat="48.355636" lon="-4.678273"><ele>14.0</ele></trkpt>
    <trkpt lat="48.355579" lon="-4.678278"><ele>14.8</ele></trkpt>
    <trkpt lat="48.355430" lon="-4.678110"><ele>17.2</ele></trkpt>
    <trkpt lat="48.355205" lon="-4.677592"><ele>20.4</ele></trkpt>
    <trkpt lat="48.355166" lon="-4.676921"><ele>21.2</ele></trkpt>
    <trkpt lat="48.355032" lon="-4.676475"><ele>17.6</ele></trkpt>
    <trkpt lat="48.354877" lon="-4.676179"><ele>14.8</ele></trkpt>
    <trkpt lat="48.354651" lon="-4.674526"><ele>9.6</ele></trkpt>
    <trkpt lat="48.354625" lon="-4.674195"><ele>10.2</ele></trkpt>
    <trkpt lat="48.354635" lon="-4.673575"><ele>12.6</ele></trkpt>
    <trkpt lat="48.354560" lon="-4.673233"><ele>12.6</ele></trkpt>
    <trkpt lat="48.354346" lon="-4.672642"><ele>14.2</ele></trkpt>
    <trkpt lat="48.353541" lon="-4.671023"><ele>18.2</ele></trkpt>
    <trkpt lat="48.353166" lon="-4.670068"><ele>18.2</ele></trkpt>
    <trkpt lat="48.353041" lon="-4.669272"><ele>17.8</ele></trkpt>
    <trkpt lat="48.353034" lon="-4.668851"><ele>17.6</ele></trkpt>
    <trkpt lat="48.353114" lon="-4.667689"><ele>17.8</ele></trkpt>
    <trkpt lat="48.353158" lon="-4.666243"><ele>21.6</ele></trkpt>
    <trkpt lat="48.353206" lon="-4.665900"><ele>24.2</ele></trkpt>
    <trkpt lat="48.353276" lon="-4.664874"><ele>30.6</ele></trkpt>
    <trkpt lat="48.353380" lon="-4.664364"><ele>34.8</ele></trkpt>
    <trkpt lat="48.353517" lon="-4.664279"><ele>35.4</ele></trkpt>
    <trkpt lat="48.353419" lon="-4.664292"><ele>35.4</ele></trkpt>
    <trkpt lat="48.353500" lon="-4.664284"><ele>35.4</ele></trkpt>
    <trkpt lat="48.353628" lon="-4.664194"><ele>36.4</ele></trkpt>
    <trkpt lat="48.353863" lon="-4.664148"><ele>39.2</ele></trkpt>
    <trkpt lat="48.353943" lon="-4.664317"><ele>40.2</ele></trkpt>
    <trkpt lat="48.354139" lon="-4.664481"><ele>41.8</ele></trkpt>
    <trkpt lat="48.354297" lon="-4.664441"><ele>42.6</ele></trkpt>
    <trkpt lat="48.354358" lon="-4.664352"><ele>42.8</ele></trkpt>
    <trkpt lat="48.354456" lon="-4.664347"><ele>43.2</ele></trkpt>
    <trkpt lat="48.354663" lon="-4.664189"><ele>45.8</ele></trkpt>
    <trkpt lat="48.354786" lon="-4.664145"><ele>46.8</ele></trkpt>
    <trkpt lat="48.354941" lon="-4.664216"><ele>47.4</ele></trkpt>
    <trkpt lat="48.354987" lon="-4.664317"><ele>47.8</ele></trkpt>
    <trkpt lat="48.355089" lon="-4.664876"><ele>47.4</ele></trkpt>
    <trkpt lat="48.355048" lon="-4.665311"><ele>47.2</ele></trkpt>
    <trkpt lat="48.355071" lon="-4.665894"><ele>47.0</ele></trkpt>
    <trkpt lat="48.355080" lon="-4.666023"><ele>46.8</ele></trkpt>
    <trkpt lat="48.355171" lon="-4.666339"><ele>46.8</ele></trkpt>
    <trkpt lat="48.355203" lon="-4.666423"><ele>47.0</ele></trkpt>
    <trkpt lat="48.355331" lon="-4.666546"><ele>47.6</ele></trkpt>
    <trkpt lat="48.355599" lon="-4.666948"><ele>48.0</ele></trkpt>
    <trkpt lat="48.355869" lon="-4.667609"><ele>48.8</ele></trkpt>
    <trkpt lat="48.355967" lon="-4.667673"><ele>49.0</ele></trkpt>
    <trkpt lat="48.356330" lon="-4.667504"><ele>50.0</ele></trkpt>
    <trkpt lat="48.356499" lon="-4.666986"><ele>51.6</ele></trkpt>
    <trkpt lat="48.356530" lon="-4.666613"><ele>52.2</ele></trkpt>
    <trkpt lat="48.356743" lon="-4.665863"><ele>54.4</ele></trkpt>
    <trkpt lat="48.356968" lon="-4.665308"><ele>55.6</ele></trkpt>
    <trkpt lat="48.357003" lon="-4.665119"><ele>56.2</ele></trkpt>
    <trkpt lat="48.356998" lon="-4.664751"><ele>56.8</ele></trkpt>
    <trkpt lat="48.357075" lon="-4.664677"><ele>57.2</ele></trkpt>
    <trkpt lat="48.357371" lon="-4.664561"><ele>58.6</ele></trkpt>
    <trkpt lat="48.357706" lon="-4.664347"><ele>59.4</ele></trkpt>
    <trkpt lat="48.357846" lon="-4.664346"><ele>59.4</ele></trkpt>
    <trkpt lat="48.358069" lon="-4.664418"><ele>59.0</ele></trkpt>
    <trkpt lat="48.358255" lon="-4.664298"><ele>59.2</ele></trkpt>
    <trkpt lat="48.358950" lon="-4.664014"><ele>59.6</ele></trkpt>
    <trkpt lat="48.359188" lon="-4.663582"><ele>61.4</ele></trkpt>
    <trkpt lat="48.359560" lon="-4.663023"><ele>63.8</ele></trkpt>
    <trkpt lat="48.359847" lon="-4.662681"><ele>65.4</ele></trkpt>
    <trkpt lat="48.360125" lon="-4.662190"><ele>67.0</ele></trkpt>
    <trkpt lat="48.360161" lon="-4.661986"><ele>68.2</ele></trkpt>
    <trkpt lat="48.360121" lon="-4.661678"><ele>69.2</ele></trkpt>
    <trkpt lat="48.360264" lon="-4.661405"><ele>69.8</ele></trkpt>
    <trkpt lat="48.360640" lon="-4.660898"><ele>71.0</ele></trkpt>
    <trkpt lat="48.361104" lon="-4.660576"><ele>71.8</ele></trkpt>
    <trkpt lat="48.361530" lon="-4.660163"><ele>72.6</ele></trkpt>
    <trkpt lat="48.361578" lon="-4.660074"><ele>72.6</ele></trkpt>
    <trkpt lat="48.361249" lon="-4.659063"><ele>73.6</ele></trkpt>
    <trkpt lat="48.360632" lon="-4.657843"><ele>73.4</ele></trkpt>
    <trkpt lat="48.360552" lon="-4.657356"><ele>73.2</ele></trkpt>
    <trkpt lat="48.360513" lon="-4.656441"><ele>71.8</ele></trkpt>
    <trkpt lat="48.360531" lon="-4.656144"><ele>72.0</ele></trkpt>
    <trkpt lat="48.360823" lon="-4.655723"><ele>73.4</ele></trkpt>
    <trkpt lat="48.361210" lon="-4.654922"><ele>75.0</ele></trkpt>
    <trkpt lat="48.361312" lon="-4.654503"><ele>75.4</ele></trkpt>
    <trkpt lat="48.361452" lon="-4.654117"><ele>76.2</ele></trkpt>
    <trkpt lat="48.361661" lon="-4.653656"><ele>76.6</ele></trkpt>
    <trkpt lat="48.361840" lon="-4.653357"><ele>77.0</ele></trkpt>
    <trkpt lat="48.361929" lon="-4.653022"><ele>76.8</ele></trkpt>
    <trkpt lat="48.362165" lon="-4.652814"><ele>77.0</ele></trkpt>
    <trkpt lat="48.362309" lon="-4.652442"><ele>77.0</ele></trkpt>
    <trkpt lat="48.362457" lon="-4.652223"><ele>77.2</ele></trkpt>
    <trkpt lat="48.362556" lon="-4.651874"><ele>77.0</ele></trkpt>
    <trkpt lat="48.362671" lon="-4.651208"><ele>77.0</ele></trkpt>
    <trkpt lat="48.362912" lon="-4.650386"><ele>76.0</ele></trkpt>
    <trkpt lat="48.363111" lon="-4.649867"><ele>75.8</ele></trkpt>
    <trkpt lat="48.363223" lon="-4.649426"><ele>75.0</ele></trkpt>
    <trkpt lat="48.363694" lon="-4.648342"><ele>74.0</ele></trkpt>
    <trkpt lat="48.363950" lon="-4.647424"><ele>74.0</ele></trkpt>
    <trkpt lat="48.364675" lon="-4.645585"><ele>71.6</ele></trkpt>
    <trkpt lat="48.364974" lon="-4.644515"><ele>70.4</ele></trkpt>
    <trkpt lat="48.365141" lon="-4.644168"><ele>69.8</ele></trkpt>
    <trkpt lat="48.365430" lon="-4.643696"><ele>70.0</ele></trkpt>
    <trkpt lat="48.365568" lon="-4.643371"><ele>69.4</ele></trkpt>
    <trkpt lat="48.365671" lon="-4.642928"><ele>69.2</ele></trkpt>
    <trkpt lat="48.365748" lon="-4.642154"><ele>69.0</ele></trkpt>
    <trkpt lat="48.365777" lon="-4.642101"><ele>69.0</ele></trkpt>
    <trkpt lat="48.365883" lon="-4.642092"><ele>69.0</ele></trkpt>
    <trkpt lat="48.366001" lon="-4.642160"><ele>69.2</ele></trkpt>
    <trkpt lat="48.366179" lon="-4.642370"><ele>70.0</ele></trkpt>
    <trkpt lat="48.366329" lon="-4.642286"><ele>70.0</ele></trkpt>
    <trkpt lat="48.366442" lon="-4.642303"><ele>70.2</ele></trkpt>
    <trkpt lat="48.367613" lon="-4.642671"><ele>70.8</ele></trkpt>
    <trkpt lat="48.368119" lon="-4.642910"><ele>70.2</ele></trkpt>
    <trkpt lat="48.369519" lon="-4.642993"><ele>63.2</ele></trkpt>
    <trkpt lat="48.369684" lon="-4.642685"><ele>63.4</ele></trkpt>
    <trkpt lat="48.369765" lon="-4.642163"><ele>63.2</ele></trkpt>
    <trkpt lat="48.370187" lon="-4.640702"><ele>62.4</ele></trkpt>
    <trkpt lat="48.370224" lon="-4.640468"><ele>64.0</ele></trkpt>
    <trkpt lat="48.370198" lon="-4.640378"><ele>63.8</ele></trkpt>
  </trkseg></trk>
</gpx>
