<?xml version="1.0" encoding="UTF-8"?>
<gpx version="1.1" creator="tcap-parcours" xmlns="http://www.topografix.com/GPX/1/1">
  <metadata><name>Trez-Hir par le GR34, retour Portez – Boucle 13 km</name></metadata>
  <trk><name>Trez-Hir par le GR34, retour Portez – Boucle 13 km</name><trkseg>
    <trkpt lat="48.369920" lon="-4.640904"><ele>60.6</ele></trkpt>
    <trkpt lat="48.369813" lon="-4.641473"><ele>59.6</ele></trkpt>
    <trkpt lat="48.369613" lon="-4.642047"><ele>60.0</ele></trkpt>
    <trkpt lat="48.369647" lon="-4.642626"><ele>59.8</ele></trkpt>
    <trkpt lat="48.369540" lon="-4.642931"><ele>60.2</ele></trkpt>
    <trkpt lat="48.369608" lon="-4.643102"><ele>60.0</ele></trkpt>
    <trkpt lat="48.369595" lon="-4.643553"><ele>59.4</ele></trkpt>
    <trkpt lat="48.369464" lon="-4.644240"><ele>59.2</ele></trkpt>
    <trkpt lat="48.369345" lon="-4.644621"><ele>58.6</ele></trkpt>
    <trkpt lat="48.369245" lon="-4.645095"><ele>58.2</ele></trkpt>
    <trkpt lat="48.369265" lon="-4.645563"><ele>58.0</ele></trkpt>
    <trkpt lat="48.369204" lon="-4.646008"><ele>58.2</ele></trkpt>
    <trkpt lat="48.369059" lon="-4.646522"><ele>59.6</ele></trkpt>
    <trkpt lat="48.369055" lon="-4.647036"><ele>61.0</ele></trkpt>
    <trkpt lat="48.368908" lon="-4.647360"><ele>62.4</ele></trkpt>
    <trkpt lat="48.368630" lon="-4.647579"><ele>64.0</ele></trkpt>
    <trkpt lat="48.368561" lon="-4.647734"><ele>64.8</ele></trkpt>
    <trkpt lat="48.368587" lon="-4.647901"><ele>65.4</ele></trkpt>
    <trkpt lat="48.368836" lon="-4.648680"><ele>66.0</ele></trkpt>
    <trkpt lat="48.368884" lon="-4.649383"><ele>66.6</ele></trkpt>
    <trkpt lat="48.368774" lon="-4.650213"><ele>68.2</ele></trkpt>
    <trkpt lat="48.368620" lon="-4.650570"><ele>69.2</ele></trkpt>
    <trkpt lat="48.368079" lon="-4.651135"><ele>71.2</ele></trkpt>
    <trkpt lat="48.367805" lon="-4.651491"><ele>71.4</ele></trkpt>
    <trkpt lat="48.367607" lon="-4.651946"><ele>72.4</ele></trkpt>
    <trkpt lat="48.367418" lon="-4.652683"><ele>73.0</ele></trkpt>
    <trkpt lat="48.367309" lon="-4.652882"><ele>72.8</ele></trkpt>
    <trkpt lat="48.367179" lon="-4.652938"><ele>72.6</ele></trkpt>
    <trkpt lat="48.366946" lon="-4.652926"><ele>73.2</ele></trkpt>
    <trkpt lat="48.366825" lon="-4.653040"><ele>73.4</ele></trkpt>
    <trkpt lat="48.366621" lon="-4.653330"><ele>73.0</ele></trkpt>
    <trkpt lat="48.366528" lon="-4.653393"><ele>73.0</ele></trkpt>
    <trkpt lat="48.365904" lon="-4.653404"><ele>74.0</ele></trkpt>
    <trkpt lat="48.365492" lon="-4.653855"><ele>74.4</ele></trkpt>
    <trkpt lat="48.364853" lon="-4.654290"><ele>75.6</ele></trkpt>
    <trkpt lat="48.364048" lon="-4.654737"><ele>76.4</ele></trkpt>
    <trkpt lat="48.362814" lon="-4.655123"><ele>76.6</ele></trkpt>
    <trkpt lat="48.362676" lon="-4.655353"><ele>76.4</ele></trkpt>
    <trkpt lat="48.362553" lon="-4.656047"><ele>75.2</ele></trkpt>
    <trkpt lat="48.362496" lon="-4.656203"><ele>75.0</ele></trkpt>
    <trkpt lat="48.362421" lon="-4.656292"><ele>75.2</ele></trkpt>
    <trkpt lat="48.362263" lon="-4.656359"><ele>75.2</ele></trkpt>
    <trkpt lat="48.361831" lon="-4.656339"><ele>74.4</ele></trkpt>
    <trkpt lat="48.361279" lon="-4.656491"><ele>73.0</ele></trkpt>
    <trkpt lat="48.361099" lon="-4.656587"><ele>72.2</ele></trkpt>
    <trkpt lat="48.360585" lon="-4.657011"><ele>71.0</ele></trkpt>
    <trkpt lat="48.360528" lon="-4.657140"><ele>71.2</ele></trkpt>
    <trkpt lat="48.360513" lon="-4.657385"><ele>71.4</ele></trkpt>
    <trkpt lat="48.360595" lon="-4.657854"><ele>72.0</ele></trkpt>
    <trkpt lat="48.361232" lon="-4.659090"><ele>72.0</ele></trkpt>
    <trkpt lat="48.361525" lon="-4.659980"><ele>71.2</ele></trkpt>
    <trkpt lat="48.361517" lon="-4.660133"><ele>71.0</ele></trkpt>
    <trkpt lat="48.361036" lon="-4.660572"><ele>70.4</ele></trkpt>
    <trkpt lat="48.360661" lon="-4.660819"><ele>69.6</ele></trkpt>
    <trkpt lat="48.360343" lon="-4.661207"><ele>69.2</ele></trkpt>
    <trkpt lat="48.360101" lon="-4.661624"><ele>67.8</ele></trkpt>
    <trkpt lat="48.360091" lon="-4.661775"><ele>67.4</ele></trkpt>
    <trkpt lat="48.360151" lon="-4.662063"><ele>66.4</ele></trkpt>
    <trkpt lat="48.360090" lon="-4.662237"><ele>65.6</ele></trkpt>
    <trkpt lat="48.358910" lon="-4.663990"><ele>58.4</ele></trkpt>
    <trkpt lat="48.358516" lon="-4.664176"><ele>57.2</ele></trkpt>
    <trkpt lat="48.358269" lon="-4.664238"><ele>57.0</ele></trkpt>
    <trkpt lat="48.358062" lon="-4.664359"><ele>57.0</ele></trkpt>
    <trkpt lat="48.357827" lon="-4.664311"><ele>56.6</ele></trkpt>
    <trkpt lat="48.357676" lon="-4.664339"><ele>56.4</ele></trkpt>
    <trkpt lat="48.357348" lon="-4.664540"><ele>56.2</ele></trkpt>
    <trkpt lat="48.357049" lon="-4.664667"><ele>55.0</ele></trkpt>
    <trkpt lat="48.356967" lon="-4.664748"><ele>54.8</ele></trkpt>
    <trkpt lat="48.356951" lon="-4.665205"><ele>54.2</ele></trkpt>
    <trkpt lat="48.356720" lon="-4.665794"><ele>53.0</ele></trkpt>
    <trkpt lat="48.356547" lon="-4.666383"><ele>51.4</ele></trkpt>
    <trkpt lat="48.356482" lon="-4.666640"><ele>51.0</ele></trkpt>
    <trkpt lat="48.356466" lon="-4.667008"><ele>50.0</ele></trkpt>
    <trkpt lat="48.356306" lon="-4.667457"><ele>48.4</ele></trkpt>
    <trkpt lat="48.356284" lon="-4.667736"><ele>48.0</ele></trkpt>
    <trkpt lat="48.356336" lon="-4.668078"><ele>47.8</ele></trkpt>
    <trkpt lat="48.356408" lon="-4.668295"><ele>47.2</ele></trkpt>
    <trkpt lat="48.356464" lon="-4.668352"><ele>47.0</ele></trkpt>
    <trkpt lat="48.356833" lon="-4.668364"><ele>45.6</ele></trkpt>
    <trkpt lat="48.357256" lon="-4.668508"><ele>44.0</ele></trkpt>
    <trkpt lat="48.357471" lon="-4.668357"><ele>43.2</ele></trkpt>
    <trkpt lat="48.357663" lon="-4.668399"><ele>43.0</ele></trkpt>
    <trkpt lat="48.357872" lon="-4.668373"><ele>41.6</ele></trkpt>
    <trkpt lat="48.357965" lon="-4.668421"><ele>40.0</ele></trkpt>
    <trkpt lat="48.357981" lon="-4.668497"><ele>39.0</ele></trkpt>
    <trkpt lat="48.357924" lon="-4.668741"><ele>36.8</ele></trkpt>
    <trkpt lat="48.357864" lon="-4.668861"><ele>35.6</ele></trkpt>
    <trkpt lat="48.357571" lon="-4.669127"><ele>32.6</ele></trkpt>
    <trkpt lat="48.357559" lon="-4.669433"><ele>30.6</ele></trkpt>
    <trkpt lat="48.357521" lon="-4.669521"><ele>30.0</ele></trkpt>
    <trkpt lat="48.357375" lon="-4.669699"><ele>28.8</ele></trkpt>
    <trkpt lat="48.357109" lon="-4.669916"><ele>28.8</ele></trkpt>
    <trkpt lat="48.356876" lon="-4.670202"><ele>29.6</ele></trkpt>
    <trkpt lat="48.356803" lon="-4.670489"><ele>27.6</ele></trkpt>
    <trkpt lat="48.356900" lon="-4.670810"><ele>23.8</ele></trkpt>
    <trkpt lat="48.356874" lon="-4.670982"><ele>22.4</ele></trkpt>
    <trkpt lat="48.356796" lon="-4.671128"><ele>21.8</ele></trkpt>
    <trkpt lat="48.356572" lon="-4.671352"><ele>21.4</ele></trkpt>
    <trkpt lat="48.356047" lon="-4.672071"><ele>20.4</ele></trkpt>
    <trkpt lat="48.355997" lon="-4.672250"><ele>19.2</ele></trkpt>
    <trkpt lat="48.355992" lon="-4.672665"><ele>16.6</ele></trkpt>
    <trkpt lat="48.355942" lon="-4.672833"><ele>15.8</ele></trkpt>
    <trkpt lat="48.355784" lon="-4.672996"><ele>14.8</ele></trkpt>
    <trkpt lat="48.355010" lon="-4.673524"><ele>11.4</ele></trkpt>
    <trkpt lat="48.354806" lon="-4.673783"><ele>9.4</ele></trkpt>
    <trkpt lat="48.354596" lon="-4.674189"><ele>7.2</ele></trkpt>
    <trkpt lat="48.354613" lon="-4.674458"><ele>7.0</ele></trkpt>
    <trkpt lat="48.354755" lon="-4.675189"><ele>9.2</ele></trkpt>
    <trkpt lat="48.354847" lon="-4.676035"><ele>13.2</ele></trkpt>
    <trkpt lat="48.354919" lon="-4.676274"><ele>14.6</ele></trkpt>
    <trkpt lat="48.355060" lon="-4.676564"><ele>16.4</ele></trkpt>
    <trkpt lat="48.355162" lon="-4.676987"><ele>16.6</ele></trkpt>
    <trkpt lat="48.355166" lon="-4.677415"><ele>16.0</ele></trkpt>
    <trkpt lat="48.355214" lon="-4.677617"><ele>16.2</ele></trkpt>
    <trkpt lat="48.355292" lon="-4.677790"><ele>16.4</ele></trkpt>
    <trkpt lat="48.355339" lon="-4.677995"><ele>16.0</ele></trkpt>
    <trkpt lat="48.355429" lon="-4.678154"><ele>15.2</ele></trkpt>
    <trkpt lat="48.355664" lon="-4.678321"><ele>12.4</ele></trkpt>
    <trkpt lat="48.355970" lon="-4.678859"><ele>7.8</ele></trkpt>
    <trkpt lat="48.356163" lon="-4.678908"><ele>7.8</ele></trkpt>
    <trkpt lat="48.356228" lon="-4.678972"><ele>7.8</ele></trkpt>
    <trkpt lat="48.356263" lon="-4.679071"><ele>8.0</ele></trkpt>
    <trkpt lat="48.356288" lon="-4.679506"><ele>8.4</ele></trkpt>
    <trkpt lat="48.356254" lon="-4.679910"><ele>7.6</ele></trkpt>
    <trkpt lat="48.356057" lon="-4.680320"><ele>8.4</ele></trkpt>
    <trkpt lat="48.356021" lon="-4.680809"><ele>12.2</ele></trkpt>
    <trkpt lat="48.355791" lon="-4.681131"><ele>16.2</ele></trkpt>
    <trkpt lat="48.355619" lon="-4.681268"><ele>17.0</ele></trkpt>
    <trkpt lat="48.355532" lon="-4.681444"><ele>17.4</ele></trkpt>
    <trkpt lat="48.355373" lon="-4.681614"><ele>17.8</ele></trkpt>
    <trkpt lat="48.355321" lon="-4.681744"><ele>18.6</ele></trkpt>
    <trkpt lat="48.355288" lon="-4.682039"><ele>21.2</ele></trkpt>
    <trkpt lat="48.355043" lon="-4.682321"><ele>22.8</ele></trkpt>
    <trkpt lat="48.354934" lon="-4.682346"><ele>22.0</ele></trkpt>
    <trkpt lat="48.354741" lon="-4.682172"><ele>19.0</ele></trkpt>
    <trkpt lat="48.354657" lon="-4.682160"><ele>18.2</ele></trkpt>
    <trkpt lat="48.354393" lon="-4.682499"><ele>18.6</ele></trkpt>
    <trkpt lat="48.354360" lon="-4.682811"><ele>19.4</ele></trkpt>
    <trkpt lat="48.354287" lon="-4.682902"><ele>18.8</ele></trkpt>
    <trkpt lat="48.354090" lon="-4.683023"><ele>15.8</ele></trkpt>
    <trkpt lat="48.354000" lon="-4.683159"><ele>14.8</ele></trkpt>
    <trkpt lat="48.353891" lon="-4.683656"><ele>16.0</ele></trkpt>
    <trkpt lat="48.353925" lon="-4.684082"><ele>18.0</ele></trkpt>
    <trkpt lat="48.353846" lon="-4.684235"><ele>17.8</ele></trkpt>
    <trkpt lat="48.353734" lon="-4.684322"><ele>17.4</ele></trkpt>
    <trkpt lat="48.353599" lon="-4.684698"><ele>18.4</ele></trkpt>
    <trkpt lat="48.353703" lon="-4.685071"><ele>21.4</ele></trkpt>
    <trkpt lat="48.353782" lon="-4.685175"><ele>22.8</ele></trkpt>
    <trkpt lat="48.354026" lon="-4.685278"><ele>25.8</ele></trkpt>
    <trkpt lat="48.354450" lon="-4.685214"><ele>29.8</ele></trkpt>
    <trkpt lat="48.354606" lon="-4.685304"><ele>31.2</ele></trkpt>
    <trkpt lat="48.354538" lon="-4.687245"><ele>24.4</ele></trkpt>
    <trkpt lat="48.354770" lon="-4.688222"><ele>19.0</ele></trkpt>
    <trkpt lat="48.354752" lon="-4.688837"><ele>16.4</ele></trkpt>
    <trkpt lat="48.354838" lon="-4.689294"><ele>14.6</ele></trkpt>
    <trkpt lat="48.354818" lon="-4.689391"><ele>14.2</ele></trkpt>
    <trkpt lat="48.354635" lon="-4.689671"><ele>11.2</ele></trkpt>
    <trkpt lat="48.354612" lon="-4.689813"><ele>10.0</ele></trkpt>
    <trkpt lat="48.354664" lon="-4.690056"><ele>8.8</ele></trkpt>
    <trkpt lat="48.354851" lon="-4.690390"><ele>7.6</ele></trkpt>
    <trkpt lat="48.354877" lon="-4.690729"><ele>7.6</ele></trkpt>
    <trkpt lat="48.354857" lon="-4.691104"><ele>9.6</ele></trkpt>
    <trkpt lat="48.354883" lon="-4.691175"><ele>10.6</ele></trkpt>
    <trkpt lat="48.354918" lon="-4.691158"><ele>12.0</ele></trkpt>
    <trkpt lat="48.354539" lon="-4.691569"><ele>16.4</ele></trkpt>
    <trkpt lat="48.354507" lon="-4.691790"><ele>17.4</ele></trkpt>
    <trkpt lat="48.354389" lon="-4.691972"><ele>17.4</ele></trkpt>
    <trkpt lat="48.354111" lon="-4.692114"><ele>15.4</ele></trkpt>
    <trkpt lat="48.353919" lon="-4.692271"><ele>15.4</ele></trkpt>
    <trkpt lat="48.353746" lon="-4.692624"><ele>16.4</ele></trkpt>
    <trkpt lat="48.353649" lon="-4.692944"><ele>17.2</ele></trkpt>
    <trkpt lat="48.353585" lon="-4.693357"><ele>17.2</ele></trkpt>
    <trkpt lat="48.353625" lon="-4.694266"><ele>15.4</ele></trkpt>
    <trkpt lat="48.353599" lon="-4.694629"><ele>14.8</ele></trkpt>
    <trkpt lat="48.353557" lon="-4.694803"><ele>14.6</ele></trkpt>
    <trkpt lat="48.353486" lon="-4.694932"><ele>14.2</ele></trkpt>
    <trkpt lat="48.353332" lon="-4.695049"><ele>12.4</ele></trkpt>
    <trkpt lat="48.353133" lon="-4.695316"><ele>7.2</ele></trkpt>
    <trkpt lat="48.352987" lon="-4.695337"><ele>4.6</ele></trkpt>
    <trkpt lat="48.352837" lon="-4.695419"><ele>3.0</ele></trkpt>
    <trkpt lat="48.352431" lon="-4.695946"><ele>1.8</ele></trkpt>
    <trkpt lat="48.352348" lon="-4.696199"><ele>2.4</ele></trkpt>
    <trkpt lat="48.352200" lon="-4.696320"><ele>2.6</ele></trkpt>
    <trkpt lat="48.352142" lon="-4.696558"><ele>2.0</ele></trkpt>
    <trkpt lat="48.351898" lon="-4.696673"><ele>1.4</ele></trkpt>
    <trkpt lat="48.351279" lon="-4.698123"><ele>2.0</ele></trkpt>
    <trkpt lat="48.350450" lon="-4.699789"><ele>2.2</ele></trkpt>
    <trkpt lat="48.350154" lon="-4.700325"><ele>2.4</ele></trkpt>
    <trkpt lat="48.349803" lon="-4.700851"><ele>2.8</ele></trkpt>
    <trkpt lat="48.348982" lon="-4.701494"><ele>1.6</ele></trkpt>
    <trkpt lat="48.347397" lon="-4.702416"><ele>1.6</ele></trkpt>
    <trkpt lat="48.346773" lon="-4.702641"><ele>1.4</ele></trkpt>
    <trkpt lat="48.345990" lon="-4.702721"><ele>1.6</ele></trkpt>
    <trkpt lat="48.345517" lon="-4.702844"><ele>2.2</ele></trkpt>
    <trkpt lat="48.345691" lon="-4.702859"><ele>2.2</ele></trkpt>
    <trkpt lat="48.346474" lon="-4.702689"><ele>2.4</ele></trkpt>
    <trkpt lat="48.346931" lon="-4.702545"><ele>2.2</ele></trkpt>
    <trkpt lat="48.347472" lon="-4.702310"><ele>2.4</ele></trkpt>
    <trkpt lat="48.348008" lon="-4.701964"><ele>2.4</ele></trkpt>
    <trkpt lat="48.348879" lon="-4.701559"><ele>2.6</ele></trkpt>
    <trkpt lat="48.349879" lon="-4.700828"><ele>3.0</ele></trkpt>
    <trkpt lat="48.350478" lon="-4.699885"><ele>3.0</ele></trkpt>
    <trkpt lat="48.350603" lon="-4.699615"><ele>2.8</ele></trkpt>
    <trkpt lat="48.351215" lon="-4.698544"><ele>1.4</ele></trkpt>
    <trkpt lat="48.351674" lon="-4.697353"><ele>1.8</ele></trkpt>
    <trkpt lat="48.351865" lon="-4.697056"><ele>1.6</ele></trkpt>
    <trkpt lat="48.351982" lon="-4.696690"><ele>1.2</ele></trkpt>
    <trkpt lat="48.352103" lon="-4.696548"><ele>1.0</ele></trkpt>
    <trkpt lat="48.352199" lon="-4.696142"><ele>1.0</ele></trkpt>
    <trkpt lat="48.352249" lon="-4.696050"><ele>1.2</ele></trkpt>
    <trkpt lat="48.352581" lon="-4.695766"><ele>1.8</ele></trkpt>
    <trkpt lat="48.353434" lon="-4.694876"><ele>11.4</ele></trkpt>
    <trkpt lat="48.353531" lon="-4.694719"><ele>12.6</ele></trkpt>
    <trkpt lat="48.353591" lon="-4.694506"><ele>14.2</ele></trkpt>
    <trkpt lat="48.353626" lon="-4.694127"><ele>16.2</ele></trkpt>
    <trkpt lat="48.353596" lon="-4.693319"><ele>18.2</ele></trkpt>
    <trkpt lat="48.353615" lon="-4.693017"><ele>17.6</ele></trkpt>
    <trkpt lat="48.353683" lon="-4.692673"><ele>16.0</ele></trkpt>
    <trkpt lat="48.353766" lon="-4.692454"><ele>14.6</ele></trkpt>
    <trkpt lat="48.353926" lon="-4.692181"><ele>13.4</ele></trkpt>
    <trkpt lat="48.354416" lon="-4.691939"><ele>16.8</ele></trkpt>
    <trkpt lat="48.354535" lon="-4.691715"><ele>16.0</ele></trkpt>
    <trkpt lat="48.354591" lon="-4.691532"><ele>14.4</ele></trkpt>
    <trkpt lat="48.354850" lon="-4.691271"><ele>11.2</ele></trkpt>
    <trkpt lat="48.354936" lon="-4.691135"><ele>10.6</ele></trkpt>
    <trkpt lat="48.354886" lon="-4.691064"><ele>10.0</ele></trkpt>
    <trkpt lat="48.354869" lon="-4.690388"><ele>7.6</ele></trkpt>
    <trkpt lat="48.354682" lon="-4.690028"><ele>9.4</ele></trkpt>
    <trkpt lat="48.354624" lon="-4.689768"><ele>10.8</ele></trkpt>
    <trkpt lat="48.354661" lon="-4.689568"><ele>11.6</ele></trkpt>
    <trkpt lat="48.354818" lon="-4.689377"><ele>13.2</ele></trkpt>
    <trkpt lat="48.354866" lon="-4.689241"><ele>14.4</ele></trkpt>
    <trkpt lat="48.354749" lon="-4.688821"><ele>17.0</ele></trkpt>
    <trkpt lat="48.354794" lon="-4.688165"><ele>20.2</ele></trkpt>
    <trkpt lat="48.354591" lon="-4.687458"><ele>22.4</ele></trkpt>
    <trkpt lat="48.354557" lon="-4.687233"><ele>24.4</ele></trkpt>
    <trkpt lat="48.354597" lon="-4.686882"><ele>28.4</ele></trkpt>
    <trkpt lat="48.354628" lon="-4.685900"><ele>31.0</ele></trkpt>
    <trkpt lat="48.354614" lon="-4.685299"><ele>31.2</ele></trkpt>
    <trkpt lat="48.354560" lon="-4.684935"><ele>29.8</ele></trkpt>
    <trkpt lat="48.354595" lon="-4.684042"><ele>28.8</ele></trkpt>
    <trkpt lat="48.354602" lon="-4.682577"><ele>24.8</ele></trkpt>
    <trkpt lat="48.354658" lon="-4.682383"><ele>22.4</ele></trkpt>
    <trkpt lat="48.354754" lon="-4.682265"><ele>21.4</ele></trkpt>
    <trkpt lat="48.354829" lon="-4.682242"><ele>21.0</ele></trkpt>
    <trkpt lat="48.354985" lon="-4.682318"><ele>20.8</ele></trkpt>
    <trkpt lat="48.355057" lon="-4.682310"><ele>20.8</ele></trkpt>
    <trkpt lat="48.355314" lon="-4.682016"><ele>20.6</ele></trkpt>
    <trkpt lat="48.355359" lon="-4.681730"><ele>19.2</ele></trkpt>
    <trkpt lat="48.355437" lon="-4.681538"><ele>17.6</ele></trkpt>
    <trkpt lat="48.355793" lon="-4.681163"><ele>14.6</ele></trkpt>
    <trkpt lat="48.356047" lon="-4.680797"><ele>12.0</ele></trkpt>
    <trkpt lat="48.356077" lon="-4.680713"><ele>11.4</ele></trkpt>
    <trkpt lat="48.356055" lon="-4.680555"><ele>10.4</ele></trkpt>
    <trkpt lat="48.356100" lon="-4.680269"><ele>8.6</ele></trkpt>
    <trkpt lat="48.356240" lon="-4.679983"><ele>7.2</ele></trkpt>
    <trkpt lat="48.355151" lon="-4.677361"><ele>14.8</ele></trkpt>
    <trkpt lat="48.355121" lon="-4.676824"><ele>15.2</ele></trkpt>
    <trkpt lat="48.355044" lon="-4.676508"><ele>15.4</ele></trkpt>
    <trkpt lat="48.354864" lon="-4.676060"><ele>14.4</ele></trkpt>
    <trkpt lat="48.354801" lon="-4.675336"><ele>11.2</ele></trkpt>
    <trkpt lat="48.354699" lon="-4.674789"><ele>9.0</ele></trkpt>
    <trkpt lat="48.354618" lon="-4.673493"><ele>9.4</ele></trkpt>
    <trkpt lat="48.354454" lon="-4.672887"><ele>10.8</ele></trkpt>
    <trkpt lat="48.353366" lon="-4.670663"><ele>15.2</ele></trkpt>
    <trkpt lat="48.353200" lon="-4.670177"><ele>15.8</ele></trkpt>
    <trkpt lat="48.353108" lon="-4.669709"><ele>16.0</ele></trkpt>
    <trkpt lat="48.353048" lon="-4.668973"><ele>16.8</ele></trkpt>
    <trkpt lat="48.353160" lon="-4.666590"><ele>16.8</ele></trkpt>
    <trkpt lat="48.353283" lon="-4.665114"><ele>28.4</ele></trkpt>
    <trkpt lat="48.353430" lon="-4.664182"><ele>32.6</ele></trkpt>
    <trkpt lat="48.353542" lon="-4.663835"><ele>33.0</ele></trkpt>
    <trkpt lat="48.353617" lon="-4.663675"><ele>33.6</ele></trkpt>
    <trkpt lat="48.353786" lon="-4.663497"><ele>34.8</ele></trkpt>
    <trkpt lat="48.354328" lon="-4.661898"><ele>40.8</ele></trkpt>
    <trkpt lat="48.354718" lon="-4.660967"><ele>43.0</ele></trkpt>
    <trkpt lat="48.355055" lon="-4.660457"><ele>45.0</ele></trkpt>
    <trkpt lat="48.355889" lon="-4.659544"><ele>48.2</ele></trkpt>
    <trkpt lat="48.356295" lon="-4.658938"><ele>51.0</ele></trkpt>
    <trkpt lat="48.356572" lon="-4.658081"><ele>55.0</ele></trkpt>
    <trkpt lat="48.356708" lon="-4.656943"><ele>62.2</ele></trkpt>
    <trkpt lat="48.357527" lon="-4.656471"><ele>67.0</ele></trkpt>
    <trkpt lat="48.357812" lon="-4.656375"><ele>66.6</ele></trkpt>
    <trkpt lat="48.359096" lon="-4.655606"><ele>70.6</ele></trkpt>
    <trkpt lat="48.359605" lon="-4.655252"><ele>73.2</ele></trkpt>
    <trkpt lat="48.359688" lon="-4.655287"><ele>73.0</ele></trkpt>
    <trkpt lat="48.359849" lon="-4.655727"><ele>71.4</ele></trkpt>
    <trkpt lat="48.359970" lon="-4.655850"><ele>70.8</ele></trkpt>
    <trkpt lat="48.360352" lon="-4.655738"><ele>70.2</ele></trkpt>
    <trkpt lat="48.360586" lon="-4.655886"><ele>70.6</ele></trkpt>
    <trkpt lat="48.360680" lon="-4.655902"><ele>71.0</ele></trkpt>
    <trkpt lat="48.360926" lon="-4.655615"><ele>72.0</ele></trkpt>
    <trkpt lat="48.361248" lon="-4.654844"><ele>73.2</ele></trkpt>
    <trkpt lat="48.361396" lon="-4.654239"><ele>74.8</ele></trkpt>
    <trkpt lat="48.361639" lon="-4.653694"><ele>75.0</ele></trkpt>
    <trkpt lat="48.361838" lon="-4.653335"><ele>75.8</ele></trkpt>
    <trkpt lat="48.361918" lon="-4.653040"><ele>76.2</ele></trkpt>
    <trkpt lat="48.362193" lon="-4.652712"><ele>75.6</ele></trkpt>
    <trkpt lat="48.362475" lon="-4.652148"><ele>75.8</ele></trkpt>
    <trkpt lat="48.362645" lon="-4.651307"><ele>75.8</ele></trkpt>
    <trkpt lat="48.362801" lon="-4.650744"><ele>75.6</ele></trkpt>
    <trkpt lat="48.363245" lon="-4.649396"><ele>74.8</ele></trkpt>
    <trkpt lat="48.363481" lon="-4.648904"><ele>72.4</ele></trkpt>
    <trkpt lat="48.363761" lon="-4.648179"><ele>71.8</ele></trkpt>
    <trkpt lat="48.363978" lon="-4.647327"><ele>72.2</ele></trkpt>
    <trkpt lat="48.364585" lon="-4.645735"><ele>70.0</ele></trkpt>
    <trkpt lat="48.364938" lon="-4.644582"><ele>68.8</ele></trkpt>
    <trkpt lat="48.365121" lon="-4.644168"><ele>68.4</ele></trkpt>
    <trkpt lat="48.365351" lon="-4.643821"><ele>68.8</ele></trkpt>
    <trkpt lat="48.365575" lon="-4.643307"><ele>68.2</ele></trkpt>
    <trkpt lat="48.365671" lon="-4.642856"><ele>68.0</ele></trkpt>
    <trkpt lat="48.365707" lon="-4.642438"><ele>67.8</ele></trkpt>
    <trkpt lat="48.365775" lon="-4.642098"><ele>67.2</ele></trkpt>
    <trkpt lat="48.365834" lon="-4.642062"><ele>67.0</ele></trkpt>
    <trkpt lat="48.365930" lon="-4.642094"><ele>67.0</ele></trkpt>
    <trkpt lat="48.366190" lon="-4.642334"><ele>67.4</ele></trkpt>
    <trkpt lat="48.366386" lon="-4.642289"><ele>68.0</ele></trkpt>
    <trkpt lat="48.366668" lon="-4.642353"><ele>68.6</ele></trkpt>
    <trkpt lat="48.367157" lon="-4.642559"><ele>69.4</ele></trkpt>
    <trkpt lat="48.367624" lon="-4.642674"><ele>69.0</ele></trkpt>
    <trkpt lat="48.368128" lon="-4.642900"><ele>68.4</ele></trkpt>
    <trkpt lat="48.369404" lon="-4.642956"><ele>61.4</ele></trkpt>
    <trkpt lat="48.369677" lon="-4.642736"><ele>61.2</ele></trkpt>
    <trkpt lat="48.369797" lon="-4.642053"><ele>60.6</ele></trkpt>
    <trkpt lat="48.370142" lon="-4.640790"><ele>61.0</ele></trkpt>
  </trkseg></trk>
</gpx>
