<?xml version="1.0" encoding="UTF-8"?>
<gpx version="1.1" creator="tcap-parcours" xmlns="http://www.topografix.com/GPX/1/1">
  <metadata><name>trez-hir-interieur-2</name></metadata>
  <trk><name>trez-hir-interieur-2</name><trkseg>
    <trkpt lat="48.370196" lon="-4.640507"><ele>63.8</ele></trkpt>
    <trkpt lat="48.370089" lon="-4.641081"><ele>62.2</ele></trkpt>
    <trkpt lat="48.369785" lon="-4.642003"><ele>62.2</ele></trkpt>
    <trkpt lat="48.369655" lon="-4.642862"><ele>62.8</ele></trkpt>
    <trkpt lat="48.369641" lon="-4.643445"><ele>61.8</ele></trkpt>
    <trkpt lat="48.369601" lon="-4.643783"><ele>61.0</ele></trkpt>
    <trkpt lat="48.369508" lon="-4.644219"><ele>60.4</ele></trkpt>
    <trkpt lat="48.369338" lon="-4.644740"><ele>60.2</ele></trkpt>
    <trkpt lat="48.369266" lon="-4.645123"><ele>60.0</ele></trkpt>
    <trkpt lat="48.369299" lon="-4.645578"><ele>60.0</ele></trkpt>
    <trkpt lat="48.369212" lon="-4.646195"><ele>60.6</ele></trkpt>
    <trkpt lat="48.369089" lon="-4.646595"><ele>61.0</ele></trkpt>
    <trkpt lat="48.369072" lon="-4.647075"><ele>62.2</ele></trkpt>
    <trkpt lat="48.368884" lon="-4.647452"><ele>63.4</ele></trkpt>
    <trkpt lat="48.368672" lon="-4.647594"><ele>64.8</ele></trkpt>
    <trkpt lat="48.368586" lon="-4.647732"><ele>65.4</ele></trkpt>
    <trkpt lat="48.368599" lon="-4.647877"><ele>65.8</ele></trkpt>
    <trkpt lat="48.368694" lon="-4.648118"><ele>66.2</ele></trkpt>
    <trkpt lat="48.368852" lon="-4.648700"><ele>66.2</ele></trkpt>
    <trkpt lat="48.368884" lon="-4.648933"><ele>66.4</ele></trkpt>
    <trkpt lat="48.368893" lon="-4.649410"><ele>66.8</ele></trkpt>
    <trkpt lat="48.368796" lon="-4.650211"><ele>68.4</ele></trkpt>
    <trkpt lat="48.368727" lon="-4.650403"><ele>68.8</ele></trkpt>
    <trkpt lat="48.368601" lon="-4.650610"><ele>69.2</ele></trkpt>
    <trkpt lat="48.367801" lon="-4.651588"><ele>71.4</ele></trkpt>
    <trkpt lat="48.367663" lon="-4.651869"><ele>71.8</ele></trkpt>
    <trkpt lat="48.367461" lon="-4.652624"><ele>72.2</ele></trkpt>
    <trkpt lat="48.367374" lon="-4.652852"><ele>72.2</ele></trkpt>
    <trkpt lat="48.367276" lon="-4.652918"><ele>72.2</ele></trkpt>
    <trkpt lat="48.367081" lon="-4.652923"><ele>72.6</ele></trkpt>
    <trkpt lat="48.366952" lon="-4.652977"><ele>73.0</ele></trkpt>
    <trkpt lat="48.366677" lon="-4.653330"><ele>73.4</ele></trkpt>
    <trkpt lat="48.366596" lon="-4.653388"><ele>73.4</ele></trkpt>
    <trkpt lat="48.366051" lon="-4.653365"><ele>74.0</ele></trkpt>
    <trkpt lat="48.365898" lon="-4.653407"><ele>74.2</ele></trkpt>
    <trkpt lat="48.365772" lon="-4.653519"><ele>74.4</ele></trkpt>
    <trkpt lat="48.365613" lon="-4.653778"><ele>74.6</ele></trkpt>
    <trkpt lat="48.365421" lon="-4.653943"><ele>74.8</ele></trkpt>
    <trkpt lat="48.364022" lon="-4.654825"><ele>76.4</ele></trkpt>
    <trkpt lat="48.363401" lon="-4.654935"><ele>76.8</ele></trkpt>
    <trkpt lat="48.362794" lon="-4.655167"><ele>76.6</ele></trkpt>
    <trkpt lat="48.362713" lon="-4.655296"><ele>76.4</ele></trkpt>
    <trkpt lat="48.362545" lon="-4.656099"><ele>75.6</ele></trkpt>
    <trkpt lat="48.362428" lon="-4.656306"><ele>75.6</ele></trkpt>
    <trkpt lat="48.362295" lon="-4.656364"><ele>75.6</ele></trkpt>
    <trkpt lat="48.361842" lon="-4.656343"><ele>74.6</ele></trkpt>
    <trkpt lat="48.361606" lon="-4.656382"><ele>74.2</ele></trkpt>
    <trkpt lat="48.361078" lon="-4.656606"><ele>73.2</ele></trkpt>
    <trkpt lat="48.360555" lon="-4.657060"><ele>71.6</ele></trkpt>
    <trkpt lat="48.360519" lon="-4.657156"><ele>71.4</ele></trkpt>
    <trkpt lat="48.360507" lon="-4.657346"><ele>71.2</ele></trkpt>
    <trkpt lat="48.360624" lon="-4.657957"><ele>72.0</ele></trkpt>
    <trkpt lat="48.360895" lon="-4.658397"><ele>72.4</ele></trkpt>
    <trkpt lat="48.361201" lon="-4.659061"><ele>72.4</ele></trkpt>
    <trkpt lat="48.361563" lon="-4.660084"><ele>72.0</ele></trkpt>
    <trkpt lat="48.361655" lon="-4.660237"><ele>71.4</ele></trkpt>
    <trkpt lat="48.361698" lon="-4.660705"><ele>69.8</ele></trkpt>
    <trkpt lat="48.361856" lon="-4.661658"><ele>65.8</ele></trkpt>
    <trkpt lat="48.362016" lon="-4.662183"><ele>60.8</ele></trkpt>
    <trkpt lat="48.362153" lon="-4.662409"><ele>56.4</ele></trkpt>
    <trkpt lat="48.362255" lon="-4.662686"><ele>54.4</ele></trkpt>
    <trkpt lat="48.362273" lon="-4.662977"><ele>54.6</ele></trkpt>
    <trkpt lat="48.362367" lon="-4.663295"><ele>57.8</ele></trkpt>
    <trkpt lat="48.362434" lon="-4.663703"><ele>59.2</ele></trkpt>
    <trkpt lat="48.362411" lon="-4.664568"><ele>57.6</ele></trkpt>
    <trkpt lat="48.362493" lon="-4.665480"><ele>55.6</ele></trkpt>
    <trkpt lat="48.362565" lon="-4.665897"><ele>56.0</ele></trkpt>
    <trkpt lat="48.362654" lon="-4.665942"><ele>56.0</ele></trkpt>
    <trkpt lat="48.362924" lon="-4.665791"><ele>56.6</ele></trkpt>
    <trkpt lat="48.363701" lon="-4.665242"><ele>59.4</ele></trkpt>
    <trkpt lat="48.363814" lon="-4.665125"><ele>59.8</ele></trkpt>
    <trkpt lat="48.363957" lon="-4.664868"><ele>60.6</ele></trkpt>
    <trkpt lat="48.364026" lon="-4.664818"><ele>60.8</ele></trkpt>
    <trkpt lat="48.364108" lon="-4.664854"><ele>61.6</ele></trkpt>
    <trkpt lat="48.364172" lon="-4.665051"><ele>63.4</ele></trkpt>
    <trkpt lat="48.364333" lon="-4.665219"><ele>63.8</ele></trkpt>
    <trkpt lat="48.365195" lon="-4.665534"><ele>69.2</ele></trkpt>
    <trkpt lat="48.365624" lon="-4.665636"><ele>73.0</ele></trkpt>
    <trkpt lat="48.365670" lon="-4.665680"><ele>73.4</ele></trkpt>
    <trkpt lat="48.365416" lon="-4.666738"><ele>72.0</ele></trkpt>
    <trkpt lat="48.365377" lon="-4.667163"><ele>71.4</ele></trkpt>
    <trkpt lat="48.365389" lon="-4.667650"><ele>69.8</ele></trkpt>
    <trkpt lat="48.365330" lon="-4.668464"><ele>67.0</ele></trkpt>
    <trkpt lat="48.365356" lon="-4.668971"><ele>65.2</ele></trkpt>
    <trkpt lat="48.365342" lon="-4.669653"><ele>62.8</ele></trkpt>
    <trkpt lat="48.365375" lon="-4.669753"><ele>62.2</ele></trkpt>
    <trkpt lat="48.366126" lon="-4.670536"><ele>54.0</ele></trkpt>
    <trkpt lat="48.366258" lon="-4.670630"><ele>52.4</ele></trkpt>
    <trkpt lat="48.365325" lon="-4.669742"><ele>62.2</ele></trkpt>
    <trkpt lat="48.365325" lon="-4.670228"><ele>48.4</ele></trkpt>
    <trkpt lat="48.365217" lon="-4.670553"><ele>47.7</ele></trkpt>
    <trkpt lat="48.365217" lon="-4.671364"><ele>46.2</ele></trkpt>
    <trkpt lat="48.365002" lon="-4.671689"><ele>45.4</ele></trkpt>
    <trkpt lat="48.364786" lon="-4.671689"><ele>44.8</ele></trkpt>
    <trkpt lat="48.364786" lon="-4.671527"><ele>44.5</ele></trkpt>
    <trkpt lat="48.364678" lon="-4.671527"><ele>44.1</ele></trkpt>
    <trkpt lat="48.364463" lon="-4.671202"><ele>43.3</ele></trkpt>
    <trkpt lat="48.364139" lon="-4.671040"><ele>42.3</ele></trkpt>
    <trkpt lat="48.364032" lon="-4.670878"><ele>41.9</ele></trkpt>
    <trkpt lat="48.363600" lon="-4.670878"><ele>40.7</ele></trkpt>
    <trkpt lat="48.363493" lon="-4.671040"><ele>40.3</ele></trkpt>
    <trkpt lat="48.362846" lon="-4.672987"><ele>36.2</ele></trkpt>
    <trkpt lat="48.362630" lon="-4.673312"><ele>35.4</ele></trkpt>
    <trkpt lat="48.362415" lon="-4.673474"><ele>34.7</ele></trkpt>
    <trkpt lat="48.362199" lon="-4.673798"><ele>33.9</ele></trkpt>
    <trkpt lat="48.361876" lon="-4.674123"><ele>32.8</ele></trkpt>
    <trkpt lat="48.361444" lon="-4.674447"><ele>31.4</ele></trkpt>
    <trkpt lat="48.361337" lon="-4.674447"><ele>31.1</ele></trkpt>
    <trkpt lat="48.361121" lon="-4.674772"><ele>30.3</ele></trkpt>
    <trkpt lat="48.360798" lon="-4.674934"><ele>29.3</ele></trkpt>
    <trkpt lat="48.360582" lon="-4.675259"><ele>28.5</ele></trkpt>
    <trkpt lat="48.360582" lon="-4.675421"><ele>28.2</ele></trkpt>
    <trkpt lat="48.360474" lon="-4.675583"><ele>27.7</ele></trkpt>
    <trkpt lat="48.360474" lon="-4.675908"><ele>27.1</ele></trkpt>
    <trkpt lat="48.360582" lon="-4.676070"><ele>26.7</ele></trkpt>
    <trkpt lat="48.360474" lon="-4.676232"><ele>26.3</ele></trkpt>
    <trkpt lat="48.359935" lon="-4.676232"><ele>24.8</ele></trkpt>
    <trkpt lat="48.359935" lon="-4.676395"><ele>24.5</ele></trkpt>
    <trkpt lat="48.359720" lon="-4.676557"><ele>23.8</ele></trkpt>
    <trkpt lat="48.359504" lon="-4.676881"><ele>22.9</ele></trkpt>
    <trkpt lat="48.359289" lon="-4.677044"><ele>22.3</ele></trkpt>
    <trkpt lat="48.358857" lon="-4.677044"><ele>21.1</ele></trkpt>
    <trkpt lat="48.358750" lon="-4.677206"><ele>20.6</ele></trkpt>
    <trkpt lat="48.358642" lon="-4.677044"><ele>20.2</ele></trkpt>
    <trkpt lat="48.358534" lon="-4.677044"><ele>19.9</ele></trkpt>
    <trkpt lat="48.358534" lon="-4.677206"><ele>19.6</ele></trkpt>
    <trkpt lat="48.358103" lon="-4.677530"><ele>18.3</ele></trkpt>
    <trkpt lat="48.357672" lon="-4.678017"><ele>16.7</ele></trkpt>
    <trkpt lat="48.357564" lon="-4.678017"><ele>16.4</ele></trkpt>
    <trkpt lat="48.357456" lon="-4.678180"><ele>16.0</ele></trkpt>
    <trkpt lat="48.356378" lon="-4.678180"><ele>13.0</ele></trkpt>
    <trkpt lat="48.356270" lon="-4.678342"><ele>12.6</ele></trkpt>
    <trkpt lat="48.356055" lon="-4.678504"><ele>11.9</ele></trkpt>
    <trkpt lat="48.355839" lon="-4.678504"><ele>10.8</ele></trkpt>
    <trkpt lat="48.355839" lon="-4.678666"><ele>11.0</ele></trkpt>
    <trkpt lat="48.355763" lon="-4.678412"><ele>10.4</ele></trkpt>
    <trkpt lat="48.355458" lon="-4.678172"><ele>14.2</ele></trkpt>
    <trkpt lat="48.355320" lon="-4.677929"><ele>16.6</ele></trkpt>
    <trkpt lat="48.355185" lon="-4.677572"><ele>18.6</ele></trkpt>
    <trkpt lat="48.355153" lon="-4.677364"><ele>19.2</ele></trkpt>
    <trkpt lat="48.355149" lon="-4.676900"><ele>19.2</ele></trkpt>
    <trkpt lat="48.355045" lon="-4.676483"><ele>17.4</ele></trkpt>
    <trkpt lat="48.354890" lon="-4.676102"><ele>14.8</ele></trkpt>
    <trkpt lat="48.354733" lon="-4.674881"><ele>9.8</ele></trkpt>
    <trkpt lat="48.354642" lon="-4.673533"><ele>9.4</ele></trkpt>
    <trkpt lat="48.354483" lon="-4.672938"><ele>10.8</ele></trkpt>
    <trkpt lat="48.354269" lon="-4.672458"><ele>12.0</ele></trkpt>
    <trkpt lat="48.353900" lon="-4.672231"><ele>12.6</ele></trkpt>
    <trkpt lat="48.353708" lon="-4.671940"><ele>12.4</ele></trkpt>
    <trkpt lat="48.353532" lon="-4.671417"><ele>13.2</ele></trkpt>
    <trkpt lat="48.353503" lon="-4.670989"><ele>15.2</ele></trkpt>
    <trkpt lat="48.353319" lon="-4.670666"><ele>15.8</ele></trkpt>
    <trkpt lat="48.352943" lon="-4.669832"><ele>13.8</ele></trkpt>
    <trkpt lat="48.352749" lon="-4.669075"><ele>13.4</ele></trkpt>
    <trkpt lat="48.352751" lon="-4.668492"><ele>13.6</ele></trkpt>
    <trkpt lat="48.352792" lon="-4.668117"><ele>13.8</ele></trkpt>
    <trkpt lat="48.353052" lon="-4.667865"><ele>14.4</ele></trkpt>
    <trkpt lat="48.353140" lon="-4.667638"><ele>15.0</ele></trkpt>
    <trkpt lat="48.353202" lon="-4.666136"><ele>18.4</ele></trkpt>
    <trkpt lat="48.353341" lon="-4.664704"><ele>32.6</ele></trkpt>
    <trkpt lat="48.353463" lon="-4.664147"><ele>34.8</ele></trkpt>
    <trkpt lat="48.353953" lon="-4.662757"><ele>34.8</ele></trkpt>
    <trkpt lat="48.353740" lon="-4.662666"><ele>39.6</ele></trkpt>
    <trkpt lat="48.353264" lon="-4.662743"><ele>37.6</ele></trkpt>
    <trkpt lat="48.352524" lon="-4.662772"><ele>31.4</ele></trkpt>
    <trkpt lat="48.351768" lon="-4.662641"><ele>29.6</ele></trkpt>
    <trkpt lat="48.351681" lon="-4.662573"><ele>29.2</ele></trkpt>
    <trkpt lat="48.351542" lon="-4.662269"><ele>29.2</ele></trkpt>
    <trkpt lat="48.351281" lon="-4.661950"><ele>28.0</ele></trkpt>
    <trkpt lat="48.351110" lon="-4.661483"><ele>28.2</ele></trkpt>
    <trkpt lat="48.350953" lon="-4.661489"><ele>26.4</ele></trkpt>
    <trkpt lat="48.350940" lon="-4.661388"><ele>25.2</ele></trkpt>
    <trkpt lat="48.350979" lon="-4.661019"><ele>24.6</ele></trkpt>
    <trkpt lat="48.351031" lon="-4.660792"><ele>24.4</ele></trkpt>
    <trkpt lat="48.350807" lon="-4.660386"><ele>21.8</ele></trkpt>
    <trkpt lat="48.350772" lon="-4.660062"><ele>21.2</ele></trkpt>
    <trkpt lat="48.350437" lon="-4.659503"><ele>19.4</ele></trkpt>
    <trkpt lat="48.350497" lon="-4.659152"><ele>20.6</ele></trkpt>
    <trkpt lat="48.350414" lon="-4.658851"><ele>22.6</ele></trkpt>
    <trkpt lat="48.350227" lon="-4.658426"><ele>24.2</ele></trkpt>
    <trkpt lat="48.349976" lon="-4.658125"><ele>25.8</ele></trkpt>
    <trkpt lat="48.349816" lon="-4.658013"><ele>27.2</ele></trkpt>
    <trkpt lat="48.349680" lon="-4.657738"><ele>27.4</ele></trkpt>
    <trkpt lat="48.349505" lon="-4.657570"><ele>28.2</ele></trkpt>
    <trkpt lat="48.349347" lon="-4.656711"><ele>37.2</ele></trkpt>
    <trkpt lat="48.349232" lon="-4.656477"><ele>38.2</ele></trkpt>
    <trkpt lat="48.348965" lon="-4.656351"><ele>38.0</ele></trkpt>
    <trkpt lat="48.348895" lon="-4.656201"><ele>36.6</ele></trkpt>
    <trkpt lat="48.348886" lon="-4.655805"><ele>34.4</ele></trkpt>
    <trkpt lat="48.348979" lon="-4.655476"><ele>33.8</ele></trkpt>
    <trkpt lat="48.348982" lon="-4.655213"><ele>32.0</ele></trkpt>
    <trkpt lat="48.348837" lon="-4.654851"><ele>28.8</ele></trkpt>
    <trkpt lat="48.348706" lon="-4.654728"><ele>32.0</ele></trkpt>
    <trkpt lat="48.348623" lon="-4.654560"><ele>34.6</ele></trkpt>
    <trkpt lat="48.348458" lon="-4.654014"><ele>35.0</ele></trkpt>
    <trkpt lat="48.348229" lon="-4.653630"><ele>43.4</ele></trkpt>
    <trkpt lat="48.348366" lon="-4.653430"><ele>43.0</ele></trkpt>
    <trkpt lat="48.348340" lon="-4.653185"><ele>44.2</ele></trkpt>
    <trkpt lat="48.348511" lon="-4.652885"><ele>46.2</ele></trkpt>
    <trkpt lat="48.348466" lon="-4.652738"><ele>47.4</ele></trkpt>
    <trkpt lat="48.348622" lon="-4.652224"><ele>48.8</ele></trkpt>
    <trkpt lat="48.349372" lon="-4.652296"><ele>47.8</ele></trkpt>
    <trkpt lat="48.349657" lon="-4.652562"><ele>47.6</ele></trkpt>
    <trkpt lat="48.349887" lon="-4.652887"><ele>46.2</ele></trkpt>
    <trkpt lat="48.349979" lon="-4.652956"><ele>46.2</ele></trkpt>
    <trkpt lat="48.350064" lon="-4.652950"><ele>46.4</ele></trkpt>
    <trkpt lat="48.350188" lon="-4.652817"><ele>47.0</ele></trkpt>
    <trkpt lat="48.350851" lon="-4.651758"><ele>52.0</ele></trkpt>
    <trkpt lat="48.351184" lon="-4.651321"><ele>54.2</ele></trkpt>
    <trkpt lat="48.351382" lon="-4.650882"><ele>55.4</ele></trkpt>
    <trkpt lat="48.351962" lon="-4.650290"><ele>58.8</ele></trkpt>
    <trkpt lat="48.352584" lon="-4.649841"><ele>62.8</ele></trkpt>
    <trkpt lat="48.352888" lon="-4.649423"><ele>65.2</ele></trkpt>
    <trkpt lat="48.353047" lon="-4.649036"><ele>67.0</ele></trkpt>
    <trkpt lat="48.353087" lon="-4.648830"><ele>67.6</ele></trkpt>
    <trkpt lat="48.353084" lon="-4.648423"><ele>68.6</ele></trkpt>
    <trkpt lat="48.353255" lon="-4.647920"><ele>69.6</ele></trkpt>
    <trkpt lat="48.353307" lon="-4.647543"><ele>70.4</ele></trkpt>
    <trkpt lat="48.353473" lon="-4.647100"><ele>71.8</ele></trkpt>
    <trkpt lat="48.353636" lon="-4.646467"><ele>73.2</ele></trkpt>
    <trkpt lat="48.353728" lon="-4.645831"><ele>70.2</ele></trkpt>
    <trkpt lat="48.353898" lon="-4.645740"><ele>76.6</ele></trkpt>
    <trkpt lat="48.354367" lon="-4.645929"><ele>75.0</ele></trkpt>
    <trkpt lat="48.354561" lon="-4.645933"><ele>75.2</ele></trkpt>
    <trkpt lat="48.354745" lon="-4.645873"><ele>75.2</ele></trkpt>
    <trkpt lat="48.355932" lon="-4.645223"><ele>79.0</ele></trkpt>
    <trkpt lat="48.356096" lon="-4.645068"><ele>79.6</ele></trkpt>
    <trkpt lat="48.356464" lon="-4.644605"><ele>80.2</ele></trkpt>
    <trkpt lat="48.356693" lon="-4.644436"><ele>80.4</ele></trkpt>
    <trkpt lat="48.356868" lon="-4.644427"><ele>80.4</ele></trkpt>
    <trkpt lat="48.357304" lon="-4.644626"><ele>79.8</ele></trkpt>
    <trkpt lat="48.357652" lon="-4.644608"><ele>79.4</ele></trkpt>
    <trkpt lat="48.358128" lon="-4.643760"><ele>77.8</ele></trkpt>
    <trkpt lat="48.358501" lon="-4.643351"><ele>76.0</ele></trkpt>
    <trkpt lat="48.358616" lon="-4.643290"><ele>75.4</ele></trkpt>
    <trkpt lat="48.358841" lon="-4.643368"><ele>74.2</ele></trkpt>
    <trkpt lat="48.358942" lon="-4.643360"><ele>73.8</ele></trkpt>
    <trkpt lat="48.359114" lon="-4.643160"><ele>73.8</ele></trkpt>
    <trkpt lat="48.359255" lon="-4.643066"><ele>73.4</ele></trkpt>
    <trkpt lat="48.359764" lon="-4.642912"><ele>72.2</ele></trkpt>
    <trkpt lat="48.360084" lon="-4.642717"><ele>71.6</ele></trkpt>
    <trkpt lat="48.360249" lon="-4.642585"><ele>71.8</ele></trkpt>
    <trkpt lat="48.360397" lon="-4.642404"><ele>71.8</ele></trkpt>
    <trkpt lat="48.360791" lon="-4.641821"><ele>72.0</ele></trkpt>
    <trkpt lat="48.361066" lon="-4.641608"><ele>72.2</ele></trkpt>
    <trkpt lat="48.361470" lon="-4.641468"><ele>72.4</ele></trkpt>
    <trkpt lat="48.362574" lon="-4.641256"><ele>70.8</ele></trkpt>
    <trkpt lat="48.364633" lon="-4.641466"><ele>67.2</ele></trkpt>
    <trkpt lat="48.364952" lon="-4.641561"><ele>67.0</ele></trkpt>
    <trkpt lat="48.365644" lon="-4.642054"><ele>68.0</ele></trkpt>
    <trkpt lat="48.365952" lon="-4.642131"><ele>68.4</ele></trkpt>
    <trkpt lat="48.366188" lon="-4.642359"><ele>68.8</ele></trkpt>
    <trkpt lat="48.366392" lon="-4.642293"><ele>69.2</ele></trkpt>
    <trkpt lat="48.366545" lon="-4.642324"><ele>69.4</ele></trkpt>
    <trkpt lat="48.368117" lon="-4.642893"><ele>69.2</ele></trkpt>
    <trkpt lat="48.369487" lon="-4.642975"><ele>59.2</ele></trkpt>
    <trkpt lat="48.369532" lon="-4.642968"><ele>58.0</ele></trkpt>
    <trkpt lat="48.369666" lon="-4.642617"><ele>62.2</ele></trkpt>
    <trkpt lat="48.369820" lon="-4.641889"><ele>59.2</ele></trkpt>
    <trkpt lat="48.370195" lon="-4.640630"><ele>58.8</ele></trkpt>
  </trkseg></trk>
</gpx>
