<?xml version="1.0" encoding="UTF-8"?>
<gpx version="1.1" creator="tcap-parcours" xmlns="http://www.topografix.com/GPX/1/1">
  <metadata><name>Trez-Hir par l'intérieur, retour par le GR34 – Boucle 17,6 km</name></metadata>
  <trk><name>Trez-Hir par l'intérieur, retour par le GR34 – Boucle 17,6 km</name><trkseg>
    <trkpt lat="48.370196" lon="-4.640507"><ele>63.8</ele></trkpt>
    <trkpt lat="48.370089" lon="-4.641081"><ele>62.2</ele></trkpt>
    <trkpt lat="48.369785" lon="-4.642003"><ele>62.2</ele></trkpt>
    <trkpt lat="48.369655" lon="-4.642862"><ele>62.8</ele></trkpt>
    <trkpt lat="48.369641" lon="-4.643445"><ele>61.8</ele></trkpt>
    <trkpt lat="48.369601" lon="-4.643783"><ele>61.0</ele></trkpt>
    <trkpt lat="48.369508" lon="-4.644219"><ele>60.4</ele></trkpt>
    <trkpt lat="48.369338" lon="-4.644740"><ele>60.2</ele></trkpt>
    <trkpt lat="48.369266" lon="-4.645123"><ele>60.0</ele></trkpt>
    <trkpt lat="48.369299" lon="-4.645578"><ele>60.0</ele></trkpt>
    <trkpt lat="48.369212" lon="-4.646195"><ele>60.6</ele></trkpt>
    <trkpt lat="48.369089" lon="-4.646595"><ele>61.0</ele></trkpt>
    <trkpt lat="48.369072" lon="-4.647075"><ele>62.2</ele></trkpt>
    <trkpt lat="48.368884" lon="-4.647452"><ele>63.4</ele></trkpt>
    <trkpt lat="48.368672" lon="-4.647594"><ele>64.8</ele></trkpt>
    <trkpt lat="48.368586" lon="-4.647732"><ele>65.4</ele></trkpt>
    <trkpt lat="48.368599" lon="-4.647877"><ele>65.8</ele></trkpt>
    <trkpt lat="48.368694" lon="-4.648118"><ele>66.2</ele></trkpt>
    <trkpt lat="48.368852" lon="-4.648700"><ele>66.2</ele></trkpt>
    <trkpt lat="48.368884" lon="-4.648933"><ele>66.4</ele></trkpt>
    <trkpt lat="48.368893" lon="-4.649410"><ele>66.8</ele></trkpt>
    <trkpt lat="48.368796" lon="-4.650211"><ele>68.4</ele></trkpt>
    <trkpt lat="48.368727" lon="-4.650403"><ele>68.8</ele></trkpt>
    <trkpt lat="48.368601" lon="-4.650610"><ele>69.2</ele></trkpt>
    <trkpt lat="48.367801" lon="-4.651588"><ele>71.4</ele></trkpt>
    <trkpt lat="48.367663" lon="-4.651869"><ele>71.8</ele></trkpt>
    <trkpt lat="48.367461" lon="-4.652624"><ele>72.2</ele></trkpt>
    <trkpt lat="48.367374" lon="-4.652852"><ele>72.2</ele></trkpt>
    <trkpt lat="48.367276" lon="-4.652918"><ele>72.2</ele></trkpt>
    <trkpt lat="48.367081" lon="-4.652923"><ele>72.6</ele></trkpt>
    <trkpt lat="48.366952" lon="-4.652977"><ele>73.0</ele></trkpt>
    <trkpt lat="48.366677" lon="-4.653330"><ele>73.4</ele></trkpt>
    <trkpt lat="48.366596" lon="-4.653388"><ele>73.4</ele></trkpt>
    <trkpt lat="48.366051" lon="-4.653365"><ele>74.0</ele></trkpt>
    <trkpt lat="48.365898" lon="-4.653407"><ele>74.2</ele></trkpt>
    <trkpt lat="48.365772" lon="-4.653519"><ele>74.4</ele></trkpt>
    <trkpt lat="48.365613" lon="-4.653778"><ele>74.6</ele></trkpt>
    <trkpt lat="48.365421" lon="-4.653943"><ele>74.8</ele></trkpt>
    <trkpt lat="48.364022" lon="-4.654825"><ele>76.4</ele></trkpt>
    <trkpt lat="48.363401" lon="-4.654935"><ele>76.8</ele></trkpt>
    <trkpt lat="48.362794" lon="-4.655167"><ele>76.6</ele></trkpt>
    <trkpt lat="48.362713" lon="-4.655296"><ele>76.4</ele></trkpt>
    <trkpt lat="48.362545" lon="-4.656099"><ele>75.6</ele></trkpt>
    <trkpt lat="48.362428" lon="-4.656306"><ele>75.6</ele></trkpt>
    <trkpt lat="48.362295" lon="-4.656364"><ele>75.6</ele></trkpt>
    <trkpt lat="48.361842" lon="-4.656343"><ele>74.6</ele></trkpt>
    <trkpt lat="48.361606" lon="-4.656382"><ele>74.2</ele></trkpt>
    <trkpt lat="48.361078" lon="-4.656606"><ele>73.2</ele></trkpt>
    <trkpt lat="48.360555" lon="-4.657060"><ele>71.6</ele></trkpt>
    <trkpt lat="48.360519" lon="-4.657156"><ele>71.4</ele></trkpt>
    <trkpt lat="48.360507" lon="-4.657346"><ele>71.2</ele></trkpt>
    <trkpt lat="48.360624" lon="-4.657957"><ele>72.0</ele></trkpt>
    <trkpt lat="48.360895" lon="-4.658397"><ele>72.4</ele></trkpt>
    <trkpt lat="48.361201" lon="-4.659061"><ele>72.4</ele></trkpt>
    <trkpt lat="48.361563" lon="-4.660084"><ele>72.0</ele></trkpt>
    <trkpt lat="48.361655" lon="-4.660237"><ele>71.4</ele></trkpt>
    <trkpt lat="48.361698" lon="-4.660705"><ele>69.8</ele></trkpt>
    <trkpt lat="48.361856" lon="-4.661658"><ele>65.8</ele></trkpt>
    <trkpt lat="48.362016" lon="-4.662183"><ele>60.8</ele></trkpt>
    <trkpt lat="48.362153" lon="-4.662409"><ele>56.4</ele></trkpt>
    <trkpt lat="48.362255" lon="-4.662686"><ele>54.4</ele></trkpt>
    <trkpt lat="48.362273" lon="-4.662977"><ele>54.6</ele></trkpt>
    <trkpt lat="48.362367" lon="-4.663295"><ele>57.8</ele></trkpt>
    <trkpt lat="48.362434" lon="-4.663703"><ele>59.2</ele></trkpt>
    <trkpt lat="48.362411" lon="-4.664568"><ele>57.6</ele></trkpt>
    <trkpt lat="48.362493" lon="-4.665480"><ele>55.6</ele></trkpt>
    <trkpt lat="48.362565" lon="-4.665897"><ele>56.0</ele></trkpt>
    <trkpt lat="48.362654" lon="-4.665942"><ele>56.0</ele></trkpt>
    <trkpt lat="48.362924" lon="-4.665791"><ele>56.6</ele></trkpt>
    <trkpt lat="48.363701" lon="-4.665242"><ele>59.4</ele></trkpt>
    <trkpt lat="48.363814" lon="-4.665125"><ele>59.8</ele></trkpt>
    <trkpt lat="48.363957" lon="-4.664868"><ele>60.6</ele></trkpt>
    <trkpt lat="48.364026" lon="-4.664818"><ele>60.8</ele></trkpt>
    <trkpt lat="48.364108" lon="-4.664854"><ele>61.6</ele></trkpt>
    <trkpt lat="48.364172" lon="-4.665051"><ele>63.4</ele></trkpt>
    <trkpt lat="48.364333" lon="-4.665219"><ele>63.8</ele></trkpt>
    <trkpt lat="48.365195" lon="-4.665534"><ele>69.2</ele></trkpt>
    <trkpt lat="48.365624" lon="-4.665636"><ele>73.0</ele></trkpt>
    <trkpt lat="48.365670" lon="-4.665680"><ele>73.4</ele></trkpt>
    <trkpt lat="48.365671" lon="-4.665744"><ele>73.6</ele></trkpt>
    <trkpt lat="48.365416" lon="-4.666738"><ele>72.0</ele></trkpt>
    <trkpt lat="48.365377" lon="-4.667163"><ele>71.4</ele></trkpt>
    <trkpt lat="48.365389" lon="-4.667650"><ele>69.8</ele></trkpt>
    <trkpt lat="48.365330" lon="-4.668464"><ele>67.0</ele></trkpt>
    <trkpt lat="48.365356" lon="-4.668971"><ele>65.2</ele></trkpt>
    <trkpt lat="48.365342" lon="-4.669653"><ele>62.8</ele></trkpt>
    <trkpt lat="48.365375" lon="-4.669753"><ele>62.2</ele></trkpt>
    <trkpt lat="48.366126" lon="-4.670536"><ele>54.0</ele></trkpt>
    <trkpt lat="48.366258" lon="-4.670630"><ele>52.4</ele></trkpt>
    <trkpt lat="48.366608" lon="-4.670564"><ele>47.6</ele></trkpt>
    <trkpt lat="48.366782" lon="-4.670427"><ele>46.0</ele></trkpt>
    <trkpt lat="48.367062" lon="-4.670089"><ele>42.0</ele></trkpt>
    <trkpt lat="48.367143" lon="-4.670058"><ele>40.6</ele></trkpt>
    <trkpt lat="48.367218" lon="-4.670091"><ele>39.4</ele></trkpt>
    <trkpt lat="48.367437" lon="-4.670405"><ele>34.8</ele></trkpt>
    <trkpt lat="48.367887" lon="-4.671230"><ele>36.4</ele></trkpt>
    <trkpt lat="48.368027" lon="-4.671867"><ele>40.6</ele></trkpt>
    <trkpt lat="48.370111" lon="-4.670032"><ele>47.2</ele></trkpt>
    <trkpt lat="48.370212" lon="-4.669975"><ele>47.6</ele></trkpt>
    <trkpt lat="48.370298" lon="-4.669990"><ele>48.0</ele></trkpt>
    <trkpt lat="48.371514" lon="-4.671156"><ele>56.2</ele></trkpt>
    <trkpt lat="48.371563" lon="-4.671274"><ele>56.6</ele></trkpt>
    <trkpt lat="48.371604" lon="-4.671631"><ele>58.2</ele></trkpt>
    <trkpt lat="48.371685" lon="-4.671793"><ele>59.4</ele></trkpt>
    <trkpt lat="48.372148" lon="-4.672096"><ele>64.4</ele></trkpt>
    <trkpt lat="48.372355" lon="-4.672857"><ele>69.0</ele></trkpt>
    <trkpt lat="48.372521" lon="-4.673930"><ele>68.4</ele></trkpt>
    <trkpt lat="48.372097" lon="-4.674274"><ele>68.0</ele></trkpt>
    <trkpt lat="48.371891" lon="-4.674346"><ele>66.8</ele></trkpt>
    <trkpt lat="48.371674" lon="-4.674365"><ele>65.8</ele></trkpt>
    <trkpt lat="48.371446" lon="-4.674468"><ele>64.8</ele></trkpt>
    <trkpt lat="48.371337" lon="-4.674573"><ele>64.4</ele></trkpt>
    <trkpt lat="48.371268" lon="-4.674758"><ele>64.0</ele></trkpt>
    <trkpt lat="48.371215" lon="-4.674818"><ele>63.8</ele></trkpt>
    <trkpt lat="48.371000" lon="-4.674870"><ele>63.4</ele></trkpt>
    <trkpt lat="48.370432" lon="-4.675145"><ele>61.6</ele></trkpt>
    <trkpt lat="48.370205" lon="-4.675203"><ele>60.8</ele></trkpt>
    <trkpt lat="48.369309" lon="-4.675773"><ele>52.8</ele></trkpt>
    <trkpt lat="48.368340" lon="-4.676204"><ele>44.2</ele></trkpt>
    <trkpt lat="48.368296" lon="-4.676280"><ele>43.4</ele></trkpt>
    <trkpt lat="48.368315" lon="-4.676542"><ele>41.6</ele></trkpt>
    <trkpt lat="48.368153" lon="-4.676627"><ele>40.6</ele></trkpt>
    <trkpt lat="48.368054" lon="-4.676990"><ele>40.6</ele></trkpt>
    <trkpt lat="48.367908" lon="-4.677322"><ele>40.0</ele></trkpt>
    <trkpt lat="48.367832" lon="-4.677393"><ele>39.6</ele></trkpt>
    <trkpt lat="48.367718" lon="-4.677392"><ele>39.0</ele></trkpt>
    <trkpt lat="48.367681" lon="-4.677445"><ele>38.4</ele></trkpt>
    <trkpt lat="48.367577" lon="-4.677714"><ele>34.0</ele></trkpt>
    <trkpt lat="48.367589" lon="-4.677986"><ele>30.8</ele></trkpt>
    <trkpt lat="48.367552" lon="-4.678160"><ele>29.8</ele></trkpt>
    <trkpt lat="48.367487" lon="-4.678307"><ele>29.8</ele></trkpt>
    <trkpt lat="48.367262" lon="-4.678521"><ele>31.2</ele></trkpt>
    <trkpt lat="48.367178" lon="-4.678689"><ele>32.0</ele></trkpt>
    <trkpt lat="48.367075" lon="-4.679091"><ele>33.8</ele></trkpt>
    <trkpt lat="48.367010" lon="-4.679548"><ele>35.8</ele></trkpt>
    <trkpt lat="48.366840" lon="-4.680220"><ele>37.4</ele></trkpt>
    <trkpt lat="48.366474" lon="-4.680992"><ele>39.6</ele></trkpt>
    <trkpt lat="48.366281" lon="-4.682085"><ele>46.4</ele></trkpt>
    <trkpt lat="48.366319" lon="-4.683390"><ele>51.6</ele></trkpt>
    <trkpt lat="48.366321" lon="-4.684664"><ele>50.2</ele></trkpt>
    <trkpt lat="48.366298" lon="-4.684900"><ele>50.0</ele></trkpt>
    <trkpt lat="48.366200" lon="-4.685330"><ele>49.8</ele></trkpt>
    <trkpt lat="48.365720" lon="-4.686266"><ele>52.6</ele></trkpt>
    <trkpt lat="48.365647" lon="-4.686499"><ele>52.8</ele></trkpt>
    <trkpt lat="48.365696" lon="-4.686634"><ele>53.0</ele></trkpt>
    <trkpt lat="48.365921" lon="-4.686827"><ele>54.4</ele></trkpt>
    <trkpt lat="48.366234" lon="-4.687463"><ele>57.8</ele></trkpt>
    <trkpt lat="48.366358" lon="-4.687648"><ele>58.6</ele></trkpt>
    <trkpt lat="48.366862" lon="-4.688703"><ele>62.4</ele></trkpt>
    <trkpt lat="48.367331" lon="-4.689543"><ele>64.2</ele></trkpt>
    <trkpt lat="48.367386" lon="-4.689697"><ele>64.6</ele></trkpt>
    <trkpt lat="48.367379" lon="-4.689798"><ele>64.8</ele></trkpt>
    <trkpt lat="48.366858" lon="-4.690900"><ele>64.2</ele></trkpt>
    <trkpt lat="48.366238" lon="-4.692339"><ele>63.6</ele></trkpt>
    <trkpt lat="48.365896" lon="-4.692477"><ele>63.0</ele></trkpt>
    <trkpt lat="48.364929" lon="-4.692990"><ele>61.2</ele></trkpt>
    <trkpt lat="48.364653" lon="-4.693038"><ele>60.0</ele></trkpt>
    <trkpt lat="48.364383" lon="-4.692972"><ele>58.2</ele></trkpt>
    <trkpt lat="48.363799" lon="-4.693631"><ele>58.2</ele></trkpt>
    <trkpt lat="48.363277" lon="-4.694688"><ele>57.8</ele></trkpt>
    <trkpt lat="48.363152" lon="-4.694876"><ele>57.2</ele></trkpt>
    <trkpt lat="48.362407" lon="-4.695346"><ele>52.4</ele></trkpt>
    <trkpt lat="48.361023" lon="-4.696344"><ele>44.4</ele></trkpt>
    <trkpt lat="48.360948" lon="-4.697431"><ele>42.2</ele></trkpt>
    <trkpt lat="48.360832" lon="-4.697988"><ele>41.6</ele></trkpt>
    <trkpt lat="48.360477" lon="-4.698673"><ele>41.4</ele></trkpt>
    <trkpt lat="48.360174" lon="-4.699094"><ele>41.4</ele></trkpt>
    <trkpt lat="48.359764" lon="-4.699757"><ele>41.0</ele></trkpt>
    <trkpt lat="48.359060" lon="-4.701058"><ele>42.8</ele></trkpt>
    <trkpt lat="48.358973" lon="-4.701388"><ele>43.2</ele></trkpt>
    <trkpt lat="48.358872" lon="-4.702191"><ele>44.4</ele></trkpt>
    <trkpt lat="48.358613" lon="-4.702986"><ele>46.2</ele></trkpt>
    <trkpt lat="48.358512" lon="-4.703103"><ele>46.6</ele></trkpt>
    <trkpt lat="48.357927" lon="-4.703412"><ele>48.2</ele></trkpt>
    <trkpt lat="48.357797" lon="-4.703589"><ele>48.8</ele></trkpt>
    <trkpt lat="48.357700" lon="-4.704032"><ele>49.6</ele></trkpt>
    <trkpt lat="48.357631" lon="-4.704824"><ele>50.2</ele></trkpt>
    <trkpt lat="48.357534" lon="-4.705382"><ele>51.2</ele></trkpt>
    <trkpt lat="48.357609" lon="-4.706293"><ele>52.0</ele></trkpt>
    <trkpt lat="48.357588" lon="-4.706574"><ele>51.4</ele></trkpt>
    <trkpt lat="48.357554" lon="-4.706582"><ele>51.2</ele></trkpt>
    <trkpt lat="48.357243" lon="-4.706316"><ele>51.0</ele></trkpt>
    <trkpt lat="48.356860" lon="-4.706216"><ele>51.4</ele></trkpt>
    <trkpt lat="48.356268" lon="-4.705820"><ele>51.6</ele></trkpt>
    <trkpt lat="48.355041" lon="-4.705309"><ele>47.2</ele></trkpt>
    <trkpt lat="48.354965" lon="-4.705339"><ele>47.0</ele></trkpt>
    <trkpt lat="48.354845" lon="-4.705515"><ele>47.0</ele></trkpt>
    <trkpt lat="48.354620" lon="-4.706250"><ele>47.8</ele></trkpt>
    <trkpt lat="48.354562" lon="-4.706385"><ele>47.6</ele></trkpt>
    <trkpt lat="48.354515" lon="-4.706417"><ele>47.4</ele></trkpt>
    <trkpt lat="48.354109" lon="-4.706098"><ele>45.8</ele></trkpt>
    <trkpt lat="48.353735" lon="-4.705719"><ele>42.0</ele></trkpt>
    <trkpt lat="48.352966" lon="-4.705209"><ele>31.4</ele></trkpt>
    <trkpt lat="48.352929" lon="-4.705668"><ele>35.4</ele></trkpt>
    <trkpt lat="48.352817" lon="-4.706108"><ele>37.2</ele></trkpt>
    <trkpt lat="48.352496" lon="-4.706872"><ele>36.0</ele></trkpt>
    <trkpt lat="48.352187" lon="-4.707446"><ele>34.4</ele></trkpt>
    <trkpt lat="48.351917" lon="-4.707858"><ele>32.0</ele></trkpt>
    <trkpt lat="48.351414" lon="-4.708254"><ele>28.6</ele></trkpt>
    <trkpt lat="48.351102" lon="-4.708669"><ele>27.6</ele></trkpt>
    <trkpt lat="48.350024" lon="-4.709408"><ele>22.4</ele></trkpt>
    <trkpt lat="48.349806" lon="-4.709663"><ele>21.4</ele></trkpt>
    <trkpt lat="48.349627" lon="-4.709710"><ele>20.6</ele></trkpt>
    <trkpt lat="48.349440" lon="-4.709672"><ele>19.2</ele></trkpt>
    <trkpt lat="48.349387" lon="-4.709598"><ele>18.6</ele></trkpt>
    <trkpt lat="48.349345" lon="-4.709394"><ele>17.4</ele></trkpt>
    <trkpt lat="48.349291" lon="-4.709320"><ele>16.8</ele></trkpt>
    <trkpt lat="48.348691" lon="-4.708958"><ele>12.4</ele></trkpt>
    <trkpt lat="48.348466" lon="-4.708679"><ele>11.0</ele></trkpt>
    <trkpt lat="48.348319" lon="-4.708066"><ele>9.6</ele></trkpt>
    <trkpt lat="48.347953" lon="-4.707232"><ele>7.6</ele></trkpt>
    <trkpt lat="48.347557" lon="-4.706145"><ele>6.4</ele></trkpt>
    <trkpt lat="48.347430" lon="-4.705667"><ele>6.2</ele></trkpt>
    <trkpt lat="48.347234" lon="-4.705183"><ele>6.2</ele></trkpt>
    <trkpt lat="48.347236" lon="-4.704922"><ele>6.4</ele></trkpt>
    <trkpt lat="48.347084" lon="-4.704374"><ele>7.0</ele></trkpt>
    <trkpt lat="48.347083" lon="-4.704251"><ele>7.0</ele></trkpt>
    <trkpt lat="48.347120" lon="-4.704181"><ele>7.2</ele></trkpt>
    <trkpt lat="48.347254" lon="-4.704095"><ele>7.4</ele></trkpt>
    <trkpt lat="48.347256" lon="-4.703887"><ele>7.6</ele></trkpt>
    <trkpt lat="48.347392" lon="-4.703726"><ele>7.6</ele></trkpt>
    <trkpt lat="48.347409" lon="-4.703556"><ele>7.6</ele></trkpt>
    <trkpt lat="48.347597" lon="-4.703055"><ele>5.6</ele></trkpt>
    <trkpt lat="48.347801" lon="-4.702689"><ele>4.4</ele></trkpt>
    <trkpt lat="48.348786" lon="-4.701834"><ele>3.2</ele></trkpt>
    <trkpt lat="48.349303" lon="-4.701261"><ele>3.2</ele></trkpt>
    <trkpt lat="48.349935" lon="-4.700794"><ele>3.4</ele></trkpt>
    <trkpt lat="48.350182" lon="-4.700457"><ele>3.4</ele></trkpt>
    <trkpt lat="48.351265" lon="-4.698395"><ele>3.0</ele></trkpt>
    <trkpt lat="48.351914" lon="-4.697049"><ele>2.6</ele></trkpt>
    <trkpt lat="48.352009" lon="-4.696787"><ele>2.6</ele></trkpt>
    <trkpt lat="48.352242" lon="-4.696532"><ele>2.8</ele></trkpt>
    <trkpt lat="48.352323" lon="-4.696163"><ele>2.8</ele></trkpt>
    <trkpt lat="48.352634" lon="-4.695795"><ele>3.6</ele></trkpt>
    <trkpt lat="48.353176" lon="-4.695379"><ele>10.2</ele></trkpt>
    <trkpt lat="48.353525" lon="-4.694855"><ele>16.0</ele></trkpt>
    <trkpt lat="48.353624" lon="-4.694354"><ele>15.6</ele></trkpt>
    <trkpt lat="48.353625" lon="-4.693410"><ele>18.8</ele></trkpt>
    <trkpt lat="48.353650" lon="-4.693204"><ele>19.2</ele></trkpt>
    <trkpt lat="48.353741" lon="-4.692642"><ele>19.8</ele></trkpt>
    <trkpt lat="48.353894" lon="-4.692289"><ele>19.6</ele></trkpt>
    <trkpt lat="48.353968" lon="-4.692186"><ele>19.4</ele></trkpt>
    <trkpt lat="48.354104" lon="-4.692089"><ele>19.4</ele></trkpt>
    <trkpt lat="48.354480" lon="-4.691909"><ele>22.0</ele></trkpt>
    <trkpt lat="48.354608" lon="-4.691711"><ele>21.8</ele></trkpt>
    <trkpt lat="48.354636" lon="-4.691600"><ele>20.4</ele></trkpt>
    <trkpt lat="48.354926" lon="-4.691261"><ele>14.8</ele></trkpt>
    <trkpt lat="48.354957" lon="-4.691144"><ele>12.8</ele></trkpt>
    <trkpt lat="48.354894" lon="-4.691047"><ele>11.4</ele></trkpt>
    <trkpt lat="48.354923" lon="-4.690660"><ele>9.0</ele></trkpt>
    <trkpt lat="48.354900" lon="-4.690398"><ele>7.8</ele></trkpt>
    <trkpt lat="48.354853" lon="-4.690264"><ele>7.8</ele></trkpt>
    <trkpt lat="48.354676" lon="-4.689988"><ele>8.8</ele></trkpt>
    <trkpt lat="48.354623" lon="-4.689715"><ele>10.4</ele></trkpt>
    <trkpt lat="48.354651" lon="-4.689570"><ele>11.4</ele></trkpt>
    <trkpt lat="48.354831" lon="-4.689365"><ele>14.0</ele></trkpt>
    <trkpt lat="48.354882" lon="-4.689214"><ele>15.0</ele></trkpt>
    <trkpt lat="48.354778" lon="-4.688860"><ele>16.8</ele></trkpt>
    <trkpt lat="48.354808" lon="-4.688150"><ele>20.2</ele></trkpt>
    <trkpt lat="48.354549" lon="-4.687197"><ele>22.6</ele></trkpt>
    <trkpt lat="48.354645" lon="-4.685418"><ele>30.4</ele></trkpt>
    <trkpt lat="48.354552" lon="-4.685194"><ele>32.6</ele></trkpt>
    <trkpt lat="48.353972" lon="-4.685230"><ele>23.6</ele></trkpt>
    <trkpt lat="48.353771" lon="-4.685109"><ele>21.0</ele></trkpt>
    <trkpt lat="48.353718" lon="-4.685017"><ele>20.0</ele></trkpt>
    <trkpt lat="48.353632" lon="-4.684661"><ele>17.8</ele></trkpt>
    <trkpt lat="48.353780" lon="-4.684282"><ele>17.6</ele></trkpt>
    <trkpt lat="48.353892" lon="-4.684193"><ele>18.0</ele></trkpt>
    <trkpt lat="48.353948" lon="-4.684070"><ele>18.4</ele></trkpt>
    <trkpt lat="48.353966" lon="-4.683948"><ele>18.6</ele></trkpt>
    <trkpt lat="48.353936" lon="-4.683558"><ele>16.8</ele></trkpt>
    <trkpt lat="48.354029" lon="-4.683128"><ele>16.0</ele></trkpt>
    <trkpt lat="48.354118" lon="-4.682979"><ele>16.4</ele></trkpt>
    <trkpt lat="48.354384" lon="-4.682813"><ele>19.6</ele></trkpt>
    <trkpt lat="48.354420" lon="-4.682699"><ele>20.6</ele></trkpt>
    <trkpt lat="48.354422" lon="-4.682444"><ele>20.8</ele></trkpt>
    <trkpt lat="48.354569" lon="-4.682327"><ele>20.6</ele></trkpt>
    <trkpt lat="48.354712" lon="-4.682143"><ele>21.2</ele></trkpt>
    <trkpt lat="48.354802" lon="-4.682173"><ele>21.2</ele></trkpt>
    <trkpt lat="48.355003" lon="-4.682337"><ele>23.6</ele></trkpt>
    <trkpt lat="48.355118" lon="-4.682288"><ele>24.2</ele></trkpt>
    <trkpt lat="48.355328" lon="-4.682018"><ele>23.4</ele></trkpt>
    <trkpt lat="48.355371" lon="-4.681700"><ele>21.8</ele></trkpt>
    <trkpt lat="48.355440" lon="-4.681518"><ele>20.6</ele></trkpt>
    <trkpt lat="48.355811" lon="-4.681133"><ele>18.2</ele></trkpt>
    <trkpt lat="48.356041" lon="-4.680805"><ele>14.6</ele></trkpt>
    <trkpt lat="48.356067" lon="-4.680697"><ele>13.0</ele></trkpt>
    <trkpt lat="48.356053" lon="-4.680532"><ele>11.0</ele></trkpt>
    <trkpt lat="48.356106" lon="-4.680269"><ele>8.8</ele></trkpt>
    <trkpt lat="48.356245" lon="-4.680000"><ele>9.0</ele></trkpt>
    <trkpt lat="48.356289" lon="-4.679838"><ele>10.0</ele></trkpt>
    <trkpt lat="48.356307" lon="-4.679376"><ele>8.4</ele></trkpt>
    <trkpt lat="48.356268" lon="-4.679063"><ele>7.2</ele></trkpt>
    <trkpt lat="48.356217" lon="-4.678913"><ele>7.4</ele></trkpt>
    <trkpt lat="48.356106" lon="-4.678840"><ele>7.2</ele></trkpt>
    <trkpt lat="48.355985" lon="-4.678848"><ele>5.6</ele></trkpt>
    <trkpt lat="48.355847" lon="-4.678635"><ele>11.0</ele></trkpt>
    <trkpt lat="48.355763" lon="-4.678412"><ele>10.4</ele></trkpt>
    <trkpt lat="48.355458" lon="-4.678172"><ele>14.2</ele></trkpt>
    <trkpt lat="48.355320" lon="-4.677929"><ele>16.6</ele></trkpt>
    <trkpt lat="48.355185" lon="-4.677572"><ele>18.6</ele></trkpt>
    <trkpt lat="48.355153" lon="-4.677364"><ele>19.2</ele></trkpt>
    <trkpt lat="48.355149" lon="-4.676900"><ele>19.2</ele></trkpt>
    <trkpt lat="48.355045" lon="-4.676483"><ele>17.4</ele></trkpt>
    <trkpt lat="48.354890" lon="-4.676102"><ele>14.8</ele></trkpt>
    <trkpt lat="48.354733" lon="-4.674881"><ele>9.8</ele></trkpt>
    <trkpt lat="48.354642" lon="-4.673533"><ele>9.4</ele></trkpt>
    <trkpt lat="48.354483" lon="-4.672938"><ele>10.8</ele></trkpt>
    <trkpt lat="48.354269" lon="-4.672458"><ele>12.0</ele></trkpt>
    <trkpt lat="48.353900" lon="-4.672231"><ele>12.6</ele></trkpt>
    <trkpt lat="48.353708" lon="-4.671940"><ele>12.4</ele></trkpt>
    <trkpt lat="48.353532" lon="-4.671417"><ele>13.2</ele></trkpt>
    <trkpt lat="48.353503" lon="-4.670989"><ele>15.2</ele></trkpt>
    <trkpt lat="48.353319" lon="-4.670666"><ele>15.8</ele></trkpt>
    <trkpt lat="48.352943" lon="-4.669832"><ele>13.8</ele></trkpt>
    <trkpt lat="48.352749" lon="-4.669075"><ele>13.4</ele></trkpt>
    <trkpt lat="48.352751" lon="-4.668492"><ele>13.6</ele></trkpt>
    <trkpt lat="48.352792" lon="-4.668117"><ele>13.8</ele></trkpt>
    <trkpt lat="48.353052" lon="-4.667865"><ele>14.4</ele></trkpt>
    <trkpt lat="48.353140" lon="-4.667638"><ele>15.0</ele></trkpt>
    <trkpt lat="48.353202" lon="-4.666136"><ele>18.4</ele></trkpt>
    <trkpt lat="48.353341" lon="-4.664704"><ele>32.6</ele></trkpt>
    <trkpt lat="48.353463" lon="-4.664147"><ele>34.8</ele></trkpt>
    <trkpt lat="48.353953" lon="-4.662757"><ele>34.8</ele></trkpt>
    <trkpt lat="48.353740" lon="-4.662666"><ele>39.6</ele></trkpt>
    <trkpt lat="48.353264" lon="-4.662743"><ele>37.6</ele></trkpt>
    <trkpt lat="48.352524" lon="-4.662772"><ele>31.4</ele></trkpt>
    <trkpt lat="48.351768" lon="-4.662641"><ele>29.6</ele></trkpt>
    <trkpt lat="48.351681" lon="-4.662573"><ele>29.2</ele></trkpt>
    <trkpt lat="48.351542" lon="-4.662269"><ele>29.2</ele></trkpt>
    <trkpt lat="48.351281" lon="-4.661950"><ele>28.0</ele></trkpt>
    <trkpt lat="48.351110" lon="-4.661483"><ele>28.2</ele></trkpt>
    <trkpt lat="48.350953" lon="-4.661489"><ele>26.4</ele></trkpt>
    <trkpt lat="48.350940" lon="-4.661388"><ele>25.2</ele></trkpt>
    <trkpt lat="48.350979" lon="-4.661019"><ele>24.6</ele></trkpt>
    <trkpt lat="48.351031" lon="-4.660792"><ele>24.4</ele></trkpt>
    <trkpt lat="48.350807" lon="-4.660386"><ele>21.8</ele></trkpt>
    <trkpt lat="48.350772" lon="-4.660062"><ele>21.2</ele></trkpt>
    <trkpt lat="48.350437" lon="-4.659503"><ele>19.4</ele></trkpt>
    <trkpt lat="48.350497" lon="-4.659152"><ele>20.6</ele></trkpt>
    <trkpt lat="48.350414" lon="-4.658851"><ele>22.6</ele></trkpt>
    <trkpt lat="48.350227" lon="-4.658426"><ele>24.2</ele></trkpt>
    <trkpt lat="48.349976" lon="-4.658125"><ele>25.8</ele></trkpt>
    <trkpt lat="48.349816" lon="-4.658013"><ele>27.2</ele></trkpt>
    <trkpt lat="48.349680" lon="-4.657738"><ele>27.4</ele></trkpt>
    <trkpt lat="48.349505" lon="-4.657570"><ele>28.2</ele></trkpt>
    <trkpt lat="48.349347" lon="-4.656711"><ele>37.2</ele></trkpt>
    <trkpt lat="48.349232" lon="-4.656477"><ele>38.2</ele></trkpt>
    <trkpt lat="48.348965" lon="-4.656351"><ele>38.0</ele></trkpt>
    <trkpt lat="48.348895" lon="-4.656201"><ele>36.6</ele></trkpt>
    <trkpt lat="48.348886" lon="-4.655805"><ele>34.4</ele></trkpt>
    <trkpt lat="48.348979" lon="-4.655476"><ele>33.8</ele></trkpt>
    <trkpt lat="48.348982" lon="-4.655213"><ele>32.0</ele></trkpt>
    <trkpt lat="48.348837" lon="-4.654851"><ele>28.8</ele></trkpt>
    <trkpt lat="48.348706" lon="-4.654728"><ele>32.0</ele></trkpt>
    <trkpt lat="48.348623" lon="-4.654560"><ele>34.6</ele></trkpt>
    <trkpt lat="48.348458" lon="-4.654014"><ele>35.0</ele></trkpt>
    <trkpt lat="48.348229" lon="-4.653630"><ele>43.4</ele></trkpt>
    <trkpt lat="48.348366" lon="-4.653430"><ele>43.0</ele></trkpt>
    <trkpt lat="48.348340" lon="-4.653185"><ele>44.2</ele></trkpt>
    <trkpt lat="48.348511" lon="-4.652885"><ele>46.2</ele></trkpt>
    <trkpt lat="48.348466" lon="-4.652738"><ele>47.4</ele></trkpt>
    <trkpt lat="48.348543" lon="-4.652448"><ele>48.4</ele></trkpt>
    <trkpt lat="48.348622" lon="-4.652224"><ele>48.8</ele></trkpt>
    <trkpt lat="48.349372" lon="-4.652296"><ele>47.8</ele></trkpt>
    <trkpt lat="48.349657" lon="-4.652562"><ele>47.6</ele></trkpt>
    <trkpt lat="48.349887" lon="-4.652887"><ele>46.2</ele></trkpt>
    <trkpt lat="48.349979" lon="-4.652956"><ele>46.2</ele></trkpt>
    <trkpt lat="48.350064" lon="-4.652950"><ele>46.4</ele></trkpt>
    <trkpt lat="48.350188" lon="-4.652817"><ele>47.0</ele></trkpt>
    <trkpt lat="48.350851" lon="-4.651758"><ele>52.0</ele></trkpt>
    <trkpt lat="48.351184" lon="-4.651321"><ele>54.2</ele></trkpt>
    <trkpt lat="48.351382" lon="-4.650882"><ele>55.4</ele></trkpt>
    <trkpt lat="48.351962" lon="-4.650290"><ele>58.8</ele></trkpt>
    <trkpt lat="48.352584" lon="-4.649841"><ele>62.8</ele></trkpt>
    <trkpt lat="48.352888" lon="-4.649423"><ele>65.2</ele></trkpt>
    <trkpt lat="48.353047" lon="-4.649036"><ele>67.0</ele></trkpt>
    <trkpt lat="48.353087" lon="-4.648830"><ele>67.6</ele></trkpt>
    <trkpt lat="48.353084" lon="-4.648423"><ele>68.6</ele></trkpt>
    <trkpt lat="48.353255" lon="-4.647920"><ele>69.6</ele></trkpt>
    <trkpt lat="48.353307" lon="-4.647543"><ele>70.4</ele></trkpt>
    <trkpt lat="48.353473" lon="-4.647100"><ele>71.8</ele></trkpt>
    <trkpt lat="48.353636" lon="-4.646467"><ele>73.2</ele></trkpt>
    <trkpt lat="48.353728" lon="-4.645831"><ele>70.2</ele></trkpt>
    <trkpt lat="48.353898" lon="-4.645740"><ele>76.6</ele></trkpt>
    <trkpt lat="48.354367" lon="-4.645929"><ele>75.0</ele></trkpt>
    <trkpt lat="48.354561" lon="-4.645933"><ele>75.2</ele></trkpt>
    <trkpt lat="48.354745" lon="-4.645873"><ele>75.2</ele></trkpt>
    <trkpt lat="48.355932" lon="-4.645223"><ele>79.0</ele></trkpt>
    <trkpt lat="48.356096" lon="-4.645068"><ele>79.6</ele></trkpt>
    <trkpt lat="48.356464" lon="-4.644605"><ele>80.2</ele></trkpt>
    <trkpt lat="48.356693" lon="-4.644436"><ele>80.4</ele></trkpt>
    <trkpt lat="48.356868" lon="-4.644427"><ele>80.4</ele></trkpt>
    <trkpt lat="48.357304" lon="-4.644626"><ele>79.8</ele></trkpt>
    <trkpt lat="48.357652" lon="-4.644608"><ele>79.4</ele></trkpt>
    <trkpt lat="48.358128" lon="-4.643760"><ele>77.8</ele></trkpt>
    <trkpt lat="48.358501" lon="-4.643351"><ele>76.0</ele></trkpt>
    <trkpt lat="48.358616" lon="-4.643290"><ele>75.4</ele></trkpt>
    <trkpt lat="48.358841" lon="-4.643368"><ele>74.2</ele></trkpt>
    <trkpt lat="48.358942" lon="-4.643360"><ele>73.8</ele></trkpt>
    <trkpt lat="48.359114" lon="-4.643160"><ele>73.8</ele></trkpt>
    <trkpt lat="48.359255" lon="-4.643066"><ele>73.4</ele></trkpt>
    <trkpt lat="48.359764" lon="-4.642912"><ele>72.2</ele></trkpt>
    <trkpt lat="48.360084" lon="-4.642717"><ele>71.6</ele></trkpt>
    <trkpt lat="48.360249" lon="-4.642585"><ele>71.8</ele></trkpt>
    <trkpt lat="48.360397" lon="-4.642404"><ele>71.8</ele></trkpt>
    <trkpt lat="48.360791" lon="-4.641821"><ele>72.0</ele></trkpt>
    <trkpt lat="48.361066" lon="-4.641608"><ele>72.2</ele></trkpt>
    <trkpt lat="48.361470" lon="-4.641468"><ele>72.4</ele></trkpt>
    <trkpt lat="48.362574" lon="-4.641256"><ele>70.8</ele></trkpt>
    <trkpt lat="48.364633" lon="-4.641466"><ele>67.2</ele></trkpt>
    <trkpt lat="48.364952" lon="-4.641561"><ele>67.0</ele></trkpt>
    <trkpt lat="48.365644" lon="-4.642054"><ele>68.0</ele></trkpt>
    <trkpt lat="48.365952" lon="-4.642131"><ele>68.4</ele></trkpt>
    <trkpt lat="48.366188" lon="-4.642359"><ele>68.8</ele></trkpt>
    <trkpt lat="48.366392" lon="-4.642293"><ele>69.2</ele></trkpt>
    <trkpt lat="48.366545" lon="-4.642324"><ele>69.4</ele></trkpt>
    <trkpt lat="48.368117" lon="-4.642893"><ele>69.2</ele></trkpt>
    <trkpt lat="48.369487" lon="-4.642975"><ele>59.2</ele></trkpt>
    <trkpt lat="48.369532" lon="-4.642968"><ele>58.0</ele></trkpt>
    <trkpt lat="48.369666" lon="-4.642617"><ele>62.2</ele></trkpt>
    <trkpt lat="48.369820" lon="-4.641889"><ele>59.2</ele></trkpt>
    <trkpt lat="48.370195" lon="-4.640630"><ele>58.8</ele></trkpt>
  </trkseg></trk>
</gpx>
